{
  "SYD": {
    "raw": "METAR YSSY 010300Z AUTO 29006KT 270V330 9999 // NCD 18/04 Q1013",
    "icao": "YSSY",
    "flightCategory": "VFR",
    "windDir": 290,
    "windSpeed": 6,
    "windGust": null,
    "visibility": 6,
    "ceiling": null,
    "temp": 18,
    "dewpoint": 4,
    "altimeter": 29.91,
    "conditions": "",
    "observationTime": "2026-06-01T03:00:00.000Z"
  },
  "LHR": {
    "raw": "METAR EGLL 010320Z AUTO 25005KT 9999 NCD 14/10 Q1017",
    "icao": "EGLL",
    "flightCategory": "VFR",
    "windDir": 250,
    "windSpeed": 5,
    "windGust": null,
    "visibility": 6,
    "ceiling": null,
    "temp": 14,
    "dewpoint": 10,
    "altimeter": 30.03,
    "conditions": "",
    "observationTime": "2026-06-01T03:20:00.000Z"
  },
  "LAS": {
    "raw": "METAR KLAS 010256Z 11005KT 10SM CLR 33/M03 A2981 RMK AO2 SLP067 T03281033 55005",
    "icao": "KLAS",
    "flightCategory": "VFR",
    "windDir": 110,
    "windSpeed": 5,
    "windGust": null,
    "visibility": 10,
    "ceiling": null,
    "temp": 32.8,
    "dewpoint": -3.3,
    "altimeter": 29.81,
    "conditions": "",
    "observationTime": "2026-06-01T03:00:00.000Z"
  },
  "LAX": {
    "raw": "METAR KLAX 010253Z 25006KT 10SM CLR 18/14 A2986 RMK AO2 SLP110 T01780144 56007 $",
    "icao": "KLAX",
    "flightCategory": "VFR",
    "windDir": 250,
    "windSpeed": 6,
    "windGust": null,
    "visibility": 10,
    "ceiling": null,
    "temp": 17.8,
    "dewpoint": 14.4,
    "altimeter": 29.86,
    "conditions": "",
    "observationTime": "2026-06-01T03:00:00.000Z"
  },
  "ORD": {
    "raw": "METAR KORD 010251Z 06010KT 10SM BKN120 BKN200 OVC250 16/05 A3002 RMK AO2 SLP164 T01560050 53009 $",
    "icao": "KORD",
    "flightCategory": "VFR",
    "windDir": 60,
    "windSpeed": 10,
    "windGust": null,
    "visibility": 10,
    "ceiling": 12000,
    "temp": 15.6,
    "dewpoint": 5,
    "altimeter": 30.02,
    "conditions": "",
    "observationTime": "2026-06-01T03:00:00.000Z"
  }
}