{
  "ORD": {
    "raw": "METAR KORD 211051Z 34003KT 10SM FEW065 BKN250 16/13 A2995 RMK AO2 SLP138 T01610128 $",
    "icao": "KORD",
    "flightCategory": "VFR",
    "windDir": 340,
    "windSpeed": 3,
    "windGust": null,
    "visibility": 10,
    "ceiling": 25000,
    "temp": 16.1,
    "dewpoint": 12.8,
    "altimeter": 29.95,
    "conditions": "",
    "observationTime": "2026-06-21T11:00:00.000Z"
  },
  "LHR": {
    "raw": "METAR EGLL 211020Z AUTO VRB02KT 9999 FEW041 26/16 Q1025",
    "icao": "EGLL",
    "flightCategory": "VFR",
    "windDir": null,
    "windSpeed": 2,
    "windGust": null,
    "visibility": 6,
    "ceiling": null,
    "temp": 26,
    "dewpoint": 16,
    "altimeter": 30.27,
    "conditions": "",
    "observationTime": "2026-06-21T10:20:00.000Z"
  },
  "SYD": {
    "raw": "METAR YSSY 211030Z AUTO 21008KT 9999 // SCT069 15/10 Q1027",
    "icao": "YSSY",
    "flightCategory": "VFR",
    "windDir": 210,
    "windSpeed": 8,
    "windGust": null,
    "visibility": 6,
    "ceiling": null,
    "temp": 15,
    "dewpoint": 10,
    "altimeter": 30.33,
    "conditions": "",
    "observationTime": "2026-06-21T10:30:00.000Z"
  }
}