{
  "SYD": {
    "raw": "METAR YSSY 141700Z AUTO 30006KT 9999 // NCD 15/11 Q1018",
    "icao": "YSSY",
    "flightCategory": "VFR",
    "windDir": 300,
    "windSpeed": 6,
    "windGust": null,
    "visibility": 6,
    "ceiling": null,
    "temp": 15,
    "dewpoint": 11,
    "altimeter": 30.06,
    "conditions": "",
    "observationTime": "2026-04-14T17:00:00.000Z"
  },
  "LHR": {
    "raw": "METAR EGLL 141650Z COR AUTO 17014KT 9999 OVC026 13/07 Q1017 NOSIG",
    "icao": "EGLL",
    "flightCategory": "MVFR",
    "windDir": 170,
    "windSpeed": 14,
    "windGust": null,
    "visibility": 6,
    "ceiling": 2600,
    "temp": 13,
    "dewpoint": 7,
    "altimeter": 30.03,
    "conditions": "",
    "observationTime": "2026-04-14T17:00:00.000Z"
  },
  "LAS": {
    "raw": "METAR KLAS 141656Z VRB04KT 10SM FEW090 18/01 A3004 RMK AO2 SLP163 T01780006",
    "icao": "KLAS",
    "flightCategory": "VFR",
    "windDir": null,
    "windSpeed": 4,
    "windGust": null,
    "visibility": 10,
    "ceiling": null,
    "temp": 17.8,
    "dewpoint": 0.6,
    "altimeter": 30.04,
    "conditions": "",
    "observationTime": "2026-04-14T17:00:00.000Z"
  },
  "LAX": {
    "raw": "METAR KLAX 141653Z 11003KT 10SM FEW018 FEW027 18/09 A3012 RMK AO2 SLP197 T01830089",
    "icao": "KLAX",
    "flightCategory": "VFR",
    "windDir": 110,
    "windSpeed": 3,
    "windGust": null,
    "visibility": 10,
    "ceiling": null,
    "temp": 18.3,
    "dewpoint": 8.9,
    "altimeter": 30.12,
    "conditions": "",
    "observationTime": "2026-04-14T17:00:00.000Z"
  },
  "ORD": {
    "raw": "METAR KORD 141651Z 21011KT 10SM BKN034 BKN230 24/16 A2982 RMK AO2 SLP092 T02390161",
    "icao": "KORD",
    "flightCategory": "VFR",
    "windDir": 210,
    "windSpeed": 11,
    "windGust": null,
    "visibility": 10,
    "ceiling": 3400,
    "temp": 23.9,
    "dewpoint": 16.1,
    "altimeter": 29.82,
    "conditions": "",
    "observationTime": "2026-04-14T17:00:00.000Z"
  }
}