{
  "SYD": {
    "raw": "METAR YSSY 020300Z 05011KT 9999 FEW040 26/15 Q1022",
    "icao": "YSSY",
    "flightCategory": "VFR",
    "windDir": 50,
    "windSpeed": 11,
    "windGust": null,
    "visibility": 6,
    "ceiling": null,
    "temp": 26,
    "dewpoint": 15,
    "altimeter": 30.18,
    "conditions": "",
    "observationTime": "2026-04-02T03:00:00.000Z"
  },
  "LHR": {
    "raw": "METAR EGLL 020250Z COR AUTO 34008KT 290V020 9999 FEW020 BKN032 09/01 Q1020 NOSIG",
    "icao": "EGLL",
    "flightCategory": "VFR",
    "windDir": 340,
    "windSpeed": 8,
    "windGust": null,
    "visibility": 6,
    "ceiling": 3200,
    "temp": 9,
    "dewpoint": 1,
    "altimeter": 30.12,
    "conditions": "",
    "observationTime": "2026-04-02T03:00:00.000Z"
  },
  "LAS": {
    "raw": "METAR KLAS 020256Z 22011G18KT 10SM FEW080 FEW250 22/01 A2976 RMK AO2 SLP061 T02220006 57003",
    "icao": "KLAS",
    "flightCategory": "VFR",
    "windDir": 220,
    "windSpeed": 11,
    "windGust": 18,
    "visibility": 10,
    "ceiling": null,
    "temp": 22.2,
    "dewpoint": 0.6,
    "altimeter": 29.76,
    "conditions": "",
    "observationTime": "2026-04-02T03:00:00.000Z"
  },
  "LAX": {
    "raw": "METAR KLAX 020253Z 25013KT 10SM FEW015 FEW050 SCT250 17/13 A2997 RMK AO2 SLP149 T01670133 53005 $",
    "icao": "KLAX",
    "flightCategory": "VFR",
    "windDir": 250,
    "windSpeed": 13,
    "windGust": null,
    "visibility": 10,
    "ceiling": null,
    "temp": 16.7,
    "dewpoint": 13.3,
    "altimeter": 29.97,
    "conditions": "",
    "observationTime": "2026-04-02T03:00:00.000Z"
  },
  "ORD": {
    "raw": "METAR KORD 020251Z 07013G19KT 10SM OVC023 04/00 A3012 RMK AO2 SLP204 T00440000 58013",
    "icao": "KORD",
    "flightCategory": "MVFR",
    "windDir": 70,
    "windSpeed": 13,
    "windGust": 19,
    "visibility": 10,
    "ceiling": 2300,
    "temp": 4.4,
    "dewpoint": 0,
    "altimeter": 30.12,
    "conditions": "",
    "observationTime": "2026-04-02T03:00:00.000Z"
  }
}