{
  "LHR": {
    "raw": "METAR EGLL 150450Z COR AUTO 18008KT 9999 BKN008 12/11 Q1016 NOSIG",
    "icao": "EGLL",
    "flightCategory": "IFR",
    "windDir": 180,
    "windSpeed": 8,
    "windGust": null,
    "visibility": 6,
    "ceiling": 800,
    "temp": 12,
    "dewpoint": 11,
    "altimeter": 30,
    "conditions": "",
    "observationTime": "2026-04-15T05:00:00.000Z"
  },
  "ORD": {
    "raw": "SPECI KORD 150444Z VRB03KT 7SM -TSRA FEW019 BKN036CB OVC046 18/17 A2974 RMK AO2 PK WND 32026/0401 GRE0354 FRQ LTGICCCCG ALQDS TS ALQDS MOV E P0071 T01780167",
    "icao": "KORD",
    "flightCategory": "VFR",
    "windDir": null,
    "windSpeed": 3,
    "windGust": null,
    "visibility": 7,
    "ceiling": 3600,
    "temp": 17.8,
    "dewpoint": 16.7,
    "altimeter": 29.74,
    "conditions": "-TSRA",
    "observationTime": "2026-04-15T04:44:00.000Z"
  },
  "SYD": {
    "raw": "METAR YSSY 150500Z 14009KT CAVOK 23/12 Q1017",
    "icao": "YSSY",
    "flightCategory": "VFR",
    "windDir": 140,
    "windSpeed": 9,
    "windGust": null,
    "visibility": 6,
    "ceiling": null,
    "temp": 23,
    "dewpoint": 12,
    "altimeter": 30.03,
    "conditions": "",
    "observationTime": "2026-04-15T05:00:00.000Z"
  },
  "LAS": {
    "raw": "METAR KLAS 150456Z 21006KT 10SM CLR 19/M08 A2997 RMK AO2 SLP135 T01941078",
    "icao": "KLAS",
    "flightCategory": "VFR",
    "windDir": 210,
    "windSpeed": 6,
    "windGust": null,
    "visibility": 10,
    "ceiling": null,
    "temp": 19.4,
    "dewpoint": -7.8,
    "altimeter": 29.97,
    "conditions": "",
    "observationTime": "2026-04-15T05:00:00.000Z"
  },
  "LAX": {
    "raw": "METAR KLAX 150453Z 25010KT 10SM CLR 16/13 A3004 RMK AO2 SLP170 T01610128",
    "icao": "KLAX",
    "flightCategory": "VFR",
    "windDir": 250,
    "windSpeed": 10,
    "windGust": null,
    "visibility": 10,
    "ceiling": null,
    "temp": 16.1,
    "dewpoint": 12.8,
    "altimeter": 30.04,
    "conditions": "",
    "observationTime": "2026-04-15T05:00:00.000Z"
  }
}