{
  "SYD": {
    "raw": "METAR YSSY 080030Z 09002KT 9999 SCT022 22/19 Q1015",
    "icao": "YSSY",
    "flightCategory": "VFR",
    "windDir": 90,
    "windSpeed": 2,
    "windGust": null,
    "visibility": 6,
    "ceiling": null,
    "temp": 22,
    "dewpoint": 19,
    "altimeter": 29.97,
    "conditions": "",
    "observationTime": "2026-04-08T00:30:00.000Z"
  },
  "LAS": {
    "raw": "METAR KLAS 080056Z 17008KT 10SM FEW250 32/M09 A2983 RMK AO2 SLP079 T03171089",
    "icao": "KLAS",
    "flightCategory": "VFR",
    "windDir": 170,
    "windSpeed": 8,
    "windGust": null,
    "visibility": 10,
    "ceiling": null,
    "temp": 31.7,
    "dewpoint": -8.9,
    "altimeter": 29.83,
    "conditions": "",
    "observationTime": "2026-04-08T01:00:00.000Z"
  },
  "LAX": {
    "raw": "METAR KLAX 080053Z 27009KT 10SM FEW015 19/14 A2990 RMK AO2 SLP125 T01890139 $",
    "icao": "KLAX",
    "flightCategory": "VFR",
    "windDir": 270,
    "windSpeed": 9,
    "windGust": null,
    "visibility": 10,
    "ceiling": null,
    "temp": 18.9,
    "dewpoint": 13.9,
    "altimeter": 29.9,
    "conditions": "",
    "observationTime": "2026-04-08T01:00:00.000Z"
  },
  "ORD": {
    "raw": "METAR KORD 080051Z 07007KT 10SM FEW100 OVC250 01/M07 A3040 RMK AO2 SLP301 T00061072 $",
    "icao": "KORD",
    "flightCategory": "VFR",
    "windDir": 70,
    "windSpeed": 7,
    "windGust": null,
    "visibility": 10,
    "ceiling": 25000,
    "temp": 0.6,
    "dewpoint": -7.2,
    "altimeter": 30.4,
    "conditions": "",
    "observationTime": "2026-04-08T01:00:00.000Z"
  },
  "LHR": {
    "raw": "METAR EGLL 080020Z COR AUTO 04004KT 9999 NCD 10/06 Q1022 NOSIG",
    "icao": "EGLL",
    "flightCategory": "VFR",
    "windDir": 40,
    "windSpeed": 4,
    "windGust": null,
    "visibility": 6,
    "ceiling": null,
    "temp": 10,
    "dewpoint": 6,
    "altimeter": 30.18,
    "conditions": "",
    "observationTime": "2026-04-08T00:20:00.000Z"
  }
}