{
  "LAX": {
    "raw": "METAR KLAX 151653Z 25009KT 10SM BKN009 19/16 A3003 RMK AO2 SLP167 T01940156 $",
    "icao": "KLAX",
    "flightCategory": "IFR",
    "windDir": 250,
    "windSpeed": 9,
    "windGust": null,
    "visibility": 10,
    "ceiling": 900,
    "temp": 19.4,
    "dewpoint": 15.6,
    "altimeter": 30.03,
    "conditions": "",
    "observationTime": "2026-06-15T17:00:00.000Z"
  },
  "ORD": {
    "raw": "METAR KORD 151651Z 25012G21KT 10SM SCT055 SCT300 22/07 A2995 RMK AO2 SLP138 T02170067",
    "icao": "KORD",
    "flightCategory": "VFR",
    "windDir": 250,
    "windSpeed": 12,
    "windGust": 21,
    "visibility": 10,
    "ceiling": null,
    "temp": 21.7,
    "dewpoint": 6.7,
    "altimeter": 29.95,
    "conditions": "",
    "observationTime": "2026-06-15T17:00:00.000Z"
  },
  "LHR": {
    "raw": "METAR EGLL 151620Z AUTO 17011KT 9999 NCD 22/12 Q1012",
    "icao": "EGLL",
    "flightCategory": "VFR",
    "windDir": 170,
    "windSpeed": 11,
    "windGust": null,
    "visibility": 6,
    "ceiling": null,
    "temp": 22,
    "dewpoint": 12,
    "altimeter": 29.88,
    "conditions": "",
    "observationTime": "2026-06-15T16:20:00.000Z"
  },
  "SYD": {
    "raw": "METAR YSSY 151600Z AUTO 33005KT 9999 // FEW049 14/12 Q1031",
    "icao": "YSSY",
    "flightCategory": "VFR",
    "windDir": 330,
    "windSpeed": 5,
    "windGust": null,
    "visibility": 6,
    "ceiling": null,
    "temp": 14,
    "dewpoint": 12,
    "altimeter": 30.45,
    "conditions": "",
    "observationTime": "2026-06-15T16:00:00.000Z"
  }
}