{
  "LAX": {
    "raw": "SPECI KLAX 071811Z 25009KT 10SM FEW021 BKN030 21/13 A2985 RMK AO2 T02060133 $",
    "icao": "KLAX",
    "flightCategory": "MVFR",
    "windDir": 250,
    "windSpeed": 9,
    "windGust": null,
    "visibility": 10,
    "ceiling": 3000,
    "temp": 20.6,
    "dewpoint": 13.3,
    "altimeter": 29.85,
    "conditions": "",
    "observationTime": "2026-06-07T18:11:00.000Z"
  },
  "ORD": {
    "raw": "METAR KORD 071851Z 07012KT 10SM FEW080 BKN250 28/12 A2995 RMK AO2 LTG DSNT S SLP138 OCNL LTG DSNT S-W CB DSNT S-W MOV N T02780122 $",
    "icao": "KORD",
    "flightCategory": "VFR",
    "windDir": 70,
    "windSpeed": 12,
    "windGust": null,
    "visibility": 10,
    "ceiling": 25000,
    "temp": 27.8,
    "dewpoint": 12.2,
    "altimeter": 29.95,
    "conditions": "",
    "observationTime": "2026-06-07T19:00:00.000Z"
  },
  "LHR": {
    "raw": "METAR EGLL 071820Z AUTO 21013KT 180V250 9999 FEW028 16/10 Q1019",
    "icao": "EGLL",
    "flightCategory": "VFR",
    "windDir": 210,
    "windSpeed": 13,
    "windGust": null,
    "visibility": 6,
    "ceiling": null,
    "temp": 16,
    "dewpoint": 10,
    "altimeter": 30.09,
    "conditions": "",
    "observationTime": "2026-06-07T18:20:00.000Z"
  },
  "SYD": {
    "raw": "METAR YSSY 071800Z AUTO 33006KT 9999 // NCD 10/08 Q1031",
    "icao": "YSSY",
    "flightCategory": "VFR",
    "windDir": 330,
    "windSpeed": 6,
    "windGust": null,
    "visibility": 6,
    "ceiling": null,
    "temp": 10,
    "dewpoint": 8,
    "altimeter": 30.45,
    "conditions": "",
    "observationTime": "2026-06-07T18:00:00.000Z"
  }
}