{
  "LHR": {
    "raw": "METAR EGLL 140450Z COR AUTO 13002KT 9999 NCD 03/02 Q1017 NOSIG",
    "icao": "EGLL",
    "flightCategory": "VFR",
    "windDir": 130,
    "windSpeed": 2,
    "windGust": null,
    "visibility": 6,
    "ceiling": null,
    "temp": 3,
    "dewpoint": 2,
    "altimeter": 30.03,
    "conditions": "",
    "observationTime": "2026-04-14T05:00:00.000Z"
  },
  "SYD": {
    "raw": "METAR YSSY 140500Z 12009KT CAVOK 23/09 Q1018",
    "icao": "YSSY",
    "flightCategory": "VFR",
    "windDir": 120,
    "windSpeed": 9,
    "windGust": null,
    "visibility": 6,
    "ceiling": null,
    "temp": 23,
    "dewpoint": 9,
    "altimeter": 30.06,
    "conditions": "",
    "observationTime": "2026-04-14T05:00:00.000Z"
  },
  "LAS": {
    "raw": "METAR KLAS 140456Z 18010G20KT 9SM -RA FEW014 BKN100 OVC110 14/02 A2992 RMK AO2 PK WND 29030/0439 RAB40 SLP121 VIS LWR SW-NW MTNS OBSCURED DSNT SW-NW P0000 T01440022",
    "icao": "KLAS",
    "flightCategory": "VFR",
    "windDir": 180,
    "windSpeed": 10,
    "windGust": 20,
    "visibility": 9,
    "ceiling": 10000,
    "temp": 14.4,
    "dewpoint": 2.2,
    "altimeter": 29.92,
    "conditions": "-RA",
    "observationTime": "2026-04-14T05:00:00.000Z"
  },
  "LAX": {
    "raw": "METAR KLAX 140453Z 26010KT 10SM CLR 16/11 A3006 RMK AO2 SLP178 T01560111 $",
    "icao": "KLAX",
    "flightCategory": "VFR",
    "windDir": 260,
    "windSpeed": 10,
    "windGust": null,
    "visibility": 10,
    "ceiling": null,
    "temp": 15.6,
    "dewpoint": 11.1,
    "altimeter": 30.06,
    "conditions": "",
    "observationTime": "2026-04-14T05:00:00.000Z"
  },
  "ORD": {
    "raw": "METAR KORD 140451Z 20016G32KT 10SM BKN250 22/17 A2976 RMK AO2 PK WND 19032/0446 SLP073 T02220167",
    "icao": "KORD",
    "flightCategory": "VFR",
    "windDir": 200,
    "windSpeed": 16,
    "windGust": 32,
    "visibility": 10,
    "ceiling": 25000,
    "temp": 22.2,
    "dewpoint": 16.7,
    "altimeter": 29.76,
    "conditions": "",
    "observationTime": "2026-04-14T05:00:00.000Z"
  }
}