{
  "LHR": {
    "raw": "METAR EGLL 072350Z COR AUTO 07004KT 9999 NCD 09/05 Q1022 NOSIG",
    "icao": "EGLL",
    "flightCategory": "VFR",
    "windDir": 70,
    "windSpeed": 4,
    "windGust": null,
    "visibility": 6,
    "ceiling": null,
    "temp": 9,
    "dewpoint": 5,
    "altimeter": 30.18,
    "conditions": "",
    "observationTime": "2026-04-08T00:00:00.000Z"
  },
  "SYD": {
    "raw": "METAR YSSY 080000Z 22003KT 9999 FEW015 SCT020 23/19 Q1016",
    "icao": "YSSY",
    "flightCategory": "VFR",
    "windDir": 220,
    "windSpeed": 3,
    "windGust": null,
    "visibility": 6,
    "ceiling": null,
    "temp": 23,
    "dewpoint": 19,
    "altimeter": 30,
    "conditions": "",
    "observationTime": "2026-04-08T00:00:00.000Z"
  },
  "LAS": {
    "raw": "METAR KLAS 072356Z 10005KT 10SM FEW250 32/M09 A2983 RMK AO2 SLP082 T03171094 10322 20256 56025",
    "icao": "KLAS",
    "flightCategory": "VFR",
    "windDir": 100,
    "windSpeed": 5,
    "windGust": null,
    "visibility": 10,
    "ceiling": null,
    "temp": 31.7,
    "dewpoint": -9.4,
    "altimeter": 29.83,
    "conditions": "",
    "observationTime": "2026-04-08T00:00:00.000Z"
  },
  "LAX": {
    "raw": "METAR KLAX 072353Z 24011KT 10SM FEW015 19/14 A2992 RMK AO2 SLP130 T01940139 10211 20189 56017 $",
    "icao": "KLAX",
    "flightCategory": "VFR",
    "windDir": 240,
    "windSpeed": 11,
    "windGust": null,
    "visibility": 10,
    "ceiling": null,
    "temp": 19.4,
    "dewpoint": 13.9,
    "altimeter": 29.92,
    "conditions": "",
    "observationTime": "2026-04-08T00:00:00.000Z"
  },
  "ORD": {
    "raw": "METAR KORD 072351Z 09007KT 10SM FEW120 OVC250 01/M08 A3040 RMK AO2 SLP304 T00111078 10039 20011 56012 $",
    "icao": "KORD",
    "flightCategory": "VFR",
    "windDir": 90,
    "windSpeed": 7,
    "windGust": null,
    "visibility": 10,
    "ceiling": 25000,
    "temp": 1.1,
    "dewpoint": -7.8,
    "altimeter": 30.4,
    "conditions": "",
    "observationTime": "2026-04-08T00:00:00.000Z"
  }
}