{
  "LAS": {
    "raw": "METAR KLAS 121456Z 16011G22KT 10SM FEW180 BKN250 33/13 A2998 RMK AO2 SLP118 T03330128 51021 $",
    "icao": "KLAS",
    "flightCategory": "VFR",
    "windDir": 160,
    "windSpeed": 11,
    "windGust": 22,
    "visibility": 10,
    "ceiling": 25000,
    "temp": 33.3,
    "dewpoint": 12.8,
    "altimeter": 29.98,
    "conditions": "",
    "observationTime": "2026-07-12T15:00:00.000Z"
  },
  "SYD": {
    "raw": "METAR YSSY 121430Z AUTO 31010KT 9999 // NCD 11/02 Q1017",
    "icao": "YSSY",
    "flightCategory": "VFR",
    "windDir": 310,
    "windSpeed": 10,
    "windGust": null,
    "visibility": 6,
    "ceiling": null,
    "temp": 11,
    "dewpoint": 2,
    "altimeter": 30.03,
    "conditions": "",
    "observationTime": "2026-07-12T14:30:00.000Z"
  },
  "LAX": {
    "raw": "METAR KLAX 121453Z 10006KT 10SM FEW010 SCT120 BKN160 BKN250 21/17 A2997 RMK AO2 SLP146 T02110167 51014 $",
    "icao": "KLAX",
    "flightCategory": "VFR",
    "windDir": 100,
    "windSpeed": 6,
    "windGust": null,
    "visibility": 10,
    "ceiling": 16000,
    "temp": 21.1,
    "dewpoint": 16.7,
    "altimeter": 29.97,
    "conditions": "",
    "observationTime": "2026-07-12T15:00:00.000Z"
  },
  "ORD": {
    "raw": "METAR KORD 121451Z 04003KT 10SM FEW035 28/18 A3021 RMK AO2 SLP224 T02780183 51010 $",
    "icao": "KORD",
    "flightCategory": "VFR",
    "windDir": 40,
    "windSpeed": 3,
    "windGust": null,
    "visibility": 10,
    "ceiling": null,
    "temp": 27.8,
    "dewpoint": 18.3,
    "altimeter": 30.21,
    "conditions": "",
    "observationTime": "2026-07-12T15:00:00.000Z"
  },
  "LHR": {
    "raw": "METAR EGLL 121420Z AUTO 09017KT 9999 NCD 30/13 Q1023",
    "icao": "EGLL",
    "flightCategory": "VFR",
    "windDir": 90,
    "windSpeed": 17,
    "windGust": null,
    "visibility": 6,
    "ceiling": null,
    "temp": 30,
    "dewpoint": 13,
    "altimeter": 30.21,
    "conditions": "",
    "observationTime": "2026-07-12T14:20:00.000Z"
  }
}