{
  "SYD": {
    "raw": "METAR YSSY 260900Z AUTO 21005KT 8000 // BKN011 BKN083 BKN120 18/18 Q1017",
    "icao": "YSSY",
    "flightCategory": "MVFR",
    "windDir": 210,
    "windSpeed": 5,
    "windGust": null,
    "visibility": 4.97,
    "ceiling": 1100,
    "temp": 18,
    "dewpoint": 18,
    "altimeter": 30.03,
    "conditions": "",
    "observationTime": "2026-05-26T09:00:00.000Z"
  },
  "LHR": {
    "raw": "METAR EGLL 260850Z AUTO 21006KT 130V270 9999 NCD 28/12 Q1027",
    "icao": "EGLL",
    "flightCategory": "VFR",
    "windDir": 210,
    "windSpeed": 6,
    "windGust": null,
    "visibility": 6,
    "ceiling": null,
    "temp": 28,
    "dewpoint": 12,
    "altimeter": 30.33,
    "conditions": "",
    "observationTime": "2026-05-26T09:00:00.000Z"
  },
  "LAS": {
    "raw": "METAR KLAS 260856Z 15006KT 10SM FEW250 26/M01 A2968 RMK AO2 SLP022 T02561006 58001",
    "icao": "KLAS",
    "flightCategory": "VFR",
    "windDir": 150,
    "windSpeed": 6,
    "windGust": null,
    "visibility": 10,
    "ceiling": null,
    "temp": 25.6,
    "dewpoint": -0.6,
    "altimeter": 29.68,
    "conditions": "",
    "observationTime": "2026-05-26T09:00:00.000Z"
  },
  "LAX": {
    "raw": "METAR KLAX 260853Z 24008KT 10SM FEW012 16/12 A2990 RMK AO2 SLP121 T01560122 56008 $",
    "icao": "KLAX",
    "flightCategory": "VFR",
    "windDir": 240,
    "windSpeed": 8,
    "windGust": null,
    "visibility": 10,
    "ceiling": null,
    "temp": 15.6,
    "dewpoint": 12.2,
    "altimeter": 29.9,
    "conditions": "",
    "observationTime": "2026-05-26T09:00:00.000Z"
  },
  "ORD": {
    "raw": "METAR KORD 260851Z 21004KT 10SM OVC250 19/08 A3006 RMK AO2 SLP174 T01890078 53002 $",
    "icao": "KORD",
    "flightCategory": "VFR",
    "windDir": 210,
    "windSpeed": 4,
    "windGust": null,
    "visibility": 10,
    "ceiling": 25000,
    "temp": 18.9,
    "dewpoint": 7.8,
    "altimeter": 30.06,
    "conditions": "",
    "observationTime": "2026-05-26T09:00:00.000Z"
  }
}