{
  "LAX": {
    "raw": "METAR KLAX 050153Z 23011KT 10SM FEW020 SCT070 BKN090 17/11 A2997 RMK AO2 SLP146 T01670111",
    "icao": "KLAX",
    "flightCategory": "VFR",
    "windDir": 230,
    "windSpeed": 11,
    "windGust": null,
    "visibility": 10,
    "ceiling": 9000,
    "temp": 16.7,
    "dewpoint": 11.1,
    "altimeter": 29.97,
    "conditions": "",
    "observationTime": "2026-05-05T02:00:00.000Z"
  },
  "ORD": {
    "raw": "METAR KORD 050151Z 21010G22KT 10SM FEW060 SCT100 BKN150 BKN250 18/11 A2950 RMK AO2 SLP987 OCNL LTGICCC DSNT SE-S CB DSNT SE-S T01830111",
    "icao": "KORD",
    "flightCategory": "VFR",
    "windDir": 210,
    "windSpeed": 10,
    "windGust": 22,
    "visibility": 10,
    "ceiling": 15000,
    "temp": 18.3,
    "dewpoint": 11.1,
    "altimeter": 29.5,
    "conditions": "",
    "observationTime": "2026-05-05T02:00:00.000Z"
  },
  "LHR": {
    "raw": "METAR EGLL 050120Z AUTO 35005KT 320V020 9999 BKN015 OVC035 12/09 Q1014 TEMPO BKN014",
    "icao": "EGLL",
    "flightCategory": "MVFR",
    "windDir": 350,
    "windSpeed": 5,
    "windGust": null,
    "visibility": 6,
    "ceiling": 1500,
    "temp": 12,
    "dewpoint": 9,
    "altimeter": 29.94,
    "conditions": "",
    "observationTime": "2026-05-05T01:20:00.000Z"
  },
  "SYD": {
    "raw": "METAR YSSY 050100Z 27015KT CAVOK 21/08 Q1018",
    "icao": "YSSY",
    "flightCategory": "VFR",
    "windDir": 270,
    "windSpeed": 15,
    "windGust": null,
    "visibility": 6,
    "ceiling": null,
    "temp": 21,
    "dewpoint": 8,
    "altimeter": 30.06,
    "conditions": "",
    "observationTime": "2026-05-05T01:00:00.000Z"
  },
  "LAS": {
    "raw": "METAR KLAS 050056Z 22014G24KT 10SM FEW120 SCT200 SCT250 24/M04 A2975 RMK AO2 PK WND 23028/0034 SLP055 T02391044",
    "icao": "KLAS",
    "flightCategory": "VFR",
    "windDir": 220,
    "windSpeed": 14,
    "windGust": 24,
    "visibility": 10,
    "ceiling": null,
    "temp": 23.9,
    "dewpoint": -4.4,
    "altimeter": 29.75,
    "conditions": "",
    "observationTime": "2026-05-05T01:00:00.000Z"
  }
}