{
  "SYD": {
    "raw": "METAR YSSY 280530Z 29004KT 260V330 7000 SHRA VCSH FEW012 SCT030 BKN065 15/12 Q1029",
    "icao": "YSSY",
    "flightCategory": "MVFR",
    "windDir": 290,
    "windSpeed": 4,
    "windGust": null,
    "visibility": 4.35,
    "ceiling": 6500,
    "temp": 15,
    "dewpoint": 12,
    "altimeter": 30.39,
    "conditions": "SHRA VCSH",
    "observationTime": "2026-06-28T05:30:00.000Z"
  },
  "LAS": {
    "raw": "METAR KLAS 280556Z 22028G42KT 10SM CLR 28/02 A2962 RMK AO2 PK WND 22042/0549 SLP002 T02780017 10350 20278 58005",
    "icao": "KLAS",
    "flightCategory": "VFR",
    "windDir": 220,
    "windSpeed": 28,
    "windGust": 42,
    "visibility": 10,
    "ceiling": null,
    "temp": 27.8,
    "dewpoint": 1.7,
    "altimeter": 29.62,
    "conditions": "",
    "observationTime": "2026-06-28T06:00:00.000Z"
  },
  "LAX": {
    "raw": "METAR KLAX 280553Z 26014KT 10SM FEW011 18/14 A2992 RMK AO2 SLP131 T01780139 10211 20172 50005",
    "icao": "KLAX",
    "flightCategory": "VFR",
    "windDir": 260,
    "windSpeed": 14,
    "windGust": null,
    "visibility": 10,
    "ceiling": null,
    "temp": 17.8,
    "dewpoint": 13.9,
    "altimeter": 29.92,
    "conditions": "",
    "observationTime": "2026-06-28T06:00:00.000Z"
  },
  "ORD": {
    "raw": "METAR KORD 280551Z 02006KT 10SM BKN055 OVC250 19/14 A2994 RMK AO2 SLP135 T01890144 10222 20189 402440161 58007 $",
    "icao": "KORD",
    "flightCategory": "VFR",
    "windDir": 20,
    "windSpeed": 6,
    "windGust": null,
    "visibility": 10,
    "ceiling": 5500,
    "temp": 18.9,
    "dewpoint": 14.4,
    "altimeter": 29.94,
    "conditions": "",
    "observationTime": "2026-06-28T06:00:00.000Z"
  },
  "LHR": {
    "raw": "METAR EGLL 280520Z AUTO 21010G20KT 180V250 9999 SCT035 19/16 Q1016",
    "icao": "EGLL",
    "flightCategory": "VFR",
    "windDir": 210,
    "windSpeed": 10,
    "windGust": 20,
    "visibility": 6,
    "ceiling": null,
    "temp": 19,
    "dewpoint": 16,
    "altimeter": 30,
    "conditions": "",
    "observationTime": "2026-06-28T05:20:00.000Z"
  }
}