{
  "LHR": {
    "raw": "METAR EGLL 010650Z COR AUTO 31004KT 9999 OVC046 09/07 Q1026 NOSIG",
    "icao": "EGLL",
    "flightCategory": "VFR",
    "windDir": 310,
    "windSpeed": 4,
    "windGust": null,
    "visibility": 6,
    "ceiling": 4600,
    "temp": 9,
    "dewpoint": 7,
    "altimeter": 30.3,
    "conditions": "",
    "observationTime": "2026-04-01T07:00:00.000Z"
  },
  "SYD": {
    "raw": "METAR YSSY 010700Z AUTO 06015KT 9999 // NCD 24/17 Q1022",
    "icao": "YSSY",
    "flightCategory": "VFR",
    "windDir": 60,
    "windSpeed": 15,
    "windGust": null,
    "visibility": 6,
    "ceiling": null,
    "temp": 24,
    "dewpoint": 17,
    "altimeter": 30.18,
    "conditions": "",
    "observationTime": "2026-04-01T07:00:00.000Z"
  },
  "LAS": {
    "raw": "METAR KLAS 010656Z 22015G25KT 10SM OVC100 16/06 A2982 RMK AO2 PK WND 22035/0606 SLP081 T01610061",
    "icao": "KLAS",
    "flightCategory": "VFR",
    "windDir": 220,
    "windSpeed": 15,
    "windGust": 25,
    "visibility": 10,
    "ceiling": 10000,
    "temp": 16.1,
    "dewpoint": 6.1,
    "altimeter": 29.82,
    "conditions": "",
    "observationTime": "2026-04-01T07:00:00.000Z"
  },
  "LAX": {
    "raw": "SPECI KLAX 010637Z 27011KT 9SM -RA SCT014 BKN025 OVC080 17/16 A2995 RMK AO2 P0002 T01720156 $",
    "icao": "KLAX",
    "flightCategory": "MVFR",
    "windDir": 270,
    "windSpeed": 11,
    "windGust": null,
    "visibility": 9,
    "ceiling": 2500,
    "temp": 17.2,
    "dewpoint": 15.6,
    "altimeter": 29.95,
    "conditions": "-RA",
    "observationTime": "2026-04-01T06:37:00.000Z"
  },
  "ORD": {
    "raw": "SPECI KORD 010635Z 04021G26KT 10SM BKN015 BKN250 04/01 A3011 RMK AO2 PK WND 02027/0605 T00390006 $",
    "icao": "KORD",
    "flightCategory": "MVFR",
    "windDir": 40,
    "windSpeed": 21,
    "windGust": 26,
    "visibility": 10,
    "ceiling": 1500,
    "temp": 3.9,
    "dewpoint": 0.6,
    "altimeter": 30.11,
    "conditions": "",
    "observationTime": "2026-04-01T06:35:00.000Z"
  }
}