{
  "LHR": {
    "raw": "METAR EGLL 280350Z AUTO 23010KT 9999 NCD 19/14 Q1015",
    "icao": "EGLL",
    "flightCategory": "VFR",
    "windDir": 230,
    "windSpeed": 10,
    "windGust": null,
    "visibility": 6,
    "ceiling": null,
    "temp": 19,
    "dewpoint": 14,
    "altimeter": 29.97,
    "conditions": "",
    "observationTime": "2026-06-28T04:00:00.000Z"
  },
  "SYD": {
    "raw": "METAR YSSY 280400Z 21007KT 9999 -SHRA FEW015 SCT035 BKN050 FEW025TCU 14/12 Q1029",
    "icao": "YSSY",
    "flightCategory": "VFR",
    "windDir": 210,
    "windSpeed": 7,
    "windGust": null,
    "visibility": 6,
    "ceiling": 5000,
    "temp": 14,
    "dewpoint": 12,
    "altimeter": 30.39,
    "conditions": "-SHRA",
    "observationTime": "2026-06-28T04:00:00.000Z"
  },
  "LAS": {
    "raw": "METAR KLAS 280356Z 21017G29KT 10SM CLR 30/00 A2965 RMK AO2 PK WND 20030/0340 SLP013 T03000000",
    "icao": "KLAS",
    "flightCategory": "VFR",
    "windDir": 210,
    "windSpeed": 17,
    "windGust": 29,
    "visibility": 10,
    "ceiling": null,
    "temp": 30,
    "dewpoint": 0,
    "altimeter": 29.65,
    "conditions": "",
    "observationTime": "2026-06-28T04:00:00.000Z"
  },
  "LAX": {
    "raw": "SPECI KLAX 280338Z 25010KT 10SM BKN010 18/15 A2992 RMK AO2 T01780150",
    "icao": "KLAX",
    "flightCategory": "MVFR",
    "windDir": 250,
    "windSpeed": 10,
    "windGust": null,
    "visibility": 10,
    "ceiling": 1000,
    "temp": 17.8,
    "dewpoint": 15,
    "altimeter": 29.92,
    "conditions": "",
    "observationTime": "2026-06-28T03:38:00.000Z"
  },
  "ORD": {
    "raw": "METAR KORD 280351Z 03008KT 10SM BKN055 OVC250 19/14 A2996 RMK AO2 SLP142 T01890139 $",
    "icao": "KORD",
    "flightCategory": "VFR",
    "windDir": 30,
    "windSpeed": 8,
    "windGust": null,
    "visibility": 10,
    "ceiling": 5500,
    "temp": 18.9,
    "dewpoint": 13.9,
    "altimeter": 29.96,
    "conditions": "",
    "observationTime": "2026-06-28T04:00:00.000Z"
  }
}