{
  "LAX": {
    "raw": "METAR KLAX 071853Z 27010KT 10SM FEW025 22/16 A2997 RMK AO2 SLP145 T02220156",
    "icao": "KLAX",
    "flightCategory": "VFR",
    "windDir": 270,
    "windSpeed": 10,
    "windGust": null,
    "visibility": 10,
    "ceiling": null,
    "temp": 22.2,
    "dewpoint": 15.6,
    "altimeter": 29.97,
    "conditions": "",
    "observationTime": "2026-07-07T19:00:00.000Z"
  },
  "ORD": {
    "raw": "METAR KORD 071851Z 01004KT 10SM FEW055 FEW250 29/16 A3008 RMK AO2 SLP181 T02890156 $",
    "icao": "KORD",
    "flightCategory": "VFR",
    "windDir": 10,
    "windSpeed": 4,
    "windGust": null,
    "visibility": 10,
    "ceiling": null,
    "temp": 28.9,
    "dewpoint": 15.6,
    "altimeter": 30.08,
    "conditions": "",
    "observationTime": "2026-07-07T19:00:00.000Z"
  },
  "LHR": {
    "raw": "METAR EGLL 071820Z AUTO 33007KT 290V010 9999 NCD 30/12 Q1016",
    "icao": "EGLL",
    "flightCategory": "VFR",
    "windDir": 330,
    "windSpeed": 7,
    "windGust": null,
    "visibility": 6,
    "ceiling": null,
    "temp": 30,
    "dewpoint": 12,
    "altimeter": 30,
    "conditions": "",
    "observationTime": "2026-07-07T18:20:00.000Z"
  },
  "SYD": {
    "raw": "METAR YSSY 071800Z AUTO 27006KT 9999 // BKN042 OVC055 13/10 Q1031",
    "icao": "YSSY",
    "flightCategory": "VFR",
    "windDir": 270,
    "windSpeed": 6,
    "windGust": null,
    "visibility": 6,
    "ceiling": 4200,
    "temp": 13,
    "dewpoint": 10,
    "altimeter": 30.45,
    "conditions": "",
    "observationTime": "2026-07-07T18:00:00.000Z"
  }
}