{
  "SYD": {
    "raw": "METAR YSSY 071830Z AUTO 35006KT 9999 // NCD 18/15 Q1013",
    "icao": "YSSY",
    "flightCategory": "VFR",
    "windDir": 350,
    "windSpeed": 6,
    "windGust": null,
    "visibility": 6,
    "ceiling": null,
    "temp": 18,
    "dewpoint": 15,
    "altimeter": 29.91,
    "conditions": "",
    "observationTime": "2026-04-07T18:30:00.000Z"
  },
  "LAS": {
    "raw": "METAR KLAS 071856Z 03004KT 10SM FEW140 FEW250 27/M08 A2997 RMK AO2 SLP127 T02671083",
    "icao": "KLAS",
    "flightCategory": "VFR",
    "windDir": 30,
    "windSpeed": 4,
    "windGust": null,
    "visibility": 10,
    "ceiling": null,
    "temp": 26.7,
    "dewpoint": -8.3,
    "altimeter": 29.97,
    "conditions": "",
    "observationTime": "2026-04-07T19:00:00.000Z"
  },
  "LAX": {
    "raw": "METAR KLAX 071853Z 25008KT 8SM FEW019 21/14 A2999 RMK AO2 SLP155 T02060139 $",
    "icao": "KLAX",
    "flightCategory": "VFR",
    "windDir": 250,
    "windSpeed": 8,
    "windGust": null,
    "visibility": 8,
    "ceiling": null,
    "temp": 20.6,
    "dewpoint": 13.9,
    "altimeter": 29.99,
    "conditions": "",
    "observationTime": "2026-04-07T19:00:00.000Z"
  },
  "ORD": {
    "raw": "METAR KORD 071851Z 07009KT 10SM FEW040 FEW250 03/M08 A3049 RMK AO2 SLP333 T00281083 $",
    "icao": "KORD",
    "flightCategory": "VFR",
    "windDir": 70,
    "windSpeed": 9,
    "windGust": null,
    "visibility": 10,
    "ceiling": null,
    "temp": 2.8,
    "dewpoint": -8.3,
    "altimeter": 30.49,
    "conditions": "",
    "observationTime": "2026-04-07T19:00:00.000Z"
  },
  "LHR": {
    "raw": "METAR EGLL 071820Z COR AUTO 08009KT 9999 NCD 15/06 Q1021 NOSIG",
    "icao": "EGLL",
    "flightCategory": "VFR",
    "windDir": 80,
    "windSpeed": 9,
    "windGust": null,
    "visibility": 6,
    "ceiling": null,
    "temp": 15,
    "dewpoint": 6,
    "altimeter": 30.15,
    "conditions": "",
    "observationTime": "2026-04-07T18:20:00.000Z"
  }
}