{
  "SYD": {
    "raw": "METAR YSSY 030630Z AUTO 16017KT 9999 // SCT019 BKN026 BKN055 23/18 Q1022",
    "icao": "YSSY",
    "flightCategory": "MVFR",
    "windDir": 160,
    "windSpeed": 17,
    "windGust": null,
    "visibility": 6,
    "ceiling": 2600,
    "temp": 23,
    "dewpoint": 18,
    "altimeter": 30.18,
    "conditions": "",
    "observationTime": "2026-04-03T06:30:00.000Z"
  },
  "LHR": {
    "raw": "METAR EGLL 030620Z COR AUTO 21013KT 9999 -RA OVC011 09/07 Q1012 NOSIG",
    "icao": "EGLL",
    "flightCategory": "MVFR",
    "windDir": 210,
    "windSpeed": 13,
    "windGust": null,
    "visibility": 6,
    "ceiling": 1100,
    "temp": 9,
    "dewpoint": 7,
    "altimeter": 29.88,
    "conditions": "-RA",
    "observationTime": "2026-04-03T06:20:00.000Z"
  }
}