{
  "ORD": {
    "raw": "METAR KORD 271751Z 18009KT 1 3/4SM R10L/5500VP6000FT -TSRA BR BKN026 BKN040CB OVC075 14/13 A2982 RMK AO2 TSB09E24B34 SLP101 OCNL LTGIC OHD TS OHD MOV N P0026 60031 T01390128 10150 20128 53003 $",
    "icao": "KORD",
    "flightCategory": "IFR",
    "windDir": 180,
    "windSpeed": 9,
    "windGust": null,
    "visibility": 1.75,
    "ceiling": 2600,
    "temp": 13.9,
    "dewpoint": 12.8,
    "altimeter": 29.82,
    "conditions": "-TSRA BR",
    "observationTime": "2026-04-27T18:00:00.000Z"
  },
  "SYD": {
    "raw": "METAR YSSY 271800Z AUTO 32006KT 9999 // FEW047 15/13 Q1025",
    "icao": "YSSY",
    "flightCategory": "VFR",
    "windDir": 320,
    "windSpeed": 6,
    "windGust": null,
    "visibility": 6,
    "ceiling": null,
    "temp": 15,
    "dewpoint": 13,
    "altimeter": 30.27,
    "conditions": "",
    "observationTime": "2026-04-27T18:00:00.000Z"
  },
  "LHR": {
    "raw": "METAR EGLL 271750Z AUTO 05006KT 010V080 9999 NCD 19/05 Q1021 TEMPO 6000 SHRA",
    "icao": "EGLL",
    "flightCategory": "VFR",
    "windDir": 50,
    "windSpeed": 6,
    "windGust": null,
    "visibility": 6,
    "ceiling": null,
    "temp": 19,
    "dewpoint": 5,
    "altimeter": 30.15,
    "conditions": "",
    "observationTime": "2026-04-27T18:00:00.000Z"
  },
  "LAS": {
    "raw": "METAR KLAS 271756Z 18009G18KT 10SM FEW100 FEW250 18/M02 A2990 RMK AO2 SLP113 T01781022 10178 20117 51004",
    "icao": "KLAS",
    "flightCategory": "VFR",
    "windDir": 180,
    "windSpeed": 9,
    "windGust": 18,
    "visibility": 10,
    "ceiling": null,
    "temp": 17.8,
    "dewpoint": -2.2,
    "altimeter": 29.9,
    "conditions": "",
    "observationTime": "2026-04-27T18:00:00.000Z"
  },
  "LAX": {
    "raw": "METAR KLAX 271753Z 24006KT 10SM FEW010 FEW042 SCT070 18/07 A3001 RMK AO2 SLP230 T01780072 10178 20144 VISNO RWY24 $",
    "icao": "KLAX",
    "flightCategory": "VFR",
    "windDir": 240,
    "windSpeed": 6,
    "windGust": null,
    "visibility": 10,
    "ceiling": null,
    "temp": 17.8,
    "dewpoint": 7.2,
    "altimeter": 30.01,
    "conditions": "",
    "observationTime": "2026-04-27T18:00:00.000Z"
  }
}