{
  "LAX": {
    "raw": "METAR KLAX 151953Z 25012KT 10SM FEW008 BKN012 BKN110 21/15 A3003 RMK AO2 SLP167 T02060150 $",
    "icao": "KLAX",
    "flightCategory": "MVFR",
    "windDir": 250,
    "windSpeed": 12,
    "windGust": null,
    "visibility": 10,
    "ceiling": 1200,
    "temp": 20.6,
    "dewpoint": 15,
    "altimeter": 30.03,
    "conditions": "",
    "observationTime": "2026-06-15T20:00:00.000Z"
  },
  "ORD": {
    "raw": "METAR KORD 151951Z 28008G16KT 10SM SCT070 BKN250 24/07 A2989 RMK AO2 SLP118 T02390067",
    "icao": "KORD",
    "flightCategory": "VFR",
    "windDir": 280,
    "windSpeed": 8,
    "windGust": 16,
    "visibility": 10,
    "ceiling": 25000,
    "temp": 23.9,
    "dewpoint": 6.7,
    "altimeter": 29.89,
    "conditions": "",
    "observationTime": "2026-06-15T20:00:00.000Z"
  },
  "LHR": {
    "raw": "METAR EGLL 151920Z AUTO 12008KT 9999 NCD 20/13 Q1011",
    "icao": "EGLL",
    "flightCategory": "VFR",
    "windDir": 120,
    "windSpeed": 8,
    "windGust": null,
    "visibility": 6,
    "ceiling": null,
    "temp": 20,
    "dewpoint": 13,
    "altimeter": 29.85,
    "conditions": "",
    "observationTime": "2026-06-15T19:20:00.000Z"
  },
  "SYD": {
    "raw": "METAR YSSY 151900Z AUTO 33005KT 9999 // NCD 13/12 Q1030",
    "icao": "YSSY",
    "flightCategory": "VFR",
    "windDir": 330,
    "windSpeed": 5,
    "windGust": null,
    "visibility": 6,
    "ceiling": null,
    "temp": 13,
    "dewpoint": 12,
    "altimeter": 30.42,
    "conditions": "",
    "observationTime": "2026-06-15T19:00:00.000Z"
  }
}