{
  "SYD": {
    "raw": "METAR YSSY 100300Z 03011KT CAVOK 22/13 Q1025",
    "icao": "YSSY",
    "flightCategory": "VFR",
    "windDir": 30,
    "windSpeed": 11,
    "windGust": null,
    "visibility": 6,
    "ceiling": null,
    "temp": 22,
    "dewpoint": 13,
    "altimeter": 30.27,
    "conditions": "",
    "observationTime": "2026-06-10T03:00:00.000Z"
  },
  "LHR": {
    "raw": "METAR EGLL 100250Z AUTO 24008KT 9999 NCD 10/07 Q1015",
    "icao": "EGLL",
    "flightCategory": "VFR",
    "windDir": 240,
    "windSpeed": 8,
    "windGust": null,
    "visibility": 6,
    "ceiling": null,
    "temp": 10,
    "dewpoint": 7,
    "altimeter": 29.97,
    "conditions": "",
    "observationTime": "2026-06-10T03:00:00.000Z"
  },
  "LAS": {
    "raw": "METAR KLAS 100256Z 22010G16KT 10SM CLR 34/02 A2974 RMK AO2 SLP041 T03440017 53003",
    "icao": "KLAS",
    "flightCategory": "VFR",
    "windDir": 220,
    "windSpeed": 10,
    "windGust": 16,
    "visibility": 10,
    "ceiling": null,
    "temp": 34.4,
    "dewpoint": 1.7,
    "altimeter": 29.74,
    "conditions": "",
    "observationTime": "2026-06-10T03:00:00.000Z"
  },
  "LAX": {
    "raw": "METAR KLAX 100253Z 24007KT 10SM CLR 19/16 A2984 RMK AO2 SLP103 T01940156 55000",
    "icao": "KLAX",
    "flightCategory": "VFR",
    "windDir": 240,
    "windSpeed": 7,
    "windGust": null,
    "visibility": 10,
    "ceiling": null,
    "temp": 19.4,
    "dewpoint": 15.6,
    "altimeter": 29.84,
    "conditions": "",
    "observationTime": "2026-06-10T03:00:00.000Z"
  },
  "ORD": {
    "raw": "METAR KORD 100251Z 28003KT 10SM SCT048 27/21 A2984 RMK AO2 SLP100 T02720211 53005 $",
    "icao": "KORD",
    "flightCategory": "VFR",
    "windDir": 280,
    "windSpeed": 3,
    "windGust": null,
    "visibility": 10,
    "ceiling": null,
    "temp": 27.2,
    "dewpoint": 21.1,
    "altimeter": 29.84,
    "conditions": "",
    "observationTime": "2026-06-10T03:00:00.000Z"
  }
}