{
  "LHR": {
    "raw": "METAR EGLL 240550Z AUTO 07008KT 9999 OVC006 05/04 Q1027 BECMG FEW006",
    "icao": "EGLL",
    "flightCategory": "IFR",
    "windDir": 70,
    "windSpeed": 8,
    "windGust": null,
    "visibility": 6,
    "ceiling": 600,
    "temp": 5,
    "dewpoint": 4,
    "altimeter": 30.33,
    "conditions": "",
    "observationTime": "2026-04-24T06:00:00.000Z"
  },
  "SYD": {
    "raw": "METAR YSSY 240530Z 17009KT 9999 FEW028 BKN035 21/15 Q1031",
    "icao": "YSSY",
    "flightCategory": "VFR",
    "windDir": 170,
    "windSpeed": 9,
    "windGust": null,
    "visibility": 6,
    "ceiling": 3500,
    "temp": 21,
    "dewpoint": 15,
    "altimeter": 30.45,
    "conditions": "",
    "observationTime": "2026-04-24T05:30:00.000Z"
  },
  "LAS": {
    "raw": "METAR KLAS 240556Z 19003KT 10SM BKN250 20/M09 A2988 RMK AO2 SLP102 T02001094 10244 20200 51008",
    "icao": "KLAS",
    "flightCategory": "VFR",
    "windDir": 190,
    "windSpeed": 3,
    "windGust": null,
    "visibility": 10,
    "ceiling": 25000,
    "temp": 20,
    "dewpoint": -9.4,
    "altimeter": 29.88,
    "conditions": "",
    "observationTime": "2026-04-24T06:00:00.000Z"
  },
  "LAX": {
    "raw": "METAR KLAX 240553Z 21003KT 10SM FEW250 17/13 A2993 RMK AO2 SLP132 T01670128 10206 20161 50010 $",
    "icao": "KLAX",
    "flightCategory": "VFR",
    "windDir": 210,
    "windSpeed": 3,
    "windGust": null,
    "visibility": 10,
    "ceiling": null,
    "temp": 16.7,
    "dewpoint": 12.8,
    "altimeter": 29.93,
    "conditions": "",
    "observationTime": "2026-04-24T06:00:00.000Z"
  },
  "ORD": {
    "raw": "METAR KORD 240551Z 19010G19KT 10SM FEW090 OVC250 22/12 A2968 RMK AO2 SLP046 T02170122 10256 20211 402720111 58010",
    "icao": "KORD",
    "flightCategory": "VFR",
    "windDir": 190,
    "windSpeed": 10,
    "windGust": 19,
    "visibility": 10,
    "ceiling": 25000,
    "temp": 21.7,
    "dewpoint": 12.2,
    "altimeter": 29.68,
    "conditions": "",
    "observationTime": "2026-04-24T06:00:00.000Z"
  }
}