{
  "LHR": {
    "raw": "METAR EGLL 200350Z AUTO 24008KT 9999 OVC009 18/16 Q1016",
    "icao": "EGLL",
    "flightCategory": "IFR",
    "windDir": 240,
    "windSpeed": 8,
    "windGust": null,
    "visibility": 6,
    "ceiling": 900,
    "temp": 18,
    "dewpoint": 16,
    "altimeter": 30,
    "conditions": "",
    "observationTime": "2026-06-20T04:00:00.000Z"
  },
  "SYD": {
    "raw": "METAR YSSY 200400Z 32011KT CAVOK 21/07 Q1019",
    "icao": "YSSY",
    "flightCategory": "VFR",
    "windDir": 320,
    "windSpeed": 11,
    "windGust": null,
    "visibility": 6,
    "ceiling": null,
    "temp": 21,
    "dewpoint": 7,
    "altimeter": 30.09,
    "conditions": "",
    "observationTime": "2026-06-20T04:00:00.000Z"
  },
  "LAS": {
    "raw": "METAR KLAS 200356Z 21007KT 10SM CLR 34/M01 A2978 RMK AO2 SLP052 T03441006",
    "icao": "KLAS",
    "flightCategory": "VFR",
    "windDir": 210,
    "windSpeed": 7,
    "windGust": null,
    "visibility": 10,
    "ceiling": null,
    "temp": 34.4,
    "dewpoint": -0.6,
    "altimeter": 29.78,
    "conditions": "",
    "observationTime": "2026-06-20T04:00:00.000Z"
  },
  "LAX": {
    "raw": "METAR KLAX 200353Z 26010KT 10SM FEW011 FEW017 17/13 A2998 RMK AO2 SLP152 FU FEW017 T01720133",
    "icao": "KLAX",
    "flightCategory": "VFR",
    "windDir": 260,
    "windSpeed": 10,
    "windGust": null,
    "visibility": 10,
    "ceiling": null,
    "temp": 17.2,
    "dewpoint": 13.3,
    "altimeter": 29.98,
    "conditions": "",
    "observationTime": "2026-06-20T04:00:00.000Z"
  },
  "ORD": {
    "raw": "METAR KORD 200351Z 25006KT 10SM SCT075 BKN090 BKN150 19/12 A2994 RMK AO2 RAB28E37 SLP136 P0000 T01940122 $",
    "icao": "KORD",
    "flightCategory": "VFR",
    "windDir": 250,
    "windSpeed": 6,
    "windGust": null,
    "visibility": 10,
    "ceiling": 9000,
    "temp": 19.4,
    "dewpoint": 12.2,
    "altimeter": 29.94,
    "conditions": "",
    "observationTime": "2026-06-20T04:00:00.000Z"
  }
}