{
  "LAX": {
    "raw": "METAR KLAX 201453Z 00000KT 10SM SCT013 BKN140 BKN180 16/13 A3000 RMK AO2 SLP158 SCT V BKN T01610128 53013",
    "icao": "KLAX",
    "flightCategory": "VFR",
    "windDir": 0,
    "windSpeed": 0,
    "windGust": null,
    "visibility": 10,
    "ceiling": 14000,
    "temp": 16.1,
    "dewpoint": 12.8,
    "altimeter": 30,
    "conditions": "",
    "observationTime": "2026-04-20T15:00:00.000Z"
  },
  "SYD": {
    "raw": "METAR YSSY 201500Z AUTO 26011KT 9999 // SCT044 BKN055 17/11 Q1025",
    "icao": "YSSY",
    "flightCategory": "VFR",
    "windDir": 260,
    "windSpeed": 11,
    "windGust": null,
    "visibility": 6,
    "ceiling": 5500,
    "temp": 17,
    "dewpoint": 11,
    "altimeter": 30.27,
    "conditions": "",
    "observationTime": "2026-04-20T15:00:00.000Z"
  },
  "LHR": {
    "raw": "METAR EGLL 201450Z COR AUTO 09010KT 9999 NCD 13/02 Q1023 NOSIG",
    "icao": "EGLL",
    "flightCategory": "VFR",
    "windDir": 90,
    "windSpeed": 10,
    "windGust": null,
    "visibility": 6,
    "ceiling": null,
    "temp": 13,
    "dewpoint": 2,
    "altimeter": 30.21,
    "conditions": "",
    "observationTime": "2026-04-20T15:00:00.000Z"
  },
  "LAS": {
    "raw": "METAR KLAS 201456Z 35003KT 10SM FEW150 BKN250 21/M04 A2994 RMK AO2 SLP119 T02111039 53013",
    "icao": "KLAS",
    "flightCategory": "VFR",
    "windDir": 350,
    "windSpeed": 3,
    "windGust": null,
    "visibility": 10,
    "ceiling": 25000,
    "temp": 21.1,
    "dewpoint": -3.9,
    "altimeter": 29.94,
    "conditions": "",
    "observationTime": "2026-04-20T15:00:00.000Z"
  },
  "ORD": {
    "raw": "METAR KORD 201451Z 17007KT 10SM SCT039 SCT250 07/M04 A3035 RMK AO2 SLP282 T00671039 50004 $",
    "icao": "KORD",
    "flightCategory": "VFR",
    "windDir": 170,
    "windSpeed": 7,
    "windGust": null,
    "visibility": 10,
    "ceiling": null,
    "temp": 6.7,
    "dewpoint": -3.9,
    "altimeter": 30.35,
    "conditions": "",
    "observationTime": "2026-04-20T15:00:00.000Z"
  }
}