{
  "LHR": {
    "raw": "METAR EGLL 310550Z COR AUTO 28008KT 9999 BKN021 BKN025 OVC037 09/05 Q1030 NOSIG",
    "icao": "EGLL",
    "flightCategory": "MVFR",
    "windDir": 280,
    "windSpeed": 8,
    "windGust": null,
    "visibility": 6,
    "ceiling": 2100,
    "temp": 9,
    "dewpoint": 5,
    "altimeter": 30.42,
    "conditions": "",
    "observationTime": "2026-03-31T06:00:00.000Z"
  },
  "LAX": {
    "raw": "METAR KLAX 310553Z 16005KT 10SM SCT016 BKN250 18/14 A2998 RMK AO2 SLP151 T01780144 10183 20167 50003",
    "icao": "KLAX",
    "flightCategory": "VFR",
    "windDir": 160,
    "windSpeed": 5,
    "windGust": null,
    "visibility": 10,
    "ceiling": 25000,
    "temp": 17.8,
    "dewpoint": 14.4,
    "altimeter": 29.98,
    "conditions": "",
    "observationTime": "2026-03-31T06:00:00.000Z"
  },
  "SYD": {
    "raw": "METAR YSSY 310600Z AUTO 06013KT 9999 // NCD 24/13 Q1022",
    "icao": "YSSY",
    "flightCategory": "VFR",
    "windDir": 60,
    "windSpeed": 13,
    "windGust": null,
    "visibility": 6,
    "ceiling": null,
    "temp": 24,
    "dewpoint": 13,
    "altimeter": 30.18,
    "conditions": "",
    "observationTime": "2026-03-31T06:00:00.000Z"
  },
  "LAS": {
    "raw": "METAR KLAS 310556Z 22018G33KT 10SM SCT170 OVC220 26/M08 A2985 RMK AO2 PK WND 21037/0515 SLP084 T02561083 10289 20256 50007",
    "icao": "KLAS",
    "flightCategory": "VFR",
    "windDir": 220,
    "windSpeed": 18,
    "windGust": 33,
    "visibility": 10,
    "ceiling": 22000,
    "temp": 25.6,
    "dewpoint": -8.3,
    "altimeter": 29.85,
    "conditions": "",
    "observationTime": "2026-03-31T06:00:00.000Z"
  },
  "ORD": {
    "raw": "METAR KORD 310551Z 19011G22KT 10SM FEW050 SCT250 20/14 A2975 RMK AO2 SLP069 60002 T02000144 10261 20178 402720100 50001 $",
    "icao": "KORD",
    "flightCategory": "VFR",
    "windDir": 190,
    "windSpeed": 11,
    "windGust": 22,
    "visibility": 10,
    "ceiling": null,
    "temp": 20,
    "dewpoint": 14.4,
    "altimeter": 29.75,
    "conditions": "",
    "observationTime": "2026-03-31T06:00:00.000Z"
  }
}