{
  "SYD": {
    "raw": "METAR YSSY 021500Z AUTO 30004KT 9999 // NCD 20/18 Q1021",
    "icao": "YSSY",
    "flightCategory": "VFR",
    "windDir": 300,
    "windSpeed": 4,
    "windGust": null,
    "visibility": 6,
    "ceiling": null,
    "temp": 20,
    "dewpoint": 18,
    "altimeter": 30.15,
    "conditions": "",
    "observationTime": "2026-04-02T15:00:00.000Z"
  },
  "LHR": {
    "raw": "METAR EGLL 021450Z COR AUTO VRB04KT 9999 NCD 11/01 Q1021 NOSIG",
    "icao": "EGLL",
    "flightCategory": "VFR",
    "windDir": null,
    "windSpeed": 4,
    "windGust": null,
    "visibility": 6,
    "ceiling": null,
    "temp": 11,
    "dewpoint": 1,
    "altimeter": 30.15,
    "conditions": "",
    "observationTime": "2026-04-02T15:00:00.000Z"
  },
  "ORD": {
    "raw": "METAR KORD 021451Z 11006KT 2SM -RA BR OVC003 06/06 A2983 RMK AO2 RAE1356B22 TSB1353E10 SLP104 P0000 60002 T00610056 58024",
    "icao": "KORD",
    "flightCategory": "LIFR",
    "windDir": 110,
    "windSpeed": 6,
    "windGust": null,
    "visibility": 2,
    "ceiling": 300,
    "temp": 6.1,
    "dewpoint": 5.6,
    "altimeter": 29.83,
    "conditions": "-RA BR",
    "observationTime": "2026-04-02T15:00:00.000Z"
  },
  "LAS": {
    "raw": "METAR KLAS 021456Z 21015G23KT 10SM FEW070 BKN200 16/04 A2978 RMK AO2 SLP071 T01560044 53019",
    "icao": "KLAS",
    "flightCategory": "VFR",
    "windDir": 210,
    "windSpeed": 15,
    "windGust": 23,
    "visibility": 10,
    "ceiling": 20000,
    "temp": 15.6,
    "dewpoint": 4.4,
    "altimeter": 29.78,
    "conditions": "",
    "observationTime": "2026-04-02T15:00:00.000Z"
  },
  "LAX": {
    "raw": "METAR KLAX 021453Z 27010KT 10SM FEW010 BKN033 BKN160 17/12 A2997 RMK AO2 SLP148 T01670122 53006 $",
    "icao": "KLAX",
    "flightCategory": "VFR",
    "windDir": 270,
    "windSpeed": 10,
    "windGust": null,
    "visibility": 10,
    "ceiling": 3300,
    "temp": 16.7,
    "dewpoint": 12.2,
    "altimeter": 29.97,
    "conditions": "",
    "observationTime": "2026-04-02T15:00:00.000Z"
  }
}