{
  "LHR": {
    "raw": "METAR EGLL 121750Z COR AUTO 21011KT 9999 FEW038 11/05 Q1011 NOSIG",
    "icao": "EGLL",
    "flightCategory": "VFR",
    "windDir": 210,
    "windSpeed": 11,
    "windGust": null,
    "visibility": 6,
    "ceiling": null,
    "temp": 11,
    "dewpoint": 5,
    "altimeter": 29.85,
    "conditions": "",
    "observationTime": "2026-04-12T18:00:00.000Z"
  },
  "SYD": {
    "raw": "METAR YSSY 121730Z AUTO 26013KT 9999 // NCD 13/05 Q1014",
    "icao": "YSSY",
    "flightCategory": "VFR",
    "windDir": 260,
    "windSpeed": 13,
    "windGust": null,
    "visibility": 6,
    "ceiling": null,
    "temp": 13,
    "dewpoint": 5,
    "altimeter": 29.94,
    "conditions": "",
    "observationTime": "2026-04-12T17:30:00.000Z"
  },
  "LAS": {
    "raw": "METAR KLAS 121756Z 21018G28KT 10SM FEW100 SCT200 20/01 A2986 RMK AO2 PK WND 22031/1701 SLP096 T02000006 10200 20156 53002",
    "icao": "KLAS",
    "flightCategory": "VFR",
    "windDir": 210,
    "windSpeed": 18,
    "windGust": 28,
    "visibility": 10,
    "ceiling": null,
    "temp": 20,
    "dewpoint": 0.6,
    "altimeter": 29.86,
    "conditions": "",
    "observationTime": "2026-04-12T18:00:00.000Z"
  },
  "LAX": {
    "raw": "METAR KLAX 121753Z 25013KT 10SM FEW024 SCT046 BKN065 18/11 A3000 RMK AO2 SLP159 60016 T01780106 10183 20144 53013 $",
    "icao": "KLAX",
    "flightCategory": "VFR",
    "windDir": 250,
    "windSpeed": 13,
    "windGust": null,
    "visibility": 10,
    "ceiling": 6500,
    "temp": 17.8,
    "dewpoint": 10.6,
    "altimeter": 30,
    "conditions": "",
    "observationTime": "2026-04-12T18:00:00.000Z"
  },
  "ORD": {
    "raw": "METAR KORD 121751Z 23018G34KT 10SM FEW050 BKN060 BKN140 26/14 A2989 RMK AO2 PK WND 22034/1742 SLP120 T02560139 10256 20156 58020 $",
    "icao": "KORD",
    "flightCategory": "VFR",
    "windDir": 230,
    "windSpeed": 18,
    "windGust": 34,
    "visibility": 10,
    "ceiling": 6000,
    "temp": 25.6,
    "dewpoint": 13.9,
    "altimeter": 29.89,
    "conditions": "",
    "observationTime": "2026-04-12T18:00:00.000Z"
  }
}