{
  "SYD": {
    "raw": "METAR YSSY 071700Z AUTO 34007KT 9999 // OVC062 11/09 Q1031",
    "icao": "YSSY",
    "flightCategory": "VFR",
    "windDir": 340,
    "windSpeed": 7,
    "windGust": null,
    "visibility": 6,
    "ceiling": 6200,
    "temp": 11,
    "dewpoint": 9,
    "altimeter": 30.45,
    "conditions": "",
    "observationTime": "2026-06-07T17:00:00.000Z"
  },
  "LHR": {
    "raw": "METAR EGLL 071720Z AUTO 23013KT 9999 OVC032 17/11 Q1019",
    "icao": "EGLL",
    "flightCategory": "VFR",
    "windDir": 230,
    "windSpeed": 13,
    "windGust": null,
    "visibility": 6,
    "ceiling": 3200,
    "temp": 17,
    "dewpoint": 11,
    "altimeter": 30.09,
    "conditions": "",
    "observationTime": "2026-06-07T17:20:00.000Z"
  },
  "LAS": {
    "raw": "METAR KLAS 071656Z 23017G21KT 10SM FEW150 FEW200 32/M02 A2972 RMK AO2 SLP031 T03171022 $",
    "icao": "KLAS",
    "flightCategory": "VFR",
    "windDir": 230,
    "windSpeed": 17,
    "windGust": 21,
    "visibility": 10,
    "ceiling": null,
    "temp": 31.7,
    "dewpoint": -2.2,
    "altimeter": 29.72,
    "conditions": "",
    "observationTime": "2026-06-07T17:00:00.000Z"
  }
}