{
  "SYD": {
    "raw": "METAR YSSY 090000Z 33008KT CAVOK 26/17 Q1017",
    "icao": "YSSY",
    "flightCategory": "VFR",
    "windDir": 330,
    "windSpeed": 8,
    "windGust": null,
    "visibility": 6,
    "ceiling": null,
    "temp": 26,
    "dewpoint": 17,
    "altimeter": 30.03,
    "conditions": "",
    "observationTime": "2026-04-09T00:00:00.000Z"
  },
  "LHR": {
    "raw": "METAR EGLL 090020Z COR AUTO 26005KT 9999 NCD 15/10 Q1020 NOSIG",
    "icao": "EGLL",
    "flightCategory": "VFR",
    "windDir": 260,
    "windSpeed": 5,
    "windGust": null,
    "visibility": 6,
    "ceiling": null,
    "temp": 15,
    "dewpoint": 10,
    "altimeter": 30.12,
    "conditions": "",
    "observationTime": "2026-04-09T00:20:00.000Z"
  },
  "LAS": {
    "raw": "METAR KLAS 082356Z 08010KT 10SM FEW140 SCT250 33/M07 A2979 RMK AO2 SLP064 T03281067 10328 20272 56021",
    "icao": "KLAS",
    "flightCategory": "VFR",
    "windDir": 80,
    "windSpeed": 10,
    "windGust": null,
    "visibility": 10,
    "ceiling": null,
    "temp": 32.8,
    "dewpoint": -6.7,
    "altimeter": 29.79,
    "conditions": "",
    "observationTime": "2026-04-09T00:00:00.000Z"
  }
}