{
  "LHR": {
    "raw": "METAR EGLL 190450Z COR AUTO 32003KT 290V360 9999 NCD 06/02 Q1025 NOSIG",
    "icao": "EGLL",
    "flightCategory": "VFR",
    "windDir": 320,
    "windSpeed": 3,
    "windGust": null,
    "visibility": 6,
    "ceiling": null,
    "temp": 6,
    "dewpoint": 2,
    "altimeter": 30.27,
    "conditions": "",
    "observationTime": "2026-04-19T05:00:00.000Z"
  },
  "SYD": {
    "raw": "METAR YSSY 190500Z 17014KT CAVOK 19/09 Q1020",
    "icao": "YSSY",
    "flightCategory": "VFR",
    "windDir": 170,
    "windSpeed": 14,
    "windGust": null,
    "visibility": 6,
    "ceiling": null,
    "temp": 19,
    "dewpoint": 9,
    "altimeter": 30.12,
    "conditions": "",
    "observationTime": "2026-04-19T05:00:00.000Z"
  },
  "LAS": {
    "raw": "METAR KLAS 190456Z 23005KT 10SM FEW250 19/M14 A2998 RMK AO2 SLP139 T01891139",
    "icao": "KLAS",
    "flightCategory": "VFR",
    "windDir": 230,
    "windSpeed": 5,
    "windGust": null,
    "visibility": 10,
    "ceiling": null,
    "temp": 18.9,
    "dewpoint": -13.9,
    "altimeter": 29.98,
    "conditions": "",
    "observationTime": "2026-04-19T05:00:00.000Z"
  },
  "LAX": {
    "raw": "METAR KLAX 190453Z 18004KT 10SM SCT220 18/12 A2993 RMK AO2 SLP134 T01830122 $",
    "icao": "KLAX",
    "flightCategory": "VFR",
    "windDir": 180,
    "windSpeed": 4,
    "windGust": null,
    "visibility": 10,
    "ceiling": null,
    "temp": 18.3,
    "dewpoint": 12.2,
    "altimeter": 29.93,
    "conditions": "",
    "observationTime": "2026-04-19T05:00:00.000Z"
  },
  "ORD": {
    "raw": "METAR KORD 190451Z 27005KT 10SM CLR 06/M04 A3006 RMK AO2 SLP183 T00561044 $",
    "icao": "KORD",
    "flightCategory": "VFR",
    "windDir": 270,
    "windSpeed": 5,
    "windGust": null,
    "visibility": 10,
    "ceiling": null,
    "temp": 5.6,
    "dewpoint": -4.4,
    "altimeter": 30.06,
    "conditions": "",
    "observationTime": "2026-04-19T05:00:00.000Z"
  }
}