{
  "LHR": {
    "raw": "METAR EGLL 082350Z COR AUTO 27006KT 9999 NCD 16/11 Q1020 NOSIG",
    "icao": "EGLL",
    "flightCategory": "VFR",
    "windDir": 270,
    "windSpeed": 6,
    "windGust": null,
    "visibility": 6,
    "ceiling": null,
    "temp": 16,
    "dewpoint": 11,
    "altimeter": 30.12,
    "conditions": "",
    "observationTime": "2026-04-09T00:00:00.000Z"
  },
  "SYD": {
    "raw": "METAR YSSY 082330Z 32007KT CAVOK 25/18 Q1017",
    "icao": "YSSY",
    "flightCategory": "VFR",
    "windDir": 320,
    "windSpeed": 7,
    "windGust": null,
    "visibility": 6,
    "ceiling": null,
    "temp": 25,
    "dewpoint": 18,
    "altimeter": 30.03,
    "conditions": "",
    "observationTime": "2026-04-08T23:30:00.000Z"
  },
  "LAS": {
    "raw": "METAR KLAS 082356Z 08010KT 10SM FEW140 SCT250 33/M07 A2979 RMK AO2 SLP064 T03281067 10328 20272 56021",
    "icao": "KLAS",
    "flightCategory": "VFR",
    "windDir": 80,
    "windSpeed": 10,
    "windGust": null,
    "visibility": 10,
    "ceiling": null,
    "temp": 32.8,
    "dewpoint": -6.7,
    "altimeter": 29.79,
    "conditions": "",
    "observationTime": "2026-04-09T00:00:00.000Z"
  },
  "LAX": {
    "raw": "METAR KLAX 082353Z 27012KT 10SM FEW015 20/15 A2988 RMK AO2 SLP118 T02000150 10217 20200 58010 $",
    "icao": "KLAX",
    "flightCategory": "VFR",
    "windDir": 270,
    "windSpeed": 12,
    "windGust": null,
    "visibility": 10,
    "ceiling": null,
    "temp": 20,
    "dewpoint": 15,
    "altimeter": 29.88,
    "conditions": "",
    "observationTime": "2026-04-09T00:00:00.000Z"
  },
  "ORD": {
    "raw": "METAR KORD 082351Z 19018G32KT 10SM FEW080 FEW150 SCT250 21/03 A2998 RMK AO2 PK WND 20035/2252 SLP153 T02110033 10217 20167 55013",
    "icao": "KORD",
    "flightCategory": "VFR",
    "windDir": 190,
    "windSpeed": 18,
    "windGust": 32,
    "visibility": 10,
    "ceiling": null,
    "temp": 21.1,
    "dewpoint": 3.3,
    "altimeter": 29.98,
    "conditions": "",
    "observationTime": "2026-04-09T00:00:00.000Z"
  }
}