{
  "LHR": {
    "raw": "METAR EGLL 101050Z AUTO 26014KT 9999 NCD 16/06 Q1016",
    "icao": "EGLL",
    "flightCategory": "VFR",
    "windDir": 260,
    "windSpeed": 14,
    "windGust": null,
    "visibility": 6,
    "ceiling": null,
    "temp": 16,
    "dewpoint": 6,
    "altimeter": 30,
    "conditions": "",
    "observationTime": "2026-06-10T11:00:00.000Z"
  },
  "SYD": {
    "raw": "METAR YSSY 101030Z AUTO 01006KT 9999 // NCD 19/14 Q1028",
    "icao": "YSSY",
    "flightCategory": "VFR",
    "windDir": 10,
    "windSpeed": 6,
    "windGust": null,
    "visibility": 6,
    "ceiling": null,
    "temp": 19,
    "dewpoint": 14,
    "altimeter": 30.36,
    "conditions": "",
    "observationTime": "2026-06-10T10:30:00.000Z"
  },
  "LAS": {
    "raw": "METAR KLAS 101056Z 21003KT 10SM CLR 26/05 A2981 RMK AO2 SLP064 T02610050",
    "icao": "KLAS",
    "flightCategory": "VFR",
    "windDir": 210,
    "windSpeed": 3,
    "windGust": null,
    "visibility": 10,
    "ceiling": null,
    "temp": 26.1,
    "dewpoint": 5,
    "altimeter": 29.81,
    "conditions": "",
    "observationTime": "2026-06-10T11:00:00.000Z"
  },
  "LAX": {
    "raw": "METAR KLAX 101053Z 13004KT 10SM FEW011 18/16 A2983 RMK AO2 SLP098 T01780156",
    "icao": "KLAX",
    "flightCategory": "VFR",
    "windDir": 130,
    "windSpeed": 4,
    "windGust": null,
    "visibility": 10,
    "ceiling": null,
    "temp": 17.8,
    "dewpoint": 15.6,
    "altimeter": 29.83,
    "conditions": "",
    "observationTime": "2026-06-10T11:00:00.000Z"
  },
  "ORD": {
    "raw": "METAR KORD 101051Z 18003KT 10SM MIFG BKN049 22/21 A2981 RMK AO2 SLP088 T02220206 $",
    "icao": "KORD",
    "flightCategory": "VFR",
    "windDir": 180,
    "windSpeed": 3,
    "windGust": null,
    "visibility": 10,
    "ceiling": 4900,
    "temp": 22.2,
    "dewpoint": 20.6,
    "altimeter": 29.81,
    "conditions": "MIFG",
    "observationTime": "2026-06-10T11:00:00.000Z"
  }
}