{
  "SYD": {
    "raw": "METAR YSSY 181900Z AUTO 30008KT 9999 // NCD 11/07 Q1020",
    "icao": "YSSY",
    "flightCategory": "VFR",
    "windDir": 300,
    "windSpeed": 8,
    "windGust": null,
    "visibility": 6,
    "ceiling": null,
    "temp": 11,
    "dewpoint": 7,
    "altimeter": 30.12,
    "conditions": "",
    "observationTime": "2026-04-18T19:00:00.000Z"
  },
  "LHR": {
    "raw": "METAR EGLL 181850Z COR AUTO 32006KT 9999 NCD 15/03 Q1022 NOSIG",
    "icao": "EGLL",
    "flightCategory": "VFR",
    "windDir": 320,
    "windSpeed": 6,
    "windGust": null,
    "visibility": 6,
    "ceiling": null,
    "temp": 15,
    "dewpoint": 3,
    "altimeter": 30.18,
    "conditions": "",
    "observationTime": "2026-04-18T19:00:00.000Z"
  },
  "LAS": {
    "raw": "METAR KLAS 181856Z 04009G18KT 10SM SCT250 21/M18 A3012 RMK AO2 SLP190 T02061183",
    "icao": "KLAS",
    "flightCategory": "VFR",
    "windDir": 40,
    "windSpeed": 9,
    "windGust": 18,
    "visibility": 10,
    "ceiling": null,
    "temp": 20.6,
    "dewpoint": -18.3,
    "altimeter": 30.12,
    "conditions": "",
    "observationTime": "2026-04-18T19:00:00.000Z"
  },
  "LAX": {
    "raw": "METAR KLAX 181853Z 25008KT 10SM SCT300 23/13 A2998 RMK AO2 SLP150 T02330128 $",
    "icao": "KLAX",
    "flightCategory": "VFR",
    "windDir": 250,
    "windSpeed": 8,
    "windGust": null,
    "visibility": 10,
    "ceiling": null,
    "temp": 23.3,
    "dewpoint": 12.8,
    "altimeter": 29.98,
    "conditions": "",
    "observationTime": "2026-04-18T19:00:00.000Z"
  },
  "ORD": {
    "raw": "METAR KORD 181851Z 27013G27KT 240V310 10SM FEW039 FEW250 09/M01 A2991 RMK AO2 PK WND 25027/1845 SLP127 T00941011 $",
    "icao": "KORD",
    "flightCategory": "VFR",
    "windDir": 270,
    "windSpeed": 13,
    "windGust": 27,
    "visibility": 10,
    "ceiling": null,
    "temp": 9.4,
    "dewpoint": -1.1,
    "altimeter": 29.91,
    "conditions": "",
    "observationTime": "2026-04-18T19:00:00.000Z"
  }
}