{
  "LAX": {
    "raw": "METAR KLAX 221853Z 27009KT 10SM FEW011 BKN023 19/13 A2988 RMK AO2 SLP118 T01890128",
    "icao": "KLAX",
    "flightCategory": "MVFR",
    "windDir": 270,
    "windSpeed": 9,
    "windGust": null,
    "visibility": 10,
    "ceiling": 2300,
    "temp": 18.9,
    "dewpoint": 12.8,
    "altimeter": 29.88,
    "conditions": "",
    "observationTime": "2026-05-22T19:00:00.000Z"
  },
  "LHR": {
    "raw": "METAR EGLL 221850Z AUTO 19011KT 170V230 9999 NCD 25/12 Q1024",
    "icao": "EGLL",
    "flightCategory": "VFR",
    "windDir": 190,
    "windSpeed": 11,
    "windGust": null,
    "visibility": 6,
    "ceiling": null,
    "temp": 25,
    "dewpoint": 12,
    "altimeter": 30.24,
    "conditions": "",
    "observationTime": "2026-05-22T19:00:00.000Z"
  },
  "SYD": {
    "raw": "METAR YSSY 221900Z AUTO 15009KT 9999 // FEW040 BKN049 OVC056 17/12 Q1026",
    "icao": "YSSY",
    "flightCategory": "VFR",
    "windDir": 150,
    "windSpeed": 9,
    "windGust": null,
    "visibility": 6,
    "ceiling": 4900,
    "temp": 17,
    "dewpoint": 12,
    "altimeter": 30.3,
    "conditions": "",
    "observationTime": "2026-05-22T19:00:00.000Z"
  },
  "LAS": {
    "raw": "METAR KLAS 221856Z 00000KT 10SM FEW150 SCT250 29/M06 A2981 RMK AO2 SLP069 T02941056",
    "icao": "KLAS",
    "flightCategory": "VFR",
    "windDir": 0,
    "windSpeed": 0,
    "windGust": null,
    "visibility": 10,
    "ceiling": null,
    "temp": 29.4,
    "dewpoint": -5.6,
    "altimeter": 29.81,
    "conditions": "",
    "observationTime": "2026-05-22T19:00:00.000Z"
  },
  "ORD": {
    "raw": "METAR KORD 221851Z 07015G19KT 10SM FEW060 BKN250 18/07 A3005 RMK AO2 SLP175 T01830067",
    "icao": "KORD",
    "flightCategory": "VFR",
    "windDir": 70,
    "windSpeed": 15,
    "windGust": 19,
    "visibility": 10,
    "ceiling": 25000,
    "temp": 18.3,
    "dewpoint": 6.7,
    "altimeter": 30.05,
    "conditions": "",
    "observationTime": "2026-05-22T19:00:00.000Z"
  }
}