{
  "SYD": {
    "raw": "METAR YSSY 170230Z 27009KT CAVOK 26/06 Q1011",
    "icao": "YSSY",
    "flightCategory": "VFR",
    "windDir": 270,
    "windSpeed": 9,
    "windGust": null,
    "visibility": 6,
    "ceiling": null,
    "temp": 26,
    "dewpoint": 6,
    "altimeter": 29.85,
    "conditions": "",
    "observationTime": "2026-04-17T02:30:00.000Z"
  },
  "LAS": {
    "raw": "METAR KLAS 170256Z 22013KT 10SM FEW170 SCT250 24/M03 A2972 RMK AO2 SLP046 T02391028 53004 $",
    "icao": "KLAS",
    "flightCategory": "VFR",
    "windDir": 220,
    "windSpeed": 13,
    "windGust": null,
    "visibility": 10,
    "ceiling": null,
    "temp": 23.9,
    "dewpoint": -2.8,
    "altimeter": 29.72,
    "conditions": "",
    "observationTime": "2026-04-17T03:00:00.000Z"
  },
  "LAX": {
    "raw": "METAR KLAX 170253Z 24008KT 10SM FEW015 FEW250 17/14 A2987 RMK AO2 SLP115 T01670139 55002",
    "icao": "KLAX",
    "flightCategory": "VFR",
    "windDir": 240,
    "windSpeed": 8,
    "windGust": null,
    "visibility": 10,
    "ceiling": null,
    "temp": 16.7,
    "dewpoint": 13.9,
    "altimeter": 29.87,
    "conditions": "",
    "observationTime": "2026-04-17T03:00:00.000Z"
  },
  "ORD": {
    "raw": "METAR KORD 170251Z 11005KT 10SM FEW005 11/09 A2993 RMK AO2 SLP135 T01060094 53020 $",
    "icao": "KORD",
    "flightCategory": "VFR",
    "windDir": 110,
    "windSpeed": 5,
    "windGust": null,
    "visibility": 10,
    "ceiling": null,
    "temp": 10.6,
    "dewpoint": 9.4,
    "altimeter": 29.93,
    "conditions": "",
    "observationTime": "2026-04-17T03:00:00.000Z"
  },
  "LHR": {
    "raw": "METAR EGLL 170220Z COR AUTO 19007KT 9999 OVC041 11/09 Q1020 NOSIG",
    "icao": "EGLL",
    "flightCategory": "VFR",
    "windDir": 190,
    "windSpeed": 7,
    "windGust": null,
    "visibility": 6,
    "ceiling": 4100,
    "temp": 11,
    "dewpoint": 9,
    "altimeter": 30.12,
    "conditions": "",
    "observationTime": "2026-04-17T02:20:00.000Z"
  }
}