{
  "LHR": {
    "raw": "METAR EGLL 081150Z AUTO 21008KT 160V250 9999 -RA NCD 14/13 Q1012",
    "icao": "EGLL",
    "flightCategory": "VFR",
    "windDir": 210,
    "windSpeed": 8,
    "windGust": null,
    "visibility": 6,
    "ceiling": null,
    "temp": 14,
    "dewpoint": 13,
    "altimeter": 29.88,
    "conditions": "-RA",
    "observationTime": "2026-06-08T12:00:00.000Z"
  },
  "SYD": {
    "raw": "METAR YSSY 081200Z AUTO 35006KT 9999 // SCT038 OVC052 17/13 Q1031",
    "icao": "YSSY",
    "flightCategory": "VFR",
    "windDir": 350,
    "windSpeed": 6,
    "windGust": null,
    "visibility": 6,
    "ceiling": 5200,
    "temp": 17,
    "dewpoint": 13,
    "altimeter": 30.45,
    "conditions": "",
    "observationTime": "2026-06-08T12:00:00.000Z"
  },
  "LAS": {
    "raw": "METAR KLAS 081156Z 16007KT 10SM FEW250 24/M01 A2975 RMK AO2 SLP044 T02441006 10311 20244 53004 $",
    "icao": "KLAS",
    "flightCategory": "VFR",
    "windDir": 160,
    "windSpeed": 7,
    "windGust": null,
    "visibility": 10,
    "ceiling": null,
    "temp": 24.4,
    "dewpoint": -0.6,
    "altimeter": 29.75,
    "conditions": "",
    "observationTime": "2026-06-08T12:00:00.000Z"
  },
  "LAX": {
    "raw": "METAR KLAX 081153Z 11005KT 10SM OVC022 18/12 A2984 RMK AO2 SLP102 T01780122 10178 20167 55004 $",
    "icao": "KLAX",
    "flightCategory": "MVFR",
    "windDir": 110,
    "windSpeed": 5,
    "windGust": null,
    "visibility": 10,
    "ceiling": 2200,
    "temp": 17.8,
    "dewpoint": 12.2,
    "altimeter": 29.84,
    "conditions": "",
    "observationTime": "2026-06-08T12:00:00.000Z"
  },
  "ORD": {
    "raw": "METAR KORD 081151Z 10007KT 10SM FEW055 SCT100 BKN150 OVC250 21/18 A2998 RMK AO2 RAE1057 SLP149 CB DSNT N P0000 60019 70019 T02060183 10222 20183 51010",
    "icao": "KORD",
    "flightCategory": "VFR",
    "windDir": 100,
    "windSpeed": 7,
    "windGust": null,
    "visibility": 10,
    "ceiling": 15000,
    "temp": 20.6,
    "dewpoint": 18.3,
    "altimeter": 29.98,
    "conditions": "",
    "observationTime": "2026-06-08T12:00:00.000Z"
  }
}