{
  "SYD": {
    "raw": "SPECI YSSY 011752Z AUTO 33005KT 5000 HZ BKN014 BKN027 BKN034 17/15 Q1025",
    "icao": "YSSY",
    "flightCategory": "MVFR",
    "windDir": 330,
    "windSpeed": 5,
    "windGust": null,
    "visibility": 3.11,
    "ceiling": 1400,
    "temp": 17,
    "dewpoint": 15,
    "altimeter": 30.27,
    "conditions": "HZ",
    "observationTime": "2026-05-01T17:52:00.000Z"
  },
  "LHR": {
    "raw": "METAR EGLL 011750Z COR AUTO 24012KT 9999 NCD 21/12 Q1019 NOSIG",
    "icao": "EGLL",
    "flightCategory": "VFR",
    "windDir": 240,
    "windSpeed": 12,
    "windGust": null,
    "visibility": 6,
    "ceiling": null,
    "temp": 21,
    "dewpoint": 12,
    "altimeter": 30.09,
    "conditions": "",
    "observationTime": "2026-05-01T18:00:00.000Z"
  },
  "LAS": {
    "raw": "METAR KLAS 011756Z 03008G16KT 10SM FEW130 26/M07 A2999 RMK AO2 SLP135 T02561072 10261 20178 50004",
    "icao": "KLAS",
    "flightCategory": "VFR",
    "windDir": 30,
    "windSpeed": 8,
    "windGust": 16,
    "visibility": 10,
    "ceiling": null,
    "temp": 25.6,
    "dewpoint": -7.2,
    "altimeter": 29.99,
    "conditions": "",
    "observationTime": "2026-05-01T18:00:00.000Z"
  },
  "LAX": {
    "raw": "METAR KLAX 011753Z 18004KT 10SM BKN025 20/12 A2997 RMK AO2 SLP148 T02000122 10200 20161 50004",
    "icao": "KLAX",
    "flightCategory": "MVFR",
    "windDir": 180,
    "windSpeed": 4,
    "windGust": null,
    "visibility": 10,
    "ceiling": 2500,
    "temp": 20,
    "dewpoint": 12.2,
    "altimeter": 29.97,
    "conditions": "",
    "observationTime": "2026-05-01T18:00:00.000Z"
  },
  "ORD": {
    "raw": "METAR KORD 011751Z 05010G18KT 10SM FEW042 BKN060 BKN080 08/01 A3001 RMK AO2 SLP167 T00830011 10100 20050 53001 $",
    "icao": "KORD",
    "flightCategory": "VFR",
    "windDir": 50,
    "windSpeed": 10,
    "windGust": 18,
    "visibility": 10,
    "ceiling": 6000,
    "temp": 8.3,
    "dewpoint": 1.1,
    "altimeter": 30.01,
    "conditions": "",
    "observationTime": "2026-05-01T18:00:00.000Z"
  }
}