{
  "ORD": {
    "raw": "METAR KORD 211451Z 03010KT 10SM BKN018 BKN025 OVC033 09/04 A3030 RMK AO2 SLP264 BKN018 V SCT T00940039 50000",
    "icao": "KORD",
    "flightCategory": "MVFR",
    "windDir": 30,
    "windSpeed": 10,
    "windGust": null,
    "visibility": 10,
    "ceiling": 1800,
    "temp": 9.4,
    "dewpoint": 3.9,
    "altimeter": 30.3,
    "conditions": "",
    "observationTime": "2026-05-21T15:00:00.000Z"
  },
  "SYD": {
    "raw": "METAR YSSY 211500Z AUTO 23011KT 9999 // SCT039 SCT046 BKN064 15/14 Q1027",
    "icao": "YSSY",
    "flightCategory": "VFR",
    "windDir": 230,
    "windSpeed": 11,
    "windGust": null,
    "visibility": 6,
    "ceiling": 6400,
    "temp": 15,
    "dewpoint": 14,
    "altimeter": 30.33,
    "conditions": "",
    "observationTime": "2026-05-21T15:00:00.000Z"
  },
  "LHR": {
    "raw": "METAR EGLL 211450Z AUTO 23010KT 190V260 9999 OVC040 23/13 Q1025",
    "icao": "EGLL",
    "flightCategory": "VFR",
    "windDir": 230,
    "windSpeed": 10,
    "windGust": null,
    "visibility": 6,
    "ceiling": 4000,
    "temp": 23,
    "dewpoint": 13,
    "altimeter": 30.27,
    "conditions": "",
    "observationTime": "2026-05-21T15:00:00.000Z"
  },
  "LAS": {
    "raw": "METAR KLAS 211456Z VRB03KT 10SM SCT250 23/M09 A2990 RMK AO2 SLP102 T02331089 53009",
    "icao": "KLAS",
    "flightCategory": "VFR",
    "windDir": null,
    "windSpeed": 3,
    "windGust": null,
    "visibility": 10,
    "ceiling": null,
    "temp": 23.3,
    "dewpoint": -8.9,
    "altimeter": 29.9,
    "conditions": "",
    "observationTime": "2026-05-21T15:00:00.000Z"
  },
  "LAX": {
    "raw": "METAR KLAX 211453Z 12005KT 7SM FEW008 SCT012 19/16 A2989 RMK AO2 SLP120 T01890156 53012 $",
    "icao": "KLAX",
    "flightCategory": "VFR",
    "windDir": 120,
    "windSpeed": 5,
    "windGust": null,
    "visibility": 7,
    "ceiling": null,
    "temp": 18.9,
    "dewpoint": 15.6,
    "altimeter": 29.89,
    "conditions": "",
    "observationTime": "2026-05-21T15:00:00.000Z"
  }
}