{
  "ORD": {
    "raw": "METAR KORD 061051Z 20003KT 10SM -RA BKN018CB BKN060 OVC120 22/21 A2983 RMK AO2 RAB27 TSB30E46 SLP098 CB SE-SW MOV SE P0000 T02220211 $",
    "icao": "KORD",
    "flightCategory": "MVFR",
    "windDir": 200,
    "windSpeed": 3,
    "windGust": null,
    "visibility": 10,
    "ceiling": 1800,
    "temp": 22.2,
    "dewpoint": 21.1,
    "altimeter": 29.83,
    "conditions": "-RA",
    "observationTime": "2026-06-06T11:00:00.000Z"
  },
  "SYD": {
    "raw": "METAR YSSY 061100Z AUTO 28004KT 9999 // NCD 13/08 Q1028",
    "icao": "YSSY",
    "flightCategory": "VFR",
    "windDir": 280,
    "windSpeed": 4,
    "windGust": null,
    "visibility": 6,
    "ceiling": null,
    "temp": 13,
    "dewpoint": 8,
    "altimeter": 30.36,
    "conditions": "",
    "observationTime": "2026-06-06T11:00:00.000Z"
  },
  "LHR": {
    "raw": "METAR EGLL 061050Z COR 20015G29KT 170V240 7000 SHRA BKN022 BKN030 BKN048 16/12 Q1005",
    "icao": "EGLL",
    "flightCategory": "MVFR",
    "windDir": 200,
    "windSpeed": 15,
    "windGust": 29,
    "visibility": 4.35,
    "ceiling": 2200,
    "temp": 16,
    "dewpoint": 12,
    "altimeter": 29.68,
    "conditions": "SHRA",
    "observationTime": "2026-06-06T11:00:00.000Z"
  },
  "LAS": {
    "raw": "METAR KLAS 061056Z 18007G17KT 10SM CLR 29/01 A2971 RMK AO2 SLP028 T02890011",
    "icao": "KLAS",
    "flightCategory": "VFR",
    "windDir": 180,
    "windSpeed": 7,
    "windGust": 17,
    "visibility": 10,
    "ceiling": null,
    "temp": 28.9,
    "dewpoint": 1.1,
    "altimeter": 29.71,
    "conditions": "",
    "observationTime": "2026-06-06T11:00:00.000Z"
  },
  "LAX": {
    "raw": "METAR KLAX 061053Z 16005KT 10SM SCT013 OVC017 18/14 A2984 RMK AO2 SLP101 T01830139 $",
    "icao": "KLAX",
    "flightCategory": "MVFR",
    "windDir": 160,
    "windSpeed": 5,
    "windGust": null,
    "visibility": 10,
    "ceiling": 1700,
    "temp": 18.3,
    "dewpoint": 13.9,
    "altimeter": 29.84,
    "conditions": "",
    "observationTime": "2026-06-06T11:00:00.000Z"
  }
}