{
  "SYD": {
    "raw": "METAR YSSY 130030Z 24014KT CAVOK 19/06 Q1018",
    "icao": "YSSY",
    "flightCategory": "VFR",
    "windDir": 240,
    "windSpeed": 14,
    "windGust": null,
    "visibility": 6,
    "ceiling": null,
    "temp": 19,
    "dewpoint": 6,
    "altimeter": 30.06,
    "conditions": "",
    "observationTime": "2026-04-13T00:30:00.000Z"
  },
  "LAS": {
    "raw": "METAR KLAS 130056Z 24026G38KT 10SM FEW080 BKN120 19/02 A2983 RMK AO2 PK WND 25038/0053 SLP089 T01890022",
    "icao": "KLAS",
    "flightCategory": "VFR",
    "windDir": 240,
    "windSpeed": 26,
    "windGust": 38,
    "visibility": 10,
    "ceiling": 12000,
    "temp": 18.9,
    "dewpoint": 2.2,
    "altimeter": 29.83,
    "conditions": "",
    "observationTime": "2026-04-13T01:00:00.000Z"
  },
  "LAX": {
    "raw": "METAR KLAX 130053Z 26016KT 10SM FEW060 FEW085 SCT250 18/09 A2999 RMK AO2 SLP155 T01780094 $",
    "icao": "KLAX",
    "flightCategory": "VFR",
    "windDir": 260,
    "windSpeed": 16,
    "windGust": null,
    "visibility": 10,
    "ceiling": null,
    "temp": 17.8,
    "dewpoint": 9.4,
    "altimeter": 29.99,
    "conditions": "",
    "observationTime": "2026-04-13T01:00:00.000Z"
  },
  "ORD": {
    "raw": "METAR KORD 130051Z 19013G27KT 10SM -RA FEW060 SCT075 OVC100 21/13 A2980 RMK AO2 PK WND 19038/0023 SLP088 P0000 T02110128 $",
    "icao": "KORD",
    "flightCategory": "VFR",
    "windDir": 190,
    "windSpeed": 13,
    "windGust": 27,
    "visibility": 10,
    "ceiling": 10000,
    "temp": 21.1,
    "dewpoint": 12.8,
    "altimeter": 29.8,
    "conditions": "-RA",
    "observationTime": "2026-04-13T01:00:00.000Z"
  },
  "LHR": {
    "raw": "METAR EGLL 130020Z COR AUTO 18005KT 9999 NCD 05/03 Q1013 NOSIG",
    "icao": "EGLL",
    "flightCategory": "VFR",
    "windDir": 180,
    "windSpeed": 5,
    "windGust": null,
    "visibility": 6,
    "ceiling": null,
    "temp": 5,
    "dewpoint": 3,
    "altimeter": 29.91,
    "conditions": "",
    "observationTime": "2026-04-13T00:20:00.000Z"
  }
}