{
  "ORD": {
    "raw": "METAR KORD 020151Z 04008KT 10SM FEW034 FEW060 SCT085 04/M04 A3008 RMK AO2 SLP191 T00391039 $",
    "icao": "KORD",
    "flightCategory": "VFR",
    "windDir": 40,
    "windSpeed": 8,
    "windGust": null,
    "visibility": 10,
    "ceiling": null,
    "temp": 3.9,
    "dewpoint": -3.9,
    "altimeter": 30.08,
    "conditions": "",
    "observationTime": "2026-05-02T02:00:00.000Z"
  },
  "LHR": {
    "raw": "METAR EGLL 020120Z COR AUTO 18004KT 9999 NCD 11/09 Q1019 NOSIG",
    "icao": "EGLL",
    "flightCategory": "VFR",
    "windDir": 180,
    "windSpeed": 4,
    "windGust": null,
    "visibility": 6,
    "ceiling": null,
    "temp": 11,
    "dewpoint": 9,
    "altimeter": 30.09,
    "conditions": "",
    "observationTime": "2026-05-02T01:20:00.000Z"
  },
  "SYD": {
    "raw": "METAR YSSY 020100Z 01010KT 9999 BKN027 23/16 Q1025",
    "icao": "YSSY",
    "flightCategory": "MVFR",
    "windDir": 10,
    "windSpeed": 10,
    "windGust": null,
    "visibility": 6,
    "ceiling": 2700,
    "temp": 23,
    "dewpoint": 16,
    "altimeter": 30.27,
    "conditions": "",
    "observationTime": "2026-05-02T01:00:00.000Z"
  },
  "LAS": {
    "raw": "METAR KLAS 020056Z 11006KT 10SM FEW150 28/M07 A2988 RMK AO2 SLP099 T02831072",
    "icao": "KLAS",
    "flightCategory": "VFR",
    "windDir": 110,
    "windSpeed": 6,
    "windGust": null,
    "visibility": 10,
    "ceiling": null,
    "temp": 28.3,
    "dewpoint": -7.2,
    "altimeter": 29.88,
    "conditions": "",
    "observationTime": "2026-05-02T01:00:00.000Z"
  }
}