{
  "ORD": {
    "raw": "METAR KORD 110951Z 21006KT 10SM FEW010 FEW080 SCT160 BKN250 19/18 A2975 RMK AO2 SLP069 T01890183 $",
    "icao": "KORD",
    "flightCategory": "VFR",
    "windDir": 210,
    "windSpeed": 6,
    "windGust": null,
    "visibility": 10,
    "ceiling": 25000,
    "temp": 18.9,
    "dewpoint": 18.3,
    "altimeter": 29.75,
    "conditions": "",
    "observationTime": "2026-06-11T10:00:00.000Z"
  },
  "LHR": {
    "raw": "METAR EGLL 110920Z AUTO 24013KT 9999 -RA FEW018/// //////TCU 13/10 Q1020",
    "icao": "EGLL",
    "flightCategory": "VFR",
    "windDir": 240,
    "windSpeed": 13,
    "windGust": null,
    "visibility": 6,
    "ceiling": null,
    "temp": 13,
    "dewpoint": 10,
    "altimeter": 30.12,
    "conditions": "-RA",
    "observationTime": "2026-06-11T09:20:00.000Z"
  },
  "SYD": {
    "raw": "METAR YSSY 110900Z AUTO 17009KT 9999 // SCT018 SCT026 18/16 Q1031",
    "icao": "YSSY",
    "flightCategory": "VFR",
    "windDir": 170,
    "windSpeed": 9,
    "windGust": null,
    "visibility": 6,
    "ceiling": null,
    "temp": 18,
    "dewpoint": 16,
    "altimeter": 30.45,
    "conditions": "",
    "observationTime": "2026-06-11T09:00:00.000Z"
  },
  "LAS": {
    "raw": "METAR KLAS 110856Z 20004KT 10SM CLR 32/01 A2975 RMK AO2 SLP040 T03220006 53004",
    "icao": "KLAS",
    "flightCategory": "VFR",
    "windDir": 200,
    "windSpeed": 4,
    "windGust": null,
    "visibility": 10,
    "ceiling": null,
    "temp": 32.2,
    "dewpoint": 0.6,
    "altimeter": 29.75,
    "conditions": "",
    "observationTime": "2026-06-11T09:00:00.000Z"
  }
}