{
  "LAS": {
    "raw": "METAR KLAS 121656Z 33003KT 10SM FEW120 FEW200 SCT250 34/03 A2987 RMK AO2 SLP082 T03440028",
    "icao": "KLAS",
    "flightCategory": "VFR",
    "windDir": 330,
    "windSpeed": 3,
    "windGust": null,
    "visibility": 10,
    "ceiling": null,
    "temp": 34.4,
    "dewpoint": 2.8,
    "altimeter": 29.87,
    "conditions": "",
    "observationTime": "2026-06-12T17:00:00.000Z"
  },
  "LAX": {
    "raw": "METAR KLAX 121653Z 23005KT 10SM FEW009 SCT015 22/17 A2989 RMK AO2 SLP119 T02220167",
    "icao": "KLAX",
    "flightCategory": "VFR",
    "windDir": 230,
    "windSpeed": 5,
    "windGust": null,
    "visibility": 10,
    "ceiling": null,
    "temp": 22.2,
    "dewpoint": 16.7,
    "altimeter": 29.89,
    "conditions": "",
    "observationTime": "2026-06-12T17:00:00.000Z"
  },
  "ORD": {
    "raw": "METAR KORD 121651Z 26012G23KT 10SM FEW044 24/13 A2992 RMK AO2 SLP127 T02390133",
    "icao": "KORD",
    "flightCategory": "VFR",
    "windDir": 260,
    "windSpeed": 12,
    "windGust": 23,
    "visibility": 10,
    "ceiling": null,
    "temp": 23.9,
    "dewpoint": 13.3,
    "altimeter": 29.92,
    "conditions": "",
    "observationTime": "2026-06-12T17:00:00.000Z"
  },
  "LHR": {
    "raw": "METAR EGLL 121620Z AUTO 26022KT 9999 NCD 22/11 Q1020",
    "icao": "EGLL",
    "flightCategory": "VFR",
    "windDir": 260,
    "windSpeed": 22,
    "windGust": null,
    "visibility": 6,
    "ceiling": null,
    "temp": 22,
    "dewpoint": 11,
    "altimeter": 30.12,
    "conditions": "",
    "observationTime": "2026-06-12T16:20:00.000Z"
  },
  "SYD": {
    "raw": "METAR YSSY 121630Z AUTO 31004KT 9999 // NCD 15/14 Q1030",
    "icao": "YSSY",
    "flightCategory": "VFR",
    "windDir": 310,
    "windSpeed": 4,
    "windGust": null,
    "visibility": 6,
    "ceiling": null,
    "temp": 15,
    "dewpoint": 14,
    "altimeter": 30.42,
    "conditions": "",
    "observationTime": "2026-06-12T16:30:00.000Z"
  }
}