{
  "SYD": {
    "raw": "METAR YSSY 190130Z 27008KT 9999 FEW018 BKN060 BKN100 20/15 Q1007",
    "icao": "YSSY",
    "flightCategory": "VFR",
    "windDir": 270,
    "windSpeed": 8,
    "windGust": null,
    "visibility": 6,
    "ceiling": 6000,
    "temp": 20,
    "dewpoint": 15,
    "altimeter": 29.74,
    "conditions": "",
    "observationTime": "2026-05-19T01:30:00.000Z"
  },
  "LAS": {
    "raw": "METAR KLAS 190156Z 05009KT 10SM FEW120 23/M10 A2992 RMK AO2 SLP116 T02331100",
    "icao": "KLAS",
    "flightCategory": "VFR",
    "windDir": 50,
    "windSpeed": 9,
    "windGust": null,
    "visibility": 10,
    "ceiling": null,
    "temp": 23.3,
    "dewpoint": -10,
    "altimeter": 29.92,
    "conditions": "",
    "observationTime": "2026-05-19T02:00:00.000Z"
  },
  "LAX": {
    "raw": "METAR KLAX 190153Z 22011KT 8SM CLR 19/13 A2988 RMK AO2 SLP117 T01890128",
    "icao": "KLAX",
    "flightCategory": "VFR",
    "windDir": 220,
    "windSpeed": 11,
    "windGust": null,
    "visibility": 8,
    "ceiling": null,
    "temp": 18.9,
    "dewpoint": 12.8,
    "altimeter": 29.88,
    "conditions": "",
    "observationTime": "2026-05-19T02:00:00.000Z"
  },
  "ORD": {
    "raw": "METAR KORD 190151Z 20013G19KT 10SM FEW090 FEW170 OVC250 22/17 A2989 RMK AO2 SLP116 T02170172",
    "icao": "KORD",
    "flightCategory": "VFR",
    "windDir": 200,
    "windSpeed": 13,
    "windGust": 19,
    "visibility": 10,
    "ceiling": 25000,
    "temp": 21.7,
    "dewpoint": 17.2,
    "altimeter": 29.89,
    "conditions": "",
    "observationTime": "2026-05-19T02:00:00.000Z"
  },
  "LHR": {
    "raw": "METAR EGLL 190150Z AUTO 16010KT 9999 -RA OVC010 11/09 Q1010",
    "icao": "EGLL",
    "flightCategory": "MVFR",
    "windDir": 160,
    "windSpeed": 10,
    "windGust": null,
    "visibility": 6,
    "ceiling": 1000,
    "temp": 11,
    "dewpoint": 9,
    "altimeter": 29.83,
    "conditions": "-RA",
    "observationTime": "2026-05-19T02:00:00.000Z"
  }
}