{
  "SYD": {
    "raw": "METAR YSSY 011530Z AUTO 02014KT 9999 // OVC110 19/12 Q1010",
    "icao": "YSSY",
    "flightCategory": "VFR",
    "windDir": 20,
    "windSpeed": 14,
    "windGust": null,
    "visibility": 6,
    "ceiling": 11000,
    "temp": 19,
    "dewpoint": 12,
    "altimeter": 29.83,
    "conditions": "",
    "observationTime": "2026-07-01T15:30:00.000Z"
  },
  "LAS": {
    "raw": "METAR KLAS 011556Z 15005KT 10SM CLR 28/02 A2984 RMK AO2 SLP077 T02830022",
    "icao": "KLAS",
    "flightCategory": "VFR",
    "windDir": 150,
    "windSpeed": 5,
    "windGust": null,
    "visibility": 10,
    "ceiling": null,
    "temp": 28.3,
    "dewpoint": 2.2,
    "altimeter": 29.84,
    "conditions": "",
    "observationTime": "2026-07-01T16:00:00.000Z"
  },
  "LAX": {
    "raw": "METAR KLAX 011553Z 25005KT 10SM BKN019 BKN024 OVC034 19/14 A2994 RMK AO2 SLP135 T01890144 $",
    "icao": "KLAX",
    "flightCategory": "MVFR",
    "windDir": 250,
    "windSpeed": 5,
    "windGust": null,
    "visibility": 10,
    "ceiling": 1900,
    "temp": 18.9,
    "dewpoint": 14.4,
    "altimeter": 29.94,
    "conditions": "",
    "observationTime": "2026-07-01T16:00:00.000Z"
  },
  "ORD": {
    "raw": "METAR KORD 011551Z 22014G22KT 10SM FEW300 31/22 A2998 RMK AO2 SLP145 T03110217",
    "icao": "KORD",
    "flightCategory": "VFR",
    "windDir": 220,
    "windSpeed": 14,
    "windGust": 22,
    "visibility": 10,
    "ceiling": null,
    "temp": 31.1,
    "dewpoint": 21.7,
    "altimeter": 29.98,
    "conditions": "",
    "observationTime": "2026-07-01T16:00:00.000Z"
  },
  "LHR": {
    "raw": "METAR EGLL 011520Z AUTO 27010KT 240V320 9999 NCD 26/11 Q1023",
    "icao": "EGLL",
    "flightCategory": "VFR",
    "windDir": 270,
    "windSpeed": 10,
    "windGust": null,
    "visibility": 6,
    "ceiling": null,
    "temp": 26,
    "dewpoint": 11,
    "altimeter": 30.21,
    "conditions": "",
    "observationTime": "2026-07-01T15:20:00.000Z"
  }
}