{
  "LAX": {
    "raw": "SPECI KLAX 161320Z 27003KT 10SM FEW009 BKN012 OVC160 15/13 A2992 RMK AO2 T01500128",
    "icao": "KLAX",
    "flightCategory": "MVFR",
    "windDir": 270,
    "windSpeed": 3,
    "windGust": null,
    "visibility": 10,
    "ceiling": 1200,
    "temp": 15,
    "dewpoint": 12.8,
    "altimeter": 29.92,
    "conditions": "",
    "observationTime": "2026-04-16T13:20:00.000Z"
  },
  "ORD": {
    "raw": "METAR KORD 161351Z 23008KT 10SM OVC013 17/15 A2973 RMK AO2 SLP065 T01720150 $",
    "icao": "KORD",
    "flightCategory": "MVFR",
    "windDir": 230,
    "windSpeed": 8,
    "windGust": null,
    "visibility": 10,
    "ceiling": 1300,
    "temp": 17.2,
    "dewpoint": 15,
    "altimeter": 29.73,
    "conditions": "",
    "observationTime": "2026-04-16T14:00:00.000Z"
  },
  "LHR": {
    "raw": "METAR EGLL 161320Z COR AUTO 25012KT 9999 FEW042 17/08 Q1019 NOSIG",
    "icao": "EGLL",
    "flightCategory": "VFR",
    "windDir": 250,
    "windSpeed": 12,
    "windGust": null,
    "visibility": 6,
    "ceiling": null,
    "temp": 17,
    "dewpoint": 8,
    "altimeter": 30.09,
    "conditions": "",
    "observationTime": "2026-04-16T13:20:00.000Z"
  },
  "SYD": {
    "raw": "METAR YSSY 161300Z AUTO 33007KT 9999 // NCD 20/16 Q1014",
    "icao": "YSSY",
    "flightCategory": "VFR",
    "windDir": 330,
    "windSpeed": 7,
    "windGust": null,
    "visibility": 6,
    "ceiling": null,
    "temp": 20,
    "dewpoint": 16,
    "altimeter": 29.94,
    "conditions": "",
    "observationTime": "2026-04-16T13:00:00.000Z"
  },
  "LAS": {
    "raw": "METAR KLAS 161256Z 17007G15KT 10SM SCT200 BKN250 18/01 A2982 RMK AO2 SLP080 T01830006",
    "icao": "KLAS",
    "flightCategory": "VFR",
    "windDir": 170,
    "windSpeed": 7,
    "windGust": 15,
    "visibility": 10,
    "ceiling": 25000,
    "temp": 18.3,
    "dewpoint": 0.6,
    "altimeter": 29.82,
    "conditions": "",
    "observationTime": "2026-04-16T13:00:00.000Z"
  }
}