{
  "SYD": {
    "raw": "METAR YSSY 211600Z AUTO 16012KT 9999 // FEW031 BKN054 OVC062 18/12 Q1025",
    "icao": "YSSY",
    "flightCategory": "VFR",
    "windDir": 160,
    "windSpeed": 12,
    "windGust": null,
    "visibility": 6,
    "ceiling": 5400,
    "temp": 18,
    "dewpoint": 12,
    "altimeter": 30.27,
    "conditions": "",
    "observationTime": "2026-04-21T16:00:00.000Z"
  },
  "LHR": {
    "raw": "METAR EGLL 211550Z COR AUTO 08015KT 040V110 9999 FEW048 14/03 Q1024 NOSIG",
    "icao": "EGLL",
    "flightCategory": "VFR",
    "windDir": 80,
    "windSpeed": 15,
    "windGust": null,
    "visibility": 6,
    "ceiling": null,
    "temp": 14,
    "dewpoint": 3,
    "altimeter": 30.24,
    "conditions": "",
    "observationTime": "2026-04-21T16:00:00.000Z"
  },
  "LAS": {
    "raw": "METAR KLAS 211556Z 14005KT 10SM FEW220 24/M02 A2991 RMK AO2 SLP108 T02391022",
    "icao": "KLAS",
    "flightCategory": "VFR",
    "windDir": 140,
    "windSpeed": 5,
    "windGust": null,
    "visibility": 10,
    "ceiling": null,
    "temp": 23.9,
    "dewpoint": -2.2,
    "altimeter": 29.91,
    "conditions": "",
    "observationTime": "2026-04-21T16:00:00.000Z"
  },
  "LAX": {
    "raw": "METAR KLAX 211553Z 13004KT 10SM FEW020 BKN035 BKN160 BKN250 17/12 A3004 RMK AO2 SLP171 T01670117 $",
    "icao": "KLAX",
    "flightCategory": "VFR",
    "windDir": 130,
    "windSpeed": 4,
    "windGust": null,
    "visibility": 10,
    "ceiling": 3500,
    "temp": 16.7,
    "dewpoint": 11.7,
    "altimeter": 30.04,
    "conditions": "",
    "observationTime": "2026-04-21T16:00:00.000Z"
  },
  "ORD": {
    "raw": "METAR KORD 211551Z 23015G26KT 10SM FEW070 FEW170 SCT250 19/07 A2992 RMK AO2 PK WND 23026/1507 SLP131 CB DSNT N-NE T01940072 $",
    "icao": "KORD",
    "flightCategory": "VFR",
    "windDir": 230,
    "windSpeed": 15,
    "windGust": 26,
    "visibility": 10,
    "ceiling": null,
    "temp": 19.4,
    "dewpoint": 7.2,
    "altimeter": 29.92,
    "conditions": "",
    "observationTime": "2026-04-21T16:00:00.000Z"
  }
}