{
  "LHR": {
    "raw": "METAR EGLL 031050Z 18013KT 160V230 7000 -RADZ FEW007 BKN008 OVC015 14/13 Q1002",
    "icao": "EGLL",
    "flightCategory": "IFR",
    "windDir": 180,
    "windSpeed": 13,
    "windGust": null,
    "visibility": 4.35,
    "ceiling": 800,
    "temp": 14,
    "dewpoint": 13,
    "altimeter": 29.59,
    "conditions": "-RA -DZ",
    "observationTime": "2026-06-03T11:00:00.000Z"
  },
  "SYD": {
    "raw": "METAR YSSY 031030Z AUTO 32008KT 9999 // FEW065 17/06 Q1005",
    "icao": "YSSY",
    "flightCategory": "VFR",
    "windDir": 320,
    "windSpeed": 8,
    "windGust": null,
    "visibility": 6,
    "ceiling": null,
    "temp": 17,
    "dewpoint": 6,
    "altimeter": 29.68,
    "conditions": "",
    "observationTime": "2026-06-03T10:30:00.000Z"
  },
  "LAS": {
    "raw": "METAR KLAS 031056Z 00000KT 10SM SCT250 27/M04 A2991 RMK AO2 SLP098 T02671039 $",
    "icao": "KLAS",
    "flightCategory": "VFR",
    "windDir": 0,
    "windSpeed": 0,
    "windGust": null,
    "visibility": 10,
    "ceiling": null,
    "temp": 26.7,
    "dewpoint": -3.9,
    "altimeter": 29.91,
    "conditions": "",
    "observationTime": "2026-06-03T11:00:00.000Z"
  },
  "LAX": {
    "raw": "METAR KLAX 031053Z 28004KT 10SM OVC012 16/13 A2998 RMK AO2 SLP148 T01610133 $",
    "icao": "KLAX",
    "flightCategory": "MVFR",
    "windDir": 280,
    "windSpeed": 4,
    "windGust": null,
    "visibility": 10,
    "ceiling": 1200,
    "temp": 16.1,
    "dewpoint": 13.3,
    "altimeter": 29.98,
    "conditions": "",
    "observationTime": "2026-06-03T11:00:00.000Z"
  },
  "ORD": {
    "raw": "METAR KORD 031051Z 36003KT 10SM FEW250 12/07 A3036 RMK AO2 SLP280 T01220067 $",
    "icao": "KORD",
    "flightCategory": "VFR",
    "windDir": 360,
    "windSpeed": 3,
    "windGust": null,
    "visibility": 10,
    "ceiling": null,
    "temp": 12.2,
    "dewpoint": 6.7,
    "altimeter": 30.36,
    "conditions": "",
    "observationTime": "2026-06-03T11:00:00.000Z"
  }
}