{
  "LAX": {
    "raw": "METAR KLAX 101153Z 26003KT 10SM FEW008 SCT012 SCT250 15/13 A2993 RMK AO2 SLP132 T01500133 10172 20150 56012 $",
    "icao": "KLAX",
    "flightCategory": "VFR",
    "windDir": 260,
    "windSpeed": 3,
    "windGust": null,
    "visibility": 10,
    "ceiling": null,
    "temp": 15,
    "dewpoint": 13.3,
    "altimeter": 29.93,
    "conditions": "",
    "observationTime": "2026-04-10T12:00:00.000Z"
  },
  "ORD": {
    "raw": "METAR KORD 101151Z 34011KT 3SM -RA BR OVC004 06/06 A3014 RMK AO2 RAB42 SLP208 P0000 60032 70033 T00610056 10072 20061 53025",
    "icao": "KORD",
    "flightCategory": "LIFR",
    "windDir": 340,
    "windSpeed": 11,
    "windGust": null,
    "visibility": 3,
    "ceiling": 400,
    "temp": 6.1,
    "dewpoint": 5.6,
    "altimeter": 30.14,
    "conditions": "-RA BR",
    "observationTime": "2026-04-10T12:00:00.000Z"
  },
  "SYD": {
    "raw": "METAR YSSY 101200Z AUTO 36007KT 9999 // NCD 26/13 Q1008",
    "icao": "YSSY",
    "flightCategory": "VFR",
    "windDir": 360,
    "windSpeed": 7,
    "windGust": null,
    "visibility": 6,
    "ceiling": null,
    "temp": 26,
    "dewpoint": 13,
    "altimeter": 29.77,
    "conditions": "",
    "observationTime": "2026-04-10T12:00:00.000Z"
  },
  "LHR": {
    "raw": "METAR EGLL 101150Z COR AUTO 25010KT 9999 NCD 11/M01 Q1019 NOSIG",
    "icao": "EGLL",
    "flightCategory": "VFR",
    "windDir": 250,
    "windSpeed": 10,
    "windGust": null,
    "visibility": 6,
    "ceiling": null,
    "temp": 11,
    "dewpoint": -1,
    "altimeter": 30.09,
    "conditions": "",
    "observationTime": "2026-04-10T12:00:00.000Z"
  },
  "LAS": {
    "raw": "METAR KLAS 101156Z 14003KT 10SM FEW150 BKN210 21/06 A2985 RMK AO2 SLP085 T02060056 10244 20206 55003",
    "icao": "KLAS",
    "flightCategory": "VFR",
    "windDir": 140,
    "windSpeed": 3,
    "windGust": null,
    "visibility": 10,
    "ceiling": 21000,
    "temp": 20.6,
    "dewpoint": 5.6,
    "altimeter": 29.85,
    "conditions": "",
    "observationTime": "2026-04-10T12:00:00.000Z"
  }
}