{
  "SYD": {
    "raw": "METAR YSSY 011730Z AUTO 01012KT 9999 -RA OVC095 OVC110 16/13 Q1011",
    "icao": "YSSY",
    "flightCategory": "VFR",
    "windDir": 10,
    "windSpeed": 12,
    "windGust": null,
    "visibility": 6,
    "ceiling": 9500,
    "temp": 16,
    "dewpoint": 13,
    "altimeter": 29.85,
    "conditions": "-RA",
    "observationTime": "2026-07-01T17:30:00.000Z"
  },
  "LAS": {
    "raw": "METAR KLAS 011756Z VRB03KT 10SM CLR 31/01 A2984 RMK AO2 SLP076 T03110006 10311 20244 50001",
    "icao": "KLAS",
    "flightCategory": "VFR",
    "windDir": null,
    "windSpeed": 3,
    "windGust": null,
    "visibility": 10,
    "ceiling": null,
    "temp": 31.1,
    "dewpoint": 0.6,
    "altimeter": 29.84,
    "conditions": "",
    "observationTime": "2026-07-01T18:00:00.000Z"
  },
  "LAX": {
    "raw": "METAR KLAX 011753Z 26009KT 10SM FEW017 BKN023 OVC036 19/15 A2995 RMK AO2 SLP141 T01940150 10194 20178 53010 $",
    "icao": "KLAX",
    "flightCategory": "MVFR",
    "windDir": 260,
    "windSpeed": 9,
    "windGust": null,
    "visibility": 10,
    "ceiling": 2300,
    "temp": 19.4,
    "dewpoint": 15,
    "altimeter": 29.95,
    "conditions": "",
    "observationTime": "2026-07-01T18:00:00.000Z"
  },
  "ORD": {
    "raw": "METAR KORD 011751Z 24013G19KT 10SM FEW300 33/21 A2997 RMK AO2 SLP140 T03330211 10333 20272 58005",
    "icao": "KORD",
    "flightCategory": "VFR",
    "windDir": 240,
    "windSpeed": 13,
    "windGust": 19,
    "visibility": 10,
    "ceiling": null,
    "temp": 33.3,
    "dewpoint": 21.1,
    "altimeter": 29.97,
    "conditions": "",
    "observationTime": "2026-07-01T18:00:00.000Z"
  },
  "LHR": {
    "raw": "METAR EGLL 011720Z AUTO 27009KT 240V300 9999 NCD 24/11 Q1022",
    "icao": "EGLL",
    "flightCategory": "VFR",
    "windDir": 270,
    "windSpeed": 9,
    "windGust": null,
    "visibility": 6,
    "ceiling": null,
    "temp": 24,
    "dewpoint": 11,
    "altimeter": 30.18,
    "conditions": "",
    "observationTime": "2026-07-01T17:20:00.000Z"
  }
}