{
  "LHR": {
    "raw": "METAR EGLL 271550Z AUTO 09013KT 9999 NCD 25/12 Q1024",
    "icao": "EGLL",
    "flightCategory": "VFR",
    "windDir": 90,
    "windSpeed": 13,
    "windGust": null,
    "visibility": 6,
    "ceiling": null,
    "temp": 25,
    "dewpoint": 12,
    "altimeter": 30.24,
    "conditions": "",
    "observationTime": "2026-05-27T16:00:00.000Z"
  },
  "SYD": {
    "raw": "SPECI YSSY 271530Z AUTO 17004KT 8000 RA FEW019 OVC100 19/18 Q1015",
    "icao": "YSSY",
    "flightCategory": "MVFR",
    "windDir": 170,
    "windSpeed": 4,
    "windGust": null,
    "visibility": 4.97,
    "ceiling": 10000,
    "temp": 19,
    "dewpoint": 18,
    "altimeter": 29.97,
    "conditions": "RA",
    "observationTime": "2026-05-27T15:30:00.000Z"
  },
  "LAS": {
    "raw": "METAR KLAS 271556Z 21013G18KT 10SM FEW070 18/02 A2975 RMK AO2 SLP058 T01780022",
    "icao": "KLAS",
    "flightCategory": "VFR",
    "windDir": 210,
    "windSpeed": 13,
    "windGust": 18,
    "visibility": 10,
    "ceiling": null,
    "temp": 17.8,
    "dewpoint": 2.2,
    "altimeter": 29.75,
    "conditions": "",
    "observationTime": "2026-05-27T16:00:00.000Z"
  },
  "LAX": {
    "raw": "METAR KLAX 271553Z 18006KT 10SM BKN024 BKN050 16/10 A2985 RMK AO2 SLP105 T01610100 $",
    "icao": "KLAX",
    "flightCategory": "MVFR",
    "windDir": 180,
    "windSpeed": 6,
    "windGust": null,
    "visibility": 10,
    "ceiling": 2400,
    "temp": 16.1,
    "dewpoint": 10,
    "altimeter": 29.85,
    "conditions": "",
    "observationTime": "2026-05-27T16:00:00.000Z"
  },
  "ORD": {
    "raw": "METAR KORD 271551Z 06009KT 10SM FEW150 FEW300 27/14 A3000 RMK AO2 SLP154 T02670139",
    "icao": "KORD",
    "flightCategory": "VFR",
    "windDir": 60,
    "windSpeed": 9,
    "windGust": null,
    "visibility": 10,
    "ceiling": null,
    "temp": 26.7,
    "dewpoint": 13.9,
    "altimeter": 30,
    "conditions": "",
    "observationTime": "2026-05-27T16:00:00.000Z"
  }
}