{
  "SYD": {
    "raw": "METAR YSSY 171100Z AUTO 23008KT 9999 // FEW021 SCT027 BKN049 13/12 Q1032",
    "icao": "YSSY",
    "flightCategory": "VFR",
    "windDir": 230,
    "windSpeed": 8,
    "windGust": null,
    "visibility": 6,
    "ceiling": 4900,
    "temp": 13,
    "dewpoint": 12,
    "altimeter": 30.47,
    "conditions": "",
    "observationTime": "2026-07-17T11:00:00.000Z"
  },
  "LAX": {
    "raw": "METAR KLAX 171053Z 11008KT 10SM FEW012 21/18 A2987 RMK AO2 SLP112 T02060178 $",
    "icao": "KLAX",
    "flightCategory": "VFR",
    "windDir": 110,
    "windSpeed": 8,
    "windGust": null,
    "visibility": 10,
    "ceiling": null,
    "temp": 20.6,
    "dewpoint": 17.8,
    "altimeter": 29.87,
    "conditions": "",
    "observationTime": "2026-07-17T11:00:00.000Z"
  },
  "LHR": {
    "raw": "METAR EGLL 171120Z AUTO VRB04KT 9999 NCD 26/11 Q1016",
    "icao": "EGLL",
    "flightCategory": "VFR",
    "windDir": null,
    "windSpeed": 4,
    "windGust": null,
    "visibility": 6,
    "ceiling": null,
    "temp": 26,
    "dewpoint": 11,
    "altimeter": 30,
    "conditions": "",
    "observationTime": "2026-07-17T11:20:00.000Z"
  },
  "LAS": {
    "raw": "METAR KLAS 171056Z 19009KT 10SM FEW090 BKN140 OVC190 29/17 A2993 RMK AO2 SLP101 T02940172 $",
    "icao": "KLAS",
    "flightCategory": "VFR",
    "windDir": 190,
    "windSpeed": 9,
    "windGust": null,
    "visibility": 10,
    "ceiling": 14000,
    "temp": 29.4,
    "dewpoint": 17.2,
    "altimeter": 29.93,
    "conditions": "",
    "observationTime": "2026-07-17T11:00:00.000Z"
  }
}