{
  "SYD": {
    "raw": "METAR YSSY 132030Z 31003KT CAVOK 16/14 Q1025",
    "icao": "YSSY",
    "flightCategory": "VFR",
    "windDir": 310,
    "windSpeed": 3,
    "windGust": null,
    "visibility": 6,
    "ceiling": null,
    "temp": 16,
    "dewpoint": 14,
    "altimeter": 30.27,
    "conditions": "",
    "observationTime": "2026-06-13T20:30:00.000Z"
  },
  "LAS": {
    "raw": "METAR KLAS 132056Z 20014G20KT 10SM CLR 42/03 A2979 RMK AO2 SLP051 T04170033 58018",
    "icao": "KLAS",
    "flightCategory": "VFR",
    "windDir": 200,
    "windSpeed": 14,
    "windGust": 20,
    "visibility": 10,
    "ceiling": null,
    "temp": 41.7,
    "dewpoint": 3.3,
    "altimeter": 29.79,
    "conditions": "",
    "observationTime": "2026-06-13T21:00:00.000Z"
  },
  "LAX": {
    "raw": "SPECI KLAX 132042Z 24013KT 10SM FEW009 BKN012 22/16 A2993 RMK AO2 T02170156 $",
    "icao": "KLAX",
    "flightCategory": "MVFR",
    "windDir": 240,
    "windSpeed": 13,
    "windGust": null,
    "visibility": 10,
    "ceiling": 1200,
    "temp": 21.7,
    "dewpoint": 15.6,
    "altimeter": 29.93,
    "conditions": "",
    "observationTime": "2026-06-13T20:42:00.000Z"
  },
  "ORD": {
    "raw": "METAR KORD 132051Z 21011G19KT 10SM FEW046 SCT065 BKN250 27/19 A2985 RMK AO2 SLP104 T02720189 56014 $",
    "icao": "KORD",
    "flightCategory": "VFR",
    "windDir": 210,
    "windSpeed": 11,
    "windGust": 19,
    "visibility": 10,
    "ceiling": 25000,
    "temp": 27.2,
    "dewpoint": 18.9,
    "altimeter": 29.85,
    "conditions": "",
    "observationTime": "2026-06-13T21:00:00.000Z"
  },
  "LHR": {
    "raw": "METAR EGLL 132020Z AUTO 32008KT 300V010 9999 NCD 19/08 Q1021",
    "icao": "EGLL",
    "flightCategory": "VFR",
    "windDir": 320,
    "windSpeed": 8,
    "windGust": null,
    "visibility": 6,
    "ceiling": null,
    "temp": 19,
    "dewpoint": 8,
    "altimeter": 30.15,
    "conditions": "",
    "observationTime": "2026-06-13T20:20:00.000Z"
  }
}