{
  "SYD": {
    "raw": "METAR YSSY 102130Z 25015KT CAVOK 20/08 Q1008",
    "icao": "YSSY",
    "flightCategory": "VFR",
    "windDir": 250,
    "windSpeed": 15,
    "windGust": null,
    "visibility": 6,
    "ceiling": null,
    "temp": 20,
    "dewpoint": 8,
    "altimeter": 29.77,
    "conditions": "",
    "observationTime": "2026-04-10T21:30:00.000Z"
  },
  "LAS": {
    "raw": "METAR KLAS 102156Z 20010G28KT 10SM FEW090 SCT250 28/00 A2984 RMK AO2 PK WND 23032/2115 SLP082 T02780000",
    "icao": "KLAS",
    "flightCategory": "VFR",
    "windDir": 200,
    "windSpeed": 10,
    "windGust": 28,
    "visibility": 10,
    "ceiling": null,
    "temp": 27.8,
    "dewpoint": 0,
    "altimeter": 29.84,
    "conditions": "",
    "observationTime": "2026-04-10T22:00:00.000Z"
  },
  "LAX": {
    "raw": "SPECI KLAX 102133Z 25010KT 10SM SCT014 BKN045 BKN100 19/13 A2996 RMK AO2 T01890133",
    "icao": "KLAX",
    "flightCategory": "VFR",
    "windDir": 250,
    "windSpeed": 10,
    "windGust": null,
    "visibility": 10,
    "ceiling": 4500,
    "temp": 18.9,
    "dewpoint": 13.3,
    "altimeter": 29.96,
    "conditions": "",
    "observationTime": "2026-04-10T21:33:00.000Z"
  },
  "ORD": {
    "raw": "METAR KORD 102151Z 30006KT 10SM SCT029 BKN041 BKN055 12/04 A3029 RMK AO2 SLP261 T01170044",
    "icao": "KORD",
    "flightCategory": "VFR",
    "windDir": 300,
    "windSpeed": 6,
    "windGust": null,
    "visibility": 10,
    "ceiling": 4100,
    "temp": 11.7,
    "dewpoint": 4.4,
    "altimeter": 30.29,
    "conditions": "",
    "observationTime": "2026-04-10T22:00:00.000Z"
  },
  "LHR": {
    "raw": "METAR EGLL 102120Z COR AUTO 15008KT 9999 NCD 08/M00 Q1012 NOSIG",
    "icao": "EGLL",
    "flightCategory": "VFR",
    "windDir": 150,
    "windSpeed": 8,
    "windGust": null,
    "visibility": 6,
    "ceiling": null,
    "temp": 8,
    "dewpoint": 0,
    "altimeter": 29.88,
    "conditions": "",
    "observationTime": "2026-04-10T21:20:00.000Z"
  }
}