{
  "SYD": {
    "raw": "METAR YSSY 190800Z AUTO 05005KT 9999 // OVC038 17/11 Q1032",
    "icao": "YSSY",
    "flightCategory": "VFR",
    "windDir": 50,
    "windSpeed": 5,
    "windGust": null,
    "visibility": 6,
    "ceiling": 3800,
    "temp": 17,
    "dewpoint": 11,
    "altimeter": 30.47,
    "conditions": "",
    "observationTime": "2026-07-19T08:00:00.000Z"
  },
  "LHR": {
    "raw": "METAR EGLL 190750Z AUTO 01009KT 340V060 9999 NCD 17/07 Q1024",
    "icao": "EGLL",
    "flightCategory": "VFR",
    "windDir": 10,
    "windSpeed": 9,
    "windGust": null,
    "visibility": 6,
    "ceiling": null,
    "temp": 17,
    "dewpoint": 7,
    "altimeter": 30.24,
    "conditions": "",
    "observationTime": "2026-07-19T08:00:00.000Z"
  },
  "ORD": {
    "raw": "METAR KORD 190751Z 03009KT 6SM FU SCT019 21/17 A3001 RMK AO2 SLP156 T02060167 $",
    "icao": "KORD",
    "flightCategory": "VFR",
    "windDir": 30,
    "windSpeed": 9,
    "windGust": null,
    "visibility": 6,
    "ceiling": null,
    "temp": 20.6,
    "dewpoint": 16.7,
    "altimeter": 30.01,
    "conditions": "FU",
    "observationTime": "2026-07-19T08:00:00.000Z"
  },
  "LAS": {
    "raw": "METAR KLAS 190756Z 18007KT 10SM FEW250 34/14 A2989 RMK AO2 SLP088 T03440139 404110267 $",
    "icao": "KLAS",
    "flightCategory": "VFR",
    "windDir": 180,
    "windSpeed": 7,
    "windGust": null,
    "visibility": 10,
    "ceiling": null,
    "temp": 34.4,
    "dewpoint": 13.9,
    "altimeter": 29.89,
    "conditions": "",
    "observationTime": "2026-07-19T08:00:00.000Z"
  },
  "LAX": {
    "raw": "METAR KLAX 190753Z VRB04KT 10SM BKN010 21/18 A2999 RMK AO2 SLP152 T02060183 402560206 $",
    "icao": "KLAX",
    "flightCategory": "MVFR",
    "windDir": null,
    "windSpeed": 4,
    "windGust": null,
    "visibility": 10,
    "ceiling": 1000,
    "temp": 20.6,
    "dewpoint": 18.3,
    "altimeter": 29.99,
    "conditions": "",
    "observationTime": "2026-07-19T08:00:00.000Z"
  }
}