{
  "SYD": {
    "raw": "METAR YSSY 031100Z AUTO 14014KT 9999 // FEW043 OVC049 22/17 Q1024",
    "icao": "YSSY",
    "flightCategory": "VFR",
    "windDir": 140,
    "windSpeed": 14,
    "windGust": null,
    "visibility": 6,
    "ceiling": 4900,
    "temp": 22,
    "dewpoint": 17,
    "altimeter": 30.24,
    "conditions": "",
    "observationTime": "2026-04-03T11:00:00.000Z"
  },
  "LHR": {
    "raw": "METAR EGLL 031050Z AUTO 23015KT 9999 OVC014 13/10 Q1010 BECMG BKN016",
    "icao": "EGLL",
    "flightCategory": "MVFR",
    "windDir": 230,
    "windSpeed": 15,
    "windGust": null,
    "visibility": 6,
    "ceiling": 1400,
    "temp": 13,
    "dewpoint": 10,
    "altimeter": 29.83,
    "conditions": "",
    "observationTime": "2026-04-03T11:00:00.000Z"
  }
}