{
  "LAX": {
    "raw": "METAR KLAX 050153Z 24008KT 10SM SCT012 19/15 A2987 RMK AO2 SLP113 T01890150 $",
    "icao": "KLAX",
    "flightCategory": "VFR",
    "windDir": 240,
    "windSpeed": 8,
    "windGust": null,
    "visibility": 10,
    "ceiling": null,
    "temp": 18.9,
    "dewpoint": 15,
    "altimeter": 29.87,
    "conditions": "",
    "observationTime": "2026-06-05T02:00:00.000Z"
  },
  "SYD": {
    "raw": "SPECI YSSY 050128Z 24016G26KT 9999 FEW045 SCT065 18/07 Q1011",
    "icao": "YSSY",
    "flightCategory": "VFR",
    "windDir": 240,
    "windSpeed": 16,
    "windGust": 26,
    "visibility": 6,
    "ceiling": null,
    "temp": 18,
    "dewpoint": 7,
    "altimeter": 29.85,
    "conditions": "",
    "observationTime": "2026-06-05T01:28:00.000Z"
  },
  "LAS": {
    "raw": "METAR KLAS 050156Z 23014KT 10SM CLR 38/M04 A2974 RMK AO2 SLP038 T03831044",
    "icao": "KLAS",
    "flightCategory": "VFR",
    "windDir": 230,
    "windSpeed": 14,
    "windGust": null,
    "visibility": 10,
    "ceiling": null,
    "temp": 38.3,
    "dewpoint": -4.4,
    "altimeter": 29.74,
    "conditions": "",
    "observationTime": "2026-06-05T02:00:00.000Z"
  },
  "ORD": {
    "raw": "METAR KORD 050151Z 20008KT 10SM BKN210 BKN250 27/11 A2997 RMK AO2 SLP143 T02720111",
    "icao": "KORD",
    "flightCategory": "VFR",
    "windDir": 200,
    "windSpeed": 8,
    "windGust": null,
    "visibility": 10,
    "ceiling": 21000,
    "temp": 27.2,
    "dewpoint": 11.1,
    "altimeter": 29.97,
    "conditions": "",
    "observationTime": "2026-06-05T02:00:00.000Z"
  },
  "LHR": {
    "raw": "METAR EGLL 050150Z AUTO 27010KT 9999 NCD 13/10 Q1007",
    "icao": "EGLL",
    "flightCategory": "VFR",
    "windDir": 270,
    "windSpeed": 10,
    "windGust": null,
    "visibility": 6,
    "ceiling": null,
    "temp": 13,
    "dewpoint": 10,
    "altimeter": 29.74,
    "conditions": "",
    "observationTime": "2026-06-05T02:00:00.000Z"
  }
}