{
  "ORD": {
    "raw": "SPECI KORD 041417Z 23009G16KT 2 1/2SM BR OVC003 13/12 A2977 RMK AO2 T01280122 $",
    "icao": "KORD",
    "flightCategory": "LIFR",
    "windDir": 230,
    "windSpeed": 9,
    "windGust": 16,
    "visibility": 2.5,
    "ceiling": 300,
    "temp": 12.8,
    "dewpoint": 12.2,
    "altimeter": 29.77,
    "conditions": "BR",
    "observationTime": "2026-04-04T14:17:00.000Z"
  },
  "SYD": {
    "raw": "METAR YSSY 041430Z AUTO 10009KT 9999 // BKN043 BKN049 OVC062 17/16 Q1025",
    "icao": "YSSY",
    "flightCategory": "VFR",
    "windDir": 100,
    "windSpeed": 9,
    "windGust": null,
    "visibility": 6,
    "ceiling": 4300,
    "temp": 17,
    "dewpoint": 16,
    "altimeter": 30.27,
    "conditions": "",
    "observationTime": "2026-04-04T14:30:00.000Z"
  },
  "LAS": {
    "raw": "METAR KLAS 041456Z VRB03KT 10SM FEW250 15/M08 A3026 RMK AO2 SLP237 T01501083 52011",
    "icao": "KLAS",
    "flightCategory": "VFR",
    "windDir": null,
    "windSpeed": 3,
    "windGust": null,
    "visibility": 10,
    "ceiling": null,
    "temp": 15,
    "dewpoint": -8.3,
    "altimeter": 30.26,
    "conditions": "",
    "observationTime": "2026-04-04T15:00:00.000Z"
  },
  "LAX": {
    "raw": "METAR KLAX 041453Z 00000KT 10SM FEW190 FEW240 SCT290 17/09 A3002 RMK AO2 SLP166 T01670094 53016 $",
    "icao": "KLAX",
    "flightCategory": "VFR",
    "windDir": 0,
    "windSpeed": 0,
    "windGust": null,
    "visibility": 10,
    "ceiling": null,
    "temp": 16.7,
    "dewpoint": 9.4,
    "altimeter": 30.02,
    "conditions": "",
    "observationTime": "2026-04-04T15:00:00.000Z"
  },
  "LHR": {
    "raw": "METAR EGLL 041420Z COR AUTO 21017G27KT 9999 BKN031 14/07 Q1014 NOSIG",
    "icao": "EGLL",
    "flightCategory": "VFR",
    "windDir": 210,
    "windSpeed": 17,
    "windGust": 27,
    "visibility": 6,
    "ceiling": 3100,
    "temp": 14,
    "dewpoint": 7,
    "altimeter": 29.94,
    "conditions": "",
    "observationTime": "2026-04-04T14:20:00.000Z"
  }
}