{
  "SYD": {
    "raw": "METAR YSSY 290030Z 30006KT 9999 FEW030 SCT300 23/12 Q1029",
    "icao": "YSSY",
    "flightCategory": "VFR",
    "windDir": 300,
    "windSpeed": 6,
    "windGust": null,
    "visibility": 6,
    "ceiling": null,
    "temp": 23,
    "dewpoint": 12,
    "altimeter": 30.39,
    "conditions": "",
    "observationTime": "2026-04-29T00:30:00.000Z"
  },
  "LAS": {
    "raw": "METAR KLAS 290056Z 00000KT 10SM FEW100 FEW200 24/M06 A2993 RMK AO2 SLP122 T02441061",
    "icao": "KLAS",
    "flightCategory": "VFR",
    "windDir": 0,
    "windSpeed": 0,
    "windGust": null,
    "visibility": 10,
    "ceiling": null,
    "temp": 24.4,
    "dewpoint": -6.1,
    "altimeter": 29.93,
    "conditions": "",
    "observationTime": "2026-04-29T01:00:00.000Z"
  },
  "LAX": {
    "raw": "METAR KLAX 290053Z 25012KT 10SM CLR 18/11 A3002 RMK AO2 SLP165 T01780111 $",
    "icao": "KLAX",
    "flightCategory": "VFR",
    "windDir": 250,
    "windSpeed": 12,
    "windGust": null,
    "visibility": 10,
    "ceiling": null,
    "temp": 17.8,
    "dewpoint": 11.1,
    "altimeter": 30.02,
    "conditions": "",
    "observationTime": "2026-04-29T01:00:00.000Z"
  },
  "ORD": {
    "raw": "METAR KORD 290051Z 26005KT 10SM SCT150 OVC250 16/07 A2988 RMK AO2 SLP120 T01610072 $",
    "icao": "KORD",
    "flightCategory": "VFR",
    "windDir": 260,
    "windSpeed": 5,
    "windGust": null,
    "visibility": 10,
    "ceiling": 25000,
    "temp": 16.1,
    "dewpoint": 7.2,
    "altimeter": 29.88,
    "conditions": "",
    "observationTime": "2026-04-29T01:00:00.000Z"
  },
  "LHR": {
    "raw": "METAR EGLL 290020Z COR AUTO 04006KT 360V070 9999 NCD 08/02 Q1024 NOSIG",
    "icao": "EGLL",
    "flightCategory": "VFR",
    "windDir": 40,
    "windSpeed": 6,
    "windGust": null,
    "visibility": 6,
    "ceiling": null,
    "temp": 8,
    "dewpoint": 2,
    "altimeter": 30.24,
    "conditions": "",
    "observationTime": "2026-04-29T00:20:00.000Z"
  }
}