{
  "SYD": {
    "raw": "METAR YSSY 281600Z AUTO 34006KT 9999 // NCD 16/13 Q1026",
    "icao": "YSSY",
    "flightCategory": "VFR",
    "windDir": 340,
    "windSpeed": 6,
    "windGust": null,
    "visibility": 6,
    "ceiling": null,
    "temp": 16,
    "dewpoint": 13,
    "altimeter": 30.3,
    "conditions": "",
    "observationTime": "2026-04-28T16:00:00.000Z"
  },
  "LHR": {
    "raw": "METAR EGLL 281550Z COR AUTO 05012KT 9999 NCD 17/M00 Q1023 NOSIG",
    "icao": "EGLL",
    "flightCategory": "VFR",
    "windDir": 50,
    "windSpeed": 12,
    "windGust": null,
    "visibility": 6,
    "ceiling": null,
    "temp": 17,
    "dewpoint": 0,
    "altimeter": 30.21,
    "conditions": "",
    "observationTime": "2026-04-28T16:00:00.000Z"
  },
  "ORD": {
    "raw": "SPECI KORD 281543Z 25011KT 10SM OVC024 12/06 A2993 RMK AO2 T01170061 $",
    "icao": "KORD",
    "flightCategory": "MVFR",
    "windDir": 250,
    "windSpeed": 11,
    "windGust": null,
    "visibility": 10,
    "ceiling": 2400,
    "temp": 11.7,
    "dewpoint": 6.1,
    "altimeter": 29.93,
    "conditions": "",
    "observationTime": "2026-04-28T15:43:00.000Z"
  },
  "LAS": {
    "raw": "METAR KLAS 281556Z 06003KT 10SM FEW200 17/M01 A3009 RMK AO2 SLP177 T01671006",
    "icao": "KLAS",
    "flightCategory": "VFR",
    "windDir": 60,
    "windSpeed": 3,
    "windGust": null,
    "visibility": 10,
    "ceiling": null,
    "temp": 16.7,
    "dewpoint": -0.6,
    "altimeter": 30.09,
    "conditions": "",
    "observationTime": "2026-04-28T16:00:00.000Z"
  },
  "LAX": {
    "raw": "METAR KLAX 281553Z VRB03KT 10SM FEW120 FEW160 SCT200 17/08 A3008 RMK AO2 SLP184 T01670083 $",
    "icao": "KLAX",
    "flightCategory": "VFR",
    "windDir": null,
    "windSpeed": 3,
    "windGust": null,
    "visibility": 10,
    "ceiling": null,
    "temp": 16.7,
    "dewpoint": 8.3,
    "altimeter": 30.08,
    "conditions": "",
    "observationTime": "2026-04-28T16:00:00.000Z"
  }
}