{
  "LAS": {
    "raw": "METAR KLAS 242156Z 20008G17KT 10SM FEW130 FEW250 33/02 A2989 RMK AO2 SLP096 T03330017",
    "icao": "KLAS",
    "flightCategory": "VFR",
    "windDir": 200,
    "windSpeed": 8,
    "windGust": 17,
    "visibility": 10,
    "ceiling": null,
    "temp": 33.3,
    "dewpoint": 1.7,
    "altimeter": 29.89,
    "conditions": "",
    "observationTime": "2026-05-24T22:00:00.000Z"
  },
  "LAX": {
    "raw": "METAR KLAX 242153Z 27011KT 10SM FEW020 FEW090 SCT250 19/11 A3000 RMK AO2 SLP157 T01940111 $",
    "icao": "KLAX",
    "flightCategory": "VFR",
    "windDir": 270,
    "windSpeed": 11,
    "windGust": null,
    "visibility": 10,
    "ceiling": null,
    "temp": 19.4,
    "dewpoint": 11.1,
    "altimeter": 30,
    "conditions": "",
    "observationTime": "2026-05-24T22:00:00.000Z"
  },
  "ORD": {
    "raw": "METAR KORD 242151Z 35007KT 10SM FEW046 FEW250 25/08 A3002 RMK AO2 SLP161 T02500078 $",
    "icao": "KORD",
    "flightCategory": "VFR",
    "windDir": 350,
    "windSpeed": 7,
    "windGust": null,
    "visibility": 10,
    "ceiling": null,
    "temp": 25,
    "dewpoint": 7.8,
    "altimeter": 30.02,
    "conditions": "",
    "observationTime": "2026-05-24T22:00:00.000Z"
  },
  "LHR": {
    "raw": "METAR EGLL 242120Z AUTO 06004KT 030V090 9999 NCD 23/16 Q1030",
    "icao": "EGLL",
    "flightCategory": "VFR",
    "windDir": 60,
    "windSpeed": 4,
    "windGust": null,
    "visibility": 6,
    "ceiling": null,
    "temp": 23,
    "dewpoint": 16,
    "altimeter": 30.42,
    "conditions": "",
    "observationTime": "2026-05-24T21:20:00.000Z"
  },
  "SYD": {
    "raw": "METAR YSSY 242130Z 29006KT 9000 -DZ FEW007 SCT025 BKN035 17/16 Q1022",
    "icao": "YSSY",
    "flightCategory": "VFR",
    "windDir": 290,
    "windSpeed": 6,
    "windGust": null,
    "visibility": 5.59,
    "ceiling": 3500,
    "temp": 17,
    "dewpoint": 16,
    "altimeter": 30.18,
    "conditions": "-DZ",
    "observationTime": "2026-05-24T21:30:00.000Z"
  }
}