{
  "LHR": {
    "raw": "METAR EGLL 152350Z COR AUTO 21009KT 9999 NCD 10/08 Q1017 NOSIG",
    "icao": "EGLL",
    "flightCategory": "VFR",
    "windDir": 210,
    "windSpeed": 9,
    "windGust": null,
    "visibility": 6,
    "ceiling": null,
    "temp": 10,
    "dewpoint": 8,
    "altimeter": 30.03,
    "conditions": "",
    "observationTime": "2026-04-16T00:00:00.000Z"
  },
  "SYD": {
    "raw": "METAR YSSY 160000Z 31009KT CAVOK 22/14 Q1018",
    "icao": "YSSY",
    "flightCategory": "VFR",
    "windDir": 310,
    "windSpeed": 9,
    "windGust": null,
    "visibility": 6,
    "ceiling": null,
    "temp": 22,
    "dewpoint": 14,
    "altimeter": 30.06,
    "conditions": "",
    "observationTime": "2026-04-16T00:00:00.000Z"
  },
  "LAS": {
    "raw": "METAR KLAS 152356Z 21011G16KT 10SM FEW200 SCT250 28/M08 A2987 RMK AO2 SLP095 T02781083 10283 20228 56024",
    "icao": "KLAS",
    "flightCategory": "VFR",
    "windDir": 210,
    "windSpeed": 11,
    "windGust": 16,
    "visibility": 10,
    "ceiling": null,
    "temp": 27.8,
    "dewpoint": -8.3,
    "altimeter": 29.87,
    "conditions": "",
    "observationTime": "2026-04-16T00:00:00.000Z"
  },
  "LAX": {
    "raw": "METAR KLAX 152353Z 26012KT 10SM FEW050 FEW250 19/13 A2998 RMK AO2 SLP151 T01940128 10211 20189 58016",
    "icao": "KLAX",
    "flightCategory": "VFR",
    "windDir": 260,
    "windSpeed": 12,
    "windGust": null,
    "visibility": 10,
    "ceiling": null,
    "temp": 19.4,
    "dewpoint": 12.8,
    "altimeter": 29.98,
    "conditions": "",
    "observationTime": "2026-04-16T00:00:00.000Z"
  },
  "ORD": {
    "raw": "METAR KORD 152351Z 19016G25KT 10SM SCT027 BKN041 BKN100 OVC250 22/17 A2973 RMK AO2 SLP064 60000 T02220167 10222 20194 58020",
    "icao": "KORD",
    "flightCategory": "VFR",
    "windDir": 190,
    "windSpeed": 16,
    "windGust": 25,
    "visibility": 10,
    "ceiling": 4100,
    "temp": 22.2,
    "dewpoint": 16.7,
    "altimeter": 29.73,
    "conditions": "",
    "observationTime": "2026-04-16T00:00:00.000Z"
  }
}