{
  "LAX": {
    "raw": "METAR KLAX 110253Z 26014KT 10SM FEW013 SCT060 SCT220 17/13 A2994 RMK AO2 SLP136 T01670133 53003 $",
    "icao": "KLAX",
    "flightCategory": "VFR",
    "windDir": 260,
    "windSpeed": 14,
    "windGust": null,
    "visibility": 10,
    "ceiling": null,
    "temp": 16.7,
    "dewpoint": 13.3,
    "altimeter": 29.94,
    "conditions": "",
    "observationTime": "2026-04-11T03:00:00.000Z"
  },
  "LHR": {
    "raw": "METAR EGLL 110250Z AUTO 13010KT 9999 NCD 10/03 Q1005",
    "icao": "EGLL",
    "flightCategory": "VFR",
    "windDir": 130,
    "windSpeed": 10,
    "windGust": null,
    "visibility": 6,
    "ceiling": null,
    "temp": 10,
    "dewpoint": 3,
    "altimeter": 29.68,
    "conditions": "",
    "observationTime": "2026-04-11T03:00:00.000Z"
  },
  "SYD": {
    "raw": "METAR YSSY 110300Z 23011KT 210V270 CAVOK 23/07 Q1007",
    "icao": "YSSY",
    "flightCategory": "VFR",
    "windDir": 230,
    "windSpeed": 11,
    "windGust": null,
    "visibility": 6,
    "ceiling": null,
    "temp": 23,
    "dewpoint": 7,
    "altimeter": 29.74,
    "conditions": "",
    "observationTime": "2026-04-11T03:00:00.000Z"
  },
  "LAS": {
    "raw": "METAR KLAS 110256Z 22009KT 10SM BKN090 BKN110 BKN250 25/02 A2977 RMK AO2 SLP062 T02500017 55006",
    "icao": "KLAS",
    "flightCategory": "VFR",
    "windDir": 220,
    "windSpeed": 9,
    "windGust": null,
    "visibility": 10,
    "ceiling": 9000,
    "temp": 25,
    "dewpoint": 1.7,
    "altimeter": 29.77,
    "conditions": "",
    "observationTime": "2026-04-11T03:00:00.000Z"
  },
  "ORD": {
    "raw": "METAR KORD 110251Z 10004KT 10SM CLR 04/01 A3038 RMK AO2 SLP293 T00440006 51019 $",
    "icao": "KORD",
    "flightCategory": "VFR",
    "windDir": 100,
    "windSpeed": 4,
    "windGust": null,
    "visibility": 10,
    "ceiling": null,
    "temp": 4.4,
    "dewpoint": 0.6,
    "altimeter": 30.38,
    "conditions": "",
    "observationTime": "2026-04-11T03:00:00.000Z"
  }
}