{
  "SYD": {
    "raw": "METAR YSSY 291030Z AUTO 26008KT 9999 // NCD 16/13 Q1005",
    "icao": "YSSY",
    "flightCategory": "VFR",
    "windDir": 260,
    "windSpeed": 8,
    "windGust": null,
    "visibility": 6,
    "ceiling": null,
    "temp": 16,
    "dewpoint": 13,
    "altimeter": 29.68,
    "conditions": "",
    "observationTime": "2026-05-29T10:30:00.000Z"
  },
  "LAS": {
    "raw": "METAR KLAS 291056Z 19004KT 10SM OVC110 19/01 A2979 RMK AO2 SLP067 T01940011",
    "icao": "KLAS",
    "flightCategory": "VFR",
    "windDir": 190,
    "windSpeed": 4,
    "windGust": null,
    "visibility": 10,
    "ceiling": 11000,
    "temp": 19.4,
    "dewpoint": 1.1,
    "altimeter": 29.79,
    "conditions": "",
    "observationTime": "2026-05-29T11:00:00.000Z"
  },
  "LAX": {
    "raw": "METAR KLAX 291053Z 28007KT 10SM FEW019 BKN026 OVC065 16/11 A2996 RMK AO2 SLP143 T01560111 $",
    "icao": "KLAX",
    "flightCategory": "MVFR",
    "windDir": 280,
    "windSpeed": 7,
    "windGust": null,
    "visibility": 10,
    "ceiling": 2600,
    "temp": 15.6,
    "dewpoint": 11.1,
    "altimeter": 29.96,
    "conditions": "",
    "observationTime": "2026-05-29T11:00:00.000Z"
  },
  "ORD": {
    "raw": "METAR KORD 291051Z 34003KT 10SM FEW200 BKN300 11/08 A3010 RMK AO2 SLP192 T01060078 $",
    "icao": "KORD",
    "flightCategory": "VFR",
    "windDir": 340,
    "windSpeed": 3,
    "windGust": null,
    "visibility": 10,
    "ceiling": 30000,
    "temp": 10.6,
    "dewpoint": 7.8,
    "altimeter": 30.1,
    "conditions": "",
    "observationTime": "2026-05-29T11:00:00.000Z"
  },
  "LHR": {
    "raw": "METAR EGLL 291020Z AUTO 30006KT 230V350 9999 NCD 22/11 Q1023",
    "icao": "EGLL",
    "flightCategory": "VFR",
    "windDir": 300,
    "windSpeed": 6,
    "windGust": null,
    "visibility": 6,
    "ceiling": null,
    "temp": 22,
    "dewpoint": 11,
    "altimeter": 30.21,
    "conditions": "",
    "observationTime": "2026-05-29T10:20:00.000Z"
  }
}