{
  "LHR": {
    "raw": "METAR EGLL 310450Z AUTO 27008KT 9999 NCD 15/07 Q1016",
    "icao": "EGLL",
    "flightCategory": "VFR",
    "windDir": 270,
    "windSpeed": 8,
    "windGust": null,
    "visibility": 6,
    "ceiling": null,
    "temp": 15,
    "dewpoint": 7,
    "altimeter": 30,
    "conditions": "",
    "observationTime": "2026-05-31T05:00:00.000Z"
  },
  "SYD": {
    "raw": "METAR YSSY 310500Z 25016KT CAVOK 20/04 Q1008",
    "icao": "YSSY",
    "flightCategory": "VFR",
    "windDir": 250,
    "windSpeed": 16,
    "windGust": null,
    "visibility": 6,
    "ceiling": null,
    "temp": 20,
    "dewpoint": 4,
    "altimeter": 29.77,
    "conditions": "",
    "observationTime": "2026-05-31T05:00:00.000Z"
  },
  "LAS": {
    "raw": "METAR KLAS 310456Z 28007KT 10SM CLR 28/01 A2989 RMK AO2 SLP097 T02780006",
    "icao": "KLAS",
    "flightCategory": "VFR",
    "windDir": 280,
    "windSpeed": 7,
    "windGust": null,
    "visibility": 10,
    "ceiling": null,
    "temp": 27.8,
    "dewpoint": 0.6,
    "altimeter": 29.89,
    "conditions": "",
    "observationTime": "2026-05-31T05:00:00.000Z"
  },
  "LAX": {
    "raw": "METAR KLAX 310453Z 19003KT 10SM CLR 17/14 A2994 RMK AO2 SLP138 T01720139 $",
    "icao": "KLAX",
    "flightCategory": "VFR",
    "windDir": 190,
    "windSpeed": 3,
    "windGust": null,
    "visibility": 10,
    "ceiling": null,
    "temp": 17.2,
    "dewpoint": 13.9,
    "altimeter": 29.94,
    "conditions": "",
    "observationTime": "2026-05-31T05:00:00.000Z"
  },
  "ORD": {
    "raw": "METAR KORD 310451Z 02004KT 10SM BKN250 13/07 A3013 RMK AO2 SLP203 T01280067 $",
    "icao": "KORD",
    "flightCategory": "VFR",
    "windDir": 20,
    "windSpeed": 4,
    "windGust": null,
    "visibility": 10,
    "ceiling": 25000,
    "temp": 12.8,
    "dewpoint": 6.7,
    "altimeter": 30.13,
    "conditions": "",
    "observationTime": "2026-05-31T05:00:00.000Z"
  }
}