{
  "SYD": {
    "raw": "METAR YSSY 271530Z AUTO 23006KT 9999 // NCD 13/12 Q1029",
    "icao": "YSSY",
    "flightCategory": "VFR",
    "windDir": 230,
    "windSpeed": 6,
    "windGust": null,
    "visibility": 6,
    "ceiling": null,
    "temp": 13,
    "dewpoint": 12,
    "altimeter": 30.39,
    "conditions": "",
    "observationTime": "2026-06-27T15:30:00.000Z"
  },
  "LAS": {
    "raw": "METAR KLAS 271556Z 20012G20KT 10SM FEW200 29/05 A2978 RMK AO2 PK WND 23026/1507 SLP055 T02890050",
    "icao": "KLAS",
    "flightCategory": "VFR",
    "windDir": 200,
    "windSpeed": 12,
    "windGust": 20,
    "visibility": 10,
    "ceiling": null,
    "temp": 28.9,
    "dewpoint": 5,
    "altimeter": 29.78,
    "conditions": "",
    "observationTime": "2026-06-27T16:00:00.000Z"
  },
  "LAX": {
    "raw": "SPECI KLAX 271531Z 14006KT 10SM FEW024 SCT027 BKN032 21/13 A2996 RMK AO2 T02060128",
    "icao": "KLAX",
    "flightCategory": "VFR",
    "windDir": 140,
    "windSpeed": 6,
    "windGust": null,
    "visibility": 10,
    "ceiling": 3200,
    "temp": 20.6,
    "dewpoint": 12.8,
    "altimeter": 29.96,
    "conditions": "",
    "observationTime": "2026-06-27T15:31:00.000Z"
  },
  "ORD": {
    "raw": "METAR KORD 271551Z 07007KT 10SM FEW026 SCT070 BKN085 23/17 A3000 RMK AO2 SLP156 T02280167 $",
    "icao": "KORD",
    "flightCategory": "VFR",
    "windDir": 70,
    "windSpeed": 7,
    "windGust": null,
    "visibility": 10,
    "ceiling": 8500,
    "temp": 22.8,
    "dewpoint": 16.7,
    "altimeter": 30,
    "conditions": "",
    "observationTime": "2026-06-27T16:00:00.000Z"
  },
  "LHR": {
    "raw": "METAR EGLL 271520Z AUTO 16012KT 140V230 9999 NCD 30/16 Q1015",
    "icao": "EGLL",
    "flightCategory": "VFR",
    "windDir": 160,
    "windSpeed": 12,
    "windGust": null,
    "visibility": 6,
    "ceiling": null,
    "temp": 30,
    "dewpoint": 16,
    "altimeter": 29.97,
    "conditions": "",
    "observationTime": "2026-06-27T15:20:00.000Z"
  }
}