{
  "SYD": {
    "raw": "SPECI YSSY 241820Z AUTO 26005KT 9999 -SHRA FEW032 SCT041 BKN055 17/16 Q1021",
    "icao": "YSSY",
    "flightCategory": "VFR",
    "windDir": 260,
    "windSpeed": 5,
    "windGust": null,
    "visibility": 6,
    "ceiling": 5500,
    "temp": 17,
    "dewpoint": 16,
    "altimeter": 30.15,
    "conditions": "-SHRA",
    "observationTime": "2026-05-24T18:20:00.000Z"
  },
  "LAS": {
    "raw": "METAR KLAS 241856Z 16010G18KT 10SM FEW130 FEW250 32/02 A2996 RMK AO2 SLP120 T03170022",
    "icao": "KLAS",
    "flightCategory": "VFR",
    "windDir": 160,
    "windSpeed": 10,
    "windGust": 18,
    "visibility": 10,
    "ceiling": null,
    "temp": 31.7,
    "dewpoint": 2.2,
    "altimeter": 29.96,
    "conditions": "",
    "observationTime": "2026-05-24T19:00:00.000Z"
  },
  "LAX": {
    "raw": "METAR KLAX 241853Z 25009KT 10SM SCT018 OVC022 18/12 A3004 RMK AO2 SLP170 T01780122 $",
    "icao": "KLAX",
    "flightCategory": "MVFR",
    "windDir": 250,
    "windSpeed": 9,
    "windGust": null,
    "visibility": 10,
    "ceiling": 2200,
    "temp": 17.8,
    "dewpoint": 12.2,
    "altimeter": 30.04,
    "conditions": "",
    "observationTime": "2026-05-24T19:00:00.000Z"
  },
  "ORD": {
    "raw": "SPECI KORD 241822Z 25005KT 10SM SCT027 BKN110 22/13 A3004 RMK AO2 T02170133 $",
    "icao": "KORD",
    "flightCategory": "VFR",
    "windDir": 250,
    "windSpeed": 5,
    "windGust": null,
    "visibility": 10,
    "ceiling": 11000,
    "temp": 21.7,
    "dewpoint": 13.3,
    "altimeter": 30.04,
    "conditions": "",
    "observationTime": "2026-05-24T18:22:00.000Z"
  },
  "LHR": {
    "raw": "METAR EGLL 241820Z AUTO 35003KT 290V060 9999 NCD 30/12 Q1029",
    "icao": "EGLL",
    "flightCategory": "VFR",
    "windDir": 350,
    "windSpeed": 3,
    "windGust": null,
    "visibility": 6,
    "ceiling": null,
    "temp": 30,
    "dewpoint": 12,
    "altimeter": 30.39,
    "conditions": "",
    "observationTime": "2026-05-24T18:20:00.000Z"
  }
}