{
  "SYD": {
    "raw": "METAR YSSY 030430Z 04013KT CAVOK 24/15 Q1018",
    "icao": "YSSY",
    "flightCategory": "VFR",
    "windDir": 40,
    "windSpeed": 13,
    "windGust": null,
    "visibility": 6,
    "ceiling": null,
    "temp": 24,
    "dewpoint": 15,
    "altimeter": 30.06,
    "conditions": "",
    "observationTime": "2026-05-03T04:30:00.000Z"
  },
  "LAS": {
    "raw": "METAR KLAS 030456Z 21004KT 10SM FEW250 24/M11 A2989 RMK AO2 SLP099 T02441111",
    "icao": "KLAS",
    "flightCategory": "VFR",
    "windDir": 210,
    "windSpeed": 4,
    "windGust": null,
    "visibility": 10,
    "ceiling": null,
    "temp": 24.4,
    "dewpoint": -11.1,
    "altimeter": 29.89,
    "conditions": "",
    "observationTime": "2026-05-03T05:00:00.000Z"
  },
  "LAX": {
    "raw": "METAR KLAX 030453Z 24007KT 10SM OVC008 16/13 A2992 RMK AO2 SLP130 T01560133",
    "icao": "KLAX",
    "flightCategory": "IFR",
    "windDir": 240,
    "windSpeed": 7,
    "windGust": null,
    "visibility": 10,
    "ceiling": 800,
    "temp": 15.6,
    "dewpoint": 13.3,
    "altimeter": 29.92,
    "conditions": "",
    "observationTime": "2026-05-03T05:00:00.000Z"
  },
  "ORD": {
    "raw": "METAR KORD 030451Z 21008KT 10SM FEW250 09/M03 A2999 RMK AO2 SLP155 T00891028",
    "icao": "KORD",
    "flightCategory": "VFR",
    "windDir": 210,
    "windSpeed": 8,
    "windGust": null,
    "visibility": 10,
    "ceiling": null,
    "temp": 8.9,
    "dewpoint": -2.8,
    "altimeter": 29.99,
    "conditions": "",
    "observationTime": "2026-05-03T05:00:00.000Z"
  },
  "LHR": {
    "raw": "METAR EGLL 030420Z AUTO 21007KT 180V260 9999 FEW019 12/10 Q1009 TEMPO BKN012",
    "icao": "EGLL",
    "flightCategory": "VFR",
    "windDir": 210,
    "windSpeed": 7,
    "windGust": null,
    "visibility": 6,
    "ceiling": null,
    "temp": 12,
    "dewpoint": 10,
    "altimeter": 29.8,
    "conditions": "",
    "observationTime": "2026-05-03T04:20:00.000Z"
  }
}