{
  "SYD": {
    "raw": "METAR YSSY 200800Z AUTO 19010KT 9999 // NCD 17/10 Q1020",
    "icao": "YSSY",
    "flightCategory": "VFR",
    "windDir": 190,
    "windSpeed": 10,
    "windGust": null,
    "visibility": 6,
    "ceiling": null,
    "temp": 17,
    "dewpoint": 10,
    "altimeter": 30.12,
    "conditions": "",
    "observationTime": "2026-05-20T08:00:00.000Z"
  },
  "LHR": {
    "raw": "METAR EGLL 200750Z AUTO 25018KT 9999 BKN025 BKN047 15/09 Q1016",
    "icao": "EGLL",
    "flightCategory": "MVFR",
    "windDir": 250,
    "windSpeed": 18,
    "windGust": null,
    "visibility": 6,
    "ceiling": 2500,
    "temp": 15,
    "dewpoint": 9,
    "altimeter": 30,
    "conditions": "",
    "observationTime": "2026-05-20T08:00:00.000Z"
  },
  "LAS": {
    "raw": "METAR KLAS 200756Z 06003KT 10SM CLR 22/M12 A3000 RMK AO2 SLP140 T02171117 402720161",
    "icao": "KLAS",
    "flightCategory": "VFR",
    "windDir": 60,
    "windSpeed": 3,
    "windGust": null,
    "visibility": 10,
    "ceiling": null,
    "temp": 21.7,
    "dewpoint": -11.7,
    "altimeter": 30,
    "conditions": "",
    "observationTime": "2026-05-20T08:00:00.000Z"
  },
  "LAX": {
    "raw": "METAR KLAX 200753Z 12005KT 10SM FEW032 19/08 A2991 RMK AO2 SLP127 FU FEW032 T01890078 402390139",
    "icao": "KLAX",
    "flightCategory": "VFR",
    "windDir": 120,
    "windSpeed": 5,
    "windGust": null,
    "visibility": 10,
    "ceiling": null,
    "temp": 18.9,
    "dewpoint": 7.8,
    "altimeter": 29.91,
    "conditions": "",
    "observationTime": "2026-05-20T08:00:00.000Z"
  },
  "ORD": {
    "raw": "METAR KORD 200751Z 35010KT 10SM SCT027 BKN034 BKN110 13/06 A3015 RMK AO2 SLP206 T01280061 $",
    "icao": "KORD",
    "flightCategory": "VFR",
    "windDir": 350,
    "windSpeed": 10,
    "windGust": null,
    "visibility": 10,
    "ceiling": 3400,
    "temp": 12.8,
    "dewpoint": 6.1,
    "altimeter": 30.15,
    "conditions": "",
    "observationTime": "2026-05-20T08:00:00.000Z"
  }
}