{
  "SYD": {
    "raw": "METAR YSSY 051130Z AUTO 18017KT 9999 // FEW032 BKN054 BKN065 14/09 Q1034",
    "icao": "YSSY",
    "flightCategory": "VFR",
    "windDir": 180,
    "windSpeed": 17,
    "windGust": null,
    "visibility": 6,
    "ceiling": 5400,
    "temp": 14,
    "dewpoint": 9,
    "altimeter": 30.53,
    "conditions": "",
    "observationTime": "2026-07-05T11:30:00.000Z"
  },
  "LAS": {
    "raw": "METAR KLAS 051156Z 18007KT 10SM BKN200 30/11 A2992 RMK AO2 SLP098 T03000106 10350 20300 53002 $",
    "icao": "KLAS",
    "flightCategory": "VFR",
    "windDir": 180,
    "windSpeed": 7,
    "windGust": null,
    "visibility": 10,
    "ceiling": 20000,
    "temp": 30,
    "dewpoint": 10.6,
    "altimeter": 29.92,
    "conditions": "",
    "observationTime": "2026-07-05T12:00:00.000Z"
  },
  "LAX": {
    "raw": "METAR KLAX 051153Z 26005KT 10SM SCT010 BKN250 18/16 A2999 RMK AO2 SLP152 T01830161 10189 20183 53003",
    "icao": "KLAX",
    "flightCategory": "VFR",
    "windDir": 260,
    "windSpeed": 5,
    "windGust": null,
    "visibility": 10,
    "ceiling": 25000,
    "temp": 18.3,
    "dewpoint": 16.1,
    "altimeter": 29.99,
    "conditions": "",
    "observationTime": "2026-07-05T12:00:00.000Z"
  },
  "ORD": {
    "raw": "METAR KORD 051151Z 36009KT 6SM BR FEW010 SCT075 SCT095 BKN140 BKN250 19/18 A2993 RMK AO2 SLP132 60003 70021 T01940178 10200 20189 58005 $",
    "icao": "KORD",
    "flightCategory": "VFR",
    "windDir": 360,
    "windSpeed": 9,
    "windGust": null,
    "visibility": 6,
    "ceiling": 14000,
    "temp": 19.4,
    "dewpoint": 17.8,
    "altimeter": 29.93,
    "conditions": "BR",
    "observationTime": "2026-07-05T12:00:00.000Z"
  },
  "LHR": {
    "raw": "METAR EGLL 051120Z AUTO 26010KT 9999 BKN034 23/15 Q1024",
    "icao": "EGLL",
    "flightCategory": "VFR",
    "windDir": 260,
    "windSpeed": 10,
    "windGust": null,
    "visibility": 6,
    "ceiling": 3400,
    "temp": 23,
    "dewpoint": 15,
    "altimeter": 30.24,
    "conditions": "",
    "observationTime": "2026-07-05T11:20:00.000Z"
  }
}