{
  "SYD": {
    "raw": "METAR YSSY 251430Z AUTO 32005KT 9999 // NCD 18/14 Q1027",
    "icao": "YSSY",
    "flightCategory": "VFR",
    "windDir": 320,
    "windSpeed": 5,
    "windGust": null,
    "visibility": 6,
    "ceiling": null,
    "temp": 18,
    "dewpoint": 14,
    "altimeter": 30.33,
    "conditions": "",
    "observationTime": "2026-04-25T14:30:00.000Z"
  },
  "LAS": {
    "raw": "METAR KLAS 251456Z 17006KT 10SM SCT200 19/M01 A2973 RMK AO2 SLP048 T01891006 53015",
    "icao": "KLAS",
    "flightCategory": "VFR",
    "windDir": 170,
    "windSpeed": 6,
    "windGust": null,
    "visibility": 10,
    "ceiling": null,
    "temp": 18.9,
    "dewpoint": -0.6,
    "altimeter": 29.73,
    "conditions": "",
    "observationTime": "2026-04-25T15:00:00.000Z"
  },
  "LAX": {
    "raw": "METAR KLAX 251453Z 24009KT 10SM SCT019 BKN029 BKN045 BKN200 16/10 A2992 RMK AO2 SLP128 T01560100 53010",
    "icao": "KLAX",
    "flightCategory": "MVFR",
    "windDir": 240,
    "windSpeed": 9,
    "windGust": null,
    "visibility": 10,
    "ceiling": 2900,
    "temp": 15.6,
    "dewpoint": 10,
    "altimeter": 29.92,
    "conditions": "",
    "observationTime": "2026-04-25T15:00:00.000Z"
  },
  "ORD": {
    "raw": "SPECI KORD 251422Z 04015KT 10SM BKN010 09/06 A2998 RMK AO2 T00890056",
    "icao": "KORD",
    "flightCategory": "MVFR",
    "windDir": 40,
    "windSpeed": 15,
    "windGust": null,
    "visibility": 10,
    "ceiling": 1000,
    "temp": 8.9,
    "dewpoint": 5.6,
    "altimeter": 29.98,
    "conditions": "",
    "observationTime": "2026-04-25T14:22:00.000Z"
  },
  "LHR": {
    "raw": "METAR EGLL 251420Z COR VRB04KT 9999 NSC 21/M06 Q1020",
    "icao": "EGLL",
    "flightCategory": "VFR",
    "windDir": null,
    "windSpeed": 4,
    "windGust": null,
    "visibility": 6,
    "ceiling": null,
    "temp": 21,
    "dewpoint": -6,
    "altimeter": 30.12,
    "conditions": "",
    "observationTime": "2026-04-25T14:20:00.000Z"
  }
}