{
  "LAS": {
    "raw": "METAR KLAS 270756Z 22009KT 10SM CLR 15/01 A2984 RMK AO2 SLP092 T01500011 402000122",
    "icao": "KLAS",
    "flightCategory": "VFR",
    "windDir": 220,
    "windSpeed": 9,
    "windGust": null,
    "visibility": 10,
    "ceiling": null,
    "temp": 15,
    "dewpoint": 1.1,
    "altimeter": 29.84,
    "conditions": "",
    "observationTime": "2026-04-27T08:00:00.000Z"
  },
  "LAX": {
    "raw": "METAR KLAX 270753Z 27009KT 10SM FEW020 BKN060 16/09 A3000 RMK AO2 SLP156 T01560089 401890128 $",
    "icao": "KLAX",
    "flightCategory": "VFR",
    "windDir": 270,
    "windSpeed": 9,
    "windGust": null,
    "visibility": 10,
    "ceiling": 6000,
    "temp": 15.6,
    "dewpoint": 8.9,
    "altimeter": 30,
    "conditions": "",
    "observationTime": "2026-04-27T08:00:00.000Z"
  },
  "ORD": {
    "raw": "METAR KORD 270751Z 11007KT 10SM BKN210 OVC250 11/08 A2994 RMK AO2 SLP140 T01060083 $",
    "icao": "KORD",
    "flightCategory": "VFR",
    "windDir": 110,
    "windSpeed": 7,
    "windGust": null,
    "visibility": 10,
    "ceiling": 21000,
    "temp": 10.6,
    "dewpoint": 8.3,
    "altimeter": 29.94,
    "conditions": "",
    "observationTime": "2026-04-27T08:00:00.000Z"
  },
  "LHR": {
    "raw": "METAR EGLL 270720Z COR AUTO VRB02KT 9999 NCD 12/07 Q1025 NOSIG",
    "icao": "EGLL",
    "flightCategory": "VFR",
    "windDir": null,
    "windSpeed": 2,
    "windGust": null,
    "visibility": 6,
    "ceiling": null,
    "temp": 12,
    "dewpoint": 7,
    "altimeter": 30.27,
    "conditions": "",
    "observationTime": "2026-04-27T07:20:00.000Z"
  },
  "SYD": {
    "raw": "METAR YSSY 270730Z AUTO 05009KT 9999 // NCD 21/13 Q1024",
    "icao": "YSSY",
    "flightCategory": "VFR",
    "windDir": 50,
    "windSpeed": 9,
    "windGust": null,
    "visibility": 6,
    "ceiling": null,
    "temp": 21,
    "dewpoint": 13,
    "altimeter": 30.24,
    "conditions": "",
    "observationTime": "2026-04-27T07:30:00.000Z"
  }
}