{
  "ORD": {
    "raw": "METAR KORD 100651Z 01012KT 10SM -RA OVC080 07/04 A3012 RMK AO2 SLP201 P0000 T00670039",
    "icao": "KORD",
    "flightCategory": "VFR",
    "windDir": 10,
    "windSpeed": 12,
    "windGust": null,
    "visibility": 10,
    "ceiling": 8000,
    "temp": 6.7,
    "dewpoint": 3.9,
    "altimeter": 30.12,
    "conditions": "-RA",
    "observationTime": "2026-04-10T07:00:00.000Z"
  },
  "LAX": {
    "raw": "SPECI KLAX 100643Z 24008KT 10SM FEW008 FEW012 SCT250 16/14 A2997 RMK AO2 T01610139 $",
    "icao": "KLAX",
    "flightCategory": "VFR",
    "windDir": 240,
    "windSpeed": 8,
    "windGust": null,
    "visibility": 10,
    "ceiling": null,
    "temp": 16.1,
    "dewpoint": 13.9,
    "altimeter": 29.97,
    "conditions": "",
    "observationTime": "2026-04-10T06:43:00.000Z"
  },
  "SYD": {
    "raw": "METAR YSSY 100600Z 36012KT CAVOK 29/15 Q1007",
    "icao": "YSSY",
    "flightCategory": "VFR",
    "windDir": 360,
    "windSpeed": 12,
    "windGust": null,
    "visibility": 6,
    "ceiling": null,
    "temp": 29,
    "dewpoint": 15,
    "altimeter": 29.74,
    "conditions": "",
    "observationTime": "2026-04-10T06:00:00.000Z"
  },
  "LHR": {
    "raw": "METAR EGLL 100620Z COR AUTO 31003KT 260V020 9999 NCD 07/00 Q1020 NOSIG",
    "icao": "EGLL",
    "flightCategory": "VFR",
    "windDir": 310,
    "windSpeed": 3,
    "windGust": null,
    "visibility": 6,
    "ceiling": null,
    "temp": 7,
    "dewpoint": 0,
    "altimeter": 30.12,
    "conditions": "",
    "observationTime": "2026-04-10T06:20:00.000Z"
  },
  "LAS": {
    "raw": "METAR KLAS 100556Z COR 19010G23KT 10SM BKN200 24/03 A2984 RMK AO2 PK WND 21030/0543 SLP081 T02440033 10294 20244 51015",
    "icao": "KLAS",
    "flightCategory": "VFR",
    "windDir": 190,
    "windSpeed": 10,
    "windGust": 23,
    "visibility": 10,
    "ceiling": 20000,
    "temp": 24.4,
    "dewpoint": 3.3,
    "altimeter": 29.84,
    "conditions": "",
    "observationTime": "2026-04-10T06:00:00.000Z"
  }
}