{
  "LAX": {
    "raw": "METAR KLAX 220453Z 24008KT 10SM FEW015 17/14 A2991 RMK AO2 SLP126 T01720144 $",
    "icao": "KLAX",
    "flightCategory": "VFR",
    "windDir": 240,
    "windSpeed": 8,
    "windGust": null,
    "visibility": 10,
    "ceiling": null,
    "temp": 17.2,
    "dewpoint": 14.4,
    "altimeter": 29.91,
    "conditions": "",
    "observationTime": "2026-06-22T05:00:00.000Z"
  },
  "ORD": {
    "raw": "SPECI KORD 220409Z 04012KT 10SM -RA BKN008 BKN015 OVC045 15/13 A2988 RMK AO2 P0000 T01500133 $",
    "icao": "KORD",
    "flightCategory": "IFR",
    "windDir": 40,
    "windSpeed": 12,
    "windGust": null,
    "visibility": 10,
    "ceiling": 800,
    "temp": 15,
    "dewpoint": 13.3,
    "altimeter": 29.88,
    "conditions": "-RA",
    "observationTime": "2026-06-22T04:09:00.000Z"
  },
  "LHR": {
    "raw": "METAR EGLL 220420Z AUTO 06005KT 020V100 9999 NCD 18/15 Q1026",
    "icao": "EGLL",
    "flightCategory": "VFR",
    "windDir": 60,
    "windSpeed": 5,
    "windGust": null,
    "visibility": 6,
    "ceiling": null,
    "temp": 18,
    "dewpoint": 15,
    "altimeter": 30.3,
    "conditions": "",
    "observationTime": "2026-06-22T04:20:00.000Z"
  },
  "SYD": {
    "raw": "METAR YSSY 220400Z 17011KT 9999 FEW035 SCT065 16/09 Q1024",
    "icao": "YSSY",
    "flightCategory": "VFR",
    "windDir": 170,
    "windSpeed": 11,
    "windGust": null,
    "visibility": 6,
    "ceiling": null,
    "temp": 16,
    "dewpoint": 9,
    "altimeter": 30.24,
    "conditions": "",
    "observationTime": "2026-06-22T04:00:00.000Z"
  }
}