{
  "LAS": {
    "raw": "METAR KLAS 280756Z 22004KT 10SM CLR 16/00 A2999 RMK AO2 SLP142 T01560000 402220117",
    "icao": "KLAS",
    "flightCategory": "VFR",
    "windDir": 220,
    "windSpeed": 4,
    "windGust": null,
    "visibility": 10,
    "ceiling": null,
    "temp": 15.6,
    "dewpoint": 0,
    "altimeter": 29.99,
    "conditions": "",
    "observationTime": "2026-04-28T08:00:00.000Z"
  },
  "LAX": {
    "raw": "METAR KLAX 280753Z 00000KT 10SM FEW010 FEW200 15/07 A3006 RMK AO2 SLP179 FU FEW010 T01500072 401890144 $",
    "icao": "KLAX",
    "flightCategory": "VFR",
    "windDir": 0,
    "windSpeed": 0,
    "windGust": null,
    "visibility": 10,
    "ceiling": null,
    "temp": 15,
    "dewpoint": 7.2,
    "altimeter": 30.06,
    "conditions": "",
    "observationTime": "2026-04-28T08:00:00.000Z"
  },
  "ORD": {
    "raw": "METAR KORD 280751Z 26013G25KT 10SM OVC020 13/09 A2968 RMK AO2 PK WND 28034/0736 SLP050 T01280094 $",
    "icao": "KORD",
    "flightCategory": "MVFR",
    "windDir": 260,
    "windSpeed": 13,
    "windGust": 25,
    "visibility": 10,
    "ceiling": 2000,
    "temp": 12.8,
    "dewpoint": 9.4,
    "altimeter": 29.68,
    "conditions": "",
    "observationTime": "2026-04-28T08:00:00.000Z"
  },
  "LHR": {
    "raw": "METAR EGLL 280720Z AUTO 05011KT 9999 BKN011 BKN015 OVC023 10/07 Q1025 TEMPO BKN009",
    "icao": "EGLL",
    "flightCategory": "MVFR",
    "windDir": 50,
    "windSpeed": 11,
    "windGust": null,
    "visibility": 6,
    "ceiling": 1100,
    "temp": 10,
    "dewpoint": 7,
    "altimeter": 30.27,
    "conditions": "",
    "observationTime": "2026-04-28T07:20:00.000Z"
  },
  "SYD": {
    "raw": "METAR YSSY 280730Z AUTO 06009KT 9999 // NCD 21/13 Q1025",
    "icao": "YSSY",
    "flightCategory": "VFR",
    "windDir": 60,
    "windSpeed": 9,
    "windGust": null,
    "visibility": 6,
    "ceiling": null,
    "temp": 21,
    "dewpoint": 13,
    "altimeter": 30.27,
    "conditions": "",
    "observationTime": "2026-04-28T07:30:00.000Z"
  }
}