{
  "SYD": {
    "raw": "METAR YSSY 112230Z 32013KT 9999 FEW030 11/05 Q1013",
    "icao": "YSSY",
    "flightCategory": "VFR",
    "windDir": 320,
    "windSpeed": 13,
    "windGust": null,
    "visibility": 6,
    "ceiling": null,
    "temp": 11,
    "dewpoint": 5,
    "altimeter": 29.91,
    "conditions": "",
    "observationTime": "2026-07-11T22:30:00.000Z"
  },
  "LAS": {
    "raw": "METAR KLAS 112256Z 11009G20KT 10SM FEW200 BKN250 42/07 A2985 RMK AO2 SLP072 T04220072",
    "icao": "KLAS",
    "flightCategory": "VFR",
    "windDir": 110,
    "windSpeed": 9,
    "windGust": 20,
    "visibility": 10,
    "ceiling": 25000,
    "temp": 42.2,
    "dewpoint": 7.2,
    "altimeter": 29.85,
    "conditions": "",
    "observationTime": "2026-07-11T23:00:00.000Z"
  },
  "LAX": {
    "raw": "METAR KLAX 112253Z 23009KT 10SM FEW010 SCT220 BKN280 23/15 A2991 RMK AO2 SLP126 T02330150 $",
    "icao": "KLAX",
    "flightCategory": "VFR",
    "windDir": 230,
    "windSpeed": 9,
    "windGust": null,
    "visibility": 10,
    "ceiling": 28000,
    "temp": 23.3,
    "dewpoint": 15,
    "altimeter": 29.91,
    "conditions": "",
    "observationTime": "2026-07-11T23:00:00.000Z"
  },
  "ORD": {
    "raw": "METAR KORD 112251Z 03012KT 10SM FEW050 BKN250 27/14 A3008 RMK AO2 SLP180 T02720139 $",
    "icao": "KORD",
    "flightCategory": "VFR",
    "windDir": 30,
    "windSpeed": 12,
    "windGust": null,
    "visibility": 10,
    "ceiling": 25000,
    "temp": 27.2,
    "dewpoint": 13.9,
    "altimeter": 30.08,
    "conditions": "",
    "observationTime": "2026-07-11T23:00:00.000Z"
  },
  "LHR": {
    "raw": "METAR EGLL 112220Z AUTO 07011KT 9999 NCD 21/15 Q1023",
    "icao": "EGLL",
    "flightCategory": "VFR",
    "windDir": 70,
    "windSpeed": 11,
    "windGust": null,
    "visibility": 6,
    "ceiling": null,
    "temp": 21,
    "dewpoint": 15,
    "altimeter": 30.21,
    "conditions": "",
    "observationTime": "2026-07-11T22:20:00.000Z"
  }
}