{
  "ORD": {
    "raw": "METAR KORD 121151Z 15006KT 10SM BKN110 BKN250 08/M01 A3012 RMK AO2 SLP201 T00781011 10078 20050 58009",
    "icao": "KORD",
    "flightCategory": "VFR",
    "windDir": 150,
    "windSpeed": 6,
    "windGust": null,
    "visibility": 10,
    "ceiling": 11000,
    "temp": 7.8,
    "dewpoint": -1.1,
    "altimeter": 30.12,
    "conditions": "",
    "observationTime": "2026-05-12T12:00:00.000Z"
  },
  "LHR": {
    "raw": "METAR EGLL 121120Z COR AUTO 29012KT 260V320 9999 BKN048 16/02 Q1014 NOSIG",
    "icao": "EGLL",
    "flightCategory": "VFR",
    "windDir": 290,
    "windSpeed": 12,
    "windGust": null,
    "visibility": 6,
    "ceiling": 4800,
    "temp": 16,
    "dewpoint": 2,
    "altimeter": 29.94,
    "conditions": "",
    "observationTime": "2026-05-12T11:20:00.000Z"
  },
  "LAX": {
    "raw": "SPECI KLAX 121058Z 26005KT 3SM BR OVC002 14/13 A2995 RMK AO2 VIS N-NE 2 T01390133 $",
    "icao": "KLAX",
    "flightCategory": "LIFR",
    "windDir": 260,
    "windSpeed": 5,
    "windGust": null,
    "visibility": 3,
    "ceiling": 200,
    "temp": 13.9,
    "dewpoint": 13.3,
    "altimeter": 29.95,
    "conditions": "BR",
    "observationTime": "2026-05-12T10:58:00.000Z"
  },
  "HND": {
    "raw": "METAR RJTT 121100Z 16010KT 9999 FEW030 SCT040 BKN/// 20/13 Q1011 NOSIG",
    "icao": "RJTT",
    "flightCategory": "VFR",
    "windDir": 160,
    "windSpeed": 10,
    "windGust": null,
    "visibility": 6,
    "ceiling": null,
    "temp": 20,
    "dewpoint": 13,
    "altimeter": 29.85,
    "conditions": "",
    "observationTime": "2026-05-12T11:00:00.000Z"
  },
  "LAS": {
    "raw": "METAR KLAS 121056Z 00000KT 10SM CLR 27/M06 A2993 RMK AO2 SLP104 T02721056",
    "icao": "KLAS",
    "flightCategory": "VFR",
    "windDir": 0,
    "windSpeed": 0,
    "windGust": null,
    "visibility": 10,
    "ceiling": null,
    "temp": 27.2,
    "dewpoint": -5.6,
    "altimeter": 29.93,
    "conditions": "",
    "observationTime": "2026-05-12T11:00:00.000Z"
  }
}