{
  "LHR": {
    "raw": "METAR EGLL 191650Z COR AUTO 04008KT 350V070 9999 NCD 14/M01 Q1024 NOSIG",
    "icao": "EGLL",
    "flightCategory": "VFR",
    "windDir": 40,
    "windSpeed": 8,
    "windGust": null,
    "visibility": 6,
    "ceiling": null,
    "temp": 14,
    "dewpoint": -1,
    "altimeter": 30.24,
    "conditions": "",
    "observationTime": "2026-04-19T17:00:00.000Z"
  },
  "SYD": {
    "raw": "METAR YSSY 191630Z AUTO 31007KT 9999 // NCD 12/08 Q1022",
    "icao": "YSSY",
    "flightCategory": "VFR",
    "windDir": 310,
    "windSpeed": 7,
    "windGust": null,
    "visibility": 6,
    "ceiling": null,
    "temp": 12,
    "dewpoint": 8,
    "altimeter": 30.18,
    "conditions": "",
    "observationTime": "2026-04-19T16:30:00.000Z"
  },
  "LAS": {
    "raw": "METAR KLAS 191656Z 05004KT 10SM FEW200 BKN250 22/M16 A2999 RMK AO2 SLP138 T02171161",
    "icao": "KLAS",
    "flightCategory": "VFR",
    "windDir": 50,
    "windSpeed": 4,
    "windGust": null,
    "visibility": 10,
    "ceiling": 25000,
    "temp": 21.7,
    "dewpoint": -16.1,
    "altimeter": 29.99,
    "conditions": "",
    "observationTime": "2026-04-19T17:00:00.000Z"
  },
  "LAX": {
    "raw": "METAR KLAX 191653Z 26007KT 10SM FEW006 FEW190 SCT240 SCT300 20/13 A2992 RMK AO2 SLP130 T02000128 $",
    "icao": "KLAX",
    "flightCategory": "VFR",
    "windDir": 260,
    "windSpeed": 7,
    "windGust": null,
    "visibility": 10,
    "ceiling": null,
    "temp": 20,
    "dewpoint": 12.8,
    "altimeter": 29.92,
    "conditions": "",
    "observationTime": "2026-04-19T17:00:00.000Z"
  },
  "ORD": {
    "raw": "METAR KORD 191651Z 27015G30KT 10SM -RA BKN050 OVC250 07/M02 A3012 RMK AO2 PK WND 30031/1601 RAB50 SLP204 P0000 T00671022 $",
    "icao": "KORD",
    "flightCategory": "VFR",
    "windDir": 270,
    "windSpeed": 15,
    "windGust": 30,
    "visibility": 10,
    "ceiling": 5000,
    "temp": 6.7,
    "dewpoint": -2.2,
    "altimeter": 30.12,
    "conditions": "-RA",
    "observationTime": "2026-04-19T17:00:00.000Z"
  }
}