{
  "ORD": {
    "raw": "METAR KORD 080651Z 35007KT 8SM FEW090 06/04 A2987 RMK AO2 SLP116 T00560044",
    "icao": "KORD",
    "flightCategory": "VFR",
    "windDir": 350,
    "windSpeed": 7,
    "windGust": null,
    "visibility": 8,
    "ceiling": null,
    "temp": 5.6,
    "dewpoint": 4.4,
    "altimeter": 29.87,
    "conditions": "",
    "observationTime": "2026-05-08T07:00:00.000Z"
  },
  "SYD": {
    "raw": "METAR YSSY 080600Z 26017KT CAVOK 20/04 Q1016",
    "icao": "YSSY",
    "flightCategory": "VFR",
    "windDir": 260,
    "windSpeed": 17,
    "windGust": null,
    "visibility": 6,
    "ceiling": null,
    "temp": 20,
    "dewpoint": 4,
    "altimeter": 30,
    "conditions": "",
    "observationTime": "2026-05-08T06:00:00.000Z"
  },
  "LHR": {
    "raw": "METAR EGLL 080620Z COR AUTO 08003KT 9999 NCD 10/07 Q1016 NOSIG",
    "icao": "EGLL",
    "flightCategory": "VFR",
    "windDir": 80,
    "windSpeed": 3,
    "windGust": null,
    "visibility": 6,
    "ceiling": null,
    "temp": 10,
    "dewpoint": 7,
    "altimeter": 30,
    "conditions": "",
    "observationTime": "2026-05-08T06:20:00.000Z"
  },
  "LAS": {
    "raw": "METAR KLAS 080556Z 18004KT 10SM FEW250 28/M04 A2986 RMK AO2 SLP087 T02781044 10333 20278 51007",
    "icao": "KLAS",
    "flightCategory": "VFR",
    "windDir": 180,
    "windSpeed": 4,
    "windGust": null,
    "visibility": 10,
    "ceiling": null,
    "temp": 27.8,
    "dewpoint": -4.4,
    "altimeter": 29.86,
    "conditions": "",
    "observationTime": "2026-05-08T06:00:00.000Z"
  }
}