{
  "SYD": {
    "raw": "METAR YSSY 281500Z AUTO 28005KT 270V040 9999 // SCT031 SCT042 BKN073 12/12 Q1030",
    "icao": "YSSY",
    "flightCategory": "VFR",
    "windDir": 280,
    "windSpeed": 5,
    "windGust": null,
    "visibility": 6,
    "ceiling": 7300,
    "temp": 12,
    "dewpoint": 12,
    "altimeter": 30.42,
    "conditions": "",
    "observationTime": "2026-06-28T15:00:00.000Z"
  },
  "LHR": {
    "raw": "METAR EGLL 281450Z AUTO 23017KT 9999 NCD 26/10 Q1018",
    "icao": "EGLL",
    "flightCategory": "VFR",
    "windDir": 230,
    "windSpeed": 17,
    "windGust": null,
    "visibility": 6,
    "ceiling": null,
    "temp": 26,
    "dewpoint": 10,
    "altimeter": 30.06,
    "conditions": "",
    "observationTime": "2026-06-28T15:00:00.000Z"
  },
  "LAS": {
    "raw": "METAR KLAS 281456Z AUTO 18007KT 10SM CLR 25/06 A2975 RMK AO2 SLP050 T02500061 53020",
    "icao": "KLAS",
    "flightCategory": "VFR",
    "windDir": 180,
    "windSpeed": 7,
    "windGust": null,
    "visibility": 10,
    "ceiling": null,
    "temp": 25,
    "dewpoint": 6.1,
    "altimeter": 29.75,
    "conditions": "",
    "observationTime": "2026-06-28T15:00:00.000Z"
  },
  "LAX": {
    "raw": "METAR KLAX 281453Z 16006KT 10SM FEW019 BKN036 19/13 A2993 RMK AO2 SLP132 T01890128 51009",
    "icao": "KLAX",
    "flightCategory": "VFR",
    "windDir": 160,
    "windSpeed": 6,
    "windGust": null,
    "visibility": 10,
    "ceiling": 3600,
    "temp": 18.9,
    "dewpoint": 12.8,
    "altimeter": 29.93,
    "conditions": "",
    "observationTime": "2026-06-28T15:00:00.000Z"
  },
  "ORD": {
    "raw": "METAR KORD 281451Z 11007KT 10SM BKN250 25/19 A2992 RMK AO2 SLP128 T02500194 58003 $",
    "icao": "KORD",
    "flightCategory": "VFR",
    "windDir": 110,
    "windSpeed": 7,
    "windGust": null,
    "visibility": 10,
    "ceiling": 25000,
    "temp": 25,
    "dewpoint": 19.4,
    "altimeter": 29.92,
    "conditions": "",
    "observationTime": "2026-06-28T15:00:00.000Z"
  }
}