{
  "LHR": {
    "raw": "METAR EGLL 271350Z COR AUTO 28005KT 220V340 9999 NCD 21/03 Q1023 NOSIG",
    "icao": "EGLL",
    "flightCategory": "VFR",
    "windDir": 280,
    "windSpeed": 5,
    "windGust": null,
    "visibility": 6,
    "ceiling": null,
    "temp": 21,
    "dewpoint": 3,
    "altimeter": 30.21,
    "conditions": "",
    "observationTime": "2026-04-27T14:00:00.000Z"
  },
  "SYD": {
    "raw": "METAR YSSY 271400Z AUTO 29003KT 9999 // BKN051 17/13 Q1026",
    "icao": "YSSY",
    "flightCategory": "VFR",
    "windDir": 290,
    "windSpeed": 3,
    "windGust": null,
    "visibility": 6,
    "ceiling": 5100,
    "temp": 17,
    "dewpoint": 13,
    "altimeter": 30.3,
    "conditions": "",
    "observationTime": "2026-04-27T14:00:00.000Z"
  },
  "LAS": {
    "raw": "METAR KLAS 271356Z 21017KT 10SM FEW065 FEW250 12/01 A2986 RMK AO2 SLP102 T01170006",
    "icao": "KLAS",
    "flightCategory": "VFR",
    "windDir": 210,
    "windSpeed": 17,
    "windGust": null,
    "visibility": 10,
    "ceiling": null,
    "temp": 11.7,
    "dewpoint": 0.6,
    "altimeter": 29.86,
    "conditions": "",
    "observationTime": "2026-04-27T14:00:00.000Z"
  },
  "LAX": {
    "raw": "METAR KLAX 271353Z 28008KT 10SM FEW010 SCT025 BKN070 14/09 A2998 RMK AO2 SLP152 T01440089 $",
    "icao": "KLAX",
    "flightCategory": "VFR",
    "windDir": 280,
    "windSpeed": 8,
    "windGust": null,
    "visibility": 10,
    "ceiling": 7000,
    "temp": 14.4,
    "dewpoint": 8.9,
    "altimeter": 29.98,
    "conditions": "",
    "observationTime": "2026-04-27T14:00:00.000Z"
  },
  "ORD": {
    "raw": "METAR KORD 271351Z 16010KT 10SM BKN095 BKN120 OVC250 14/09 A2984 RMK AO2 SLP106 T01390094 $",
    "icao": "KORD",
    "flightCategory": "VFR",
    "windDir": 160,
    "windSpeed": 10,
    "windGust": null,
    "visibility": 10,
    "ceiling": 9500,
    "temp": 13.9,
    "dewpoint": 9.4,
    "altimeter": 29.84,
    "conditions": "",
    "observationTime": "2026-04-27T14:00:00.000Z"
  }
}