{
  "LHR": {
    "raw": "METAR EGLL 221950Z AUTO 06009KT 9999 NCD 23/14 Q1023",
    "icao": "EGLL",
    "flightCategory": "VFR",
    "windDir": 60,
    "windSpeed": 9,
    "windGust": null,
    "visibility": 6,
    "ceiling": null,
    "temp": 23,
    "dewpoint": 14,
    "altimeter": 30.21,
    "conditions": "",
    "observationTime": "2026-07-22T20:00:00.000Z"
  },
  "SYD": {
    "raw": "METAR YSSY 222000Z 29006KT CAVOK 11/07 Q1020",
    "icao": "YSSY",
    "flightCategory": "VFR",
    "windDir": 290,
    "windSpeed": 6,
    "windGust": null,
    "visibility": 6,
    "ceiling": null,
    "temp": 11,
    "dewpoint": 7,
    "altimeter": 30.12,
    "conditions": "",
    "observationTime": "2026-07-22T20:00:00.000Z"
  },
  "LAS": {
    "raw": "METAR KLAS 221956Z VRB04KT 10SM FEW110 39/10 A2993 RMK AO2 SLP103 T03890100",
    "icao": "KLAS",
    "flightCategory": "VFR",
    "windDir": null,
    "windSpeed": 4,
    "windGust": null,
    "visibility": 10,
    "ceiling": null,
    "temp": 38.9,
    "dewpoint": 10,
    "altimeter": 29.93,
    "conditions": "",
    "observationTime": "2026-07-22T20:00:00.000Z"
  },
  "LAX": {
    "raw": "SPECI KLAX 221935Z 25011KT 9SM FEW006 SCT017 24/19 A2998 RMK AO2 T02390189",
    "icao": "KLAX",
    "flightCategory": "VFR",
    "windDir": 250,
    "windSpeed": 11,
    "windGust": null,
    "visibility": 9,
    "ceiling": null,
    "temp": 23.9,
    "dewpoint": 18.9,
    "altimeter": 29.98,
    "conditions": "",
    "observationTime": "2026-07-22T19:35:00.000Z"
  },
  "ORD": {
    "raw": "METAR KORD 221951Z 02010G16KT 10SM SCT044 22/06 A3010 RMK AO2 SLP189 T02220061 $",
    "icao": "KORD",
    "flightCategory": "VFR",
    "windDir": 20,
    "windSpeed": 10,
    "windGust": 16,
    "visibility": 10,
    "ceiling": null,
    "temp": 22.2,
    "dewpoint": 6.1,
    "altimeter": 30.1,
    "conditions": "",
    "observationTime": "2026-07-22T20:00:00.000Z"
  }
}