{
  "SYD": {
    "raw": "METAR YSSY 191300Z AUTO 28008KT 9999 // NCD 14/09 Q1022",
    "icao": "YSSY",
    "flightCategory": "VFR",
    "windDir": 280,
    "windSpeed": 8,
    "windGust": null,
    "visibility": 6,
    "ceiling": null,
    "temp": 14,
    "dewpoint": 9,
    "altimeter": 30.18,
    "conditions": "",
    "observationTime": "2026-04-19T13:00:00.000Z"
  },
  "LHR": {
    "raw": "METAR EGLL 191320Z COR AUTO 02005KT 330V140 9999 NCD 14/M01 Q1025 NOSIG",
    "icao": "EGLL",
    "flightCategory": "VFR",
    "windDir": 20,
    "windSpeed": 5,
    "windGust": null,
    "visibility": 6,
    "ceiling": null,
    "temp": 14,
    "dewpoint": -1,
    "altimeter": 30.27,
    "conditions": "",
    "observationTime": "2026-04-19T13:20:00.000Z"
  },
  "LAS": {
    "raw": "METAR KLAS 191256Z 22003KT 10SM FEW150 SCT200 14/M13 A2996 RMK AO2 SLP130 T01391128",
    "icao": "KLAS",
    "flightCategory": "VFR",
    "windDir": 220,
    "windSpeed": 3,
    "windGust": null,
    "visibility": 10,
    "ceiling": null,
    "temp": 13.9,
    "dewpoint": -12.8,
    "altimeter": 29.96,
    "conditions": "",
    "observationTime": "2026-04-19T13:00:00.000Z"
  },
  "LAX": {
    "raw": "METAR KLAX 191253Z 24003KT 10SM SCT220 17/13 A2987 RMK AO2 SLP112 T01720133 $",
    "icao": "KLAX",
    "flightCategory": "VFR",
    "windDir": 240,
    "windSpeed": 3,
    "windGust": null,
    "visibility": 10,
    "ceiling": null,
    "temp": 17.2,
    "dewpoint": 13.3,
    "altimeter": 29.87,
    "conditions": "",
    "observationTime": "2026-04-19T13:00:00.000Z"
  }
}