{
  "SYD": {
    "raw": "METAR YSSY 192100Z 23013KT CAVOK 14/08 Q1016",
    "icao": "YSSY",
    "flightCategory": "VFR",
    "windDir": 230,
    "windSpeed": 13,
    "windGust": null,
    "visibility": 6,
    "ceiling": null,
    "temp": 14,
    "dewpoint": 8,
    "altimeter": 30,
    "conditions": "",
    "observationTime": "2026-05-19T21:00:00.000Z"
  },
  "LHR": {
    "raw": "METAR EGLL 192050Z AUTO 23016KT 9999 SCT026 BKN031 14/09 Q1010",
    "icao": "EGLL",
    "flightCategory": "VFR",
    "windDir": 230,
    "windSpeed": 16,
    "windGust": null,
    "visibility": 6,
    "ceiling": 3100,
    "temp": 14,
    "dewpoint": 9,
    "altimeter": 29.83,
    "conditions": "",
    "observationTime": "2026-05-19T21:00:00.000Z"
  },
  "LAS": {
    "raw": "METAR KLAS 192056Z 14007KT 110V170 10SM FEW250 25/M13 A3002 RMK AO2 SLP148 T02501133 58020",
    "icao": "KLAS",
    "flightCategory": "VFR",
    "windDir": 140,
    "windSpeed": 7,
    "windGust": null,
    "visibility": 10,
    "ceiling": null,
    "temp": 25,
    "dewpoint": -13.3,
    "altimeter": 30.02,
    "conditions": "",
    "observationTime": "2026-05-19T21:00:00.000Z"
  },
  "LAX": {
    "raw": "METAR KLAX 192053Z 25014KT 8SM FEW010 FEW050 SCT240 22/15 A2995 RMK AO2 SLP141 FU FEW050 T02170150 58009",
    "icao": "KLAX",
    "flightCategory": "VFR",
    "windDir": 250,
    "windSpeed": 14,
    "windGust": null,
    "visibility": 8,
    "ceiling": null,
    "temp": 21.7,
    "dewpoint": 15,
    "altimeter": 29.95,
    "conditions": "",
    "observationTime": "2026-05-19T21:00:00.000Z"
  },
  "ORD": {
    "raw": "METAR KORD 192051Z 25016G25KT 10SM BKN036 OVC047 23/17 A2994 RMK AO2 PK WND 24032/2038 RAB31E40 SLP136 P0000 60000 T02330167 53013",
    "icao": "KORD",
    "flightCategory": "VFR",
    "windDir": 250,
    "windSpeed": 16,
    "windGust": 25,
    "visibility": 10,
    "ceiling": 3600,
    "temp": 23.3,
    "dewpoint": 16.7,
    "altimeter": 29.94,
    "conditions": "",
    "observationTime": "2026-05-19T21:00:00.000Z"
  }
}