{
  "LAX": {
    "raw": "METAR KLAX 291953Z 26008KT 10SM FEW015 BKN028 OVC033 19/14 A2992 RMK AO2 SLP131 T01940144 $",
    "icao": "KLAX",
    "flightCategory": "MVFR",
    "windDir": 260,
    "windSpeed": 8,
    "windGust": null,
    "visibility": 10,
    "ceiling": 2800,
    "temp": 19.4,
    "dewpoint": 14.4,
    "altimeter": 29.92,
    "conditions": "",
    "observationTime": "2026-06-29T20:00:00.000Z"
  },
  "ORD": {
    "raw": "METAR KORD 291951Z 18013G24KT 10SM SCT039 BKN200 BKN250 33/23 A2989 RMK AO2 SLP115 T03280233 $",
    "icao": "KORD",
    "flightCategory": "VFR",
    "windDir": 180,
    "windSpeed": 13,
    "windGust": 24,
    "visibility": 10,
    "ceiling": 20000,
    "temp": 32.8,
    "dewpoint": 23.3,
    "altimeter": 29.89,
    "conditions": "",
    "observationTime": "2026-06-29T20:00:00.000Z"
  },
  "LHR": {
    "raw": "METAR EGLL 291920Z AUTO 28007KT 9999 NCD 21/09 Q1025",
    "icao": "EGLL",
    "flightCategory": "VFR",
    "windDir": 280,
    "windSpeed": 7,
    "windGust": null,
    "visibility": 6,
    "ceiling": null,
    "temp": 21,
    "dewpoint": 9,
    "altimeter": 30.27,
    "conditions": "",
    "observationTime": "2026-06-29T19:20:00.000Z"
  },
  "SYD": {
    "raw": "METAR YSSY 291900Z AUTO 34007KT 9999 // NCD 11/10 Q1022",
    "icao": "YSSY",
    "flightCategory": "VFR",
    "windDir": 340,
    "windSpeed": 7,
    "windGust": null,
    "visibility": 6,
    "ceiling": null,
    "temp": 11,
    "dewpoint": 10,
    "altimeter": 30.18,
    "conditions": "",
    "observationTime": "2026-06-29T19:00:00.000Z"
  }
}