{
  "SYD": {
    "raw": "METAR YSSY 030330Z 18020KT 9999 FEW020 BKN050 23/19 Q1022",
    "icao": "YSSY",
    "flightCategory": "VFR",
    "windDir": 180,
    "windSpeed": 20,
    "windGust": null,
    "visibility": 6,
    "ceiling": 5000,
    "temp": 23,
    "dewpoint": 19,
    "altimeter": 30.18,
    "conditions": "",
    "observationTime": "2026-04-03T03:30:00.000Z"
  },
  "LAS": {
    "raw": "METAR KLAS 030356Z 21006KT 10SM CLR 21/03 A2984 RMK AO2 SLP090 T02060028",
    "icao": "KLAS",
    "flightCategory": "VFR",
    "windDir": 210,
    "windSpeed": 6,
    "windGust": null,
    "visibility": 10,
    "ceiling": null,
    "temp": 20.6,
    "dewpoint": 2.8,
    "altimeter": 29.84,
    "conditions": "",
    "observationTime": "2026-04-03T04:00:00.000Z"
  },
  "LAX": {
    "raw": "METAR KLAX 030353Z 26013KT 10SM FEW055 16/13 A2993 RMK AO2 SLP134 T01610128 $",
    "icao": "KLAX",
    "flightCategory": "VFR",
    "windDir": 260,
    "windSpeed": 13,
    "windGust": null,
    "visibility": 10,
    "ceiling": null,
    "temp": 16.1,
    "dewpoint": 12.8,
    "altimeter": 29.93,
    "conditions": "",
    "observationTime": "2026-04-03T04:00:00.000Z"
  },
  "ORD": {
    "raw": "SPECI KORD 030319Z 22007G25KT 2SM R10L/3500VP6000FT TSRA BR FEW018 BKN031CB OVC080 16/14 A2970 RMK AO2 CONS LTGICCCCG OHD TS OHD MOV NE P0017 T01610144 $",
    "icao": "KORD",
    "flightCategory": "IFR",
    "windDir": 220,
    "windSpeed": 7,
    "windGust": 25,
    "visibility": 2,
    "ceiling": 3100,
    "temp": 16.1,
    "dewpoint": 14.4,
    "altimeter": 29.7,
    "conditions": "TSRA BR",
    "observationTime": "2026-04-03T03:19:00.000Z"
  },
  "LHR": {
    "raw": "METAR EGLL 030320Z COR AUTO 21010KT 9999 BKN035 OVC043 09/05 Q1014 NOSIG",
    "icao": "EGLL",
    "flightCategory": "VFR",
    "windDir": 210,
    "windSpeed": 10,
    "windGust": null,
    "visibility": 6,
    "ceiling": 3500,
    "temp": 9,
    "dewpoint": 5,
    "altimeter": 29.94,
    "conditions": "",
    "observationTime": "2026-04-03T03:20:00.000Z"
  }
}