{
  "LAS": {
    "raw": "METAR KLAS 041056Z 05005KT 10SM CLR 14/M09 A3023 RMK AO2 SLP224 T01391094",
    "icao": "KLAS",
    "flightCategory": "VFR",
    "windDir": 50,
    "windSpeed": 5,
    "windGust": null,
    "visibility": 10,
    "ceiling": null,
    "temp": 13.9,
    "dewpoint": -9.4,
    "altimeter": 30.23,
    "conditions": "",
    "observationTime": "2026-04-04T11:00:00.000Z"
  },
  "LAX": {
    "raw": "METAR KLAX 041053Z 00000KT 10SM FEW240 FEW290 14/13 A3000 RMK AO2 SLP156 T01390128 $",
    "icao": "KLAX",
    "flightCategory": "VFR",
    "windDir": 0,
    "windSpeed": 0,
    "windGust": null,
    "visibility": 10,
    "ceiling": null,
    "temp": 13.9,
    "dewpoint": 12.8,
    "altimeter": 30,
    "conditions": "",
    "observationTime": "2026-04-04T11:00:00.000Z"
  },
  "ORD": {
    "raw": "SPECI KORD 041005Z 09010KT 1 3/4SM -TSRA BR BKN003 BKN015CB OVC034 07/07 A2985 RMK AO2 WSHFT 0945 PRESFR OCNL LTGIC OHD TS OHD MOV NE P0016 T00720067 $",
    "icao": "KORD",
    "flightCategory": "LIFR",
    "windDir": 90,
    "windSpeed": 10,
    "windGust": null,
    "visibility": 1.75,
    "ceiling": 300,
    "temp": 7.2,
    "dewpoint": 6.7,
    "altimeter": 29.85,
    "conditions": "-TSRA BR",
    "observationTime": "2026-04-04T10:05:00.000Z"
  },
  "LHR": {
    "raw": "METAR EGLL 041020Z AUTO 20013KT 170V240 9999 OVC011 13/10 Q1017 TEMPO BKN009",
    "icao": "EGLL",
    "flightCategory": "MVFR",
    "windDir": 200,
    "windSpeed": 13,
    "windGust": null,
    "visibility": 6,
    "ceiling": 1100,
    "temp": 13,
    "dewpoint": 10,
    "altimeter": 30.03,
    "conditions": "",
    "observationTime": "2026-04-04T10:20:00.000Z"
  },
  "SYD": {
    "raw": "METAR YSSY 041030Z AUTO 16015KT 9999 SHRA FEW015 SCT020 BKN025 18/16 Q1025",
    "icao": "YSSY",
    "flightCategory": "MVFR",
    "windDir": 160,
    "windSpeed": 15,
    "windGust": null,
    "visibility": 6,
    "ceiling": 2500,
    "temp": 18,
    "dewpoint": 16,
    "altimeter": 30.27,
    "conditions": "SHRA",
    "observationTime": "2026-04-04T10:30:00.000Z"
  }
}