{
  "SYD": {
    "raw": "METAR YSSY 041930Z 25012KT CAVOK 16/09 Q1017",
    "icao": "YSSY",
    "flightCategory": "VFR",
    "windDir": 250,
    "windSpeed": 12,
    "windGust": null,
    "visibility": 6,
    "ceiling": null,
    "temp": 16,
    "dewpoint": 9,
    "altimeter": 30.03,
    "conditions": "",
    "observationTime": "2026-05-04T19:30:00.000Z"
  },
  "LAS": {
    "raw": "METAR KLAS 041956Z 18014G27KT 10SM FEW120 FEW200 BKN250 24/M04 A2979 RMK AO2 PK WND 19029/1936 SLP068 T02391039",
    "icao": "KLAS",
    "flightCategory": "VFR",
    "windDir": 180,
    "windSpeed": 14,
    "windGust": 27,
    "visibility": 10,
    "ceiling": 25000,
    "temp": 23.9,
    "dewpoint": -3.9,
    "altimeter": 29.79,
    "conditions": "",
    "observationTime": "2026-05-04T20:00:00.000Z"
  },
  "LAX": {
    "raw": "METAR KLAX 041953Z 25014KT 10SM FEW035 FEW050 SCT160 BKN250 19/09 A3000 RMK AO2 SLP158 T01940089",
    "icao": "KLAX",
    "flightCategory": "VFR",
    "windDir": 250,
    "windSpeed": 14,
    "windGust": null,
    "visibility": 10,
    "ceiling": 25000,
    "temp": 19.4,
    "dewpoint": 8.9,
    "altimeter": 30,
    "conditions": "",
    "observationTime": "2026-05-04T20:00:00.000Z"
  },
  "ORD": {
    "raw": "METAR KORD 041951Z 23012G26KT 200V270 10SM SCT085 BKN100 BKN250 26/06 A2950 RMK AO2 PK WND 21026/1947 SLP985 T02560061",
    "icao": "KORD",
    "flightCategory": "VFR",
    "windDir": 230,
    "windSpeed": 12,
    "windGust": 26,
    "visibility": 10,
    "ceiling": 10000,
    "temp": 25.6,
    "dewpoint": 6.1,
    "altimeter": 29.5,
    "conditions": "",
    "observationTime": "2026-05-04T20:00:00.000Z"
  },
  "LHR": {
    "raw": "METAR EGLL 041920Z COR AUTO 04005KT 360V070 9999 OVC024 15/10 Q1014 NOSIG",
    "icao": "EGLL",
    "flightCategory": "MVFR",
    "windDir": 40,
    "windSpeed": 5,
    "windGust": null,
    "visibility": 6,
    "ceiling": 2400,
    "temp": 15,
    "dewpoint": 10,
    "altimeter": 29.94,
    "conditions": "",
    "observationTime": "2026-05-04T19:20:00.000Z"
  }
}