{
  "LAS": {
    "raw": "METAR KLAS 231656Z 05009KT 10SM FEW250 20/M07 A3002 RMK AO2 SLP150 T02001072",
    "icao": "KLAS",
    "flightCategory": "VFR",
    "windDir": 50,
    "windSpeed": 9,
    "windGust": null,
    "visibility": 10,
    "ceiling": null,
    "temp": 20,
    "dewpoint": -7.2,
    "altimeter": 30.02,
    "conditions": "",
    "observationTime": "2026-04-23T17:00:00.000Z"
  },
  "LAX": {
    "raw": "METAR KLAX 231653Z 10004KT 10SM FEW019 SCT240 SCT280 18/11 A3002 RMK AO2 SLP164 T01780106 $",
    "icao": "KLAX",
    "flightCategory": "VFR",
    "windDir": 100,
    "windSpeed": 4,
    "windGust": null,
    "visibility": 10,
    "ceiling": null,
    "temp": 17.8,
    "dewpoint": 10.6,
    "altimeter": 30.02,
    "conditions": "",
    "observationTime": "2026-04-23T17:00:00.000Z"
  },
  "ORD": {
    "raw": "METAR KORD 231651Z 17013G20KT 10SM SCT046 SCT250 25/13 A2986 RMK AO2 SLP108 T02500133",
    "icao": "KORD",
    "flightCategory": "VFR",
    "windDir": 170,
    "windSpeed": 13,
    "windGust": 20,
    "visibility": 10,
    "ceiling": null,
    "temp": 25,
    "dewpoint": 13.3,
    "altimeter": 29.86,
    "conditions": "",
    "observationTime": "2026-04-23T17:00:00.000Z"
  },
  "LHR": {
    "raw": "METAR EGLL 231620Z COR AUTO 07011KT 9999 NCD 18/01 Q1028 NOSIG",
    "icao": "EGLL",
    "flightCategory": "VFR",
    "windDir": 70,
    "windSpeed": 11,
    "windGust": null,
    "visibility": 6,
    "ceiling": null,
    "temp": 18,
    "dewpoint": 1,
    "altimeter": 30.36,
    "conditions": "",
    "observationTime": "2026-04-23T16:20:00.000Z"
  },
  "SYD": {
    "raw": "METAR YSSY 231630Z AUTO 24007KT 9999 // OVC058 18/11 Q1030",
    "icao": "YSSY",
    "flightCategory": "VFR",
    "windDir": 240,
    "windSpeed": 7,
    "windGust": null,
    "visibility": 6,
    "ceiling": 5800,
    "temp": 18,
    "dewpoint": 11,
    "altimeter": 30.42,
    "conditions": "",
    "observationTime": "2026-04-23T16:30:00.000Z"
  }
}