{
  "SYD": {
    "raw": "METAR YSSY 021730Z AUTO 34010KT 9999 // NCD 15/09 Q1001",
    "icao": "YSSY",
    "flightCategory": "VFR",
    "windDir": 340,
    "windSpeed": 10,
    "windGust": null,
    "visibility": 6,
    "ceiling": null,
    "temp": 15,
    "dewpoint": 9,
    "altimeter": 29.56,
    "conditions": "",
    "observationTime": "2026-06-02T17:30:00.000Z"
  },
  "LAS": {
    "raw": "METAR KLAS 021756Z VRB04KT 10SM FEW250 33/00 A2996 RMK AO2 SLP116 T03330000 10333 20244 50002",
    "icao": "KLAS",
    "flightCategory": "VFR",
    "windDir": null,
    "windSpeed": 4,
    "windGust": null,
    "visibility": 10,
    "ceiling": null,
    "temp": 33.3,
    "dewpoint": 0,
    "altimeter": 29.96,
    "conditions": "",
    "observationTime": "2026-06-02T18:00:00.000Z"
  },
  "LAX": {
    "raw": "METAR KLAX 021753Z 25008KT 8SM OVC017 18/13 A3005 RMK AO2 SLP175 T01830128 10183 20167 51017 $",
    "icao": "KLAX",
    "flightCategory": "MVFR",
    "windDir": 250,
    "windSpeed": 8,
    "windGust": null,
    "visibility": 8,
    "ceiling": 1700,
    "temp": 18.3,
    "dewpoint": 12.8,
    "altimeter": 30.05,
    "conditions": "",
    "observationTime": "2026-06-02T18:00:00.000Z"
  },
  "ORD": {
    "raw": "METAR KORD 021751Z 07011KT 10SM FEW300 23/04 A3034 RMK AO2 SLP271 T02330039 10233 20150 50002",
    "icao": "KORD",
    "flightCategory": "VFR",
    "windDir": 70,
    "windSpeed": 11,
    "windGust": null,
    "visibility": 10,
    "ceiling": null,
    "temp": 23.3,
    "dewpoint": 3.9,
    "altimeter": 30.34,
    "conditions": "",
    "observationTime": "2026-06-02T18:00:00.000Z"
  },
  "LHR": {
    "raw": "METAR EGLL 021720Z AUTO 25010KT 210V280 9999 //////TCU 15/13 Q1004",
    "icao": "EGLL",
    "flightCategory": "UNKNOWN",
    "windDir": 250,
    "windSpeed": 10,
    "windGust": null,
    "visibility": 6,
    "ceiling": null,
    "temp": 15,
    "dewpoint": 13,
    "altimeter": 29.65,
    "conditions": "",
    "observationTime": "2026-06-02T17:20:00.000Z"
  }
}