{
  "SYD": {
    "raw": "METAR YSSY 181730Z AUTO 34013KT 9999 // NCD 19/10 Q1013",
    "icao": "YSSY",
    "flightCategory": "VFR",
    "windDir": 340,
    "windSpeed": 13,
    "windGust": null,
    "visibility": 6,
    "ceiling": null,
    "temp": 19,
    "dewpoint": 10,
    "altimeter": 29.91,
    "conditions": "",
    "observationTime": "2026-06-18T17:30:00.000Z"
  },
  "LAS": {
    "raw": "METAR KLAS 181756Z 23007G18KT 190V280 10SM FEW150 SCT200 38/M02 A2985 RMK AO2 SLP072 FU SCT200 T03781022 10383 20294 50004",
    "icao": "KLAS",
    "flightCategory": "VFR",
    "windDir": 230,
    "windSpeed": 7,
    "windGust": 18,
    "visibility": 10,
    "ceiling": null,
    "temp": 37.8,
    "dewpoint": -2.2,
    "altimeter": 29.85,
    "conditions": "",
    "observationTime": "2026-06-18T18:00:00.000Z"
  },
  "LAX": {
    "raw": "METAR KLAX 181753Z 25006KT 10SM FEW009 SCT019 OVC027 19/14 A2998 RMK AO2 SLP152 T01890139 10189 20172 51005 $",
    "icao": "KLAX",
    "flightCategory": "MVFR",
    "windDir": 250,
    "windSpeed": 6,
    "windGust": null,
    "visibility": 10,
    "ceiling": 2700,
    "temp": 18.9,
    "dewpoint": 13.9,
    "altimeter": 29.98,
    "conditions": "",
    "observationTime": "2026-06-18T18:00:00.000Z"
  },
  "ORD": {
    "raw": "METAR KORD 181751Z 31008G19KT 10SM BKN043 21/11 A2975 RMK AO2 SLP071 60000 T02060111 10211 20167 51022",
    "icao": "KORD",
    "flightCategory": "VFR",
    "windDir": 310,
    "windSpeed": 8,
    "windGust": 19,
    "visibility": 10,
    "ceiling": 4300,
    "temp": 20.6,
    "dewpoint": 11.1,
    "altimeter": 29.75,
    "conditions": "",
    "observationTime": "2026-06-18T18:00:00.000Z"
  },
  "LHR": {
    "raw": "METAR EGLL 181720Z AUTO 19009KT 130V240 9999 NCD 24/16 Q1014",
    "icao": "EGLL",
    "flightCategory": "VFR",
    "windDir": 190,
    "windSpeed": 9,
    "windGust": null,
    "visibility": 6,
    "ceiling": null,
    "temp": 24,
    "dewpoint": 16,
    "altimeter": 29.94,
    "conditions": "",
    "observationTime": "2026-06-18T17:20:00.000Z"
  }
}