{
  "SYD": {
    "raw": "METAR YSSY 030000Z 03013KT 9999 FEW030 BKN270 24/14 Q1022",
    "icao": "YSSY",
    "flightCategory": "VFR",
    "windDir": 30,
    "windSpeed": 13,
    "windGust": null,
    "visibility": 6,
    "ceiling": 27000,
    "temp": 24,
    "dewpoint": 14,
    "altimeter": 30.18,
    "conditions": "",
    "observationTime": "2026-05-03T00:00:00.000Z"
  },
  "LHR": {
    "raw": "METAR EGLL 022350Z AUTO 21007KT 9999 BKN011 OVC015 14/12 Q1010 TEMPO BKN008",
    "icao": "EGLL",
    "flightCategory": "MVFR",
    "windDir": 210,
    "windSpeed": 7,
    "windGust": null,
    "visibility": 6,
    "ceiling": 1100,
    "temp": 14,
    "dewpoint": 12,
    "altimeter": 29.83,
    "conditions": "",
    "observationTime": "2026-05-03T00:00:00.000Z"
  },
  "LAS": {
    "raw": "METAR KLAS 022356Z 27005KT 10SM BKN250 29/M15 A2988 RMK AO2 SLP097 T02941150 10300 20261 56025",
    "icao": "KLAS",
    "flightCategory": "VFR",
    "windDir": 270,
    "windSpeed": 5,
    "windGust": null,
    "visibility": 10,
    "ceiling": 25000,
    "temp": 29.4,
    "dewpoint": -15,
    "altimeter": 29.88,
    "conditions": "",
    "observationTime": "2026-05-03T00:00:00.000Z"
  },
  "LAX": {
    "raw": "METAR KLAX 022353Z 23010KT 10SM FEW010 SCT013 BKN250 17/12 A2985 RMK AO2 SLP108 T01720122 10200 20167 56025",
    "icao": "KLAX",
    "flightCategory": "VFR",
    "windDir": 230,
    "windSpeed": 10,
    "windGust": null,
    "visibility": 10,
    "ceiling": 25000,
    "temp": 17.2,
    "dewpoint": 12.2,
    "altimeter": 29.85,
    "conditions": "",
    "observationTime": "2026-05-03T00:00:00.000Z"
  },
  "ORD": {
    "raw": "METAR KORD 022351Z 26006KT 10SM SCT075 SCT090 BKN250 13/M04 A2999 RMK AO2 SLP160 T01281039 10139 20106 58010",
    "icao": "KORD",
    "flightCategory": "VFR",
    "windDir": 260,
    "windSpeed": 6,
    "windGust": null,
    "visibility": 10,
    "ceiling": 25000,
    "temp": 12.8,
    "dewpoint": -3.9,
    "altimeter": 29.99,
    "conditions": "",
    "observationTime": "2026-05-03T00:00:00.000Z"
  }
}