{
  "LHR": {
    "raw": "METAR EGLL 030750Z AUTO 34005KT 300V060 9999 NCD 18/09 Q1030",
    "icao": "EGLL",
    "flightCategory": "VFR",
    "windDir": 340,
    "windSpeed": 5,
    "windGust": null,
    "visibility": 6,
    "ceiling": null,
    "temp": 18,
    "dewpoint": 9,
    "altimeter": 30.42,
    "conditions": "",
    "observationTime": "2026-07-03T08:00:00.000Z"
  },
  "SYD": {
    "raw": "METAR YSSY 030730Z AUTO 28021KT 9999 // NCD 16/01 Q1018",
    "icao": "YSSY",
    "flightCategory": "VFR",
    "windDir": 280,
    "windSpeed": 21,
    "windGust": null,
    "visibility": 6,
    "ceiling": null,
    "temp": 16,
    "dewpoint": 1,
    "altimeter": 30.06,
    "conditions": "",
    "observationTime": "2026-07-03T07:30:00.000Z"
  },
  "LAS": {
    "raw": "METAR KLAS 030756Z 22007KT 10SM CLR 28/M06 A2986 RMK AO2 SLP082 T02831056 403780250",
    "icao": "KLAS",
    "flightCategory": "VFR",
    "windDir": 220,
    "windSpeed": 7,
    "windGust": null,
    "visibility": 10,
    "ceiling": null,
    "temp": 28.3,
    "dewpoint": -5.6,
    "altimeter": 29.86,
    "conditions": "",
    "observationTime": "2026-07-03T08:00:00.000Z"
  },
  "LAX": {
    "raw": "METAR KLAX 030753Z 26006KT 10SM FEW010 FEW014 17/15 A2994 RMK AO2 SLP137 T01720150 402280172 $",
    "icao": "KLAX",
    "flightCategory": "VFR",
    "windDir": 260,
    "windSpeed": 6,
    "windGust": null,
    "visibility": 10,
    "ceiling": null,
    "temp": 17.2,
    "dewpoint": 15,
    "altimeter": 29.94,
    "conditions": "",
    "observationTime": "2026-07-03T08:00:00.000Z"
  },
  "ORD": {
    "raw": "METAR KORD 030751Z 16007KT 10SM -RA SCT085 BKN110 OVC250 22/21 A3003 RMK AO2 TSE25 SLP162 OCNL LTGIC DSNT E CB DSNT E MOV E P0004 T02220211 $",
    "icao": "KORD",
    "flightCategory": "VFR",
    "windDir": 160,
    "windSpeed": 7,
    "windGust": null,
    "visibility": 10,
    "ceiling": 11000,
    "temp": 22.2,
    "dewpoint": 21.1,
    "altimeter": 30.03,
    "conditions": "-RA",
    "observationTime": "2026-07-03T08:00:00.000Z"
  }
}