{
  "SYD": {
    "raw": "METAR YSSY 202230Z 23014KT 9999 -SHRA SCT028 SCT055 17/13 Q1027",
    "icao": "YSSY",
    "flightCategory": "VFR",
    "windDir": 230,
    "windSpeed": 14,
    "windGust": null,
    "visibility": 6,
    "ceiling": null,
    "temp": 17,
    "dewpoint": 13,
    "altimeter": 30.33,
    "conditions": "-SHRA",
    "observationTime": "2026-04-20T22:30:00.000Z"
  },
  "LAS": {
    "raw": "METAR KLAS 202256Z 21014G26KT 10SM FEW150 FEW250 32/M05 A2985 RMK AO2 PK WND 16027/2205 SLP086 T03171050",
    "icao": "KLAS",
    "flightCategory": "VFR",
    "windDir": 210,
    "windSpeed": 14,
    "windGust": 26,
    "visibility": 10,
    "ceiling": null,
    "temp": 31.7,
    "dewpoint": -5,
    "altimeter": 29.85,
    "conditions": "",
    "observationTime": "2026-04-20T23:00:00.000Z"
  },
  "LAX": {
    "raw": "METAR KLAX 202253Z COR 26015KT 10SM FEW250 20/12 A2997 RMK AO2 SLP150 T02000122 $",
    "icao": "KLAX",
    "flightCategory": "VFR",
    "windDir": 260,
    "windSpeed": 15,
    "windGust": null,
    "visibility": 10,
    "ceiling": null,
    "temp": 20,
    "dewpoint": 12.2,
    "altimeter": 29.97,
    "conditions": "",
    "observationTime": "2026-04-20T23:00:00.000Z"
  },
  "ORD": {
    "raw": "METAR KORD 202251Z 18007KT 10SM SCT210 BKN250 13/M04 A3019 RMK AO2 SLP228 T01331044 $",
    "icao": "KORD",
    "flightCategory": "VFR",
    "windDir": 180,
    "windSpeed": 7,
    "windGust": null,
    "visibility": 10,
    "ceiling": 25000,
    "temp": 13.3,
    "dewpoint": -4.4,
    "altimeter": 30.19,
    "conditions": "",
    "observationTime": "2026-04-20T23:00:00.000Z"
  },
  "LHR": {
    "raw": "METAR EGLL 202220Z COR AUTO 06009KT 9999 NCD 08/03 Q1025 NOSIG",
    "icao": "EGLL",
    "flightCategory": "VFR",
    "windDir": 60,
    "windSpeed": 9,
    "windGust": null,
    "visibility": 6,
    "ceiling": null,
    "temp": 8,
    "dewpoint": 3,
    "altimeter": 30.27,
    "conditions": "",
    "observationTime": "2026-04-20T22:20:00.000Z"
  }
}