{
  "LHR": {
    "raw": "METAR EGLL 090850Z COR AUTO 28006KT 9999 NCD 17/11 Q1018 NOSIG",
    "icao": "EGLL",
    "flightCategory": "VFR",
    "windDir": 280,
    "windSpeed": 6,
    "windGust": null,
    "visibility": 6,
    "ceiling": null,
    "temp": 17,
    "dewpoint": 11,
    "altimeter": 30.06,
    "conditions": "",
    "observationTime": "2026-04-09T09:00:00.000Z"
  },
  "SYD": {
    "raw": "METAR YSSY 090900Z AUTO 03014KT 9999 // NCD 25/20 Q1013",
    "icao": "YSSY",
    "flightCategory": "VFR",
    "windDir": 30,
    "windSpeed": 14,
    "windGust": null,
    "visibility": 6,
    "ceiling": null,
    "temp": 25,
    "dewpoint": 20,
    "altimeter": 29.91,
    "conditions": "",
    "observationTime": "2026-04-09T09:00:00.000Z"
  },
  "LAS": {
    "raw": "METAR KLAS 090856Z 19008KT 10SM BKN250 23/M04 A2983 RMK AO2 SLP076 T02331044 50002",
    "icao": "KLAS",
    "flightCategory": "VFR",
    "windDir": 190,
    "windSpeed": 8,
    "windGust": null,
    "visibility": 10,
    "ceiling": 25000,
    "temp": 23.3,
    "dewpoint": -4.4,
    "altimeter": 29.83,
    "conditions": "",
    "observationTime": "2026-04-09T09:00:00.000Z"
  },
  "LAX": {
    "raw": "METAR KLAX 090853Z 05005KT 10SM FEW011 SCT250 17/14 A2992 RMK AO2 SLP130 T01670144 $",
    "icao": "KLAX",
    "flightCategory": "VFR",
    "windDir": 50,
    "windSpeed": 5,
    "windGust": null,
    "visibility": 10,
    "ceiling": null,
    "temp": 16.7,
    "dewpoint": 14.4,
    "altimeter": 29.92,
    "conditions": "",
    "observationTime": "2026-04-09T09:00:00.000Z"
  },
  "ORD": {
    "raw": "METAR KORD 090851Z 22014G22KT 10SM FEW075 BKN100 OVC120 16/06 A3001 RMK AO2 RAB40E49 SLP158 P0000 60000 T01560061 53005 $",
    "icao": "KORD",
    "flightCategory": "VFR",
    "windDir": 220,
    "windSpeed": 14,
    "windGust": 22,
    "visibility": 10,
    "ceiling": 10000,
    "temp": 15.6,
    "dewpoint": 6.1,
    "altimeter": 30.01,
    "conditions": "",
    "observationTime": "2026-04-09T09:00:00.000Z"
  }
}