{
  "LAX": {
    "raw": "METAR KLAX 171453Z 13004KT 10SM BKN016 BKN180 22/18 A2992 RMK AO2 SLP130 T02220178 51014 $",
    "icao": "KLAX",
    "flightCategory": "MVFR",
    "windDir": 130,
    "windSpeed": 4,
    "windGust": null,
    "visibility": 10,
    "ceiling": 1600,
    "temp": 22.2,
    "dewpoint": 17.8,
    "altimeter": 29.92,
    "conditions": "",
    "observationTime": "2026-07-17T15:00:00.000Z"
  },
  "ORD": {
    "raw": "METAR KORD 171451Z 23006KT 1 3/4SM FU FEW012 BKN110 BKN250 29/22 A3004 RMK AO2 SLP167 T02890222 58001",
    "icao": "KORD",
    "flightCategory": "IFR",
    "windDir": 230,
    "windSpeed": 6,
    "windGust": null,
    "visibility": 1.75,
    "ceiling": 11000,
    "temp": 28.9,
    "dewpoint": 22.2,
    "altimeter": 30.04,
    "conditions": "FU",
    "observationTime": "2026-07-17T15:00:00.000Z"
  },
  "LHR": {
    "raw": "METAR EGLL 171420Z AUTO 35009KT 310V040 9999 NCD 28/11 Q1016",
    "icao": "EGLL",
    "flightCategory": "VFR",
    "windDir": 350,
    "windSpeed": 9,
    "windGust": null,
    "visibility": 6,
    "ceiling": null,
    "temp": 28,
    "dewpoint": 11,
    "altimeter": 30,
    "conditions": "",
    "observationTime": "2026-07-17T14:20:00.000Z"
  },
  "SYD": {
    "raw": "METAR YSSY 171400Z AUTO 27007KT 9999 DZ BKN047 BKN053 13/12 Q1031",
    "icao": "YSSY",
    "flightCategory": "VFR",
    "windDir": 270,
    "windSpeed": 7,
    "windGust": null,
    "visibility": 6,
    "ceiling": 4700,
    "temp": 13,
    "dewpoint": 12,
    "altimeter": 30.45,
    "conditions": "DZ",
    "observationTime": "2026-07-17T14:00:00.000Z"
  }
}