{
  "SYD": {
    "raw": "METAR YSSY 120800Z AUTO 28014KT 9999 // NCD 14/02 Q1014",
    "icao": "YSSY",
    "flightCategory": "VFR",
    "windDir": 280,
    "windSpeed": 14,
    "windGust": null,
    "visibility": 6,
    "ceiling": null,
    "temp": 14,
    "dewpoint": 2,
    "altimeter": 29.94,
    "conditions": "",
    "observationTime": "2026-07-12T08:00:00.000Z"
  },
  "LHR": {
    "raw": "METAR EGLL 120820Z AUTO 04009KT 010V090 9999 SCT020 21/15 Q1025",
    "icao": "EGLL",
    "flightCategory": "VFR",
    "windDir": 40,
    "windSpeed": 9,
    "windGust": null,
    "visibility": 6,
    "ceiling": null,
    "temp": 21,
    "dewpoint": 15,
    "altimeter": 30.27,
    "conditions": "",
    "observationTime": "2026-07-12T08:20:00.000Z"
  },
  "LAS": {
    "raw": "METAR KLAS 120756Z 18005KT 10SM CLR 35/08 A2987 RMK AO2 SLP079 T03500083 404330289 $",
    "icao": "KLAS",
    "flightCategory": "VFR",
    "windDir": 180,
    "windSpeed": 5,
    "windGust": null,
    "visibility": 10,
    "ceiling": null,
    "temp": 35,
    "dewpoint": 8.3,
    "altimeter": 29.87,
    "conditions": "",
    "observationTime": "2026-07-12T08:00:00.000Z"
  }
}