{
  "LAS": {
    "raw": "METAR KLAS 280756Z 21005KT 10SM SCT250 23/M02 A2994 RMK AO2 SLP115 T02331017 403220206",
    "icao": "KLAS",
    "flightCategory": "VFR",
    "windDir": 210,
    "windSpeed": 5,
    "windGust": null,
    "visibility": 10,
    "ceiling": null,
    "temp": 23.3,
    "dewpoint": -1.7,
    "altimeter": 29.94,
    "conditions": "",
    "observationTime": "2026-03-28T08:00:00.000Z"
  },
  "LAX": {
    "raw": "SPECI KLAX 280750Z 27005KT 9SM BKN012 16/13 A2999 RMK AO2 $",
    "icao": "KLAX",
    "flightCategory": "MVFR",
    "windDir": 270,
    "windSpeed": 5,
    "windGust": null,
    "visibility": 9,
    "ceiling": 1200,
    "temp": 16,
    "dewpoint": 13,
    "altimeter": 29.99,
    "conditions": "",
    "observationTime": "2026-03-28T07:50:00.000Z"
  },
  "ORD": {
    "raw": "METAR KORD 280751Z 35009KT 10SM CLR M02/M09 A3059 RMK AO2 SLP367 T10221094",
    "icao": "KORD",
    "flightCategory": "VFR",
    "windDir": 350,
    "windSpeed": 9,
    "windGust": null,
    "visibility": 10,
    "ceiling": null,
    "temp": -2.2,
    "dewpoint": -9.4,
    "altimeter": 30.59,
    "conditions": "",
    "observationTime": "2026-03-28T08:00:00.000Z"
  },
  "LHR": {
    "raw": "METAR EGLL 280720Z COR AUTO 27013KT 9999 NCD 05/01 Q1023 NOSIG",
    "icao": "EGLL",
    "flightCategory": "VFR",
    "windDir": 270,
    "windSpeed": 13,
    "windGust": null,
    "visibility": 6,
    "ceiling": null,
    "temp": 5,
    "dewpoint": 1,
    "altimeter": 30.21,
    "conditions": "",
    "observationTime": "2026-03-28T07:20:00.000Z"
  }
}