{
  "HND": {
    "raw": "METAR RJTT 132330Z 01006KT 9999 FEW020 BKN100 19/14 Q1013 NOSIG",
    "icao": "RJTT",
    "flightCategory": "VFR",
    "windDir": 10,
    "windSpeed": 6,
    "windGust": null,
    "visibility": 6,
    "ceiling": 10000,
    "temp": 19,
    "dewpoint": 14,
    "altimeter": 29.91,
    "conditions": "",
    "observationTime": "2026-05-13T23:30:00.000Z"
  },
  "LAS": {
    "raw": "METAR KLAS 132356Z 25015G20KT 10SM FEW120 FEW250 34/M03 A2984 RMK AO2 SLP075 T03441028 10350 20322 55013",
    "icao": "KLAS",
    "flightCategory": "VFR",
    "windDir": 250,
    "windSpeed": 15,
    "windGust": 20,
    "visibility": 10,
    "ceiling": null,
    "temp": 34.4,
    "dewpoint": -2.8,
    "altimeter": 29.84,
    "conditions": "",
    "observationTime": "2026-05-14T00:00:00.000Z"
  },
  "LAX": {
    "raw": "METAR KLAX 132353Z 24012G19KT 10SM FEW250 19/11 A3004 RMK AO2 SLP170 T01940106 10211 20189 56016",
    "icao": "KLAX",
    "flightCategory": "VFR",
    "windDir": 240,
    "windSpeed": 12,
    "windGust": 19,
    "visibility": 10,
    "ceiling": null,
    "temp": 19.4,
    "dewpoint": 10.6,
    "altimeter": 30.04,
    "conditions": "",
    "observationTime": "2026-05-14T00:00:00.000Z"
  },
  "ORD": {
    "raw": "METAR KORD 132351Z 06009KT 10SM SCT080 11/01 A3006 RMK AO2 SLP181 T01110011 10128 20106 51009 $",
    "icao": "KORD",
    "flightCategory": "VFR",
    "windDir": 60,
    "windSpeed": 9,
    "windGust": null,
    "visibility": 10,
    "ceiling": null,
    "temp": 11.1,
    "dewpoint": 1.1,
    "altimeter": 30.06,
    "conditions": "",
    "observationTime": "2026-05-14T00:00:00.000Z"
  },
  "LHR": {
    "raw": "METAR EGLL 132320Z COR AUTO 28008KT 9999 NCD 07/04 Q1002 NOSIG",
    "icao": "EGLL",
    "flightCategory": "VFR",
    "windDir": 280,
    "windSpeed": 8,
    "windGust": null,
    "visibility": 6,
    "ceiling": null,
    "temp": 7,
    "dewpoint": 4,
    "altimeter": 29.59,
    "conditions": "",
    "observationTime": "2026-05-13T23:20:00.000Z"
  }
}