{
  "SYD": {
    "raw": "METAR YSSY 181630Z AUTO 10007KT 9999 // OVC050 15/09 Q1031",
    "icao": "YSSY",
    "flightCategory": "VFR",
    "windDir": 100,
    "windSpeed": 7,
    "windGust": null,
    "visibility": 6,
    "ceiling": 5000,
    "temp": 15,
    "dewpoint": 9,
    "altimeter": 30.45,
    "conditions": "",
    "observationTime": "2026-07-18T16:30:00.000Z"
  },
  "LAS": {
    "raw": "METAR KLAS 181656Z VRB03KT 10SM FEW100 FEW180 SCT250 31/18 A3002 RMK AO2 SLP139 TCU DSNT N T03110178 $",
    "icao": "KLAS",
    "flightCategory": "VFR",
    "windDir": null,
    "windSpeed": 3,
    "windGust": null,
    "visibility": 10,
    "ceiling": null,
    "temp": 31.1,
    "dewpoint": 17.8,
    "altimeter": 30.02,
    "conditions": "",
    "observationTime": "2026-07-18T17:00:00.000Z"
  },
  "LAX": {
    "raw": "METAR KLAX 181653Z 24009KT 10SM SCT019 24/18 A3001 RMK AO2 SLP159 T02440178 $",
    "icao": "KLAX",
    "flightCategory": "VFR",
    "windDir": 240,
    "windSpeed": 9,
    "windGust": null,
    "visibility": 10,
    "ceiling": null,
    "temp": 24.4,
    "dewpoint": 17.8,
    "altimeter": 30.01,
    "conditions": "",
    "observationTime": "2026-07-18T17:00:00.000Z"
  },
  "ORD": {
    "raw": "METAR KORD 181651Z 31010KT 10SM -RA BKN034CB BKN045 OVC080 28/22 A2987 RMK AO2 RAB49 SLP110 CB OHD-E MOV SE P0000 T02830222 $",
    "icao": "KORD",
    "flightCategory": "VFR",
    "windDir": 310,
    "windSpeed": 10,
    "windGust": null,
    "visibility": 10,
    "ceiling": 3400,
    "temp": 28.3,
    "dewpoint": 22.2,
    "altimeter": 29.87,
    "conditions": "-RA",
    "observationTime": "2026-07-18T17:00:00.000Z"
  },
  "LHR": {
    "raw": "METAR EGLL 181620Z AUTO 01007KT 320V080 9999 NCD 22/09 Q1020",
    "icao": "EGLL",
    "flightCategory": "VFR",
    "windDir": 10,
    "windSpeed": 7,
    "windGust": null,
    "visibility": 6,
    "ceiling": null,
    "temp": 22,
    "dewpoint": 9,
    "altimeter": 30.12,
    "conditions": "",
    "observationTime": "2026-07-18T16:20:00.000Z"
  }
}