{
  "LAX": {
    "raw": "METAR KLAX 061953Z 24010KT 10SM FEW010 FEW025 20/12 A3006 RMK AO2 SLP179 T02000117",
    "icao": "KLAX",
    "flightCategory": "VFR",
    "windDir": 240,
    "windSpeed": 10,
    "windGust": null,
    "visibility": 10,
    "ceiling": null,
    "temp": 20,
    "dewpoint": 11.7,
    "altimeter": 30.06,
    "conditions": "",
    "observationTime": "2026-05-06T20:00:00.000Z"
  },
  "ORD": {
    "raw": "METAR KORD 061951Z 26009G20KT 10SM BKN075 BKN250 14/M04 A2992 RMK AO2 SLP132 T01391044",
    "icao": "KORD",
    "flightCategory": "VFR",
    "windDir": 260,
    "windSpeed": 9,
    "windGust": 20,
    "visibility": 10,
    "ceiling": 7500,
    "temp": 13.9,
    "dewpoint": -4.4,
    "altimeter": 29.92,
    "conditions": "",
    "observationTime": "2026-05-06T20:00:00.000Z"
  },
  "LHR": {
    "raw": "METAR EGLL 061920Z COR AUTO 04007KT 360V070 9999 NCD 12/04 Q1014 NOSIG",
    "icao": "EGLL",
    "flightCategory": "VFR",
    "windDir": 40,
    "windSpeed": 7,
    "windGust": null,
    "visibility": 6,
    "ceiling": null,
    "temp": 12,
    "dewpoint": 4,
    "altimeter": 29.94,
    "conditions": "",
    "observationTime": "2026-05-06T19:20:00.000Z"
  },
  "SYD": {
    "raw": "METAR YSSY 061900Z AUTO 24013KT 9999 // NCD 13/07 Q1013",
    "icao": "YSSY",
    "flightCategory": "VFR",
    "windDir": 240,
    "windSpeed": 13,
    "windGust": null,
    "visibility": 6,
    "ceiling": null,
    "temp": 13,
    "dewpoint": 7,
    "altimeter": 29.91,
    "conditions": "",
    "observationTime": "2026-05-06T19:00:00.000Z"
  }
}