{
  "SYD": {
    "raw": "METAR YSSY 011230Z AUTO 34009KT 9999 // NCD 13/07 Q1011",
    "icao": "YSSY",
    "flightCategory": "VFR",
    "windDir": 340,
    "windSpeed": 9,
    "windGust": null,
    "visibility": 6,
    "ceiling": null,
    "temp": 13,
    "dewpoint": 7,
    "altimeter": 29.85,
    "conditions": "",
    "observationTime": "2026-06-01T12:30:00.000Z"
  },
  "LAS": {
    "raw": "METAR KLAS 011256Z 00000KT 10SM FEW250 23/M03 A2988 RMK AO2 SLP093 T02331028",
    "icao": "KLAS",
    "flightCategory": "VFR",
    "windDir": 0,
    "windSpeed": 0,
    "windGust": null,
    "visibility": 10,
    "ceiling": null,
    "temp": 23.3,
    "dewpoint": -2.8,
    "altimeter": 29.88,
    "conditions": "",
    "observationTime": "2026-06-01T13:00:00.000Z"
  },
  "LAX": {
    "raw": "METAR KLAX 011253Z 12007KT 6SM HZ FEW008 OVC011 17/14 A2993 RMK AO2 SLP134 T01720139 $",
    "icao": "KLAX",
    "flightCategory": "MVFR",
    "windDir": 120,
    "windSpeed": 7,
    "windGust": null,
    "visibility": 6,
    "ceiling": 1100,
    "temp": 17.2,
    "dewpoint": 13.9,
    "altimeter": 29.93,
    "conditions": "HZ",
    "observationTime": "2026-06-01T13:00:00.000Z"
  },
  "ORD": {
    "raw": "METAR KORD 011251Z 08004KT 10SM BKN075 BKN250 16/08 A3004 RMK AO2 SLP170 T01560078",
    "icao": "KORD",
    "flightCategory": "VFR",
    "windDir": 80,
    "windSpeed": 4,
    "windGust": null,
    "visibility": 10,
    "ceiling": 7500,
    "temp": 15.6,
    "dewpoint": 7.8,
    "altimeter": 30.04,
    "conditions": "",
    "observationTime": "2026-06-01T13:00:00.000Z"
  },
  "LHR": {
    "raw": "METAR EGLL 011250Z AUTO 23012KT 9999 SCT043 23/11 Q1013",
    "icao": "EGLL",
    "flightCategory": "VFR",
    "windDir": 230,
    "windSpeed": 12,
    "windGust": null,
    "visibility": 6,
    "ceiling": null,
    "temp": 23,
    "dewpoint": 11,
    "altimeter": 29.91,
    "conditions": "",
    "observationTime": "2026-06-01T13:00:00.000Z"
  }
}