{
  "SYD": {
    "raw": "METAR YSSY 050630Z AUTO 17010KT 9999 // NCD 20/11 Q1017",
    "icao": "YSSY",
    "flightCategory": "VFR",
    "windDir": 170,
    "windSpeed": 10,
    "windGust": null,
    "visibility": 6,
    "ceiling": null,
    "temp": 20,
    "dewpoint": 11,
    "altimeter": 30.03,
    "conditions": "",
    "observationTime": "2026-05-05T06:30:00.000Z"
  },
  "LAS": {
    "raw": "METAR KLAS 050656Z 23010KT 10SM CLR 17/01 A2982 RMK AO2 SLP081 T01720011",
    "icao": "KLAS",
    "flightCategory": "VFR",
    "windDir": 230,
    "windSpeed": 10,
    "windGust": null,
    "visibility": 10,
    "ceiling": null,
    "temp": 17.2,
    "dewpoint": 1.1,
    "altimeter": 29.82,
    "conditions": "",
    "observationTime": "2026-05-05T07:00:00.000Z"
  },
  "LAX": {
    "raw": "SPECI KLAX 050634Z 27009KT 10SM BKN017 BKN065 OVC080 16/12 A2997 RMK AO2 T01560117",
    "icao": "KLAX",
    "flightCategory": "MVFR",
    "windDir": 270,
    "windSpeed": 9,
    "windGust": null,
    "visibility": 10,
    "ceiling": 1700,
    "temp": 15.6,
    "dewpoint": 11.7,
    "altimeter": 29.97,
    "conditions": "",
    "observationTime": "2026-05-05T06:34:00.000Z"
  },
  "ORD": {
    "raw": "METAR KORD 050651Z 31009KT 10SM BKN100 OVC150 15/M01 A2960 RMK AO2 SLP019 T01501006",
    "icao": "KORD",
    "flightCategory": "VFR",
    "windDir": 310,
    "windSpeed": 9,
    "windGust": null,
    "visibility": 10,
    "ceiling": 10000,
    "temp": 15,
    "dewpoint": -0.6,
    "altimeter": 29.6,
    "conditions": "",
    "observationTime": "2026-05-05T07:00:00.000Z"
  },
  "LHR": {
    "raw": "METAR EGLL 050620Z COR AUTO 36006KT 340V040 9999 OVC034 11/08 Q1013 NOSIG",
    "icao": "EGLL",
    "flightCategory": "VFR",
    "windDir": 360,
    "windSpeed": 6,
    "windGust": null,
    "visibility": 6,
    "ceiling": 3400,
    "temp": 11,
    "dewpoint": 8,
    "altimeter": 29.91,
    "conditions": "",
    "observationTime": "2026-05-05T06:20:00.000Z"
  }
}