{
  "SYD": {
    "raw": "METAR YSSY 132100Z 00000KT CAVOK 16/14 Q1025",
    "icao": "YSSY",
    "flightCategory": "VFR",
    "windDir": 0,
    "windSpeed": 0,
    "windGust": null,
    "visibility": 6,
    "ceiling": null,
    "temp": 16,
    "dewpoint": 14,
    "altimeter": 30.27,
    "conditions": "",
    "observationTime": "2026-06-13T21:00:00.000Z"
  },
  "LHR": {
    "raw": "METAR EGLL 132050Z AUTO 33008KT 300V020 9999 NCD 18/08 Q1021",
    "icao": "EGLL",
    "flightCategory": "VFR",
    "windDir": 330,
    "windSpeed": 8,
    "windGust": null,
    "visibility": 6,
    "ceiling": null,
    "temp": 18,
    "dewpoint": 8,
    "altimeter": 30.15,
    "conditions": "",
    "observationTime": "2026-06-13T21:00:00.000Z"
  },
  "LAS": {
    "raw": "METAR KLAS 132056Z 20014G20KT 10SM CLR 42/03 A2979 RMK AO2 SLP051 T04170033 58018",
    "icao": "KLAS",
    "flightCategory": "VFR",
    "windDir": 200,
    "windSpeed": 14,
    "windGust": 20,
    "visibility": 10,
    "ceiling": null,
    "temp": 41.7,
    "dewpoint": 3.3,
    "altimeter": 29.79,
    "conditions": "",
    "observationTime": "2026-06-13T21:00:00.000Z"
  },
  "LAX": {
    "raw": "METAR KLAX 132053Z 26014KT 10SM FEW008 BKN012 21/16 A2993 RMK AO2 SLP133 T02110156 51001 $",
    "icao": "KLAX",
    "flightCategory": "MVFR",
    "windDir": 260,
    "windSpeed": 14,
    "windGust": null,
    "visibility": 10,
    "ceiling": 1200,
    "temp": 21.1,
    "dewpoint": 15.6,
    "altimeter": 29.93,
    "conditions": "",
    "observationTime": "2026-06-13T21:00:00.000Z"
  },
  "ORD": {
    "raw": "METAR KORD 132051Z 21011G19KT 10SM FEW046 SCT065 BKN250 27/19 A2985 RMK AO2 SLP104 T02720189 56014 $",
    "icao": "KORD",
    "flightCategory": "VFR",
    "windDir": 210,
    "windSpeed": 11,
    "windGust": 19,
    "visibility": 10,
    "ceiling": 25000,
    "temp": 27.2,
    "dewpoint": 18.9,
    "altimeter": 29.85,
    "conditions": "",
    "observationTime": "2026-06-13T21:00:00.000Z"
  }
}