{
  "LAX": {
    "raw": "METAR KLAX 071453Z 22004KT 10SM FEW018 OVC027 19/13 A2983 RMK AO2 SLP101 T01890133 53003 $",
    "icao": "KLAX",
    "flightCategory": "MVFR",
    "windDir": 220,
    "windSpeed": 4,
    "windGust": null,
    "visibility": 10,
    "ceiling": 2700,
    "temp": 18.9,
    "dewpoint": 13.3,
    "altimeter": 29.83,
    "conditions": "",
    "observationTime": "2026-06-07T15:00:00.000Z"
  },
  "ORD": {
    "raw": "METAR KORD 071451Z 08008KT 10SM BKN250 25/16 A2999 RMK AO2 SLP149 T02500156 50007 $",
    "icao": "KORD",
    "flightCategory": "VFR",
    "windDir": 80,
    "windSpeed": 8,
    "windGust": null,
    "visibility": 10,
    "ceiling": 25000,
    "temp": 25,
    "dewpoint": 15.6,
    "altimeter": 29.99,
    "conditions": "",
    "observationTime": "2026-06-07T15:00:00.000Z"
  },
  "LHR": {
    "raw": "METAR EGLL 071420Z AUTO 22013G23KT 190V250 9999 OVC032 18/11 Q1020",
    "icao": "EGLL",
    "flightCategory": "VFR",
    "windDir": 220,
    "windSpeed": 13,
    "windGust": 23,
    "visibility": 6,
    "ceiling": 3200,
    "temp": 18,
    "dewpoint": 11,
    "altimeter": 30.12,
    "conditions": "",
    "observationTime": "2026-06-07T14:20:00.000Z"
  },
  "SYD": {
    "raw": "METAR YSSY 071400Z AUTO 33005KT 9999 // NCD 12/09 Q1031",
    "icao": "YSSY",
    "flightCategory": "VFR",
    "windDir": 330,
    "windSpeed": 5,
    "windGust": null,
    "visibility": 6,
    "ceiling": null,
    "temp": 12,
    "dewpoint": 9,
    "altimeter": 30.45,
    "conditions": "",
    "observationTime": "2026-06-07T14:00:00.000Z"
  }
}