{
  "SYD": {
    "raw": "METAR YSSY 160730Z AUTO 04007KT 9999 // NCD 18/13 Q1027",
    "icao": "YSSY",
    "flightCategory": "VFR",
    "windDir": 40,
    "windSpeed": 7,
    "windGust": null,
    "visibility": 6,
    "ceiling": null,
    "temp": 18,
    "dewpoint": 13,
    "altimeter": 30.33,
    "conditions": "",
    "observationTime": "2026-06-16T07:30:00.000Z"
  },
  "LAS": {
    "raw": "METAR KLAS 160756Z 18005KT 10SM CLR 34/M02 A2989 RMK AO2 SLP087 T03391017 404170278",
    "icao": "KLAS",
    "flightCategory": "VFR",
    "windDir": 180,
    "windSpeed": 5,
    "windGust": null,
    "visibility": 10,
    "ceiling": null,
    "temp": 33.9,
    "dewpoint": -1.7,
    "altimeter": 29.89,
    "conditions": "",
    "observationTime": "2026-06-16T08:00:00.000Z"
  },
  "LAX": {
    "raw": "SPECI KLAX 160726Z 25005KT 10SM FEW009 BKN011 17/15 A3000 RMK AO2 T01720150 $",
    "icao": "KLAX",
    "flightCategory": "MVFR",
    "windDir": 250,
    "windSpeed": 5,
    "windGust": null,
    "visibility": 10,
    "ceiling": 1100,
    "temp": 17.2,
    "dewpoint": 15,
    "altimeter": 30,
    "conditions": "",
    "observationTime": "2026-06-16T07:26:00.000Z"
  },
  "ORD": {
    "raw": "METAR KORD 160751Z 21009KT 10SM FEW090 FEW180 17/10 A2977 RMK AO2 SLP076 T01720100",
    "icao": "KORD",
    "flightCategory": "VFR",
    "windDir": 210,
    "windSpeed": 9,
    "windGust": null,
    "visibility": 10,
    "ceiling": null,
    "temp": 17.2,
    "dewpoint": 10,
    "altimeter": 29.77,
    "conditions": "",
    "observationTime": "2026-06-16T08:00:00.000Z"
  },
  "LHR": {
    "raw": "METAR EGLL 160750Z AUTO 27007KT 9999 BKN021 18/14 Q1014",
    "icao": "EGLL",
    "flightCategory": "MVFR",
    "windDir": 270,
    "windSpeed": 7,
    "windGust": null,
    "visibility": 6,
    "ceiling": 2100,
    "temp": 18,
    "dewpoint": 14,
    "altimeter": 29.94,
    "conditions": "",
    "observationTime": "2026-06-16T08:00:00.000Z"
  }
}