{
  "LHR": {
    "raw": "METAR EGLL 311250Z COR AUTO 35004KT 300V030 9999 BKN033 16/09 Q1030 NOSIG",
    "icao": "EGLL",
    "flightCategory": "VFR",
    "windDir": 350,
    "windSpeed": 4,
    "windGust": null,
    "visibility": 6,
    "ceiling": 3300,
    "temp": 16,
    "dewpoint": 9,
    "altimeter": 30.42,
    "conditions": "",
    "observationTime": "2026-03-31T13:00:00.000Z"
  },
  "SYD": {
    "raw": "METAR YSSY 311300Z AUTO 36005KT 9999 // BKN030 21/16 Q1024",
    "icao": "YSSY",
    "flightCategory": "MVFR",
    "windDir": 360,
    "windSpeed": 5,
    "windGust": null,
    "visibility": 6,
    "ceiling": 3000,
    "temp": 21,
    "dewpoint": 16,
    "altimeter": 30.24,
    "conditions": "",
    "observationTime": "2026-03-31T13:00:00.000Z"
  },
  "LAS": {
    "raw": "METAR KLAS 311256Z 23009KT 10SM BKN160 OVC200 22/M01 A2986 RMK AO2 SLP088 T02221011 $",
    "icao": "KLAS",
    "flightCategory": "VFR",
    "windDir": 230,
    "windSpeed": 9,
    "windGust": null,
    "visibility": 10,
    "ceiling": 16000,
    "temp": 22.2,
    "dewpoint": -1.1,
    "altimeter": 29.86,
    "conditions": "",
    "observationTime": "2026-03-31T13:00:00.000Z"
  },
  "LAX": {
    "raw": "SPECI KLAX 311235Z 14004KT 10SM FEW014 BKN030 OVC200 18/14 A2995 RMK AO2 T01830144",
    "icao": "KLAX",
    "flightCategory": "MVFR",
    "windDir": 140,
    "windSpeed": 4,
    "windGust": null,
    "visibility": 10,
    "ceiling": 3000,
    "temp": 18.3,
    "dewpoint": 14.4,
    "altimeter": 29.95,
    "conditions": "",
    "observationTime": "2026-03-31T12:35:00.000Z"
  },
  "ORD": {
    "raw": "METAR KORD 311251Z 21016G24KT 10SM FEW050 SCT110 BKN160 OVC250 19/13 A2975 RMK AO2 SLP069 VIRGA T01890128",
    "icao": "KORD",
    "flightCategory": "VFR",
    "windDir": 210,
    "windSpeed": 16,
    "windGust": 24,
    "visibility": 10,
    "ceiling": 16000,
    "temp": 18.9,
    "dewpoint": 12.8,
    "altimeter": 29.75,
    "conditions": "",
    "observationTime": "2026-03-31T13:00:00.000Z"
  }
}