{
  "SYD": {
    "raw": "METAR YSSY 260700Z AUTO 03013KT 9999 // NCD 22/10 Q1022",
    "icao": "YSSY",
    "flightCategory": "VFR",
    "windDir": 30,
    "windSpeed": 13,
    "windGust": null,
    "visibility": 6,
    "ceiling": null,
    "temp": 22,
    "dewpoint": 10,
    "altimeter": 30.18,
    "conditions": "",
    "observationTime": "2026-04-26T07:00:00.000Z"
  },
  "LAX": {
    "raw": "METAR KLAX 260653Z 24004KT 10SM -RA SCT013 BKN020 OVC055 13/12 A2990 RMK AO2 RAB0555 SLP124 P0002 T01330117",
    "icao": "KLAX",
    "flightCategory": "MVFR",
    "windDir": 240,
    "windSpeed": 4,
    "windGust": null,
    "visibility": 10,
    "ceiling": 2000,
    "temp": 13.3,
    "dewpoint": 11.7,
    "altimeter": 29.9,
    "conditions": "-RA",
    "observationTime": "2026-04-26T07:00:00.000Z"
  },
  "LHR": {
    "raw": "METAR EGLL 260720Z COR AUTO 09005KT 050V140 9999 FEW012 11/07 Q1026 NOSIG",
    "icao": "EGLL",
    "flightCategory": "VFR",
    "windDir": 90,
    "windSpeed": 5,
    "windGust": null,
    "visibility": 6,
    "ceiling": null,
    "temp": 11,
    "dewpoint": 7,
    "altimeter": 30.3,
    "conditions": "",
    "observationTime": "2026-04-26T07:20:00.000Z"
  },
  "LAS": {
    "raw": "METAR KLAS 260656Z 21017G26KT 10SM FEW080 SCT100 BKN120 14/04 A2968 RMK AO2 PK WND 21027/0642 SLP035 T01440039",
    "icao": "KLAS",
    "flightCategory": "VFR",
    "windDir": 210,
    "windSpeed": 17,
    "windGust": 26,
    "visibility": 10,
    "ceiling": 12000,
    "temp": 14.4,
    "dewpoint": 3.9,
    "altimeter": 29.68,
    "conditions": "",
    "observationTime": "2026-04-26T07:00:00.000Z"
  }
}