{
  "ORD": {
    "raw": "METAR KORD 051451Z 01010KT 5SM BR OVC006 21/19 A2998 RMK AO2 SLP148 T02110194 53016 $",
    "icao": "KORD",
    "flightCategory": "IFR",
    "windDir": 10,
    "windSpeed": 10,
    "windGust": null,
    "visibility": 5,
    "ceiling": 600,
    "temp": 21.1,
    "dewpoint": 19.4,
    "altimeter": 29.98,
    "conditions": "BR",
    "observationTime": "2026-07-05T15:00:00.000Z"
  },
  "SYD": {
    "raw": "SPECI YSSY 051450Z AUTO 17017G27KT 9999 // SCT053 BKN068 14/09 Q1035",
    "icao": "YSSY",
    "flightCategory": "VFR",
    "windDir": 170,
    "windSpeed": 17,
    "windGust": 27,
    "visibility": 6,
    "ceiling": 6800,
    "temp": 14,
    "dewpoint": 9,
    "altimeter": 30.56,
    "conditions": "",
    "observationTime": "2026-07-05T14:50:00.000Z"
  },
  "LHR": {
    "raw": "METAR EGLL 051450Z AUTO 27010KT 9999 NCD 28/14 Q1023",
    "icao": "EGLL",
    "flightCategory": "VFR",
    "windDir": 270,
    "windSpeed": 10,
    "windGust": null,
    "visibility": 6,
    "ceiling": null,
    "temp": 28,
    "dewpoint": 14,
    "altimeter": 30.21,
    "conditions": "",
    "observationTime": "2026-07-05T15:00:00.000Z"
  },
  "LAS": {
    "raw": "METAR KLAS 051456Z 26004KT 10SM FEW140 SCT180 BKN250 32/06 A2996 RMK AO2 SLP113 T03220061 53014 $",
    "icao": "KLAS",
    "flightCategory": "VFR",
    "windDir": 260,
    "windSpeed": 4,
    "windGust": null,
    "visibility": 10,
    "ceiling": 25000,
    "temp": 32.2,
    "dewpoint": 6.1,
    "altimeter": 29.96,
    "conditions": "",
    "observationTime": "2026-07-05T15:00:00.000Z"
  },
  "LAX": {
    "raw": "SPECI KLAX 051445Z 28003KT 10SM SCT011 BKN160 BKN210 BKN260 19/16 A3000 RMK AO2 T01940161 $",
    "icao": "KLAX",
    "flightCategory": "VFR",
    "windDir": 280,
    "windSpeed": 3,
    "windGust": null,
    "visibility": 10,
    "ceiling": 16000,
    "temp": 19.4,
    "dewpoint": 16.1,
    "altimeter": 30,
    "conditions": "",
    "observationTime": "2026-07-05T14:45:00.000Z"
  }
}