{
  "SYD": {
    "raw": "METAR YSSY 221430Z AUTO 20005KT 170V230 9999 // FEW045 BKN061 17/11 Q1027",
    "icao": "YSSY",
    "flightCategory": "VFR",
    "windDir": 200,
    "windSpeed": 5,
    "windGust": null,
    "visibility": 6,
    "ceiling": 6100,
    "temp": 17,
    "dewpoint": 11,
    "altimeter": 30.33,
    "conditions": "",
    "observationTime": "2026-04-22T14:30:00.000Z"
  },
  "LAS": {
    "raw": "METAR KLAS 221456Z 21014G22KT 10SM FEW250 15/01 A3001 RMK AO2 SLP147 T01500006 51008",
    "icao": "KLAS",
    "flightCategory": "VFR",
    "windDir": 210,
    "windSpeed": 14,
    "windGust": 22,
    "visibility": 10,
    "ceiling": null,
    "temp": 15,
    "dewpoint": 0.6,
    "altimeter": 30.01,
    "conditions": "",
    "observationTime": "2026-04-22T15:00:00.000Z"
  },
  "LAX": {
    "raw": "METAR KLAX 221453Z 33003KT 10SM FEW015 FEW060 SCT160 BKN250 16/09 A3014 RMK AO2 SLP205 T01560089 53010 $",
    "icao": "KLAX",
    "flightCategory": "VFR",
    "windDir": 330,
    "windSpeed": 3,
    "windGust": null,
    "visibility": 10,
    "ceiling": 25000,
    "temp": 15.6,
    "dewpoint": 8.9,
    "altimeter": 30.14,
    "conditions": "",
    "observationTime": "2026-04-22T15:00:00.000Z"
  },
  "ORD": {
    "raw": "SPECI KORD 221412Z 26009KT 10SM BKN020 BKN090 20/14 A2993 RMK AO2 T02000144",
    "icao": "KORD",
    "flightCategory": "MVFR",
    "windDir": 260,
    "windSpeed": 9,
    "windGust": null,
    "visibility": 10,
    "ceiling": 2000,
    "temp": 20,
    "dewpoint": 14.4,
    "altimeter": 29.93,
    "conditions": "",
    "observationTime": "2026-04-22T14:12:00.000Z"
  },
  "LHR": {
    "raw": "METAR EGLL 221420Z COR AUTO 10018KT 9999 NCD 16/M00 Q1025 NOSIG",
    "icao": "EGLL",
    "flightCategory": "VFR",
    "windDir": 100,
    "windSpeed": 18,
    "windGust": null,
    "visibility": 6,
    "ceiling": null,
    "temp": 16,
    "dewpoint": 0,
    "altimeter": 30.27,
    "conditions": "",
    "observationTime": "2026-04-22T14:20:00.000Z"
  }
}