{
  "SYD": {
    "raw": "METAR YSSY 020830Z AUTO 04010KT 9999 // NCD 23/18 Q1021",
    "icao": "YSSY",
    "flightCategory": "VFR",
    "windDir": 40,
    "windSpeed": 10,
    "windGust": null,
    "visibility": 6,
    "ceiling": null,
    "temp": 23,
    "dewpoint": 18,
    "altimeter": 30.15,
    "conditions": "",
    "observationTime": "2026-04-02T08:30:00.000Z"
  },
  "LAS": {
    "raw": "METAR KLAS 020856Z 21022G31KT 10SM FEW075 FEW250 16/06 A2974 RMK AO2 PK WND 21032/0833 SLP054 T01610056 58009",
    "icao": "KLAS",
    "flightCategory": "VFR",
    "windDir": 210,
    "windSpeed": 22,
    "windGust": 31,
    "visibility": 10,
    "ceiling": null,
    "temp": 16.1,
    "dewpoint": 5.6,
    "altimeter": 29.74,
    "conditions": "",
    "observationTime": "2026-04-02T09:00:00.000Z"
  },
  "LAX": {
    "raw": "METAR KLAX 020853Z 28010KT 10SM FEW012 BKN045 BKN250 16/13 A3000 RMK AO2 SLP157 T01560128 56001 $",
    "icao": "KLAX",
    "flightCategory": "VFR",
    "windDir": 280,
    "windSpeed": 10,
    "windGust": null,
    "visibility": 10,
    "ceiling": 4500,
    "temp": 15.6,
    "dewpoint": 12.8,
    "altimeter": 30,
    "conditions": "",
    "observationTime": "2026-04-02T09:00:00.000Z"
  },
  "ORD": {
    "raw": "METAR KORD 020851Z 09011KT 8SM -RA OVC007 03/02 A2996 RMK AO2 SLP151 P0009 60042 T00330022 58030",
    "icao": "KORD",
    "flightCategory": "IFR",
    "windDir": 90,
    "windSpeed": 11,
    "windGust": null,
    "visibility": 8,
    "ceiling": 700,
    "temp": 3.3,
    "dewpoint": 2.2,
    "altimeter": 29.96,
    "conditions": "-RA",
    "observationTime": "2026-04-02T09:00:00.000Z"
  },
  "LHR": {
    "raw": "METAR EGLL 020820Z COR AUTO 36009KT 330V050 9999 BKN023 BKN029 07/01 Q1022 NOSIG",
    "icao": "EGLL",
    "flightCategory": "MVFR",
    "windDir": 360,
    "windSpeed": 9,
    "windGust": null,
    "visibility": 6,
    "ceiling": 2300,
    "temp": 7,
    "dewpoint": 1,
    "altimeter": 30.18,
    "conditions": "",
    "observationTime": "2026-04-02T08:20:00.000Z"
  }
}