{
  "SYD": {
    "raw": "METAR YSSY 142230Z 15009KT 9999 FEW030 SCT047 BKN065 18/11 Q1033",
    "icao": "YSSY",
    "flightCategory": "VFR",
    "windDir": 150,
    "windSpeed": 9,
    "windGust": null,
    "visibility": 6,
    "ceiling": 6500,
    "temp": 18,
    "dewpoint": 11,
    "altimeter": 30.5,
    "conditions": "",
    "observationTime": "2026-06-14T22:30:00.000Z"
  },
  "LAS": {
    "raw": "METAR KLAS 142256Z 22016G27KT 10SM FEW120 FEW170 41/M07 A2984 RMK AO2 PK WND 25034/2221 SLP071 T04061072",
    "icao": "KLAS",
    "flightCategory": "VFR",
    "windDir": 220,
    "windSpeed": 16,
    "windGust": 27,
    "visibility": 10,
    "ceiling": null,
    "temp": 40.6,
    "dewpoint": -7.2,
    "altimeter": 29.84,
    "conditions": "",
    "observationTime": "2026-06-14T23:00:00.000Z"
  },
  "LAX": {
    "raw": "METAR KLAX 142253Z 26015KT 10SM FEW011 FEW100 21/15 A2997 RMK AO2 SLP148 T02060150 $",
    "icao": "KLAX",
    "flightCategory": "VFR",
    "windDir": 260,
    "windSpeed": 15,
    "windGust": null,
    "visibility": 10,
    "ceiling": null,
    "temp": 20.6,
    "dewpoint": 15,
    "altimeter": 29.97,
    "conditions": "",
    "observationTime": "2026-06-14T23:00:00.000Z"
  },
  "ORD": {
    "raw": "METAR KORD 142251Z 30013G22KT 10SM BKN060 21/08 A2990 RMK AO2 SLP121 T02060078 $",
    "icao": "KORD",
    "flightCategory": "VFR",
    "windDir": 300,
    "windSpeed": 13,
    "windGust": 22,
    "visibility": 10,
    "ceiling": 6000,
    "temp": 20.6,
    "dewpoint": 7.8,
    "altimeter": 29.9,
    "conditions": "",
    "observationTime": "2026-06-14T23:00:00.000Z"
  },
  "LHR": {
    "raw": "METAR EGLL 142220Z AUTO 07006KT 9999 NCD 18/09 Q1018",
    "icao": "EGLL",
    "flightCategory": "VFR",
    "windDir": 70,
    "windSpeed": 6,
    "windGust": null,
    "visibility": 6,
    "ceiling": null,
    "temp": 18,
    "dewpoint": 9,
    "altimeter": 30.06,
    "conditions": "",
    "observationTime": "2026-06-14T22:20:00.000Z"
  }
}