{
  "SYD": {
    "raw": "METAR YSSY 052230Z 30008KT 9999 FEW045 16/09 Q1021",
    "icao": "YSSY",
    "flightCategory": "VFR",
    "windDir": 300,
    "windSpeed": 8,
    "windGust": null,
    "visibility": 6,
    "ceiling": null,
    "temp": 16,
    "dewpoint": 9,
    "altimeter": 30.15,
    "conditions": "",
    "observationTime": "2026-05-05T22:30:00.000Z"
  },
  "LAS": {
    "raw": "METAR KLAS 052256Z 00000KT 10SM FEW120 FEW200 23/M04 A2978 RMK AO2 SLP070 T02281039",
    "icao": "KLAS",
    "flightCategory": "VFR",
    "windDir": 0,
    "windSpeed": 0,
    "windGust": null,
    "visibility": 10,
    "ceiling": null,
    "temp": 22.8,
    "dewpoint": -3.9,
    "altimeter": 29.78,
    "conditions": "",
    "observationTime": "2026-05-05T23:00:00.000Z"
  },
  "LAX": {
    "raw": "METAR KLAX 052253Z 25013G19KT 10SM FEW010 SCT070 BKN100 18/09 A2996 RMK AO2 SLP144 T01780089",
    "icao": "KLAX",
    "flightCategory": "VFR",
    "windDir": 250,
    "windSpeed": 13,
    "windGust": 19,
    "visibility": 10,
    "ceiling": 10000,
    "temp": 17.8,
    "dewpoint": 8.9,
    "altimeter": 29.96,
    "conditions": "",
    "observationTime": "2026-05-05T23:00:00.000Z"
  },
  "ORD": {
    "raw": "METAR KORD 052251Z 30012G16KT 10SM FEW100 BKN140 OVC250 13/M04 A2978 RMK AO2 SLP084 T01331044",
    "icao": "KORD",
    "flightCategory": "VFR",
    "windDir": 300,
    "windSpeed": 12,
    "windGust": 16,
    "visibility": 10,
    "ceiling": 14000,
    "temp": 13.3,
    "dewpoint": -4.4,
    "altimeter": 29.78,
    "conditions": "",
    "observationTime": "2026-05-05T23:00:00.000Z"
  },
  "LHR": {
    "raw": "METAR EGLL 052220Z COR AUTO 06008KT 9999 SCT024 SCT029 BKN037 12/07 Q1013 NOSIG",
    "icao": "EGLL",
    "flightCategory": "VFR",
    "windDir": 60,
    "windSpeed": 8,
    "windGust": null,
    "visibility": 6,
    "ceiling": 3700,
    "temp": 12,
    "dewpoint": 7,
    "altimeter": 29.91,
    "conditions": "",
    "observationTime": "2026-05-05T22:20:00.000Z"
  }
}