{
  "SYD": {
    "raw": "METAR YSSY 220830Z AUTO 27011KT 9999 // NCD 18/06 Q1021",
    "icao": "YSSY",
    "flightCategory": "VFR",
    "windDir": 270,
    "windSpeed": 11,
    "windGust": null,
    "visibility": 6,
    "ceiling": null,
    "temp": 18,
    "dewpoint": 6,
    "altimeter": 30.15,
    "conditions": "",
    "observationTime": "2026-07-22T08:30:00.000Z"
  },
  "LAS": {
    "raw": "METAR KLAS 220856Z 23004KT 10SM FEW150 SCT190 32/14 A2992 RMK AO2 SLP097 T03220139 53000 $",
    "icao": "KLAS",
    "flightCategory": "VFR",
    "windDir": 230,
    "windSpeed": 4,
    "windGust": null,
    "visibility": 10,
    "ceiling": null,
    "temp": 32.2,
    "dewpoint": 13.9,
    "altimeter": 29.92,
    "conditions": "",
    "observationTime": "2026-07-22T09:00:00.000Z"
  },
  "LAX": {
    "raw": "SPECI KLAX 220845Z 25010KT 4SM BR VV003 21/19 A2999 RMK AO2 T02110194",
    "icao": "KLAX",
    "flightCategory": "LIFR",
    "windDir": 250,
    "windSpeed": 10,
    "windGust": null,
    "visibility": 4,
    "ceiling": 300,
    "temp": 21.1,
    "dewpoint": 19.4,
    "altimeter": 29.99,
    "conditions": "BR",
    "observationTime": "2026-07-22T08:45:00.000Z"
  },
  "ORD": {
    "raw": "SPECI KORD 220810Z 03010KT 10SM BKN035 19/12 A2997 RMK AO2 T01890117 $",
    "icao": "KORD",
    "flightCategory": "VFR",
    "windDir": 30,
    "windSpeed": 10,
    "windGust": null,
    "visibility": 10,
    "ceiling": 3500,
    "temp": 18.9,
    "dewpoint": 11.7,
    "altimeter": 29.97,
    "conditions": "",
    "observationTime": "2026-07-22T08:10:00.000Z"
  },
  "LHR": {
    "raw": "METAR EGLL 220820Z AUTO VRB02KT 9999 NCD 20/14 Q1026",
    "icao": "EGLL",
    "flightCategory": "VFR",
    "windDir": null,
    "windSpeed": 2,
    "windGust": null,
    "visibility": 6,
    "ceiling": null,
    "temp": 20,
    "dewpoint": 14,
    "altimeter": 30.3,
    "conditions": "",
    "observationTime": "2026-07-22T08:20:00.000Z"
  }
}