{
  "SYD": {
    "raw": "METAR YSSY 082200Z 33006KT 9999 VCFG FEW006 22/18 Q1017",
    "icao": "YSSY",
    "flightCategory": "VFR",
    "windDir": 330,
    "windSpeed": 6,
    "windGust": null,
    "visibility": 6,
    "ceiling": null,
    "temp": 22,
    "dewpoint": 18,
    "altimeter": 30.03,
    "conditions": "VCFG",
    "observationTime": "2026-04-08T22:00:00.000Z"
  },
  "LHR": {
    "raw": "METAR EGLL 082150Z COR AUTO 24006KT 220V280 9999 NCD 18/09 Q1020 NOSIG",
    "icao": "EGLL",
    "flightCategory": "VFR",
    "windDir": 240,
    "windSpeed": 6,
    "windGust": null,
    "visibility": 6,
    "ceiling": null,
    "temp": 18,
    "dewpoint": 9,
    "altimeter": 30.12,
    "conditions": "",
    "observationTime": "2026-04-08T22:00:00.000Z"
  },
  "LAS": {
    "raw": "METAR KLAS 082156Z VRB03KT 10SM FEW140 FEW250 32/M07 A2983 RMK AO2 SLP077 T03171067",
    "icao": "KLAS",
    "flightCategory": "VFR",
    "windDir": null,
    "windSpeed": 3,
    "windGust": null,
    "visibility": 10,
    "ceiling": null,
    "temp": 31.7,
    "dewpoint": -6.7,
    "altimeter": 29.83,
    "conditions": "",
    "observationTime": "2026-04-08T22:00:00.000Z"
  },
  "LAX": {
    "raw": "METAR KLAX 082153Z 24012KT 10SM FEW015 FEW040 21/14 A2990 RMK AO2 SLP125 T02110144 $",
    "icao": "KLAX",
    "flightCategory": "VFR",
    "windDir": 240,
    "windSpeed": 12,
    "windGust": null,
    "visibility": 10,
    "ceiling": null,
    "temp": 21.1,
    "dewpoint": 14.4,
    "altimeter": 29.9,
    "conditions": "",
    "observationTime": "2026-04-08T22:00:00.000Z"
  },
  "ORD": {
    "raw": "METAR KORD 082151Z 20021G31KT 10SM FEW170 FEW250 22/04 A3000 RMK AO2 PK WND 20038/2118 SLP158 T02170039",
    "icao": "KORD",
    "flightCategory": "VFR",
    "windDir": 200,
    "windSpeed": 21,
    "windGust": 31,
    "visibility": 10,
    "ceiling": null,
    "temp": 21.7,
    "dewpoint": 3.9,
    "altimeter": 30,
    "conditions": "",
    "observationTime": "2026-04-08T22:00:00.000Z"
  }
}