{
  "LHR": {
    "raw": "METAR EGLL 121850Z COR AUTO 30010KT 9999 NCD 15/02 Q1011 NOSIG",
    "icao": "EGLL",
    "flightCategory": "VFR",
    "windDir": 300,
    "windSpeed": 10,
    "windGust": null,
    "visibility": 6,
    "ceiling": null,
    "temp": 15,
    "dewpoint": 2,
    "altimeter": 29.85,
    "conditions": "",
    "observationTime": "2026-05-12T19:00:00.000Z"
  },
  "HND": {
    "raw": "METAR RJTT 121900Z 02001KT 9999 FEW015 BKN/// 18/15 Q1009 NOSIG",
    "icao": "RJTT",
    "flightCategory": "VFR",
    "windDir": 20,
    "windSpeed": 1,
    "windGust": null,
    "visibility": 6,
    "ceiling": null,
    "temp": 18,
    "dewpoint": 15,
    "altimeter": 29.8,
    "conditions": "",
    "observationTime": "2026-05-12T19:00:00.000Z"
  },
  "LAS": {
    "raw": "METAR KLAS 121856Z VRB04KT 10SM FEW120 FEW250 36/M06 A2997 RMK AO2 SLP118 T03611056",
    "icao": "KLAS",
    "flightCategory": "VFR",
    "windDir": null,
    "windSpeed": 4,
    "windGust": null,
    "visibility": 10,
    "ceiling": null,
    "temp": 36.1,
    "dewpoint": -5.6,
    "altimeter": 29.97,
    "conditions": "",
    "observationTime": "2026-05-12T19:00:00.000Z"
  },
  "LAX": {
    "raw": "METAR KLAX 121853Z 26006KT 10SM OVC020 17/12 A3004 RMK AO2 SLP171 T01720117",
    "icao": "KLAX",
    "flightCategory": "MVFR",
    "windDir": 260,
    "windSpeed": 6,
    "windGust": null,
    "visibility": 10,
    "ceiling": 2000,
    "temp": 17.2,
    "dewpoint": 11.7,
    "altimeter": 30.04,
    "conditions": "",
    "observationTime": "2026-05-12T19:00:00.000Z"
  },
  "ORD": {
    "raw": "METAR KORD 121851Z 21008KT 10SM FEW080 BKN110 OVC250 22/06 A2992 RMK AO2 SLP133 VCSH NE T02170056 $",
    "icao": "KORD",
    "flightCategory": "VFR",
    "windDir": 210,
    "windSpeed": 8,
    "windGust": null,
    "visibility": 10,
    "ceiling": 11000,
    "temp": 21.7,
    "dewpoint": 5.6,
    "altimeter": 29.92,
    "conditions": "",
    "observationTime": "2026-05-12T19:00:00.000Z"
  }
}