{
  "SYD": {
    "raw": "METAR YSSY 052100Z 22017KT 9999 VCSH FEW006 SCT025 BKN040 12/11 Q1035",
    "icao": "YSSY",
    "flightCategory": "VFR",
    "windDir": 220,
    "windSpeed": 17,
    "windGust": null,
    "visibility": 6,
    "ceiling": 4000,
    "temp": 12,
    "dewpoint": 11,
    "altimeter": 30.56,
    "conditions": "VCSH",
    "observationTime": "2026-07-05T21:00:00.000Z"
  },
  "LHR": {
    "raw": "METAR EGLL 052050Z AUTO 27011KT 9999 NCD 24/16 Q1022",
    "icao": "EGLL",
    "flightCategory": "VFR",
    "windDir": 270,
    "windSpeed": 11,
    "windGust": null,
    "visibility": 6,
    "ceiling": null,
    "temp": 24,
    "dewpoint": 16,
    "altimeter": 30.18,
    "conditions": "",
    "observationTime": "2026-07-05T21:00:00.000Z"
  },
  "LAS": {
    "raw": "METAR KLAS 052056Z 20012G20KT 10SM FEW140 SCT180 BKN250 39/07 A2989 RMK AO2 SLP088 T03890067 56018 $",
    "icao": "KLAS",
    "flightCategory": "VFR",
    "windDir": 200,
    "windSpeed": 12,
    "windGust": 20,
    "visibility": 10,
    "ceiling": 25000,
    "temp": 38.9,
    "dewpoint": 6.7,
    "altimeter": 29.89,
    "conditions": "",
    "observationTime": "2026-07-05T21:00:00.000Z"
  },
  "LAX": {
    "raw": "METAR KLAX 052053Z 26011KT 10SM FEW010 FEW100 SCT190 SCT280 24/16 A2998 RMK AO2 SLP150 T02390161 58008",
    "icao": "KLAX",
    "flightCategory": "VFR",
    "windDir": 260,
    "windSpeed": 11,
    "windGust": null,
    "visibility": 10,
    "ceiling": null,
    "temp": 23.9,
    "dewpoint": 16.1,
    "altimeter": 29.98,
    "conditions": "",
    "observationTime": "2026-07-05T21:00:00.000Z"
  },
  "ORD": {
    "raw": "METAR KORD 052051Z 02010KT 10SM BKN016 BKN025 OVC060 24/20 A2998 RMK AO2 SLP147 T02390200 55003 $",
    "icao": "KORD",
    "flightCategory": "MVFR",
    "windDir": 20,
    "windSpeed": 10,
    "windGust": null,
    "visibility": 10,
    "ceiling": 1600,
    "temp": 23.9,
    "dewpoint": 20,
    "altimeter": 29.98,
    "conditions": "",
    "observationTime": "2026-07-05T21:00:00.000Z"
  }
}