{
  "SYD": {
    "raw": "METAR YSSY 121030Z AUTO 27015KT 9999 // NCD 16/02 Q1013",
    "icao": "YSSY",
    "flightCategory": "VFR",
    "windDir": 270,
    "windSpeed": 15,
    "windGust": null,
    "visibility": 6,
    "ceiling": null,
    "temp": 16,
    "dewpoint": 2,
    "altimeter": 29.91,
    "conditions": "",
    "observationTime": "2026-04-12T10:30:00.000Z"
  },
  "LAS": {
    "raw": "METAR KLAS 121056Z 20005KT 10SM CLR 17/00 A2978 RMK AO2 PK WND 22026/1024 SLP068 T01670000",
    "icao": "KLAS",
    "flightCategory": "VFR",
    "windDir": 200,
    "windSpeed": 5,
    "windGust": null,
    "visibility": 10,
    "ceiling": null,
    "temp": 16.7,
    "dewpoint": 0,
    "altimeter": 29.78,
    "conditions": "",
    "observationTime": "2026-04-12T11:00:00.000Z"
  },
  "LAX": {
    "raw": "METAR KLAX 121053Z 15006KT 10SM FEW018 BKN030 BKN065 16/12 A2993 RMK AO2 SLP133 T01610117 $",
    "icao": "KLAX",
    "flightCategory": "MVFR",
    "windDir": 150,
    "windSpeed": 6,
    "windGust": null,
    "visibility": 10,
    "ceiling": 3000,
    "temp": 16.1,
    "dewpoint": 11.7,
    "altimeter": 29.93,
    "conditions": "",
    "observationTime": "2026-04-12T11:00:00.000Z"
  },
  "ORD": {
    "raw": "METAR KORD 121051Z 18011G21KT 10SM FEW120 BKN250 15/09 A2999 RMK AO2 SLP157 T01500094 $",
    "icao": "KORD",
    "flightCategory": "VFR",
    "windDir": 180,
    "windSpeed": 11,
    "windGust": 21,
    "visibility": 10,
    "ceiling": 25000,
    "temp": 15,
    "dewpoint": 9.4,
    "altimeter": 29.99,
    "conditions": "",
    "observationTime": "2026-04-12T11:00:00.000Z"
  },
  "LHR": {
    "raw": "METAR EGLL 121020Z COR AUTO 21017KT 9999 SCT043 13/03 Q1010 NOSIG",
    "icao": "EGLL",
    "flightCategory": "VFR",
    "windDir": 210,
    "windSpeed": 17,
    "windGust": null,
    "visibility": 6,
    "ceiling": null,
    "temp": 13,
    "dewpoint": 3,
    "altimeter": 29.83,
    "conditions": "",
    "observationTime": "2026-04-12T10:20:00.000Z"
  }
}