{
  "SYD": {
    "raw": "METAR YSSY 221030Z AUTO 23011KT 9999 // NCD 16/07 Q1022",
    "icao": "YSSY",
    "flightCategory": "VFR",
    "windDir": 230,
    "windSpeed": 11,
    "windGust": null,
    "visibility": 6,
    "ceiling": null,
    "temp": 16,
    "dewpoint": 7,
    "altimeter": 30.18,
    "conditions": "",
    "observationTime": "2026-07-22T10:30:00.000Z"
  },
  "LAS": {
    "raw": "METAR KLAS 221056Z 27005KT 10SM SCT200 31/14 A2993 RMK AO2 SLP103 T03110144 $",
    "icao": "KLAS",
    "flightCategory": "VFR",
    "windDir": 270,
    "windSpeed": 5,
    "windGust": null,
    "visibility": 10,
    "ceiling": null,
    "temp": 31.1,
    "dewpoint": 14.4,
    "altimeter": 29.93,
    "conditions": "",
    "observationTime": "2026-07-22T11:00:00.000Z"
  },
  "LAX": {
    "raw": "METAR KLAX 221053Z 26008KT 6SM BR FEW003 OVC006 21/19 A2997 RMK AO2 SLP144 T02110194",
    "icao": "KLAX",
    "flightCategory": "IFR",
    "windDir": 260,
    "windSpeed": 8,
    "windGust": null,
    "visibility": 6,
    "ceiling": 600,
    "temp": 21.1,
    "dewpoint": 19.4,
    "altimeter": 29.97,
    "conditions": "BR",
    "observationTime": "2026-07-22T11:00:00.000Z"
  },
  "ORD": {
    "raw": "METAR KORD 221051Z 35010KT 10SM FEW025 FEW040 SCT250 16/10 A3001 RMK AO2 SLP157 T01560100 $",
    "icao": "KORD",
    "flightCategory": "VFR",
    "windDir": 350,
    "windSpeed": 10,
    "windGust": null,
    "visibility": 10,
    "ceiling": null,
    "temp": 15.6,
    "dewpoint": 10,
    "altimeter": 30.01,
    "conditions": "",
    "observationTime": "2026-07-22T11:00:00.000Z"
  },
  "LHR": {
    "raw": "METAR EGLL 221020Z AUTO 20003KT 150V270 9999 NCD 22/13 Q1025",
    "icao": "EGLL",
    "flightCategory": "VFR",
    "windDir": 200,
    "windSpeed": 3,
    "windGust": null,
    "visibility": 6,
    "ceiling": null,
    "temp": 22,
    "dewpoint": 13,
    "altimeter": 30.27,
    "conditions": "",
    "observationTime": "2026-07-22T10:20:00.000Z"
  }
}