{
  "SYD": {
    "raw": "METAR YSSY 051800Z AUTO 32008KT 9999 // NCD 13/08 Q1020",
    "icao": "YSSY",
    "flightCategory": "VFR",
    "windDir": 320,
    "windSpeed": 8,
    "windGust": null,
    "visibility": 6,
    "ceiling": null,
    "temp": 13,
    "dewpoint": 8,
    "altimeter": 30.12,
    "conditions": "",
    "observationTime": "2026-05-05T18:00:00.000Z"
  },
  "LHR": {
    "raw": "METAR EGLL 051750Z COR AUTO 01008KT 340V050 9999 NCD 16/06 Q1011 NOSIG",
    "icao": "EGLL",
    "flightCategory": "VFR",
    "windDir": 10,
    "windSpeed": 8,
    "windGust": null,
    "visibility": 6,
    "ceiling": null,
    "temp": 16,
    "dewpoint": 6,
    "altimeter": 29.85,
    "conditions": "",
    "observationTime": "2026-05-05T18:00:00.000Z"
  },
  "LAS": {
    "raw": "METAR KLAS 051756Z 21007KT 160V240 10SM FEW120 BKN250 20/00 A2985 RMK AO2 SLP092 T02000000 10200 20133 50000",
    "icao": "KLAS",
    "flightCategory": "VFR",
    "windDir": 210,
    "windSpeed": 7,
    "windGust": null,
    "visibility": 10,
    "ceiling": 25000,
    "temp": 20,
    "dewpoint": 0,
    "altimeter": 29.85,
    "conditions": "",
    "observationTime": "2026-05-05T18:00:00.000Z"
  },
  "LAX": {
    "raw": "METAR KLAX 051753Z 25013KT 10SM FEW010 SCT080 BKN140 BKN180 18/09 A2998 RMK AO2 SLP150 T01830094 10183 20139 53012",
    "icao": "KLAX",
    "flightCategory": "VFR",
    "windDir": 250,
    "windSpeed": 13,
    "windGust": null,
    "visibility": 10,
    "ceiling": 14000,
    "temp": 18.3,
    "dewpoint": 9.4,
    "altimeter": 29.98,
    "conditions": "",
    "observationTime": "2026-05-05T18:00:00.000Z"
  },
  "ORD": {
    "raw": "METAR KORD 051751Z 26009KT 10SM FEW090 FEW170 OVC250 13/M04 A2979 RMK AO2 SLP086 60002 T01281044 10139 20083 53004",
    "icao": "KORD",
    "flightCategory": "VFR",
    "windDir": 260,
    "windSpeed": 9,
    "windGust": null,
    "visibility": 10,
    "ceiling": 25000,
    "temp": 12.8,
    "dewpoint": -4.4,
    "altimeter": 29.79,
    "conditions": "",
    "observationTime": "2026-05-05T18:00:00.000Z"
  }
}