{
  "SYD": {
    "raw": "METAR YSSY 280900Z AUTO 27005KT 260V070 9999 // FEW023 SCT028 BKN032 13/11 Q1030",
    "icao": "YSSY",
    "flightCategory": "VFR",
    "windDir": 270,
    "windSpeed": 5,
    "windGust": null,
    "visibility": 6,
    "ceiling": 3200,
    "temp": 13,
    "dewpoint": 11,
    "altimeter": 30.42,
    "conditions": "",
    "observationTime": "2026-06-28T09:00:00.000Z"
  },
  "LHR": {
    "raw": "METAR EGLL 280850Z AUTO 25015KT 9999 BKN035 22/13 Q1017",
    "icao": "EGLL",
    "flightCategory": "VFR",
    "windDir": 250,
    "windSpeed": 15,
    "windGust": null,
    "visibility": 6,
    "ceiling": 3500,
    "temp": 22,
    "dewpoint": 13,
    "altimeter": 30.03,
    "conditions": "",
    "observationTime": "2026-06-28T09:00:00.000Z"
  },
  "LAS": {
    "raw": "METAR KLAS 280856Z 21017G24KT 10SM CLR 25/03 A2964 RMK AO2 PK WND 21032/0812 SLP008 T02500033 51005",
    "icao": "KLAS",
    "flightCategory": "VFR",
    "windDir": 210,
    "windSpeed": 17,
    "windGust": 24,
    "visibility": 10,
    "ceiling": null,
    "temp": 25,
    "dewpoint": 3.3,
    "altimeter": 29.64,
    "conditions": "",
    "observationTime": "2026-06-28T09:00:00.000Z"
  },
  "LAX": {
    "raw": "METAR KLAX 280853Z 25004KT 10SM BKN021 OVC028 17/14 A2992 RMK AO2 SLP129 T01720139 58002",
    "icao": "KLAX",
    "flightCategory": "MVFR",
    "windDir": 250,
    "windSpeed": 4,
    "windGust": null,
    "visibility": 10,
    "ceiling": 2100,
    "temp": 17.2,
    "dewpoint": 13.9,
    "altimeter": 29.92,
    "conditions": "",
    "observationTime": "2026-06-28T09:00:00.000Z"
  },
  "ORD": {
    "raw": "METAR KORD 280851Z 03006KT 10SM FEW250 18/15 A2992 RMK AO2 SLP128 T01780150 56007 $",
    "icao": "KORD",
    "flightCategory": "VFR",
    "windDir": 30,
    "windSpeed": 6,
    "windGust": null,
    "visibility": 10,
    "ceiling": null,
    "temp": 17.8,
    "dewpoint": 15,
    "altimeter": 29.92,
    "conditions": "",
    "observationTime": "2026-06-28T09:00:00.000Z"
  }
}