{
  "SYD": {
    "raw": "METAR YSSY 231930Z AUTO 31008KT 9999 // NCD 08/04 Q1028",
    "icao": "YSSY",
    "flightCategory": "VFR",
    "windDir": 310,
    "windSpeed": 8,
    "windGust": null,
    "visibility": 6,
    "ceiling": null,
    "temp": 8,
    "dewpoint": 4,
    "altimeter": 30.36,
    "conditions": "",
    "observationTime": "2026-06-23T19:30:00.000Z"
  },
  "LAS": {
    "raw": "METAR KLAS 231956Z 00000KT 10SM FEW120 40/01 A2998 RMK AO2 SLP118 T04000006",
    "icao": "KLAS",
    "flightCategory": "VFR",
    "windDir": 0,
    "windSpeed": 0,
    "windGust": null,
    "visibility": 10,
    "ceiling": null,
    "temp": 40,
    "dewpoint": 0.6,
    "altimeter": 29.98,
    "conditions": "",
    "observationTime": "2026-06-23T20:00:00.000Z"
  },
  "LAX": {
    "raw": "SPECI KLAX 231926Z 27007KT 240V300 10SM FEW009 SCT021 22/15 A3004 RMK AO2 T02170150 $",
    "icao": "KLAX",
    "flightCategory": "VFR",
    "windDir": 270,
    "windSpeed": 7,
    "windGust": null,
    "visibility": 10,
    "ceiling": null,
    "temp": 21.7,
    "dewpoint": 15,
    "altimeter": 30.04,
    "conditions": "",
    "observationTime": "2026-06-23T19:26:00.000Z"
  },
  "ORD": {
    "raw": "METAR KORD 231951Z 05008KT 10SM FEW050 SCT250 23/11 A3019 RMK AO2 SLP221 T02280106",
    "icao": "KORD",
    "flightCategory": "VFR",
    "windDir": 50,
    "windSpeed": 8,
    "windGust": null,
    "visibility": 10,
    "ceiling": null,
    "temp": 22.8,
    "dewpoint": 10.6,
    "altimeter": 30.19,
    "conditions": "",
    "observationTime": "2026-06-23T20:00:00.000Z"
  },
  "LHR": {
    "raw": "METAR EGLL 231920Z AUTO 15005KT 9999 NCD 31/18 Q1016",
    "icao": "EGLL",
    "flightCategory": "VFR",
    "windDir": 150,
    "windSpeed": 5,
    "windGust": null,
    "visibility": 6,
    "ceiling": null,
    "temp": 31,
    "dewpoint": 18,
    "altimeter": 30,
    "conditions": "",
    "observationTime": "2026-06-23T19:20:00.000Z"
  }
}