{
  "SYD": {
    "raw": "METAR YSSY 281930Z 25009KT 9999 FEW040 16/10 Q1019",
    "icao": "YSSY",
    "flightCategory": "VFR",
    "windDir": 250,
    "windSpeed": 9,
    "windGust": null,
    "visibility": 6,
    "ceiling": null,
    "temp": 16,
    "dewpoint": 10,
    "altimeter": 30.09,
    "conditions": "",
    "observationTime": "2026-03-28T19:30:00.000Z"
  },
  "LAS": {
    "raw": "METAR KLAS 281956Z 21013G25KT 10SM FEW200 FEW250 32/M13 A2996 RMK AO2 PK WND 22028/1858 SLP120 T03171133",
    "icao": "KLAS",
    "flightCategory": "VFR",
    "windDir": 210,
    "windSpeed": 13,
    "windGust": 25,
    "visibility": 10,
    "ceiling": null,
    "temp": 31.7,
    "dewpoint": -13.3,
    "altimeter": 29.96,
    "conditions": "",
    "observationTime": "2026-03-28T20:00:00.000Z"
  },
  "LAX": {
    "raw": "METAR KLAX 281953Z 27009KT 9SM FEW007 SCT220 SCT260 BKN300 19/14 A2999 RMK AO2 SLP155 CCSL DSNT E T01890139",
    "icao": "KLAX",
    "flightCategory": "VFR",
    "windDir": 270,
    "windSpeed": 9,
    "windGust": null,
    "visibility": 9,
    "ceiling": 30000,
    "temp": 18.9,
    "dewpoint": 13.9,
    "altimeter": 29.99,
    "conditions": "",
    "observationTime": "2026-03-28T20:00:00.000Z"
  },
  "ORD": {
    "raw": "METAR KORD 281951Z 21011G17KT 10SM FEW170 SCT250 07/M08 A3049 RMK AO2 SLP330 T00721078",
    "icao": "KORD",
    "flightCategory": "VFR",
    "windDir": 210,
    "windSpeed": 11,
    "windGust": 17,
    "visibility": 10,
    "ceiling": null,
    "temp": 7.2,
    "dewpoint": -7.8,
    "altimeter": 30.49,
    "conditions": "",
    "observationTime": "2026-03-28T20:00:00.000Z"
  },
  "LHR": {
    "raw": "METAR EGLL 281920Z COR AUTO 31009KT 9999 NCD 08/M02 Q1029 NOSIG",
    "icao": "EGLL",
    "flightCategory": "VFR",
    "windDir": 310,
    "windSpeed": 9,
    "windGust": null,
    "visibility": 6,
    "ceiling": null,
    "temp": 8,
    "dewpoint": -2,
    "altimeter": 30.39,
    "conditions": "",
    "observationTime": "2026-03-28T19:20:00.000Z"
  }
}