{
  "LAX": {
    "raw": "METAR KLAX 080153Z 26006KT 10SM FEW015 18/14 A2991 RMK AO2 SLP126 T01780144 $",
    "icao": "KLAX",
    "flightCategory": "VFR",
    "windDir": 260,
    "windSpeed": 6,
    "windGust": null,
    "visibility": 10,
    "ceiling": null,
    "temp": 17.8,
    "dewpoint": 14.4,
    "altimeter": 29.91,
    "conditions": "",
    "observationTime": "2026-04-08T02:00:00.000Z"
  },
  "ORD": {
    "raw": "METAR KORD 080151Z 08008KT 10SM FEW110 OVC250 00/M06 A3039 RMK AO2 SLP298 T00001061 $",
    "icao": "KORD",
    "flightCategory": "VFR",
    "windDir": 80,
    "windSpeed": 8,
    "windGust": null,
    "visibility": 10,
    "ceiling": 25000,
    "temp": 0,
    "dewpoint": -6.1,
    "altimeter": 30.39,
    "conditions": "",
    "observationTime": "2026-04-08T02:00:00.000Z"
  },
  "LHR": {
    "raw": "METAR EGLL 080120Z COR AUTO 06004KT 9999 NCD 09/05 Q1022 NOSIG",
    "icao": "EGLL",
    "flightCategory": "VFR",
    "windDir": 60,
    "windSpeed": 4,
    "windGust": null,
    "visibility": 6,
    "ceiling": null,
    "temp": 9,
    "dewpoint": 5,
    "altimeter": 30.18,
    "conditions": "",
    "observationTime": "2026-04-08T01:20:00.000Z"
  },
  "SYD": {
    "raw": "METAR YSSY 080100Z 21003KT 9999 SCT025 24/18 Q1015",
    "icao": "YSSY",
    "flightCategory": "VFR",
    "windDir": 210,
    "windSpeed": 3,
    "windGust": null,
    "visibility": 6,
    "ceiling": null,
    "temp": 24,
    "dewpoint": 18,
    "altimeter": 29.97,
    "conditions": "",
    "observationTime": "2026-04-08T01:00:00.000Z"
  }
}