{
  "SYD": {
    "raw": "METAR YSSY 151900Z AUTO 31006KT 9999 // NCD 15/12 Q1018",
    "icao": "YSSY",
    "flightCategory": "VFR",
    "windDir": 310,
    "windSpeed": 6,
    "windGust": null,
    "visibility": 6,
    "ceiling": null,
    "temp": 15,
    "dewpoint": 12,
    "altimeter": 30.06,
    "conditions": "",
    "observationTime": "2026-04-15T19:00:00.000Z"
  },
  "LHR": {
    "raw": "METAR EGLL 151850Z COR AUTO 22012G22KT 9999 -RA FEW032 13/08 Q1015 NOSIG",
    "icao": "EGLL",
    "flightCategory": "VFR",
    "windDir": 220,
    "windSpeed": 12,
    "windGust": 22,
    "visibility": 6,
    "ceiling": null,
    "temp": 13,
    "dewpoint": 8,
    "altimeter": 29.97,
    "conditions": "-RA",
    "observationTime": "2026-04-15T19:00:00.000Z"
  },
  "LAS": {
    "raw": "METAR KLAS 151856Z 15005KT 10SM CLR 24/M06 A2999 RMK AO2 SLP140 T02441056",
    "icao": "KLAS",
    "flightCategory": "VFR",
    "windDir": 150,
    "windSpeed": 5,
    "windGust": null,
    "visibility": 10,
    "ceiling": null,
    "temp": 24.4,
    "dewpoint": -5.6,
    "altimeter": 29.99,
    "conditions": "",
    "observationTime": "2026-04-15T19:00:00.000Z"
  },
  "LAX": {
    "raw": "METAR KLAX 151853Z 27011KT 10SM FEW010 FEW180 SCT250 20/13 A3005 RMK AO2 SLP176 T02000128",
    "icao": "KLAX",
    "flightCategory": "VFR",
    "windDir": 270,
    "windSpeed": 11,
    "windGust": null,
    "visibility": 10,
    "ceiling": null,
    "temp": 20,
    "dewpoint": 12.8,
    "altimeter": 30.05,
    "conditions": "",
    "observationTime": "2026-04-15T19:00:00.000Z"
  },
  "ORD": {
    "raw": "METAR KORD 151851Z 23012G18KT 10SM FEW015 FEW080 BKN110 OVC250 20/16 A2981 RMK AO2 RAB27E42 SLP090 P0000 T02000156",
    "icao": "KORD",
    "flightCategory": "VFR",
    "windDir": 230,
    "windSpeed": 12,
    "windGust": 18,
    "visibility": 10,
    "ceiling": 11000,
    "temp": 20,
    "dewpoint": 15.6,
    "altimeter": 29.81,
    "conditions": "",
    "observationTime": "2026-04-15T19:00:00.000Z"
  }
}