{
  "SYD": {
    "raw": "METAR YSSY 120030Z 25006KT 210V290 9999 VCSH FEW018 SCT030 BKN050 18/16 Q1035",
    "icao": "YSSY",
    "flightCategory": "VFR",
    "windDir": 250,
    "windSpeed": 6,
    "windGust": null,
    "visibility": 6,
    "ceiling": 5000,
    "temp": 18,
    "dewpoint": 16,
    "altimeter": 30.56,
    "conditions": "VCSH",
    "observationTime": "2026-05-12T00:30:00.000Z"
  },
  "LAS": {
    "raw": "METAR KLAS 120056Z 24012KT 10SM FEW250 38/M08 A2989 RMK AO2 SLP091 T03831083",
    "icao": "KLAS",
    "flightCategory": "VFR",
    "windDir": 240,
    "windSpeed": 12,
    "windGust": null,
    "visibility": 10,
    "ceiling": null,
    "temp": 38.3,
    "dewpoint": -8.3,
    "altimeter": 29.89,
    "conditions": "",
    "observationTime": "2026-05-12T01:00:00.000Z"
  },
  "LAX": {
    "raw": "METAR KLAX 120053Z 26012KT 10SM FEW009 18/14 A2992 RMK AO2 SLP131 T01780139 $",
    "icao": "KLAX",
    "flightCategory": "VFR",
    "windDir": 260,
    "windSpeed": 12,
    "windGust": null,
    "visibility": 10,
    "ceiling": null,
    "temp": 17.8,
    "dewpoint": 13.9,
    "altimeter": 29.92,
    "conditions": "",
    "observationTime": "2026-05-12T01:00:00.000Z"
  },
  "ORD": {
    "raw": "METAR KORD 120051Z 06011KT 10SM BKN250 08/M04 A3022 RMK AO2 SLP238 T00781039 $",
    "icao": "KORD",
    "flightCategory": "VFR",
    "windDir": 60,
    "windSpeed": 11,
    "windGust": null,
    "visibility": 10,
    "ceiling": 25000,
    "temp": 7.8,
    "dewpoint": -3.9,
    "altimeter": 30.22,
    "conditions": "",
    "observationTime": "2026-05-12T01:00:00.000Z"
  },
  "LHR": {
    "raw": "METAR EGLL 120020Z COR AUTO VRB01KT 9999 NCD 06/00 Q1016 NOSIG",
    "icao": "EGLL",
    "flightCategory": "VFR",
    "windDir": null,
    "windSpeed": 1,
    "windGust": null,
    "visibility": 6,
    "ceiling": null,
    "temp": 6,
    "dewpoint": 0,
    "altimeter": 30,
    "conditions": "",
    "observationTime": "2026-05-12T00:20:00.000Z"
  }
}