{
  "LHR": {
    "raw": "METAR EGLL 270450Z AUTO 05007KT 9999 NCD 19/12 Q1025",
    "icao": "EGLL",
    "flightCategory": "VFR",
    "windDir": 50,
    "windSpeed": 7,
    "windGust": null,
    "visibility": 6,
    "ceiling": null,
    "temp": 19,
    "dewpoint": 12,
    "altimeter": 30.27,
    "conditions": "",
    "observationTime": "2026-05-27T05:00:00.000Z"
  },
  "SYD": {
    "raw": "METAR YSSY 270500Z 16005KT 140V220 9999 FEW020 SCT090 BKN250 21/17 Q1016",
    "icao": "YSSY",
    "flightCategory": "VFR",
    "windDir": 160,
    "windSpeed": 5,
    "windGust": null,
    "visibility": 6,
    "ceiling": 25000,
    "temp": 21,
    "dewpoint": 17,
    "altimeter": 30,
    "conditions": "",
    "observationTime": "2026-05-27T05:00:00.000Z"
  },
  "LAS": {
    "raw": "METAR KLAS 270456Z 23019G26KT 10SM CLR 21/04 A2956 RMK AO2 PK WND 22035/0403 SLP987 T02060044",
    "icao": "KLAS",
    "flightCategory": "VFR",
    "windDir": 230,
    "windSpeed": 19,
    "windGust": 26,
    "visibility": 10,
    "ceiling": null,
    "temp": 20.6,
    "dewpoint": 4.4,
    "altimeter": 29.56,
    "conditions": "",
    "observationTime": "2026-05-27T05:00:00.000Z"
  },
  "LAX": {
    "raw": "METAR KLAX 270453Z 24010KT 10SM FEW050 16/11 A2979 RMK AO2 SLP086 T01560106 $",
    "icao": "KLAX",
    "flightCategory": "VFR",
    "windDir": 240,
    "windSpeed": 10,
    "windGust": null,
    "visibility": 10,
    "ceiling": null,
    "temp": 15.6,
    "dewpoint": 10.6,
    "altimeter": 29.79,
    "conditions": "",
    "observationTime": "2026-05-27T05:00:00.000Z"
  },
  "ORD": {
    "raw": "METAR KORD 270451Z 00000KT 10SM FEW250 20/11 A2998 RMK AO2 SLP147 T02000111 $",
    "icao": "KORD",
    "flightCategory": "VFR",
    "windDir": 0,
    "windSpeed": 0,
    "windGust": null,
    "visibility": 10,
    "ceiling": null,
    "temp": 20,
    "dewpoint": 11.1,
    "altimeter": 29.98,
    "conditions": "",
    "observationTime": "2026-05-27T05:00:00.000Z"
  }
}