{
  "ORD": {
    "raw": "METAR KORD 111651Z 06012G18KT 10SM FEW012 FEW250 27/15 A3006 RMK AO2 SLP175 T02720150 $",
    "icao": "KORD",
    "flightCategory": "VFR",
    "windDir": 60,
    "windSpeed": 12,
    "windGust": 18,
    "visibility": 10,
    "ceiling": null,
    "temp": 27.2,
    "dewpoint": 15,
    "altimeter": 30.06,
    "conditions": "",
    "observationTime": "2026-07-11T17:00:00.000Z"
  },
  "SYD": {
    "raw": "METAR YSSY 111600Z AUTO 35009KT 9999 // FEW087 13/08 Q1011",
    "icao": "YSSY",
    "flightCategory": "VFR",
    "windDir": 350,
    "windSpeed": 9,
    "windGust": null,
    "visibility": 6,
    "ceiling": null,
    "temp": 13,
    "dewpoint": 8,
    "altimeter": 29.85,
    "conditions": "",
    "observationTime": "2026-07-11T16:00:00.000Z"
  },
  "LHR": {
    "raw": "METAR EGLL 111620Z AUTO 07012KT 040V100 9999 NCD 29/11 Q1020",
    "icao": "EGLL",
    "flightCategory": "VFR",
    "windDir": 70,
    "windSpeed": 12,
    "windGust": null,
    "visibility": 6,
    "ceiling": null,
    "temp": 29,
    "dewpoint": 11,
    "altimeter": 30.12,
    "conditions": "",
    "observationTime": "2026-07-11T16:20:00.000Z"
  },
  "LAS": {
    "raw": "METAR KLAS 111556Z 01005KT 10SM FEW250 34/03 A2995 RMK AO2 SLP109 T03440033",
    "icao": "KLAS",
    "flightCategory": "VFR",
    "windDir": 10,
    "windSpeed": 5,
    "windGust": null,
    "visibility": 10,
    "ceiling": null,
    "temp": 34.4,
    "dewpoint": 3.3,
    "altimeter": 29.95,
    "conditions": "",
    "observationTime": "2026-07-11T16:00:00.000Z"
  }
}