{
  "LHR": {
    "raw": "METAR EGLL 241050Z AUTO VRB02KT 9999 NCD 27/13 Q1030",
    "icao": "EGLL",
    "flightCategory": "VFR",
    "windDir": null,
    "windSpeed": 2,
    "windGust": null,
    "visibility": 6,
    "ceiling": null,
    "temp": 27,
    "dewpoint": 13,
    "altimeter": 30.42,
    "conditions": "",
    "observationTime": "2026-05-24T11:00:00.000Z"
  },
  "ORD": {
    "raw": "SPECI KORD 241036Z 16004KT 8SM -TSRA SCT050CB OVC080 16/13 A2996 RMK AO2 RAB35 TSB33 OCNL LTGICCG OHD TS OHD MOV NE P0000 T01560133 $",
    "icao": "KORD",
    "flightCategory": "VFR",
    "windDir": 160,
    "windSpeed": 4,
    "windGust": null,
    "visibility": 8,
    "ceiling": 8000,
    "temp": 15.6,
    "dewpoint": 13.3,
    "altimeter": 29.96,
    "conditions": "-TSRA",
    "observationTime": "2026-05-24T10:36:00.000Z"
  },
  "SYD": {
    "raw": "METAR YSSY 241100Z AUTO 24006KT 9999 -SHRA SCT018 BKN033 BKN040 17/16 Q1023",
    "icao": "YSSY",
    "flightCategory": "VFR",
    "windDir": 240,
    "windSpeed": 6,
    "windGust": null,
    "visibility": 6,
    "ceiling": 3300,
    "temp": 17,
    "dewpoint": 16,
    "altimeter": 30.21,
    "conditions": "-SHRA",
    "observationTime": "2026-05-24T11:00:00.000Z"
  },
  "LAS": {
    "raw": "METAR KLAS 241056Z 17007KT 10SM CLR 24/01 A2992 RMK AO2 SLP107 T02390006",
    "icao": "KLAS",
    "flightCategory": "VFR",
    "windDir": 170,
    "windSpeed": 7,
    "windGust": null,
    "visibility": 10,
    "ceiling": null,
    "temp": 23.9,
    "dewpoint": 0.6,
    "altimeter": 29.92,
    "conditions": "",
    "observationTime": "2026-05-24T11:00:00.000Z"
  },
  "LAX": {
    "raw": "METAR KLAX 241053Z 24004KT 10SM FEW014 OVC016 16/12 A2999 RMK AO2 SLP154 T01560122 $",
    "icao": "KLAX",
    "flightCategory": "MVFR",
    "windDir": 240,
    "windSpeed": 4,
    "windGust": null,
    "visibility": 10,
    "ceiling": 1600,
    "temp": 15.6,
    "dewpoint": 12.2,
    "altimeter": 29.99,
    "conditions": "",
    "observationTime": "2026-05-24T11:00:00.000Z"
  }
}