{
  "SYD": {
    "raw": "METAR YSSY 170300Z 01004KT 320V030 9999 FEW017 BKN190 BKN200 21/15 Q1020",
    "icao": "YSSY",
    "flightCategory": "VFR",
    "windDir": 10,
    "windSpeed": 4,
    "windGust": null,
    "visibility": 6,
    "ceiling": 19000,
    "temp": 21,
    "dewpoint": 15,
    "altimeter": 30.12,
    "conditions": "",
    "observationTime": "2026-05-17T03:00:00.000Z"
  },
  "LHR": {
    "raw": "METAR EGLL 170250Z AUTO 24007KT 9999 FEW014 10/08 Q1008",
    "icao": "EGLL",
    "flightCategory": "VFR",
    "windDir": 240,
    "windSpeed": 7,
    "windGust": null,
    "visibility": 6,
    "ceiling": null,
    "temp": 10,
    "dewpoint": 8,
    "altimeter": 29.77,
    "conditions": "",
    "observationTime": "2026-05-17T03:00:00.000Z"
  },
  "LAS": {
    "raw": "METAR KLAS 170256Z 27016G22KT 10SM FEW120 FEW200 32/M06 A2957 RMK AO2 SLP988 T03171061 55001",
    "icao": "KLAS",
    "flightCategory": "VFR",
    "windDir": 270,
    "windSpeed": 16,
    "windGust": 22,
    "visibility": 10,
    "ceiling": null,
    "temp": 31.7,
    "dewpoint": -6.1,
    "altimeter": 29.57,
    "conditions": "",
    "observationTime": "2026-05-17T03:00:00.000Z"
  },
  "LAX": {
    "raw": "METAR KLAX 170253Z 25007KT 10SM FEW022 SCT037 18/11 A2984 RMK AO2 SLP103 T01780111 55005",
    "icao": "KLAX",
    "flightCategory": "VFR",
    "windDir": 250,
    "windSpeed": 7,
    "windGust": null,
    "visibility": 10,
    "ceiling": null,
    "temp": 17.8,
    "dewpoint": 11.1,
    "altimeter": 29.84,
    "conditions": "",
    "observationTime": "2026-05-17T03:00:00.000Z"
  },
  "ORD": {
    "raw": "METAR KORD 170251Z 20007KT 10SM FEW190 OVC250 23/17 A2988 RMK AO2 SLP114 T02330172 53021",
    "icao": "KORD",
    "flightCategory": "VFR",
    "windDir": 200,
    "windSpeed": 7,
    "windGust": null,
    "visibility": 10,
    "ceiling": 25000,
    "temp": 23.3,
    "dewpoint": 17.2,
    "altimeter": 29.88,
    "conditions": "",
    "observationTime": "2026-05-17T03:00:00.000Z"
  }
}