{
  "SYD": {
    "raw": "METAR YSSY 090200Z 13009KT 9999 -DZ VCSH FEW015 SCT025 BKN040 15/10 Q1029",
    "icao": "YSSY",
    "flightCategory": "VFR",
    "windDir": 130,
    "windSpeed": 9,
    "windGust": null,
    "visibility": 6,
    "ceiling": 4000,
    "temp": 15,
    "dewpoint": 10,
    "altimeter": 30.39,
    "conditions": "-DZ VCSH",
    "observationTime": "2026-07-09T02:00:00.000Z"
  },
  "LHR": {
    "raw": "METAR EGLL 090150Z AUTO 22006KT 9999 NCD 22/15 Q1018",
    "icao": "EGLL",
    "flightCategory": "VFR",
    "windDir": 220,
    "windSpeed": 6,
    "windGust": null,
    "visibility": 6,
    "ceiling": null,
    "temp": 22,
    "dewpoint": 15,
    "altimeter": 30.06,
    "conditions": "",
    "observationTime": "2026-07-09T02:00:00.000Z"
  },
  "LAS": {
    "raw": "METAR KLAS 090156Z 21016G22KT 10SM CLR 41/M09 A2980 RMK AO2 SLP057 T04061094",
    "icao": "KLAS",
    "flightCategory": "VFR",
    "windDir": 210,
    "windSpeed": 16,
    "windGust": 22,
    "visibility": 10,
    "ceiling": null,
    "temp": 40.6,
    "dewpoint": -9.4,
    "altimeter": 29.8,
    "conditions": "",
    "observationTime": "2026-07-09T02:00:00.000Z"
  },
  "LAX": {
    "raw": "METAR KLAX 090153Z 26010KT 10SM CLR 22/15 A2987 RMK AO2 SLP112 T02170150",
    "icao": "KLAX",
    "flightCategory": "VFR",
    "windDir": 260,
    "windSpeed": 10,
    "windGust": null,
    "visibility": 10,
    "ceiling": null,
    "temp": 21.7,
    "dewpoint": 15,
    "altimeter": 29.87,
    "conditions": "",
    "observationTime": "2026-07-09T02:00:00.000Z"
  },
  "ORD": {
    "raw": "METAR KORD 090151Z 22004KT 10SM FEW170 BKN250 28/19 A2991 RMK AO2 SLP123 T02780189",
    "icao": "KORD",
    "flightCategory": "VFR",
    "windDir": 220,
    "windSpeed": 4,
    "windGust": null,
    "visibility": 10,
    "ceiling": 25000,
    "temp": 27.8,
    "dewpoint": 18.9,
    "altimeter": 29.91,
    "conditions": "",
    "observationTime": "2026-07-09T02:00:00.000Z"
  }
}