{
  "ORD": {
    "raw": "METAR KORD 261151Z 05003KT 5SM BR OVC003 07/07 A3006 RMK AO2 SLP183 T00720067 10072 20056 53011",
    "icao": "KORD",
    "flightCategory": "LIFR",
    "windDir": 50,
    "windSpeed": 3,
    "windGust": null,
    "visibility": 5,
    "ceiling": 300,
    "temp": 7.2,
    "dewpoint": 6.7,
    "altimeter": 30.06,
    "conditions": "BR",
    "observationTime": "2026-04-26T12:00:00.000Z"
  },
  "SYD": {
    "raw": "METAR YSSY 261130Z AUTO 01006KT 9999 // NCD 20/12 Q1023",
    "icao": "YSSY",
    "flightCategory": "VFR",
    "windDir": 10,
    "windSpeed": 6,
    "windGust": null,
    "visibility": 6,
    "ceiling": null,
    "temp": 20,
    "dewpoint": 12,
    "altimeter": 30.21,
    "conditions": "",
    "observationTime": "2026-04-26T11:30:00.000Z"
  },
  "LAS": {
    "raw": "METAR KLAS 261156Z 22016G28KT 10SM FEW060 FEW150 SCT200 12/02 A2966 RMK AO2 PK WND 22032/1110 SLP030 T01220022 10150 20122 58006",
    "icao": "KLAS",
    "flightCategory": "VFR",
    "windDir": 220,
    "windSpeed": 16,
    "windGust": 28,
    "visibility": 10,
    "ceiling": null,
    "temp": 12.2,
    "dewpoint": 2.2,
    "altimeter": 29.66,
    "conditions": "",
    "observationTime": "2026-04-26T12:00:00.000Z"
  },
  "LAX": {
    "raw": "METAR KLAX 261153Z 28010KT 10SM FEW012 FEW025 BKN049 13/10 A2987 RMK AO2 SLP115 60029 70030 T01330100 10144 20128 55002 $",
    "icao": "KLAX",
    "flightCategory": "VFR",
    "windDir": 280,
    "windSpeed": 10,
    "windGust": null,
    "visibility": 10,
    "ceiling": 4900,
    "temp": 13.3,
    "dewpoint": 10,
    "altimeter": 29.87,
    "conditions": "",
    "observationTime": "2026-04-26T12:00:00.000Z"
  },
  "LHR": {
    "raw": "METAR EGLL 261120Z COR AUTO 10004KT 040V150 9999 NCD 17/05 Q1025 NOSIG",
    "icao": "EGLL",
    "flightCategory": "VFR",
    "windDir": 100,
    "windSpeed": 4,
    "windGust": null,
    "visibility": 6,
    "ceiling": null,
    "temp": 17,
    "dewpoint": 5,
    "altimeter": 30.27,
    "conditions": "",
    "observationTime": "2026-04-26T11:20:00.000Z"
  }
}