{
  "ORD": {
    "raw": "SPECI KORD 161530Z 26010G21KT 4SM R10L/5500VP6000FT -RA SCT017 BKN022 BKN060 18/16 A2975 RMK AO2 RAB20 P0006 T01830156 $",
    "icao": "KORD",
    "flightCategory": "MVFR",
    "windDir": 260,
    "windSpeed": 10,
    "windGust": 21,
    "visibility": 4,
    "ceiling": 2200,
    "temp": 18.3,
    "dewpoint": 15.6,
    "altimeter": 29.75,
    "conditions": "-RA",
    "observationTime": "2026-04-16T15:30:00.000Z"
  },
  "LHR": {
    "raw": "METAR EGLL 161520Z COR AUTO 22012KT 190V250 9999 FEW039 16/07 Q1019 NOSIG",
    "icao": "EGLL",
    "flightCategory": "VFR",
    "windDir": 220,
    "windSpeed": 12,
    "windGust": null,
    "visibility": 6,
    "ceiling": null,
    "temp": 16,
    "dewpoint": 7,
    "altimeter": 30.09,
    "conditions": "",
    "observationTime": "2026-04-16T15:20:00.000Z"
  },
  "SYD": {
    "raw": "METAR YSSY 161500Z AUTO 34007KT 9999 // NCD 18/13 Q1013",
    "icao": "YSSY",
    "flightCategory": "VFR",
    "windDir": 340,
    "windSpeed": 7,
    "windGust": null,
    "visibility": 6,
    "ceiling": null,
    "temp": 18,
    "dewpoint": 13,
    "altimeter": 29.91,
    "conditions": "",
    "observationTime": "2026-04-16T15:00:00.000Z"
  },
  "LAS": {
    "raw": "METAR KLAS 161456Z 19010G21KT 10SM SCT180 OVC250 19/M01 A2983 RMK AO2 SLP083 ACSL DSNT NW T01941006 51007",
    "icao": "KLAS",
    "flightCategory": "VFR",
    "windDir": 190,
    "windSpeed": 10,
    "windGust": 21,
    "visibility": 10,
    "ceiling": 25000,
    "temp": 19.4,
    "dewpoint": -0.6,
    "altimeter": 29.83,
    "conditions": "",
    "observationTime": "2026-04-16T15:00:00.000Z"
  }
}