{
  "ORD": {
    "raw": "SPECI KORD 180137Z 18014G26KT 10SM -TSRA BKN047CB BKN130 OVC250 24/18 A2965 RMK AO2 PK WND 18028/0054 FRQ LTGICCG OHD RAB31 TSB31 TS OHD MOV NE P0000 T02440178 $",
    "icao": "KORD",
    "flightCategory": "VFR",
    "windDir": 180,
    "windSpeed": 14,
    "windGust": 26,
    "visibility": 10,
    "ceiling": 4700,
    "temp": 24.4,
    "dewpoint": 17.8,
    "altimeter": 29.65,
    "conditions": "-TSRA",
    "observationTime": "2026-04-18T01:37:00.000Z"
  },
  "LHR": {
    "raw": "METAR EGLL 180120Z COR AUTO 27004KT 9999 OVC026 11/09 Q1020 NOSIG",
    "icao": "EGLL",
    "flightCategory": "MVFR",
    "windDir": 270,
    "windSpeed": 4,
    "windGust": null,
    "visibility": 6,
    "ceiling": 2600,
    "temp": 11,
    "dewpoint": 9,
    "altimeter": 30.12,
    "conditions": "",
    "observationTime": "2026-04-18T01:20:00.000Z"
  },
  "SYD": {
    "raw": "METAR YSSY 180100Z AUTO 16009KT 9999 // NCD 18/07 Q1019",
    "icao": "YSSY",
    "flightCategory": "VFR",
    "windDir": 160,
    "windSpeed": 9,
    "windGust": null,
    "visibility": 6,
    "ceiling": null,
    "temp": 18,
    "dewpoint": 7,
    "altimeter": 30.09,
    "conditions": "",
    "observationTime": "2026-04-18T01:00:00.000Z"
  },
  "LAS": {
    "raw": "METAR KLAS 180056Z 04011G17KT 10SM FEW250 20/M21 A3004 RMK AO2 SLP164 T02001211",
    "icao": "KLAS",
    "flightCategory": "VFR",
    "windDir": 40,
    "windSpeed": 11,
    "windGust": 17,
    "visibility": 10,
    "ceiling": null,
    "temp": 20,
    "dewpoint": -21.1,
    "altimeter": 30.04,
    "conditions": "",
    "observationTime": "2026-04-18T01:00:00.000Z"
  }
}