{
  "ORD": {
    "raw": "SPECI KORD 080843Z 10004KT 1 1/2SM +TSRA BR FEW060 BKN075CB OVC110 18/17 A2995 RMK AO2 TSB0755 FRQ LTGICCG OHD TS OHD MOV N P0006 T01830167 $",
    "icao": "KORD",
    "flightCategory": "IFR",
    "windDir": 100,
    "windSpeed": 4,
    "windGust": null,
    "visibility": 1.5,
    "ceiling": 7500,
    "temp": 18.3,
    "dewpoint": 16.7,
    "altimeter": 29.95,
    "conditions": "+TSRA BR",
    "observationTime": "2026-06-08T08:43:00.000Z"
  },
  "SYD": {
    "raw": "METAR YSSY 080830Z AUTO 04003KT 9999 // FEW050 17/12 Q1031",
    "icao": "YSSY",
    "flightCategory": "VFR",
    "windDir": 40,
    "windSpeed": 3,
    "windGust": null,
    "visibility": 6,
    "ceiling": null,
    "temp": 17,
    "dewpoint": 12,
    "altimeter": 30.45,
    "conditions": "",
    "observationTime": "2026-06-08T08:30:00.000Z"
  },
  "LAS": {
    "raw": "METAR KLAS 080856Z 19008KT 10SM CLR 28/01 A2973 RMK AO2 SLP038 T02780011 51010 $",
    "icao": "KLAS",
    "flightCategory": "VFR",
    "windDir": 190,
    "windSpeed": 8,
    "windGust": null,
    "visibility": 10,
    "ceiling": null,
    "temp": 27.8,
    "dewpoint": 1.1,
    "altimeter": 29.73,
    "conditions": "",
    "observationTime": "2026-06-08T09:00:00.000Z"
  },
  "LAX": {
    "raw": "METAR KLAX 080853Z 35005KT 10SM OVC022 17/13 A2985 RMK AO2 SLP105 T01720128 58001 $",
    "icao": "KLAX",
    "flightCategory": "MVFR",
    "windDir": 350,
    "windSpeed": 5,
    "windGust": null,
    "visibility": 10,
    "ceiling": 2200,
    "temp": 17.2,
    "dewpoint": 12.8,
    "altimeter": 29.85,
    "conditions": "",
    "observationTime": "2026-06-08T09:00:00.000Z"
  },
  "LHR": {
    "raw": "METAR EGLL 080820Z AUTO 22009KT 190V250 4600 RA FEW020/// SCT033/// BKN047/// //////CB 14/13 Q1014 RERA",
    "icao": "EGLL",
    "flightCategory": "IFR",
    "windDir": 220,
    "windSpeed": 9,
    "windGust": null,
    "visibility": 2.86,
    "ceiling": 4700,
    "temp": 14,
    "dewpoint": 13,
    "altimeter": 29.94,
    "conditions": "RA",
    "observationTime": "2026-06-08T08:20:00.000Z"
  }
}