{
  "LAX": {
    "raw": "METAR KLAX 301253Z 26006KT 10SM FEW011 FEW018 OVC033 18/14 A2992 RMK AO2 SLP129 T01780144 $",
    "icao": "KLAX",
    "flightCategory": "VFR",
    "windDir": 260,
    "windSpeed": 6,
    "windGust": null,
    "visibility": 10,
    "ceiling": 3300,
    "temp": 17.8,
    "dewpoint": 14.4,
    "altimeter": 29.92,
    "conditions": "",
    "observationTime": "2026-06-30T13:00:00.000Z"
  },
  "ORD": {
    "raw": "METAR KORD 301251Z 22012G21KT 10SM FEW015 SCT300 27/24 A2994 RMK AO2 SLP132 T02720239",
    "icao": "KORD",
    "flightCategory": "VFR",
    "windDir": 220,
    "windSpeed": 12,
    "windGust": 21,
    "visibility": 10,
    "ceiling": null,
    "temp": 27.2,
    "dewpoint": 23.9,
    "altimeter": 29.94,
    "conditions": "",
    "observationTime": "2026-06-30T13:00:00.000Z"
  },
  "LHR": {
    "raw": "METAR EGLL 301220Z AUTO 24010KT 9999 FEW038 21/11 Q1022",
    "icao": "EGLL",
    "flightCategory": "VFR",
    "windDir": 240,
    "windSpeed": 10,
    "windGust": null,
    "visibility": 6,
    "ceiling": null,
    "temp": 21,
    "dewpoint": 11,
    "altimeter": 30.18,
    "conditions": "",
    "observationTime": "2026-06-30T12:20:00.000Z"
  },
  "SYD": {
    "raw": "METAR YSSY 301200Z AUTO 02009KT 9999 // BKN084 OVC125 16/13 Q1019",
    "icao": "YSSY",
    "flightCategory": "VFR",
    "windDir": 20,
    "windSpeed": 9,
    "windGust": null,
    "visibility": 6,
    "ceiling": 8400,
    "temp": 16,
    "dewpoint": 13,
    "altimeter": 30.09,
    "conditions": "",
    "observationTime": "2026-06-30T12:00:00.000Z"
  }
}