{
  "LHR": {
    "raw": "METAR EGLL 260450Z COR AUTO 05005KT 9999 NCD 07/04 Q1025 NOSIG",
    "icao": "EGLL",
    "flightCategory": "VFR",
    "windDir": 50,
    "windSpeed": 5,
    "windGust": null,
    "visibility": 6,
    "ceiling": null,
    "temp": 7,
    "dewpoint": 4,
    "altimeter": 30.27,
    "conditions": "",
    "observationTime": "2026-04-26T05:00:00.000Z"
  },
  "SYD": {
    "raw": "METAR YSSY 260430Z 04011KT CAVOK 24/10 Q1022",
    "icao": "YSSY",
    "flightCategory": "VFR",
    "windDir": 40,
    "windSpeed": 11,
    "windGust": null,
    "visibility": 6,
    "ceiling": null,
    "temp": 24,
    "dewpoint": 10,
    "altimeter": 30.18,
    "conditions": "",
    "observationTime": "2026-04-26T04:30:00.000Z"
  },
  "LAS": {
    "raw": "METAR KLAS 260456Z 25011G23KT 10SM BKN110 17/04 A2969 RMK AO2 PK WND 25026/0439 SLP036 T01670039",
    "icao": "KLAS",
    "flightCategory": "VFR",
    "windDir": 250,
    "windSpeed": 11,
    "windGust": 23,
    "visibility": 10,
    "ceiling": 11000,
    "temp": 16.7,
    "dewpoint": 3.9,
    "altimeter": 29.69,
    "conditions": "",
    "observationTime": "2026-04-26T05:00:00.000Z"
  },
  "LAX": {
    "raw": "METAR KLAX 260453Z 27012KT 10SM SCT020 BKN070 OVC110 15/10 A2991 RMK AO2 SLP125 T01500100",
    "icao": "KLAX",
    "flightCategory": "VFR",
    "windDir": 270,
    "windSpeed": 12,
    "windGust": null,
    "visibility": 10,
    "ceiling": 7000,
    "temp": 15,
    "dewpoint": 10,
    "altimeter": 29.91,
    "conditions": "",
    "observationTime": "2026-04-26T05:00:00.000Z"
  },
  "ORD": {
    "raw": "METAR KORD 260451Z 05008KT 10SM FEW250 07/04 A3001 RMK AO2 SLP164 T00670039",
    "icao": "KORD",
    "flightCategory": "VFR",
    "windDir": 50,
    "windSpeed": 8,
    "windGust": null,
    "visibility": 10,
    "ceiling": null,
    "temp": 6.7,
    "dewpoint": 3.9,
    "altimeter": 30.01,
    "conditions": "",
    "observationTime": "2026-04-26T05:00:00.000Z"
  }
}