{
  "SYD": {
    "raw": "SPECI YSSY 011230Z AUTO 02006KT 9999 // NCD 23/18 Q1023",
    "icao": "YSSY",
    "flightCategory": "VFR",
    "windDir": 20,
    "windSpeed": 6,
    "windGust": null,
    "visibility": 6,
    "ceiling": null,
    "temp": 23,
    "dewpoint": 18,
    "altimeter": 30.21,
    "conditions": "",
    "observationTime": "2026-04-01T12:30:00.000Z"
  },
  "LAS": {
    "raw": "METAR KLAS 011256Z 22006KT 10SM FEW080 SCT110 16/04 A2979 RMK AO2 PK WND 23030/1208 SLP069 T01610039",
    "icao": "KLAS",
    "flightCategory": "VFR",
    "windDir": 220,
    "windSpeed": 6,
    "windGust": null,
    "visibility": 10,
    "ceiling": null,
    "temp": 16.1,
    "dewpoint": 3.9,
    "altimeter": 29.79,
    "conditions": "",
    "observationTime": "2026-04-01T13:00:00.000Z"
  },
  "LAX": {
    "raw": "SPECI KLAX 011230Z 28005KT 10SM FEW008 SCT018 SCT060 BKN150 16/13 A2994 RMK AO2 T01610133 $",
    "icao": "KLAX",
    "flightCategory": "VFR",
    "windDir": 280,
    "windSpeed": 5,
    "windGust": null,
    "visibility": 10,
    "ceiling": 15000,
    "temp": 16.1,
    "dewpoint": 13.3,
    "altimeter": 29.94,
    "conditions": "",
    "observationTime": "2026-04-01T12:30:00.000Z"
  },
  "ORD": {
    "raw": "METAR KORD 011251Z 03020KT 10SM OVC012 02/M01 A3020 RMK AO2 PK WND 04028/1235 SLP231 T00221011",
    "icao": "KORD",
    "flightCategory": "MVFR",
    "windDir": 30,
    "windSpeed": 20,
    "windGust": null,
    "visibility": 10,
    "ceiling": 1200,
    "temp": 2.2,
    "dewpoint": -1.1,
    "altimeter": 30.2,
    "conditions": "",
    "observationTime": "2026-04-01T13:00:00.000Z"
  },
  "LHR": {
    "raw": "METAR EGLL 011220Z COR AUTO 28004KT 250V330 9999 BKN033 OVC048 12/05 Q1024 NOSIG",
    "icao": "EGLL",
    "flightCategory": "VFR",
    "windDir": 280,
    "windSpeed": 4,
    "windGust": null,
    "visibility": 6,
    "ceiling": 3300,
    "temp": 12,
    "dewpoint": 5,
    "altimeter": 30.24,
    "conditions": "",
    "observationTime": "2026-04-01T12:20:00.000Z"
  }
}