{
  "SYD": {
    "raw": "METAR YSSY 182330Z 20011KT 9999 FEW022 SCT040 BKN047 16/12 Q1034",
    "icao": "YSSY",
    "flightCategory": "VFR",
    "windDir": 200,
    "windSpeed": 11,
    "windGust": null,
    "visibility": 6,
    "ceiling": 4700,
    "temp": 16,
    "dewpoint": 12,
    "altimeter": 30.53,
    "conditions": "",
    "observationTime": "2026-07-18T23:30:00.000Z"
  },
  "LAS": {
    "raw": "METAR KLAS 182356Z 12010G17KT 10SM FEW080 SCT100 SCT150 41/13 A2986 RMK AO2 SLP080 TCU DSNT ALQDS T04060128 10411 20328 56025 $",
    "icao": "KLAS",
    "flightCategory": "VFR",
    "windDir": 120,
    "windSpeed": 10,
    "windGust": 17,
    "visibility": 10,
    "ceiling": null,
    "temp": 40.6,
    "dewpoint": 12.8,
    "altimeter": 29.86,
    "conditions": "",
    "observationTime": "2026-07-19T00:00:00.000Z"
  },
  "LAX": {
    "raw": "METAR KLAX 182353Z 26014KT 10SM FEW011 FEW080 SCT200 24/18 A2993 RMK AO2 SLP133 T02440178 10256 20239 56015 $",
    "icao": "KLAX",
    "flightCategory": "VFR",
    "windDir": 260,
    "windSpeed": 14,
    "windGust": null,
    "visibility": 10,
    "ceiling": null,
    "temp": 24.4,
    "dewpoint": 17.8,
    "altimeter": 29.93,
    "conditions": "",
    "observationTime": "2026-07-19T00:00:00.000Z"
  },
  "ORD": {
    "raw": "METAR KORD 182351Z 04012G19KT 6SM FU SCT060 26/19 A2990 RMK AO2 SLP120 T02610189 10328 20261 51020 $",
    "icao": "KORD",
    "flightCategory": "VFR",
    "windDir": 40,
    "windSpeed": 12,
    "windGust": 19,
    "visibility": 6,
    "ceiling": null,
    "temp": 26.1,
    "dewpoint": 18.9,
    "altimeter": 29.9,
    "conditions": "FU",
    "observationTime": "2026-07-19T00:00:00.000Z"
  },
  "LHR": {
    "raw": "METAR EGLL 182320Z AUTO 05007KT 9999 NCD 16/10 Q1022",
    "icao": "EGLL",
    "flightCategory": "VFR",
    "windDir": 50,
    "windSpeed": 7,
    "windGust": null,
    "visibility": 6,
    "ceiling": null,
    "temp": 16,
    "dewpoint": 10,
    "altimeter": 30.18,
    "conditions": "",
    "observationTime": "2026-07-18T23:20:00.000Z"
  }
}