{
  "SYD": {
    "raw": "METAR YSSY 141300Z AUTO 22006KT 9999 -SHRA SCT035 BKN040 BKN052 16/15 Q1030",
    "icao": "YSSY",
    "flightCategory": "VFR",
    "windDir": 220,
    "windSpeed": 6,
    "windGust": null,
    "visibility": 6,
    "ceiling": 4000,
    "temp": 16,
    "dewpoint": 15,
    "altimeter": 30.42,
    "conditions": "-SHRA",
    "observationTime": "2026-05-14T13:00:00.000Z"
  },
  "LHR": {
    "raw": "METAR EGLL 141250Z AUTO 36008KT 320V040 9999 -RA FEW040/// //////CB 11/03 Q1001 RESHGS",
    "icao": "EGLL",
    "flightCategory": "VFR",
    "windDir": 360,
    "windSpeed": 8,
    "windGust": null,
    "visibility": 6,
    "ceiling": null,
    "temp": 11,
    "dewpoint": 3,
    "altimeter": 29.56,
    "conditions": "-RA",
    "observationTime": "2026-05-14T13:00:00.000Z"
  },
  "LAS": {
    "raw": "METAR KLAS 141256Z 22008KT 10SM FEW250 23/01 A2989 RMK AO2 SLP097 T02280006",
    "icao": "KLAS",
    "flightCategory": "VFR",
    "windDir": 220,
    "windSpeed": 8,
    "windGust": null,
    "visibility": 10,
    "ceiling": null,
    "temp": 22.8,
    "dewpoint": 0.6,
    "altimeter": 29.89,
    "conditions": "",
    "observationTime": "2026-05-14T13:00:00.000Z"
  },
  "LAX": {
    "raw": "METAR KLAX 141253Z 09004KT 10SM FEW011 BKN018 BKN035 16/12 A3001 RMK AO2 SLP160 T01560122",
    "icao": "KLAX",
    "flightCategory": "MVFR",
    "windDir": 90,
    "windSpeed": 4,
    "windGust": null,
    "visibility": 10,
    "ceiling": 1800,
    "temp": 15.6,
    "dewpoint": 12.2,
    "altimeter": 30.01,
    "conditions": "",
    "observationTime": "2026-05-14T13:00:00.000Z"
  },
  "ORD": {
    "raw": "METAR KORD 141251Z 00000KT 10SM FEW300 12/02 A3013 RMK AO2 SLP206 T01170022 $",
    "icao": "KORD",
    "flightCategory": "VFR",
    "windDir": 0,
    "windSpeed": 0,
    "windGust": null,
    "visibility": 10,
    "ceiling": null,
    "temp": 11.7,
    "dewpoint": 2.2,
    "altimeter": 30.13,
    "conditions": "",
    "observationTime": "2026-05-14T13:00:00.000Z"
  }
}