{
  "LHR": {
    "raw": "METAR EGLL 042150Z COR AUTO 04006KT 360V070 9999 BKN022 BKN032 OVC040 13/09 Q1015 NOSIG",
    "icao": "EGLL",
    "flightCategory": "MVFR",
    "windDir": 40,
    "windSpeed": 6,
    "windGust": null,
    "visibility": 6,
    "ceiling": 2200,
    "temp": 13,
    "dewpoint": 9,
    "altimeter": 29.97,
    "conditions": "",
    "observationTime": "2026-05-04T22:00:00.000Z"
  },
  "SYD": {
    "raw": "METAR YSSY 042200Z 30008KT CAVOK 17/10 Q1019",
    "icao": "YSSY",
    "flightCategory": "VFR",
    "windDir": 300,
    "windSpeed": 8,
    "windGust": null,
    "visibility": 6,
    "ceiling": null,
    "temp": 17,
    "dewpoint": 10,
    "altimeter": 30.09,
    "conditions": "",
    "observationTime": "2026-05-04T22:00:00.000Z"
  },
  "LAS": {
    "raw": "METAR KLAS 042156Z 20011G26KT 10SM FEW120 SCT200 BKN250 25/M09 A2978 RMK AO2 PK WND 26027/2129 SLP063 T02501094",
    "icao": "KLAS",
    "flightCategory": "VFR",
    "windDir": 200,
    "windSpeed": 11,
    "windGust": 26,
    "visibility": 10,
    "ceiling": 25000,
    "temp": 25,
    "dewpoint": -9.4,
    "altimeter": 29.78,
    "conditions": "",
    "observationTime": "2026-05-04T22:00:00.000Z"
  },
  "LAX": {
    "raw": "METAR KLAX 042153Z 26018KT 10SM SCT020 BKN085 BKN150 19/12 A2999 RMK AO2 SLP154 T01890117",
    "icao": "KLAX",
    "flightCategory": "VFR",
    "windDir": 260,
    "windSpeed": 18,
    "windGust": null,
    "visibility": 10,
    "ceiling": 8500,
    "temp": 18.9,
    "dewpoint": 11.7,
    "altimeter": 29.99,
    "conditions": "",
    "observationTime": "2026-05-04T22:00:00.000Z"
  },
  "ORD": {
    "raw": "METAR KORD 042151Z 24017G29KT 10SM SCT090CB BKN130 BKN250 26/06 A2946 RMK AO2 PK WND 24029/2150 SLP971 CB OHD MOV E T02560061",
    "icao": "KORD",
    "flightCategory": "VFR",
    "windDir": 240,
    "windSpeed": 17,
    "windGust": 29,
    "visibility": 10,
    "ceiling": 13000,
    "temp": 25.6,
    "dewpoint": 6.1,
    "altimeter": 29.46,
    "conditions": "",
    "observationTime": "2026-05-04T22:00:00.000Z"
  }
}