{
  "SYD": {
    "raw": "METAR YSSY 020700Z AUTO 06013KT 9999 // NCD 24/18 Q1021",
    "icao": "YSSY",
    "flightCategory": "VFR",
    "windDir": 60,
    "windSpeed": 13,
    "windGust": null,
    "visibility": 6,
    "ceiling": null,
    "temp": 24,
    "dewpoint": 18,
    "altimeter": 30.15,
    "conditions": "",
    "observationTime": "2026-04-02T07:00:00.000Z"
  },
  "LHR": {
    "raw": "METAR EGLL 020650Z COR AUTO 35007KT 320V030 9999 BKN018 BKN031 06/02 Q1021 NOSIG",
    "icao": "EGLL",
    "flightCategory": "MVFR",
    "windDir": 350,
    "windSpeed": 7,
    "windGust": null,
    "visibility": 6,
    "ceiling": 1800,
    "temp": 6,
    "dewpoint": 2,
    "altimeter": 30.15,
    "conditions": "",
    "observationTime": "2026-04-02T07:00:00.000Z"
  },
  "ORD": {
    "raw": "METAR KORD 020651Z 08015G23KT 6SM RA BR OVC010 04/02 A3003 RMK AO2 SLP174 P0012 T00390022",
    "icao": "KORD",
    "flightCategory": "MVFR",
    "windDir": 80,
    "windSpeed": 15,
    "windGust": 23,
    "visibility": 6,
    "ceiling": 1000,
    "temp": 3.9,
    "dewpoint": 2.2,
    "altimeter": 30.03,
    "conditions": "RA BR",
    "observationTime": "2026-04-02T07:00:00.000Z"
  },
  "LAS": {
    "raw": "METAR KLAS 020656Z 21013G27KT 10SM CLR 18/04 A2978 RMK AO2 PK WND 24031/0608 SLP069 T01780044",
    "icao": "KLAS",
    "flightCategory": "VFR",
    "windDir": 210,
    "windSpeed": 13,
    "windGust": 27,
    "visibility": 10,
    "ceiling": null,
    "temp": 17.8,
    "dewpoint": 4.4,
    "altimeter": 29.78,
    "conditions": "",
    "observationTime": "2026-04-02T07:00:00.000Z"
  },
  "LAX": {
    "raw": "METAR KLAX 020653Z 28013KT 10SM FEW015 FEW040 SCT150 SCT250 16/12 A3000 RMK AO2 SLP157 T01610117 $",
    "icao": "KLAX",
    "flightCategory": "VFR",
    "windDir": 280,
    "windSpeed": 13,
    "windGust": null,
    "visibility": 10,
    "ceiling": null,
    "temp": 16.1,
    "dewpoint": 11.7,
    "altimeter": 30,
    "conditions": "",
    "observationTime": "2026-04-02T07:00:00.000Z"
  }
}