{
  "LAX": {
    "raw": "METAR KLAX 050153Z 26015KT 10SM SCT220 SCT280 23/02 A2995 RMK AO2 SLP141 T02280022 $",
    "icao": "KLAX",
    "flightCategory": "VFR",
    "windDir": 260,
    "windSpeed": 15,
    "windGust": null,
    "visibility": 10,
    "ceiling": null,
    "temp": 22.8,
    "dewpoint": 2.2,
    "altimeter": 29.95,
    "conditions": "",
    "observationTime": "2026-04-05T02:00:00.000Z"
  },
  "ORD": {
    "raw": "METAR KORD 050151Z 27017G26KT 10SM FEW030 BKN036 OVC047 06/M02 A2996 RMK AO2 PK WND 26035/0115 SLP148 T00561022 $",
    "icao": "KORD",
    "flightCategory": "VFR",
    "windDir": 270,
    "windSpeed": 17,
    "windGust": 26,
    "visibility": 10,
    "ceiling": 3600,
    "temp": 5.6,
    "dewpoint": -2.2,
    "altimeter": 29.96,
    "conditions": "",
    "observationTime": "2026-04-05T02:00:00.000Z"
  },
  "LHR": {
    "raw": "METAR EGLL 050120Z COR AUTO 25019KT 9999 BKN037 11/03 Q1008 NOSIG",
    "icao": "EGLL",
    "flightCategory": "VFR",
    "windDir": 250,
    "windSpeed": 19,
    "windGust": null,
    "visibility": 6,
    "ceiling": 3700,
    "temp": 11,
    "dewpoint": 3,
    "altimeter": 29.77,
    "conditions": "",
    "observationTime": "2026-04-05T01:20:00.000Z"
  },
  "SYD": {
    "raw": "METAR YSSY 050100Z 19006KT 9999 VCSH FEW025 SCT040 BKN055 20/13 Q1026",
    "icao": "YSSY",
    "flightCategory": "VFR",
    "windDir": 190,
    "windSpeed": 6,
    "windGust": null,
    "visibility": 6,
    "ceiling": 5500,
    "temp": 20,
    "dewpoint": 13,
    "altimeter": 30.3,
    "conditions": "VCSH",
    "observationTime": "2026-04-05T01:00:00.000Z"
  },
  "LAS": {
    "raw": "METAR KLAS 050056Z 36008KT 10SM BKN250 26/M16 A3007 RMK AO2 SLP170 T02561156",
    "icao": "KLAS",
    "flightCategory": "VFR",
    "windDir": 360,
    "windSpeed": 8,
    "windGust": null,
    "visibility": 10,
    "ceiling": 25000,
    "temp": 25.6,
    "dewpoint": -15.6,
    "altimeter": 30.07,
    "conditions": "",
    "observationTime": "2026-04-05T01:00:00.000Z"
  }
}