{
  "HND": {
    "raw": "METAR RJTT 130730Z 19013KT 9999 FEW020 FEW030CB BKN/// 24/13 Q1007 TEMPO FM0800 TS BECMG TL0830 36015KT",
    "icao": "RJTT",
    "flightCategory": "VFR",
    "windDir": 190,
    "windSpeed": 13,
    "windGust": null,
    "visibility": 6,
    "ceiling": null,
    "temp": 24,
    "dewpoint": 13,
    "altimeter": 29.74,
    "conditions": "",
    "observationTime": "2026-05-13T07:30:00.000Z"
  },
  "LAS": {
    "raw": "METAR KLAS 130756Z 19005KT 10SM SCT180 31/M04 A2992 RMK AO2 SLP098 T03061044 404000244",
    "icao": "KLAS",
    "flightCategory": "VFR",
    "windDir": 190,
    "windSpeed": 5,
    "windGust": null,
    "visibility": 10,
    "ceiling": null,
    "temp": 30.6,
    "dewpoint": -4.4,
    "altimeter": 29.92,
    "conditions": "",
    "observationTime": "2026-05-13T08:00:00.000Z"
  },
  "LAX": {
    "raw": "METAR KLAX 130753Z 28007KT 10SM BKN018 OVC028 16/12 A3006 RMK AO2 SLP178 T01610122 401940133",
    "icao": "KLAX",
    "flightCategory": "MVFR",
    "windDir": 280,
    "windSpeed": 7,
    "windGust": null,
    "visibility": 10,
    "ceiling": 1800,
    "temp": 16.1,
    "dewpoint": 12.2,
    "altimeter": 30.06,
    "conditions": "",
    "observationTime": "2026-05-13T08:00:00.000Z"
  },
  "ORD": {
    "raw": "METAR KORD 130751Z 12004KT 10SM BKN050 BKN070 12/07 A2983 RMK AO2 SLP101 T01220072 $",
    "icao": "KORD",
    "flightCategory": "VFR",
    "windDir": 120,
    "windSpeed": 4,
    "windGust": null,
    "visibility": 10,
    "ceiling": 5000,
    "temp": 12.2,
    "dewpoint": 7.2,
    "altimeter": 29.83,
    "conditions": "",
    "observationTime": "2026-05-13T08:00:00.000Z"
  },
  "LHR": {
    "raw": "METAR EGLL 130750Z COR AUTO 27015KT 9999 BKN031 BKN039 BKN048 12/04 Q1004 NOSIG",
    "icao": "EGLL",
    "flightCategory": "VFR",
    "windDir": 270,
    "windSpeed": 15,
    "windGust": null,
    "visibility": 6,
    "ceiling": 3100,
    "temp": 12,
    "dewpoint": 4,
    "altimeter": 29.65,
    "conditions": "",
    "observationTime": "2026-05-13T08:00:00.000Z"
  }
}