{
  "SYD": {
    "raw": "METAR YSSY 121400Z AUTO 27006KT 9999 // SCT011 16/15 Q1031",
    "icao": "YSSY",
    "flightCategory": "VFR",
    "windDir": 270,
    "windSpeed": 6,
    "windGust": null,
    "visibility": 6,
    "ceiling": null,
    "temp": 16,
    "dewpoint": 15,
    "altimeter": 30.45,
    "conditions": "",
    "observationTime": "2026-06-12T14:00:00.000Z"
  },
  "LHR": {
    "raw": "METAR EGLL 121350Z AUTO 28017KT 9999 BKN028 OVC033 21/14 Q1020",
    "icao": "EGLL",
    "flightCategory": "MVFR",
    "windDir": 280,
    "windSpeed": 17,
    "windGust": null,
    "visibility": 6,
    "ceiling": 2800,
    "temp": 21,
    "dewpoint": 14,
    "altimeter": 30.12,
    "conditions": "",
    "observationTime": "2026-06-12T14:00:00.000Z"
  },
  "LAS": {
    "raw": "METAR KLAS 121356Z 29005KT 10SM FEW200 SCT250 29/02 A2986 RMK AO2 SLP079 T02890022",
    "icao": "KLAS",
    "flightCategory": "VFR",
    "windDir": 290,
    "windSpeed": 5,
    "windGust": null,
    "visibility": 10,
    "ceiling": null,
    "temp": 28.9,
    "dewpoint": 2.2,
    "altimeter": 29.86,
    "conditions": "",
    "observationTime": "2026-06-12T14:00:00.000Z"
  },
  "LAX": {
    "raw": "METAR KLAX 121353Z 00000KT 6SM BR SCT006 OVC011 19/17 A2989 RMK AO2 SLP120 T01890167",
    "icao": "KLAX",
    "flightCategory": "MVFR",
    "windDir": 0,
    "windSpeed": 0,
    "windGust": null,
    "visibility": 6,
    "ceiling": 1100,
    "temp": 18.9,
    "dewpoint": 16.7,
    "altimeter": 29.89,
    "conditions": "BR",
    "observationTime": "2026-06-12T14:00:00.000Z"
  },
  "ORD": {
    "raw": "METAR KORD 121351Z 27009KT 10SM CLR 20/13 A2991 RMK AO2 SLP126 T02000128",
    "icao": "KORD",
    "flightCategory": "VFR",
    "windDir": 270,
    "windSpeed": 9,
    "windGust": null,
    "visibility": 10,
    "ceiling": null,
    "temp": 20,
    "dewpoint": 12.8,
    "altimeter": 29.91,
    "conditions": "",
    "observationTime": "2026-06-12T14:00:00.000Z"
  }
}