{
  "ORD": {
    "raw": "METAR KORD 041351Z 17003KT 2 1/2SM BR BKN004 BKN008 OVC050 11/11 A2976 RMK AO2 SLP081 T01110106 $",
    "icao": "KORD",
    "flightCategory": "LIFR",
    "windDir": 170,
    "windSpeed": 3,
    "windGust": null,
    "visibility": 2.5,
    "ceiling": 400,
    "temp": 11.1,
    "dewpoint": 10.6,
    "altimeter": 29.76,
    "conditions": "BR",
    "observationTime": "2026-04-04T14:00:00.000Z"
  },
  "SYD": {
    "raw": "METAR YSSY 041400Z AUTO 10009KT 9999 // FEW014 SCT049 OVC057 17/16 Q1025",
    "icao": "YSSY",
    "flightCategory": "VFR",
    "windDir": 100,
    "windSpeed": 9,
    "windGust": null,
    "visibility": 6,
    "ceiling": 5700,
    "temp": 17,
    "dewpoint": 16,
    "altimeter": 30.27,
    "conditions": "",
    "observationTime": "2026-04-04T14:00:00.000Z"
  },
  "LHR": {
    "raw": "METAR EGLL 041350Z COR AUTO 21016KT 9999 BKN030 14/07 Q1014 NOSIG",
    "icao": "EGLL",
    "flightCategory": "MVFR",
    "windDir": 210,
    "windSpeed": 16,
    "windGust": null,
    "visibility": 6,
    "ceiling": 3000,
    "temp": 14,
    "dewpoint": 7,
    "altimeter": 29.94,
    "conditions": "",
    "observationTime": "2026-04-04T14:00:00.000Z"
  },
  "LAS": {
    "raw": "METAR KLAS 041356Z 05005KT 10SM FEW250 14/M09 A3026 RMK AO2 SLP235 T01391094",
    "icao": "KLAS",
    "flightCategory": "VFR",
    "windDir": 50,
    "windSpeed": 5,
    "windGust": null,
    "visibility": 10,
    "ceiling": null,
    "temp": 13.9,
    "dewpoint": -9.4,
    "altimeter": 30.26,
    "conditions": "",
    "observationTime": "2026-04-04T14:00:00.000Z"
  },
  "LAX": {
    "raw": "METAR KLAX 041353Z 13004KT 10SM FEW190 FEW240 SCT290 15/09 A3001 RMK AO2 SLP159 T01500089 $",
    "icao": "KLAX",
    "flightCategory": "VFR",
    "windDir": 130,
    "windSpeed": 4,
    "windGust": null,
    "visibility": 10,
    "ceiling": null,
    "temp": 15,
    "dewpoint": 8.9,
    "altimeter": 30.01,
    "conditions": "",
    "observationTime": "2026-04-04T14:00:00.000Z"
  }
}