{
  "SYD": {
    "raw": "METAR YSSY 211730Z AUTO 32007KT 9999 // NCD 10/09 Q1024",
    "icao": "YSSY",
    "flightCategory": "VFR",
    "windDir": 320,
    "windSpeed": 7,
    "windGust": null,
    "visibility": 6,
    "ceiling": null,
    "temp": 10,
    "dewpoint": 9,
    "altimeter": 30.24,
    "conditions": "",
    "observationTime": "2026-07-21T17:30:00.000Z"
  },
  "LAS": {
    "raw": "METAR KLAS 211756Z 11007KT 10SM FEW100 BKN140 BKN190 37/11 A2994 RMK AO2 SLP103 T03670111 10367 20317 51003 $",
    "icao": "KLAS",
    "flightCategory": "VFR",
    "windDir": 110,
    "windSpeed": 7,
    "windGust": null,
    "visibility": 10,
    "ceiling": 14000,
    "temp": 36.7,
    "dewpoint": 11.1,
    "altimeter": 29.94,
    "conditions": "",
    "observationTime": "2026-07-21T18:00:00.000Z"
  },
  "LAX": {
    "raw": "METAR KLAX 211753Z 26008KT 10SM FEW019 FEW160 SCT180 SCT250 27/19 A2999 RMK AO2 SLP154 T02720189 10272 20211 50004",
    "icao": "KLAX",
    "flightCategory": "VFR",
    "windDir": 260,
    "windSpeed": 8,
    "windGust": null,
    "visibility": 10,
    "ceiling": null,
    "temp": 27.2,
    "dewpoint": 18.9,
    "altimeter": 29.99,
    "conditions": "",
    "observationTime": "2026-07-21T18:00:00.000Z"
  },
  "ORD": {
    "raw": "METAR KORD 211751Z 32015G23KT 10SM FEW043 SCT055 29/17 A2972 RMK AO2 SLP059 T02890167 10294 20233 51012",
    "icao": "KORD",
    "flightCategory": "VFR",
    "windDir": 320,
    "windSpeed": 15,
    "windGust": 23,
    "visibility": 10,
    "ceiling": null,
    "temp": 28.9,
    "dewpoint": 16.7,
    "altimeter": 29.72,
    "conditions": "",
    "observationTime": "2026-07-21T18:00:00.000Z"
  },
  "LHR": {
    "raw": "METAR EGLL 211720Z AUTO 05005KT 360V100 9999 NCD 23/12 Q1027",
    "icao": "EGLL",
    "flightCategory": "VFR",
    "windDir": 50,
    "windSpeed": 5,
    "windGust": null,
    "visibility": 6,
    "ceiling": null,
    "temp": 23,
    "dewpoint": 12,
    "altimeter": 30.33,
    "conditions": "",
    "observationTime": "2026-07-21T17:20:00.000Z"
  }
}