{
  "SYD": {
    "raw": "METAR YSSY 181630Z AUTO 31007KT 9999 // NCD 12/07 Q1020",
    "icao": "YSSY",
    "flightCategory": "VFR",
    "windDir": 310,
    "windSpeed": 7,
    "windGust": null,
    "visibility": 6,
    "ceiling": null,
    "temp": 12,
    "dewpoint": 7,
    "altimeter": 30.12,
    "conditions": "",
    "observationTime": "2026-04-18T16:30:00.000Z"
  },
  "LAS": {
    "raw": "METAR KLAS 181656Z 05009KT 10SM SCT250 18/M18 A3014 RMK AO2 SLP194 T01831183",
    "icao": "KLAS",
    "flightCategory": "VFR",
    "windDir": 50,
    "windSpeed": 9,
    "windGust": null,
    "visibility": 10,
    "ceiling": null,
    "temp": 18.3,
    "dewpoint": -18.3,
    "altimeter": 30.14,
    "conditions": "",
    "observationTime": "2026-04-18T17:00:00.000Z"
  },
  "LAX": {
    "raw": "METAR KLAX 181653Z 00000KT 10SM FEW250 SCT300 21/11 A2998 RMK AO2 SLP149 T02060106 $",
    "icao": "KLAX",
    "flightCategory": "VFR",
    "windDir": 0,
    "windSpeed": 0,
    "windGust": null,
    "visibility": 10,
    "ceiling": null,
    "temp": 20.6,
    "dewpoint": 10.6,
    "altimeter": 29.98,
    "conditions": "",
    "observationTime": "2026-04-18T17:00:00.000Z"
  },
  "ORD": {
    "raw": "METAR KORD 181651Z 28015G22KT 10SM SCT029 SCT250 08/M01 A2987 RMK AO2 SLP116 T00781006 $",
    "icao": "KORD",
    "flightCategory": "VFR",
    "windDir": 280,
    "windSpeed": 15,
    "windGust": 22,
    "visibility": 10,
    "ceiling": null,
    "temp": 7.8,
    "dewpoint": -0.6,
    "altimeter": 29.87,
    "conditions": "",
    "observationTime": "2026-04-18T17:00:00.000Z"
  },
  "LHR": {
    "raw": "METAR EGLL 181620Z COR AUTO 30011KT 270V360 9999 NCD 17/02 Q1022 NOSIG",
    "icao": "EGLL",
    "flightCategory": "VFR",
    "windDir": 300,
    "windSpeed": 11,
    "windGust": null,
    "visibility": 6,
    "ceiling": null,
    "temp": 17,
    "dewpoint": 2,
    "altimeter": 30.18,
    "conditions": "",
    "observationTime": "2026-04-18T16:20:00.000Z"
  }
}