{
  "LAX": {
    "raw": "METAR KLAX 040053Z 26009KT 10SM FEW240 BKN280 20/13 A2996 RMK AO2 SLP144 T02000133 $",
    "icao": "KLAX",
    "flightCategory": "VFR",
    "windDir": 260,
    "windSpeed": 9,
    "windGust": null,
    "visibility": 10,
    "ceiling": 28000,
    "temp": 20,
    "dewpoint": 13.3,
    "altimeter": 29.96,
    "conditions": "",
    "observationTime": "2026-04-04T01:00:00.000Z"
  },
  "ORD": {
    "raw": "SPECI KORD 040004Z 06015G24KT 10SM OVC023 06/02 A3009 RMK AO2 T00560022",
    "icao": "KORD",
    "flightCategory": "MVFR",
    "windDir": 60,
    "windSpeed": 15,
    "windGust": 24,
    "visibility": 10,
    "ceiling": 2300,
    "temp": 5.6,
    "dewpoint": 2.2,
    "altimeter": 30.09,
    "conditions": "",
    "observationTime": "2026-04-04T00:04:00.000Z"
  },
  "LHR": {
    "raw": "METAR EGLL 040020Z COR AUTO 25010KT 9999 NCD 10/06 Q1016 NOSIG",
    "icao": "EGLL",
    "flightCategory": "VFR",
    "windDir": 250,
    "windSpeed": 10,
    "windGust": null,
    "visibility": 6,
    "ceiling": null,
    "temp": 10,
    "dewpoint": 6,
    "altimeter": 30,
    "conditions": "",
    "observationTime": "2026-04-04T00:20:00.000Z"
  },
  "SYD": {
    "raw": "METAR YSSY 040000Z 16013KT 9999 -DZ VCSH FEW013 SCT022 BKN030 19/17 Q1026",
    "icao": "YSSY",
    "flightCategory": "MVFR",
    "windDir": 160,
    "windSpeed": 13,
    "windGust": null,
    "visibility": 6,
    "ceiling": 3000,
    "temp": 19,
    "dewpoint": 17,
    "altimeter": 30.3,
    "conditions": "-DZ VCSH",
    "observationTime": "2026-04-04T00:00:00.000Z"
  }
}