{
  "SYD": {
    "raw": "METAR YSSY 191430Z AUTO 36009KT 9999 // NCD 16/09 Q1015",
    "icao": "YSSY",
    "flightCategory": "VFR",
    "windDir": 360,
    "windSpeed": 9,
    "windGust": null,
    "visibility": 6,
    "ceiling": null,
    "temp": 16,
    "dewpoint": 9,
    "altimeter": 29.97,
    "conditions": "",
    "observationTime": "2026-06-19T14:30:00.000Z"
  },
  "ORD": {
    "raw": "METAR KORD 191451Z 32012G18KT 10SM FEW046 21/09 A2996 RMK AO2 SLP143 T02110089 51010 $",
    "icao": "KORD",
    "flightCategory": "VFR",
    "windDir": 320,
    "windSpeed": 12,
    "windGust": 18,
    "visibility": 10,
    "ceiling": null,
    "temp": 21.1,
    "dewpoint": 8.9,
    "altimeter": 29.96,
    "conditions": "",
    "observationTime": "2026-06-19T15:00:00.000Z"
  },
  "LHR": {
    "raw": "METAR EGLL 191450Z AUTO 23013KT 190V260 9999 NCD 29/15 Q1012",
    "icao": "EGLL",
    "flightCategory": "VFR",
    "windDir": 230,
    "windSpeed": 13,
    "windGust": null,
    "visibility": 6,
    "ceiling": null,
    "temp": 29,
    "dewpoint": 15,
    "altimeter": 29.88,
    "conditions": "",
    "observationTime": "2026-06-19T15:00:00.000Z"
  }
}