{
  "SYD": {
    "raw": "METAR YSSY 251700Z AUTO 35005KT 9999 // NCD 16/14 Q1025",
    "icao": "YSSY",
    "flightCategory": "VFR",
    "windDir": 350,
    "windSpeed": 5,
    "windGust": null,
    "visibility": 6,
    "ceiling": null,
    "temp": 16,
    "dewpoint": 14,
    "altimeter": 30.27,
    "conditions": "",
    "observationTime": "2026-04-25T17:00:00.000Z"
  },
  "LHR": {
    "raw": "METAR EGLL 251650Z COR AUTO 30004KT 250V360 9999 NCD 21/M07 Q1020 NOSIG",
    "icao": "EGLL",
    "flightCategory": "VFR",
    "windDir": 300,
    "windSpeed": 4,
    "windGust": null,
    "visibility": 6,
    "ceiling": null,
    "temp": 21,
    "dewpoint": -7,
    "altimeter": 30.12,
    "conditions": "",
    "observationTime": "2026-04-25T17:00:00.000Z"
  },
  "LAS": {
    "raw": "METAR KLAS 251656Z 29007KT 10SM BKN200 21/M02 A2973 RMK AO2 SLP047 T02111017",
    "icao": "KLAS",
    "flightCategory": "VFR",
    "windDir": 290,
    "windSpeed": 7,
    "windGust": null,
    "visibility": 10,
    "ceiling": 20000,
    "temp": 21.1,
    "dewpoint": -1.7,
    "altimeter": 29.73,
    "conditions": "",
    "observationTime": "2026-04-25T17:00:00.000Z"
  },
  "LAX": {
    "raw": "METAR KLAX 251653Z COR VRB05KT 10SM SCT023 SCT030 BKN050 BKN200 17/09 A2992 RMK AO2 SLP129 T01670094",
    "icao": "KLAX",
    "flightCategory": "VFR",
    "windDir": null,
    "windSpeed": 5,
    "windGust": null,
    "visibility": 10,
    "ceiling": 5000,
    "temp": 16.7,
    "dewpoint": 9.4,
    "altimeter": 29.92,
    "conditions": "",
    "observationTime": "2026-04-25T17:00:00.000Z"
  },
  "ORD": {
    "raw": "METAR KORD 251651Z 03011G17KT 10SM FEW020 FEW250 13/06 A2998 RMK AO2 SLP153 T01280061",
    "icao": "KORD",
    "flightCategory": "VFR",
    "windDir": 30,
    "windSpeed": 11,
    "windGust": 17,
    "visibility": 10,
    "ceiling": null,
    "temp": 12.8,
    "dewpoint": 6.1,
    "altimeter": 29.98,
    "conditions": "",
    "observationTime": "2026-04-25T17:00:00.000Z"
  }
}