{
  "LHR": {
    "raw": "METAR EGLL 261950Z COR AUTO 10008KT 9999 NCD 13/06 Q1024 NOSIG",
    "icao": "EGLL",
    "flightCategory": "VFR",
    "windDir": 100,
    "windSpeed": 8,
    "windGust": null,
    "visibility": 6,
    "ceiling": null,
    "temp": 13,
    "dewpoint": 6,
    "altimeter": 30.24,
    "conditions": "",
    "observationTime": "2026-04-26T20:00:00.000Z"
  },
  "LAS": {
    "raw": "METAR KLAS 261956Z 30008G20KT 10SM SCT065 OVC100 18/01 A2977 RMK AO2 PK WND 21028/1901 SLP069 T01830006",
    "icao": "KLAS",
    "flightCategory": "VFR",
    "windDir": 300,
    "windSpeed": 8,
    "windGust": 20,
    "visibility": 10,
    "ceiling": 10000,
    "temp": 18.3,
    "dewpoint": 0.6,
    "altimeter": 29.77,
    "conditions": "",
    "observationTime": "2026-04-26T20:00:00.000Z"
  },
  "SYD": {
    "raw": "METAR YSSY 262000Z 33006KT 9999 FEW027 13/10 Q1023",
    "icao": "YSSY",
    "flightCategory": "VFR",
    "windDir": 330,
    "windSpeed": 6,
    "windGust": null,
    "visibility": 6,
    "ceiling": null,
    "temp": 13,
    "dewpoint": 10,
    "altimeter": 30.21,
    "conditions": "",
    "observationTime": "2026-04-26T20:00:00.000Z"
  },
  "LAX": {
    "raw": "METAR KLAX 261953Z 24019G26KT 10SM SCT024 SCT055 18/09 A2996 RMK AO2 PK WND 27027/1910 SLP144 T01780089 $",
    "icao": "KLAX",
    "flightCategory": "VFR",
    "windDir": 240,
    "windSpeed": 19,
    "windGust": 26,
    "visibility": 10,
    "ceiling": null,
    "temp": 17.8,
    "dewpoint": 8.9,
    "altimeter": 29.96,
    "conditions": "",
    "observationTime": "2026-04-26T20:00:00.000Z"
  },
  "ORD": {
    "raw": "METAR KORD 261951Z 08010KT 10SM FEW019 BKN250 14/08 A3004 RMK AO2 SLP173 T01440078 $",
    "icao": "KORD",
    "flightCategory": "VFR",
    "windDir": 80,
    "windSpeed": 10,
    "windGust": null,
    "visibility": 10,
    "ceiling": 25000,
    "temp": 14.4,
    "dewpoint": 7.8,
    "altimeter": 30.04,
    "conditions": "",
    "observationTime": "2026-04-26T20:00:00.000Z"
  }
}