{
  "SYD": {
    "raw": "METAR YSSY 141700Z AUTO 17015KT 9999 // OVC063 17/13 Q1032",
    "icao": "YSSY",
    "flightCategory": "VFR",
    "windDir": 170,
    "windSpeed": 15,
    "windGust": null,
    "visibility": 6,
    "ceiling": 6300,
    "temp": 17,
    "dewpoint": 13,
    "altimeter": 30.47,
    "conditions": "",
    "observationTime": "2026-06-14T17:00:00.000Z"
  },
  "LHR": {
    "raw": "METAR EGLL 141650Z AUTO 36004KT 280V070 9999 NCD 20/09 Q1019",
    "icao": "EGLL",
    "flightCategory": "VFR",
    "windDir": 360,
    "windSpeed": 4,
    "windGust": null,
    "visibility": 6,
    "ceiling": null,
    "temp": 20,
    "dewpoint": 9,
    "altimeter": 30.09,
    "conditions": "",
    "observationTime": "2026-06-14T17:00:00.000Z"
  },
  "LAS": {
    "raw": "METAR KLAS 141656Z 18013G21KT 10SM FEW120 FEW170 36/04 A2991 RMK AO2 SLP096 T03610044",
    "icao": "KLAS",
    "flightCategory": "VFR",
    "windDir": 180,
    "windSpeed": 13,
    "windGust": 21,
    "visibility": 10,
    "ceiling": null,
    "temp": 36.1,
    "dewpoint": 4.4,
    "altimeter": 29.91,
    "conditions": "",
    "observationTime": "2026-06-14T17:00:00.000Z"
  },
  "LAX": {
    "raw": "METAR KLAX 141653Z 25010KT 10SM FEW005 FEW009 21/16 A2998 RMK AO2 SLP152 T02060156 $",
    "icao": "KLAX",
    "flightCategory": "VFR",
    "windDir": 250,
    "windSpeed": 10,
    "windGust": null,
    "visibility": 10,
    "ceiling": null,
    "temp": 20.6,
    "dewpoint": 15.6,
    "altimeter": 29.98,
    "conditions": "",
    "observationTime": "2026-06-14T17:00:00.000Z"
  },
  "ORD": {
    "raw": "METAR KORD 141651Z 30012G18KT 10SM SCT027 BKN050 BKN090 BKN150 20/13 A2986 RMK AO2 SLP108 T02000128 $",
    "icao": "KORD",
    "flightCategory": "VFR",
    "windDir": 300,
    "windSpeed": 12,
    "windGust": 18,
    "visibility": 10,
    "ceiling": 5000,
    "temp": 20,
    "dewpoint": 12.8,
    "altimeter": 29.86,
    "conditions": "",
    "observationTime": "2026-06-14T17:00:00.000Z"
  }
}