{
  "LHR": {
    "raw": "METAR EGLL 271150Z AUTO VRB08KT 9999 NCD 29/16 Q1016",
    "icao": "EGLL",
    "flightCategory": "VFR",
    "windDir": null,
    "windSpeed": 8,
    "windGust": null,
    "visibility": 6,
    "ceiling": null,
    "temp": 29,
    "dewpoint": 16,
    "altimeter": 30,
    "conditions": "",
    "observationTime": "2026-06-27T12:00:00.000Z"
  },
  "SYD": {
    "raw": "METAR YSSY 271130Z AUTO 23008KT 9999 // SCT080 BKN099 13/12 Q1030",
    "icao": "YSSY",
    "flightCategory": "VFR",
    "windDir": 230,
    "windSpeed": 8,
    "windGust": null,
    "visibility": 6,
    "ceiling": 9900,
    "temp": 13,
    "dewpoint": 12,
    "altimeter": 30.42,
    "conditions": "",
    "observationTime": "2026-06-27T11:30:00.000Z"
  },
  "LAS": {
    "raw": "METAR KLAS 271156Z 23021G33KT 10SM CLR 26/04 A2970 RMK AO2 PK WND 22045/1109 SLP026 T02560039 10300 20256 53002",
    "icao": "KLAS",
    "flightCategory": "VFR",
    "windDir": 230,
    "windSpeed": 21,
    "windGust": 33,
    "visibility": 10,
    "ceiling": null,
    "temp": 25.6,
    "dewpoint": 3.9,
    "altimeter": 29.7,
    "conditions": "",
    "observationTime": "2026-06-27T12:00:00.000Z"
  },
  "LAX": {
    "raw": "METAR KLAX 271153Z 10003KT 10SM OVC022 18/14 A2992 RMK AO2 SLP131 T01780139 10183 20172 58004",
    "icao": "KLAX",
    "flightCategory": "MVFR",
    "windDir": 100,
    "windSpeed": 3,
    "windGust": null,
    "visibility": 10,
    "ceiling": 2200,
    "temp": 17.8,
    "dewpoint": 13.9,
    "altimeter": 29.92,
    "conditions": "",
    "observationTime": "2026-06-27T12:00:00.000Z"
  },
  "ORD": {
    "raw": "METAR KORD 271151Z 03006KT 10SM OVC060 18/16 A3000 RMK AO2 SLP158 70003 T01780156 10183 20161 53004 $",
    "icao": "KORD",
    "flightCategory": "VFR",
    "windDir": 30,
    "windSpeed": 6,
    "windGust": null,
    "visibility": 10,
    "ceiling": 6000,
    "temp": 17.8,
    "dewpoint": 15.6,
    "altimeter": 30,
    "conditions": "",
    "observationTime": "2026-06-27T12:00:00.000Z"
  }
}