{
  "SYD": {
    "raw": "METAR YSSY 301230Z AUTO 03004KT 9999 // BKN039 BKN045 OVC052 20/13 Q1025",
    "icao": "YSSY",
    "flightCategory": "VFR",
    "windDir": 30,
    "windSpeed": 4,
    "windGust": null,
    "visibility": 6,
    "ceiling": 3900,
    "temp": 20,
    "dewpoint": 13,
    "altimeter": 30.27,
    "conditions": "",
    "observationTime": "2026-03-30T12:30:00.000Z"
  },
  "LAS": {
    "raw": "METAR KLAS 301256Z 20015G26KT 10SM FEW200 22/M05 A2989 RMK AO2 PK WND 19030/1239 SLP100 T02221050 $",
    "icao": "KLAS",
    "flightCategory": "VFR",
    "windDir": 200,
    "windSpeed": 15,
    "windGust": 26,
    "visibility": 10,
    "ceiling": null,
    "temp": 22.2,
    "dewpoint": -5,
    "altimeter": 29.89,
    "conditions": "",
    "observationTime": "2026-03-30T13:00:00.000Z"
  },
  "LAX": {
    "raw": "SPECI KLAX 301246Z 00000KT 1/8SM R25L/1800V2600FT FG VV001 14/14 A2993 RMK AO2 VIS N 1/4 T01390139 $",
    "icao": "KLAX",
    "flightCategory": "LIFR",
    "windDir": 0,
    "windSpeed": 0,
    "windGust": null,
    "visibility": 0.13,
    "ceiling": 100,
    "temp": 13.9,
    "dewpoint": 13.9,
    "altimeter": 29.93,
    "conditions": "FG",
    "observationTime": "2026-03-30T12:46:00.000Z"
  },
  "ORD": {
    "raw": "METAR KORD 301251Z 21008KT 10SM OVC080 13/05 A2993 RMK AO2 SLP135 T01330050",
    "icao": "KORD",
    "flightCategory": "VFR",
    "windDir": 210,
    "windSpeed": 8,
    "windGust": null,
    "visibility": 10,
    "ceiling": 8000,
    "temp": 13.3,
    "dewpoint": 5,
    "altimeter": 29.93,
    "conditions": "",
    "observationTime": "2026-03-30T13:00:00.000Z"
  },
  "LHR": {
    "raw": "METAR EGLL 301220Z COR AUTO 33013G24KT 290V360 9999 FEW041 11/02 Q1024 NOSIG",
    "icao": "EGLL",
    "flightCategory": "VFR",
    "windDir": 330,
    "windSpeed": 13,
    "windGust": 24,
    "visibility": 6,
    "ceiling": null,
    "temp": 11,
    "dewpoint": 2,
    "altimeter": 30.24,
    "conditions": "",
    "observationTime": "2026-03-30T12:20:00.000Z"
  }
}