{
  "SYD": {
    "raw": "METAR YSSY 032130Z 32010KT CAVOK 10/05 Q1025",
    "icao": "YSSY",
    "flightCategory": "VFR",
    "windDir": 320,
    "windSpeed": 10,
    "windGust": null,
    "visibility": 6,
    "ceiling": null,
    "temp": 10,
    "dewpoint": 5,
    "altimeter": 30.27,
    "conditions": "",
    "observationTime": "2026-07-03T21:30:00.000Z"
  },
  "LAS": {
    "raw": "METAR KLAS 032156Z VRB04KT 10SM CLR 37/M03 A2991 RMK AO2 SLP097 T03721028",
    "icao": "KLAS",
    "flightCategory": "VFR",
    "windDir": null,
    "windSpeed": 4,
    "windGust": null,
    "visibility": 10,
    "ceiling": null,
    "temp": 37.2,
    "dewpoint": -2.8,
    "altimeter": 29.91,
    "conditions": "",
    "observationTime": "2026-07-03T22:00:00.000Z"
  },
  "LAX": {
    "raw": "METAR KLAX 032153Z 26012KT 10SM FEW026 FEW150 SCT250 22/15 A2999 RMK AO2 SLP155 T02220150 $",
    "icao": "KLAX",
    "flightCategory": "VFR",
    "windDir": 260,
    "windSpeed": 12,
    "windGust": null,
    "visibility": 10,
    "ceiling": null,
    "temp": 22.2,
    "dewpoint": 15,
    "altimeter": 29.99,
    "conditions": "",
    "observationTime": "2026-07-03T22:00:00.000Z"
  },
  "ORD": {
    "raw": "METAR KORD 032151Z 20004KT 10SM FEW045 SCT200 BKN300 26/21 A3000 RMK AO2 SLP154 CB DSNT S MOV E T02610211",
    "icao": "KORD",
    "flightCategory": "VFR",
    "windDir": 200,
    "windSpeed": 4,
    "windGust": null,
    "visibility": 10,
    "ceiling": 30000,
    "temp": 26.1,
    "dewpoint": 21.1,
    "altimeter": 30,
    "conditions": "",
    "observationTime": "2026-07-03T22:00:00.000Z"
  },
  "LHR": {
    "raw": "METAR EGLL 032120Z AUTO 25012KT 9999 NCD 22/11 Q1027",
    "icao": "EGLL",
    "flightCategory": "VFR",
    "windDir": 250,
    "windSpeed": 12,
    "windGust": null,
    "visibility": 6,
    "ceiling": null,
    "temp": 22,
    "dewpoint": 11,
    "altimeter": 30.33,
    "conditions": "",
    "observationTime": "2026-07-03T21:20:00.000Z"
  }
}