{
  "LHR": {
    "raw": "METAR EGLL 211450Z AUTO 06006KT 340V090 9999 NCD 31/15 Q1024",
    "icao": "EGLL",
    "flightCategory": "VFR",
    "windDir": 60,
    "windSpeed": 6,
    "windGust": null,
    "visibility": 6,
    "ceiling": null,
    "temp": 31,
    "dewpoint": 15,
    "altimeter": 30.24,
    "conditions": "",
    "observationTime": "2026-06-21T15:00:00.000Z"
  },
  "SYD": {
    "raw": "METAR YSSY 211430Z AUTO 30007KT 9999 // NCD 11/07 Q1027",
    "icao": "YSSY",
    "flightCategory": "VFR",
    "windDir": 300,
    "windSpeed": 7,
    "windGust": null,
    "visibility": 6,
    "ceiling": null,
    "temp": 11,
    "dewpoint": 7,
    "altimeter": 30.33,
    "conditions": "",
    "observationTime": "2026-06-21T14:30:00.000Z"
  },
  "LAS": {
    "raw": "METAR KLAS 211456Z 26005KT 10SM FEW210 29/M03 A2983 RMK A02 SLP070 T02891028 51015",
    "icao": "KLAS",
    "flightCategory": "VFR",
    "windDir": 260,
    "windSpeed": 5,
    "windGust": null,
    "visibility": 10,
    "ceiling": null,
    "temp": 28.9,
    "dewpoint": -2.8,
    "altimeter": 29.83,
    "conditions": "",
    "observationTime": "2026-06-21T15:00:00.000Z"
  },
  "LAX": {
    "raw": "SPECI KLAX 211440Z 16006G19KT 10SM FEW008 BKN015 17/14 A2992 RMK AO2 T01720139",
    "icao": "KLAX",
    "flightCategory": "MVFR",
    "windDir": 160,
    "windSpeed": 6,
    "windGust": 19,
    "visibility": 10,
    "ceiling": 1500,
    "temp": 17.2,
    "dewpoint": 13.9,
    "altimeter": 29.92,
    "conditions": "",
    "observationTime": "2026-06-21T14:40:00.000Z"
  },
  "ORD": {
    "raw": "METAR KORD 211451Z 15005KT 10SM SCT120 BKN250 21/13 A2993 RMK AO2 SLP130 T02110133 55004 $",
    "icao": "KORD",
    "flightCategory": "VFR",
    "windDir": 150,
    "windSpeed": 5,
    "windGust": null,
    "visibility": 10,
    "ceiling": 25000,
    "temp": 21.1,
    "dewpoint": 13.3,
    "altimeter": 29.93,
    "conditions": "",
    "observationTime": "2026-06-21T15:00:00.000Z"
  }
}