{
  "SYD": {
    "raw": "METAR YSSY 201330Z AUTO 25013KT 9999 // NCD 13/07 Q1023",
    "icao": "YSSY",
    "flightCategory": "VFR",
    "windDir": 250,
    "windSpeed": 13,
    "windGust": null,
    "visibility": 6,
    "ceiling": null,
    "temp": 13,
    "dewpoint": 7,
    "altimeter": 30.21,
    "conditions": "",
    "observationTime": "2026-05-20T13:30:00.000Z"
  },
  "LAS": {
    "raw": "METAR KLAS 201356Z 23003KT 10SM CLR 19/M09 A3002 RMK AO2 SLP146 T01891089",
    "icao": "KLAS",
    "flightCategory": "VFR",
    "windDir": 230,
    "windSpeed": 3,
    "windGust": null,
    "visibility": 10,
    "ceiling": null,
    "temp": 18.9,
    "dewpoint": -8.9,
    "altimeter": 30.02,
    "conditions": "",
    "observationTime": "2026-05-20T14:00:00.000Z"
  },
  "LAX": {
    "raw": "METAR KLAX 201353Z 09007KT 10SM FEW050 18/13 A2992 RMK AO2 SLP131 FU FEW050 T01780128 $",
    "icao": "KLAX",
    "flightCategory": "VFR",
    "windDir": 90,
    "windSpeed": 7,
    "windGust": null,
    "visibility": 10,
    "ceiling": null,
    "temp": 17.8,
    "dewpoint": 12.8,
    "altimeter": 29.92,
    "conditions": "",
    "observationTime": "2026-05-20T14:00:00.000Z"
  },
  "ORD": {
    "raw": "METAR KORD 201351Z 05011KT 10SM FEW028 FEW040 BKN250 13/06 A3024 RMK AO2 SLP240 T01330061",
    "icao": "KORD",
    "flightCategory": "VFR",
    "windDir": 50,
    "windSpeed": 11,
    "windGust": null,
    "visibility": 10,
    "ceiling": 25000,
    "temp": 13.3,
    "dewpoint": 6.1,
    "altimeter": 30.24,
    "conditions": "",
    "observationTime": "2026-05-20T14:00:00.000Z"
  },
  "LHR": {
    "raw": "METAR EGLL 201350Z AUTO 25018KT 9999 SCT041 BKN048 19/09 Q1019",
    "icao": "EGLL",
    "flightCategory": "VFR",
    "windDir": 250,
    "windSpeed": 18,
    "windGust": null,
    "visibility": 6,
    "ceiling": 4800,
    "temp": 19,
    "dewpoint": 9,
    "altimeter": 30.09,
    "conditions": "",
    "observationTime": "2026-05-20T14:00:00.000Z"
  }
}