{
  "LHR": {
    "raw": "METAR EGLL 021350Z COR AUTO VRB03KT 9999 NCD 11/02 Q1021 NOSIG",
    "icao": "EGLL",
    "flightCategory": "VFR",
    "windDir": null,
    "windSpeed": 3,
    "windGust": null,
    "visibility": 6,
    "ceiling": null,
    "temp": 11,
    "dewpoint": 2,
    "altimeter": 30.15,
    "conditions": "",
    "observationTime": "2026-04-02T14:00:00.000Z"
  },
  "ORD": {
    "raw": "METAR KORD 021351Z 08006KT 3SM -RA BR OVC004 05/04 A2985 RMK AO2 RAB04 SLP113 P0002 T00500039",
    "icao": "KORD",
    "flightCategory": "LIFR",
    "windDir": 80,
    "windSpeed": 6,
    "windGust": null,
    "visibility": 3,
    "ceiling": 400,
    "temp": 5,
    "dewpoint": 3.9,
    "altimeter": 29.85,
    "conditions": "-RA BR",
    "observationTime": "2026-04-02T14:00:00.000Z"
  },
  "SYD": {
    "raw": "METAR YSSY 021400Z AUTO 31005KT 9999 // NCD 21/18 Q1021",
    "icao": "YSSY",
    "flightCategory": "VFR",
    "windDir": 310,
    "windSpeed": 5,
    "windGust": null,
    "visibility": 6,
    "ceiling": null,
    "temp": 21,
    "dewpoint": 18,
    "altimeter": 30.15,
    "conditions": "",
    "observationTime": "2026-04-02T14:00:00.000Z"
  },
  "LAS": {
    "raw": "METAR KLAS 021356Z 21016G22KT 10SM FEW070 BKN200 14/04 A2976 RMK AO2 PK WND 21027/1341 SLP061 T01440044",
    "icao": "KLAS",
    "flightCategory": "VFR",
    "windDir": 210,
    "windSpeed": 16,
    "windGust": 22,
    "visibility": 10,
    "ceiling": 20000,
    "temp": 14.4,
    "dewpoint": 4.4,
    "altimeter": 29.76,
    "conditions": "",
    "observationTime": "2026-04-02T14:00:00.000Z"
  },
  "LAX": {
    "raw": "METAR KLAX 021353Z COR 26007KT 10SM FEW011 FEW020 SCT045 BKN250 16/12 A2996 RMK AO2 SLP142 T01560117 $",
    "icao": "KLAX",
    "flightCategory": "VFR",
    "windDir": 260,
    "windSpeed": 7,
    "windGust": null,
    "visibility": 10,
    "ceiling": 25000,
    "temp": 15.6,
    "dewpoint": 11.7,
    "altimeter": 29.96,
    "conditions": "",
    "observationTime": "2026-04-02T14:00:00.000Z"
  }
}