{
  "LHR": {
    "raw": "METAR EGLL 042150Z COR AUTO 22021G34KT 9999 OVC027 12/06 Q1006 NOSIG",
    "icao": "EGLL",
    "flightCategory": "MVFR",
    "windDir": 220,
    "windSpeed": 21,
    "windGust": 34,
    "visibility": 6,
    "ceiling": 2700,
    "temp": 12,
    "dewpoint": 6,
    "altimeter": 29.71,
    "conditions": "",
    "observationTime": "2026-04-04T22:00:00.000Z"
  },
  "ORD": {
    "raw": "METAR KORD 042151Z 27019G33KT 10SM OVC022 07/02 A2989 RMK AO2 PK WND 26033/2151 SLP126 T00720017 $",
    "icao": "KORD",
    "flightCategory": "MVFR",
    "windDir": 270,
    "windSpeed": 19,
    "windGust": 33,
    "visibility": 10,
    "ceiling": 2200,
    "temp": 7.2,
    "dewpoint": 1.7,
    "altimeter": 29.89,
    "conditions": "",
    "observationTime": "2026-04-04T22:00:00.000Z"
  },
  "SYD": {
    "raw": "METAR YSSY 042130Z 10005KT 9999 VCSH FEW012 SCT030 BKN045 18/14 Q1026",
    "icao": "YSSY",
    "flightCategory": "VFR",
    "windDir": 100,
    "windSpeed": 5,
    "windGust": null,
    "visibility": 6,
    "ceiling": 4500,
    "temp": 18,
    "dewpoint": 14,
    "altimeter": 30.3,
    "conditions": "VCSH",
    "observationTime": "2026-04-04T21:30:00.000Z"
  },
  "LAS": {
    "raw": "METAR KLAS 042156Z 02013G18KT 10SM BKN250 25/M12 A3014 RMK AO2 WSHFT 2052 SLP191 T02501122",
    "icao": "KLAS",
    "flightCategory": "VFR",
    "windDir": 20,
    "windSpeed": 13,
    "windGust": 18,
    "visibility": 10,
    "ceiling": 25000,
    "temp": 25,
    "dewpoint": -12.2,
    "altimeter": 30.14,
    "conditions": "",
    "observationTime": "2026-04-04T22:00:00.000Z"
  },
  "LAX": {
    "raw": "METAR KLAX 042153Z 24013KT 10SM FEW250 SCT300 26/07 A2997 RMK AO2 SLP148 T02610072 $",
    "icao": "KLAX",
    "flightCategory": "VFR",
    "windDir": 240,
    "windSpeed": 13,
    "windGust": null,
    "visibility": 10,
    "ceiling": null,
    "temp": 26.1,
    "dewpoint": 7.2,
    "altimeter": 29.97,
    "conditions": "",
    "observationTime": "2026-04-04T22:00:00.000Z"
  }
}