{
  "LAX": {
    "raw": "METAR KLAX 181553Z 24005KT 10SM FEW009 SCT019 OVC026 18/14 A2998 RMK AO2 SLP149 T01830139 $",
    "icao": "KLAX",
    "flightCategory": "MVFR",
    "windDir": 240,
    "windSpeed": 5,
    "windGust": null,
    "visibility": 10,
    "ceiling": 2600,
    "temp": 18.3,
    "dewpoint": 13.9,
    "altimeter": 29.98,
    "conditions": "",
    "observationTime": "2026-06-18T16:00:00.000Z"
  },
  "ORD": {
    "raw": "METAR KORD 181551Z 31011KT 10SM FEW031 BKN043 19/12 A2971 RMK AO2 SLP057 T01890117",
    "icao": "KORD",
    "flightCategory": "VFR",
    "windDir": 310,
    "windSpeed": 11,
    "windGust": null,
    "visibility": 10,
    "ceiling": 4300,
    "temp": 18.9,
    "dewpoint": 11.7,
    "altimeter": 29.71,
    "conditions": "",
    "observationTime": "2026-06-18T16:00:00.000Z"
  },
  "LHR": {
    "raw": "METAR EGLL 181520Z AUTO 20012KT 170V240 9999 NCD 24/17 Q1015",
    "icao": "EGLL",
    "flightCategory": "VFR",
    "windDir": 200,
    "windSpeed": 12,
    "windGust": null,
    "visibility": 6,
    "ceiling": null,
    "temp": 24,
    "dewpoint": 17,
    "altimeter": 29.97,
    "conditions": "",
    "observationTime": "2026-06-18T15:20:00.000Z"
  },
  "SYD": {
    "raw": "METAR YSSY 181500Z AUTO 35011KT 9999 // NCD 18/11 Q1014",
    "icao": "YSSY",
    "flightCategory": "VFR",
    "windDir": 350,
    "windSpeed": 11,
    "windGust": null,
    "visibility": 6,
    "ceiling": null,
    "temp": 18,
    "dewpoint": 11,
    "altimeter": 29.94,
    "conditions": "",
    "observationTime": "2026-06-18T15:00:00.000Z"
  }
}