{
  "SYD": {
    "raw": "METAR YSSY 291530Z AUTO 34007KT 9999 // FEW037 OVC094 18/17 Q1030",
    "icao": "YSSY",
    "flightCategory": "VFR",
    "windDir": 340,
    "windSpeed": 7,
    "windGust": null,
    "visibility": 6,
    "ceiling": 9400,
    "temp": 18,
    "dewpoint": 17,
    "altimeter": 30.42,
    "conditions": "",
    "observationTime": "2026-04-29T15:30:00.000Z"
  },
  "LAS": {
    "raw": "METAR KLAS 291556Z VRB03KT 10SM FEW120 19/M03 A3005 RMK AO2 SLP160 T01941028",
    "icao": "KLAS",
    "flightCategory": "VFR",
    "windDir": null,
    "windSpeed": 3,
    "windGust": null,
    "visibility": 10,
    "ceiling": null,
    "temp": 19.4,
    "dewpoint": -2.8,
    "altimeter": 30.05,
    "conditions": "",
    "observationTime": "2026-04-29T16:00:00.000Z"
  },
  "LAX": {
    "raw": "METAR KLAX 291553Z VRB03KT 10SM FEW010 17/10 A3004 RMK AO2 SLP171 T01720100",
    "icao": "KLAX",
    "flightCategory": "VFR",
    "windDir": null,
    "windSpeed": 3,
    "windGust": null,
    "visibility": 10,
    "ceiling": null,
    "temp": 17.2,
    "dewpoint": 10,
    "altimeter": 30.04,
    "conditions": "",
    "observationTime": "2026-04-29T16:00:00.000Z"
  },
  "ORD": {
    "raw": "SPECI KORD 291521Z 35006KT 10SM SCT025 BKN033 OVC049 12/06 A2991 RMK AO2 T01170061",
    "icao": "KORD",
    "flightCategory": "VFR",
    "windDir": 350,
    "windSpeed": 6,
    "windGust": null,
    "visibility": 10,
    "ceiling": 3300,
    "temp": 11.7,
    "dewpoint": 6.1,
    "altimeter": 29.91,
    "conditions": "",
    "observationTime": "2026-04-29T15:21:00.000Z"
  },
  "LHR": {
    "raw": "METAR EGLL 291520Z COR AUTO 07018KT 040V100 9999 NCD 17/01 Q1023 NOSIG",
    "icao": "EGLL",
    "flightCategory": "VFR",
    "windDir": 70,
    "windSpeed": 18,
    "windGust": null,
    "visibility": 6,
    "ceiling": null,
    "temp": 17,
    "dewpoint": 1,
    "altimeter": 30.21,
    "conditions": "",
    "observationTime": "2026-04-29T15:20:00.000Z"
  }
}