{
  "LHR": {
    "raw": "METAR EGLL 290450Z AUTO 28007KT 9999 NCD 17/12 Q1021",
    "icao": "EGLL",
    "flightCategory": "VFR",
    "windDir": 280,
    "windSpeed": 7,
    "windGust": null,
    "visibility": 6,
    "ceiling": null,
    "temp": 17,
    "dewpoint": 12,
    "altimeter": 30.15,
    "conditions": "",
    "observationTime": "2026-05-29T05:00:00.000Z"
  },
  "SYD": {
    "raw": "METAR YSSY 290430Z 19019KT 9999 FEW022 19/15 Q1002",
    "icao": "YSSY",
    "flightCategory": "VFR",
    "windDir": 190,
    "windSpeed": 19,
    "windGust": null,
    "visibility": 6,
    "ceiling": null,
    "temp": 19,
    "dewpoint": 15,
    "altimeter": 29.59,
    "conditions": "",
    "observationTime": "2026-05-29T04:30:00.000Z"
  },
  "LAS": {
    "raw": "METAR KLAS 290456Z 20006KT 10SM FEW180 FEW250 23/M09 A2978 RMK AO2 SLP067 T02331089",
    "icao": "KLAS",
    "flightCategory": "VFR",
    "windDir": 200,
    "windSpeed": 6,
    "windGust": null,
    "visibility": 10,
    "ceiling": null,
    "temp": 23.3,
    "dewpoint": -8.9,
    "altimeter": 29.78,
    "conditions": "",
    "observationTime": "2026-05-29T05:00:00.000Z"
  },
  "LAX": {
    "raw": "METAR KLAX 290453Z 26010KT 10SM BKN065 BKN110 16/11 A2997 RMK AO2 SLP147 T01610111 $",
    "icao": "KLAX",
    "flightCategory": "VFR",
    "windDir": 260,
    "windSpeed": 10,
    "windGust": null,
    "visibility": 10,
    "ceiling": 6500,
    "temp": 16.1,
    "dewpoint": 11.1,
    "altimeter": 29.97,
    "conditions": "",
    "observationTime": "2026-05-29T05:00:00.000Z"
  },
  "ORD": {
    "raw": "METAR KORD 290451Z 02006KT 10SM SCT300 12/06 A3014 RMK AO2 SLP206 T01220061",
    "icao": "KORD",
    "flightCategory": "VFR",
    "windDir": 20,
    "windSpeed": 6,
    "windGust": null,
    "visibility": 10,
    "ceiling": null,
    "temp": 12.2,
    "dewpoint": 6.1,
    "altimeter": 30.14,
    "conditions": "",
    "observationTime": "2026-05-29T05:00:00.000Z"
  }
}