{
  "SYD": {
    "raw": "METAR YSSY 072100Z 33007KT 9999 FEW040 10/08 Q1032",
    "icao": "YSSY",
    "flightCategory": "VFR",
    "windDir": 330,
    "windSpeed": 7,
    "windGust": null,
    "visibility": 6,
    "ceiling": null,
    "temp": 10,
    "dewpoint": 8,
    "altimeter": 30.47,
    "conditions": "",
    "observationTime": "2026-06-07T21:00:00.000Z"
  },
  "LHR": {
    "raw": "METAR EGLL 072050Z AUTO 21011KT 190V250 9999 NCD 15/10 Q1019",
    "icao": "EGLL",
    "flightCategory": "VFR",
    "windDir": 210,
    "windSpeed": 11,
    "windGust": null,
    "visibility": 6,
    "ceiling": null,
    "temp": 15,
    "dewpoint": 10,
    "altimeter": 30.09,
    "conditions": "",
    "observationTime": "2026-06-07T21:00:00.000Z"
  },
  "LAS": {
    "raw": "METAR KLAS 072056Z 20014G29KT 10SM FEW150 35/M11 A2969 RMK AO2 PK WND 22030/2006 SLP022 T03501111 58009 $",
    "icao": "KLAS",
    "flightCategory": "VFR",
    "windDir": 200,
    "windSpeed": 14,
    "windGust": 29,
    "visibility": 10,
    "ceiling": null,
    "temp": 35,
    "dewpoint": -11.1,
    "altimeter": 29.69,
    "conditions": "",
    "observationTime": "2026-06-07T21:00:00.000Z"
  },
  "LAX": {
    "raw": "METAR KLAX 072053Z 25011G18KT 10SM FEW011 22/13 A2983 RMK AO2 SLP100 T02170133 58005 $",
    "icao": "KLAX",
    "flightCategory": "VFR",
    "windDir": 250,
    "windSpeed": 11,
    "windGust": 18,
    "visibility": 10,
    "ceiling": null,
    "temp": 21.7,
    "dewpoint": 13.3,
    "altimeter": 29.83,
    "conditions": "",
    "observationTime": "2026-06-07T21:00:00.000Z"
  },
  "ORD": {
    "raw": "METAR KORD 072051Z 05010KT 10SM SCT070 BKN140 BKN240 OVC300 25/14 A2994 RMK AO2 SLP135 T02500139 55008 $",
    "icao": "KORD",
    "flightCategory": "VFR",
    "windDir": 50,
    "windSpeed": 10,
    "windGust": null,
    "visibility": 10,
    "ceiling": 14000,
    "temp": 25,
    "dewpoint": 13.9,
    "altimeter": 29.94,
    "conditions": "",
    "observationTime": "2026-06-07T21:00:00.000Z"
  }
}