{
  "ORD": {
    "raw": "METAR KORD 211951Z 31014G26KT 10SM SCT050 BKN250 30/16 A2973 RMK AO2 PK WND 33026/1926 SLP061 T03000156 $",
    "icao": "KORD",
    "flightCategory": "VFR",
    "windDir": 310,
    "windSpeed": 14,
    "windGust": 26,
    "visibility": 10,
    "ceiling": 25000,
    "temp": 30,
    "dewpoint": 15.6,
    "altimeter": 29.73,
    "conditions": "",
    "observationTime": "2026-07-21T20:00:00.000Z"
  },
  "SYD": {
    "raw": "METAR YSSY 211900Z AUTO 33008KT 9999 // NCD 10/09 Q1023",
    "icao": "YSSY",
    "flightCategory": "VFR",
    "windDir": 330,
    "windSpeed": 8,
    "windGust": null,
    "visibility": 6,
    "ceiling": null,
    "temp": 10,
    "dewpoint": 9,
    "altimeter": 30.21,
    "conditions": "",
    "observationTime": "2026-07-21T19:00:00.000Z"
  },
  "LHR": {
    "raw": "METAR EGLL 211920Z AUTO 08004KT 9999 NCD 22/12 Q1027",
    "icao": "EGLL",
    "flightCategory": "VFR",
    "windDir": 80,
    "windSpeed": 4,
    "windGust": null,
    "visibility": 6,
    "ceiling": null,
    "temp": 22,
    "dewpoint": 12,
    "altimeter": 30.33,
    "conditions": "",
    "observationTime": "2026-07-21T19:20:00.000Z"
  },
  "LAS": {
    "raw": "METAR KLAS 211856Z 10014G23KT 10SM FEW100 SCT120 BKN190 38/13 A2994 RMK AO2 SLP103 TCU DSNT N T03780133 $",
    "icao": "KLAS",
    "flightCategory": "VFR",
    "windDir": 100,
    "windSpeed": 14,
    "windGust": 23,
    "visibility": 10,
    "ceiling": 19000,
    "temp": 37.8,
    "dewpoint": 13.3,
    "altimeter": 29.94,
    "conditions": "",
    "observationTime": "2026-07-21T19:00:00.000Z"
  }
}