{
  "LAS": {
    "raw": "METAR KLAS 280856Z 20003KT 10SM CLR 14/M01 A2999 RMK AO2 SLP145 T01441006 51011",
    "icao": "KLAS",
    "flightCategory": "VFR",
    "windDir": 200,
    "windSpeed": 3,
    "windGust": null,
    "visibility": 10,
    "ceiling": null,
    "temp": 14.4,
    "dewpoint": -0.6,
    "altimeter": 29.99,
    "conditions": "",
    "observationTime": "2026-04-28T09:00:00.000Z"
  },
  "LAX": {
    "raw": "METAR KLAX 280853Z 01003KT 10SM CLR 14/07 A3005 RMK AO2 SLP173 T01440067 58003 $",
    "icao": "KLAX",
    "flightCategory": "VFR",
    "windDir": 10,
    "windSpeed": 3,
    "windGust": null,
    "visibility": 10,
    "ceiling": null,
    "temp": 14.4,
    "dewpoint": 6.7,
    "altimeter": 30.05,
    "conditions": "",
    "observationTime": "2026-04-28T09:00:00.000Z"
  },
  "ORD": {
    "raw": "METAR KORD 280851Z 27017G33KT 10SM OVC020 12/08 A2971 RMK AO2 PK WND 29033/0851 SLP058 T01220083 53019 $",
    "icao": "KORD",
    "flightCategory": "MVFR",
    "windDir": 270,
    "windSpeed": 17,
    "windGust": 33,
    "visibility": 10,
    "ceiling": 2000,
    "temp": 12.2,
    "dewpoint": 8.3,
    "altimeter": 29.71,
    "conditions": "",
    "observationTime": "2026-04-28T09:00:00.000Z"
  },
  "LHR": {
    "raw": "METAR EGLL 280820Z AUTO 05010KT 350V080 9999 BKN015 OVC020 11/07 Q1025 TEMPO BKN014",
    "icao": "EGLL",
    "flightCategory": "MVFR",
    "windDir": 50,
    "windSpeed": 10,
    "windGust": null,
    "visibility": 6,
    "ceiling": 1500,
    "temp": 11,
    "dewpoint": 7,
    "altimeter": 30.27,
    "conditions": "",
    "observationTime": "2026-04-28T08:20:00.000Z"
  },
  "SYD": {
    "raw": "METAR YSSY 280830Z AUTO 05009KT 9999 // NCD 21/14 Q1025",
    "icao": "YSSY",
    "flightCategory": "VFR",
    "windDir": 50,
    "windSpeed": 9,
    "windGust": null,
    "visibility": 6,
    "ceiling": null,
    "temp": 21,
    "dewpoint": 14,
    "altimeter": 30.27,
    "conditions": "",
    "observationTime": "2026-04-28T08:30:00.000Z"
  }
}