{
  "SYD": {
    "raw": "SPECI YSSY 262200Z 29006KT 8000 BKN005 17/17 Q1019",
    "icao": "YSSY",
    "flightCategory": "IFR",
    "windDir": 290,
    "windSpeed": 6,
    "windGust": null,
    "visibility": 4.97,
    "ceiling": 500,
    "temp": 17,
    "dewpoint": 17,
    "altimeter": 30.09,
    "conditions": "",
    "observationTime": "2026-05-26T22:00:00.000Z"
  },
  "LHR": {
    "raw": "METAR EGLL 262150Z AUTO VRB04KT 9999 NCD 25/11 Q1025",
    "icao": "EGLL",
    "flightCategory": "VFR",
    "windDir": null,
    "windSpeed": 4,
    "windGust": null,
    "visibility": 6,
    "ceiling": null,
    "temp": 25,
    "dewpoint": 11,
    "altimeter": 30.27,
    "conditions": "",
    "observationTime": "2026-05-26T22:00:00.000Z"
  },
  "LAS": {
    "raw": "METAR KLAS 262156Z 23018G32KT 10SM FEW180 BKN250 32/M04 A2953 RMK AO2 PK WND 20038/2127 SLP973 ACSL NW T03221044",
    "icao": "KLAS",
    "flightCategory": "VFR",
    "windDir": 230,
    "windSpeed": 18,
    "windGust": 32,
    "visibility": 10,
    "ceiling": 25000,
    "temp": 32.2,
    "dewpoint": -4.4,
    "altimeter": 29.53,
    "conditions": "",
    "observationTime": "2026-05-26T22:00:00.000Z"
  },
  "LAX": {
    "raw": "METAR KLAX 262153Z 26013KT 10SM FEW025 BKN043 19/11 A2983 RMK AO2 SLP101 T01940111 $",
    "icao": "KLAX",
    "flightCategory": "VFR",
    "windDir": 260,
    "windSpeed": 13,
    "windGust": null,
    "visibility": 10,
    "ceiling": 4300,
    "temp": 19.4,
    "dewpoint": 11.1,
    "altimeter": 29.83,
    "conditions": "",
    "observationTime": "2026-05-26T22:00:00.000Z"
  },
  "ORD": {
    "raw": "METAR KORD 262151Z 14005KT 10SM FEW200 BKN250 28/09 A2997 RMK AO2 SLP145 T02830089",
    "icao": "KORD",
    "flightCategory": "VFR",
    "windDir": 140,
    "windSpeed": 5,
    "windGust": null,
    "visibility": 10,
    "ceiling": 25000,
    "temp": 28.3,
    "dewpoint": 8.9,
    "altimeter": 29.97,
    "conditions": "",
    "observationTime": "2026-05-26T22:00:00.000Z"
  }
}