{
  "SYD": {
    "raw": "METAR YSSY 251130Z AUTO 01005KT 9999 // NCD 21/15 Q1027",
    "icao": "YSSY",
    "flightCategory": "VFR",
    "windDir": 10,
    "windSpeed": 5,
    "windGust": null,
    "visibility": 6,
    "ceiling": null,
    "temp": 21,
    "dewpoint": 15,
    "altimeter": 30.33,
    "conditions": "",
    "observationTime": "2026-04-25T11:30:00.000Z"
  },
  "LAS": {
    "raw": "METAR KLAS 251156Z 21009KT 10SM SCT200 17/00 A2968 RMK AO2 SLP031 T01720000 10228 20172 56006",
    "icao": "KLAS",
    "flightCategory": "VFR",
    "windDir": 210,
    "windSpeed": 9,
    "windGust": null,
    "visibility": 10,
    "ceiling": null,
    "temp": 17.2,
    "dewpoint": 0,
    "altimeter": 29.68,
    "conditions": "",
    "observationTime": "2026-04-25T12:00:00.000Z"
  },
  "LAX": {
    "raw": "METAR KLAX 251153Z 18004KT 10SM SCT014 BKN021 BKN030 16/12 A2988 RMK AO2 SLP118 T01560122 10156 20150 53004 $",
    "icao": "KLAX",
    "flightCategory": "MVFR",
    "windDir": 180,
    "windSpeed": 4,
    "windGust": null,
    "visibility": 10,
    "ceiling": 2100,
    "temp": 15.6,
    "dewpoint": 12.2,
    "altimeter": 29.88,
    "conditions": "",
    "observationTime": "2026-04-25T12:00:00.000Z"
  },
  "ORD": {
    "raw": "METAR KORD 251151Z 02012KT 10SM -DZ OVC009 08/06 A2997 RMK AO2 DZB44 SLP147 P0000 60000 T00830061 10089 20072 51018",
    "icao": "KORD",
    "flightCategory": "IFR",
    "windDir": 20,
    "windSpeed": 12,
    "windGust": null,
    "visibility": 10,
    "ceiling": 900,
    "temp": 8.3,
    "dewpoint": 6.1,
    "altimeter": 29.97,
    "conditions": "-DZ",
    "observationTime": "2026-04-25T12:00:00.000Z"
  },
  "LHR": {
    "raw": "METAR EGLL 251120Z COR AUTO VRB04KT 9999 NCD 17/M01 Q1022 NOSIG",
    "icao": "EGLL",
    "flightCategory": "VFR",
    "windDir": null,
    "windSpeed": 4,
    "windGust": null,
    "visibility": 6,
    "ceiling": null,
    "temp": 17,
    "dewpoint": -1,
    "altimeter": 30.18,
    "conditions": "",
    "observationTime": "2026-04-25T11:20:00.000Z"
  }
}