{
  "SYD": {
    "raw": "METAR YSSY 080800Z AUTO 13007KT 9999 // NCD 23/19 Q1015",
    "icao": "YSSY",
    "flightCategory": "VFR",
    "windDir": 130,
    "windSpeed": 7,
    "windGust": null,
    "visibility": 6,
    "ceiling": null,
    "temp": 23,
    "dewpoint": 19,
    "altimeter": 29.97,
    "conditions": "",
    "observationTime": "2026-04-08T08:00:00.000Z"
  },
  "LHR": {
    "raw": "METAR EGLL 080750Z COR AUTO VRB02KT 9999 NCD 13/07 Q1023 NOSIG",
    "icao": "EGLL",
    "flightCategory": "VFR",
    "windDir": null,
    "windSpeed": 2,
    "windGust": null,
    "visibility": 6,
    "ceiling": null,
    "temp": 13,
    "dewpoint": 7,
    "altimeter": 30.21,
    "conditions": "",
    "observationTime": "2026-04-08T08:00:00.000Z"
  },
  "LAS": {
    "raw": "METAR KLAS 080756Z 20007KT 10SM CLR 23/M07 A2986 RMK AO2 SLP089 T02331072 403220167",
    "icao": "KLAS",
    "flightCategory": "VFR",
    "windDir": 200,
    "windSpeed": 7,
    "windGust": null,
    "visibility": 10,
    "ceiling": null,
    "temp": 23.3,
    "dewpoint": -7.2,
    "altimeter": 29.86,
    "conditions": "",
    "observationTime": "2026-04-08T08:00:00.000Z"
  },
  "LAX": {
    "raw": "METAR KLAX 080753Z 00000KT 10SM FEW007 FEW015 17/14 A2993 RMK AO2 SLP132 T01670139 402110144 $",
    "icao": "KLAX",
    "flightCategory": "VFR",
    "windDir": 0,
    "windSpeed": 0,
    "windGust": null,
    "visibility": 10,
    "ceiling": null,
    "temp": 16.7,
    "dewpoint": 13.9,
    "altimeter": 29.93,
    "conditions": "",
    "observationTime": "2026-04-08T08:00:00.000Z"
  },
  "ORD": {
    "raw": "METAR KORD 080751Z 15008KT 10SM SCT060 BKN080 OVC120 03/M06 A3031 RMK AO2 SLP270 T00331061 $",
    "icao": "KORD",
    "flightCategory": "VFR",
    "windDir": 150,
    "windSpeed": 8,
    "windGust": null,
    "visibility": 10,
    "ceiling": 8000,
    "temp": 3.3,
    "dewpoint": -6.1,
    "altimeter": 30.31,
    "conditions": "",
    "observationTime": "2026-04-08T08:00:00.000Z"
  }
}