{
  "LAX": {
    "raw": "METAR KLAX 191453Z 00000KT 10SM BKN014 BKN220 22/18 A2997 RMK AO2 SLP145 T02170178 57001 $",
    "icao": "KLAX",
    "flightCategory": "MVFR",
    "windDir": 0,
    "windSpeed": 0,
    "windGust": null,
    "visibility": 10,
    "ceiling": 1400,
    "temp": 21.7,
    "dewpoint": 17.8,
    "altimeter": 29.97,
    "conditions": "",
    "observationTime": "2026-07-19T15:00:00.000Z"
  },
  "SYD": {
    "raw": "METAR YSSY 191430Z AUTO 34003KT 9999 // OVC042 15/11 Q1033",
    "icao": "YSSY",
    "flightCategory": "VFR",
    "windDir": 340,
    "windSpeed": 3,
    "windGust": null,
    "visibility": 6,
    "ceiling": 4200,
    "temp": 15,
    "dewpoint": 11,
    "altimeter": 30.5,
    "conditions": "",
    "observationTime": "2026-07-19T14:30:00.000Z"
  },
  "LAS": {
    "raw": "METAR KLAS 191456Z 33004KT 10SM SCT130 BKN180 BKN250 33/12 A2995 RMK AO2 SLP110 T03280117 51013 $",
    "icao": "KLAS",
    "flightCategory": "VFR",
    "windDir": 330,
    "windSpeed": 4,
    "windGust": null,
    "visibility": 10,
    "ceiling": 18000,
    "temp": 32.8,
    "dewpoint": 11.7,
    "altimeter": 29.95,
    "conditions": "",
    "observationTime": "2026-07-19T15:00:00.000Z"
  },
  "ORD": {
    "raw": "METAR KORD 191451Z 04009KT 7SM FEW024 FEW250 24/16 A3005 RMK AO2 SLP172 T02390161 51007 $",
    "icao": "KORD",
    "flightCategory": "VFR",
    "windDir": 40,
    "windSpeed": 9,
    "windGust": null,
    "visibility": 7,
    "ceiling": null,
    "temp": 23.9,
    "dewpoint": 16.1,
    "altimeter": 30.05,
    "conditions": "",
    "observationTime": "2026-07-19T15:00:00.000Z"
  },
  "LHR": {
    "raw": "METAR EGLL 191420Z AUTO 02009KT 350V050 9999 NCD 23/04 Q1024",
    "icao": "EGLL",
    "flightCategory": "VFR",
    "windDir": 20,
    "windSpeed": 9,
    "windGust": null,
    "visibility": 6,
    "ceiling": null,
    "temp": 23,
    "dewpoint": 4,
    "altimeter": 30.24,
    "conditions": "",
    "observationTime": "2026-07-19T14:20:00.000Z"
  }
}