{
  "SYD": {
    "raw": "METAR YSSY 251930Z 33006KT 9999 FEW030 15/13 Q1026",
    "icao": "YSSY",
    "flightCategory": "VFR",
    "windDir": 330,
    "windSpeed": 6,
    "windGust": null,
    "visibility": 6,
    "ceiling": null,
    "temp": 15,
    "dewpoint": 13,
    "altimeter": 30.3,
    "conditions": "",
    "observationTime": "2026-04-25T19:30:00.000Z"
  },
  "LAS": {
    "raw": "METAR KLAS 251956Z 20015G25KT 10SM BKN200 24/M02 A2969 RMK AO2 PK WND 19027/1900 SLP036 T02391017",
    "icao": "KLAS",
    "flightCategory": "VFR",
    "windDir": 200,
    "windSpeed": 15,
    "windGust": 25,
    "visibility": 10,
    "ceiling": 20000,
    "temp": 23.9,
    "dewpoint": -1.7,
    "altimeter": 29.69,
    "conditions": "",
    "observationTime": "2026-04-25T20:00:00.000Z"
  },
  "LAX": {
    "raw": "METAR KLAX 251953Z 20013G23KT 10SM FEW022 BKN040 BKN150 BKN200 18/10 A2990 RMK AO2 PK WND 18030/1937 SLP124 T01830100",
    "icao": "KLAX",
    "flightCategory": "VFR",
    "windDir": 200,
    "windSpeed": 13,
    "windGust": 23,
    "visibility": 10,
    "ceiling": 4000,
    "temp": 18.3,
    "dewpoint": 10,
    "altimeter": 29.9,
    "conditions": "",
    "observationTime": "2026-04-25T20:00:00.000Z"
  },
  "ORD": {
    "raw": "METAR KORD 251951Z 05011G19KT 10SM FEW008 FEW030 FEW250 12/06 A2999 RMK AO2 SLP158 T01170061",
    "icao": "KORD",
    "flightCategory": "VFR",
    "windDir": 50,
    "windSpeed": 11,
    "windGust": 19,
    "visibility": 10,
    "ceiling": null,
    "temp": 11.7,
    "dewpoint": 6.1,
    "altimeter": 29.99,
    "conditions": "",
    "observationTime": "2026-04-25T20:00:00.000Z"
  },
  "LHR": {
    "raw": "METAR EGLL 251920Z COR AUTO 09004KT 060V130 9999 NCD 18/M04 Q1021 NOSIG",
    "icao": "EGLL",
    "flightCategory": "VFR",
    "windDir": 90,
    "windSpeed": 4,
    "windGust": null,
    "visibility": 6,
    "ceiling": null,
    "temp": 18,
    "dewpoint": -4,
    "altimeter": 30.15,
    "conditions": "",
    "observationTime": "2026-04-25T19:20:00.000Z"
  }
}