{
  "SYD": {
    "raw": "METAR YSSY 161930Z AUTO 32008KT 9999 // NCD 15/12 Q1027",
    "icao": "YSSY",
    "flightCategory": "VFR",
    "windDir": 320,
    "windSpeed": 8,
    "windGust": null,
    "visibility": 6,
    "ceiling": null,
    "temp": 15,
    "dewpoint": 12,
    "altimeter": 30.33,
    "conditions": "",
    "observationTime": "2026-06-16T19:30:00.000Z"
  },
  "LAS": {
    "raw": "METAR KLAS 161956Z 28010G14KT 10SM FEW130 BKN200 41/02 A2986 RMK AO2 SLP078 FU BKN200 T04060017",
    "icao": "KLAS",
    "flightCategory": "VFR",
    "windDir": 280,
    "windSpeed": 10,
    "windGust": 14,
    "visibility": 10,
    "ceiling": 20000,
    "temp": 40.6,
    "dewpoint": 1.7,
    "altimeter": 29.86,
    "conditions": "",
    "observationTime": "2026-06-16T20:00:00.000Z"
  },
  "LAX": {
    "raw": "METAR KLAX 161953Z 26009KT 10SM SCT012 20/14 A2998 RMK AO2 SLP152 SCT V BKN T02000144 $",
    "icao": "KLAX",
    "flightCategory": "VFR",
    "windDir": 260,
    "windSpeed": 9,
    "windGust": null,
    "visibility": 10,
    "ceiling": null,
    "temp": 20,
    "dewpoint": 14.4,
    "altimeter": 29.98,
    "conditions": "",
    "observationTime": "2026-06-16T20:00:00.000Z"
  },
  "ORD": {
    "raw": "METAR KORD 161951Z 24012G26KT 10SM BKN070 BKN085 BKN250 24/08 A2956 RMK AO2 PK WND 23038/1936 SLP005 TCU DSNT NE-SE T02390078",
    "icao": "KORD",
    "flightCategory": "VFR",
    "windDir": 240,
    "windSpeed": 12,
    "windGust": 26,
    "visibility": 10,
    "ceiling": 7000,
    "temp": 23.9,
    "dewpoint": 7.8,
    "altimeter": 29.56,
    "conditions": "",
    "observationTime": "2026-06-16T20:00:00.000Z"
  },
  "LHR": {
    "raw": "METAR EGLL 161920Z AUTO 24013KT 9999 NCD 21/13 Q1015",
    "icao": "EGLL",
    "flightCategory": "VFR",
    "windDir": 240,
    "windSpeed": 13,
    "windGust": null,
    "visibility": 6,
    "ceiling": null,
    "temp": 21,
    "dewpoint": 13,
    "altimeter": 29.97,
    "conditions": "",
    "observationTime": "2026-06-16T19:20:00.000Z"
  }
}