{
  "SYD": {
    "raw": "METAR YSSY 052100Z 32007KT 9999 FEW037 13/08 Q1020",
    "icao": "YSSY",
    "flightCategory": "VFR",
    "windDir": 320,
    "windSpeed": 7,
    "windGust": null,
    "visibility": 6,
    "ceiling": null,
    "temp": 13,
    "dewpoint": 8,
    "altimeter": 30.12,
    "conditions": "",
    "observationTime": "2026-05-05T21:00:00.000Z"
  },
  "LHR": {
    "raw": "METAR EGLL 052050Z COR AUTO 04008KT 360V060 9999 BKN045 13/06 Q1012 NOSIG",
    "icao": "EGLL",
    "flightCategory": "VFR",
    "windDir": 40,
    "windSpeed": 8,
    "windGust": null,
    "visibility": 6,
    "ceiling": 4500,
    "temp": 13,
    "dewpoint": 6,
    "altimeter": 29.88,
    "conditions": "",
    "observationTime": "2026-05-05T21:00:00.000Z"
  },
  "LAS": {
    "raw": "METAR KLAS 052056Z VRB03KT 10SM SCT120 BKN250 23/M03 A2982 RMK AO2 SLP084 T02281028 58007",
    "icao": "KLAS",
    "flightCategory": "VFR",
    "windDir": null,
    "windSpeed": 3,
    "windGust": null,
    "visibility": 10,
    "ceiling": 25000,
    "temp": 22.8,
    "dewpoint": -2.8,
    "altimeter": 29.82,
    "conditions": "",
    "observationTime": "2026-05-05T21:00:00.000Z"
  },
  "LAX": {
    "raw": "METAR KLAX 052053Z 25013G22KT 10SM FEW010 FEW060 SCT090 BKN180 18/09 A2998 RMK AO2 SLP151 T01780089 51001",
    "icao": "KLAX",
    "flightCategory": "VFR",
    "windDir": 250,
    "windSpeed": 13,
    "windGust": 22,
    "visibility": 10,
    "ceiling": 18000,
    "temp": 17.8,
    "dewpoint": 8.9,
    "altimeter": 29.98,
    "conditions": "",
    "observationTime": "2026-05-05T21:00:00.000Z"
  },
  "ORD": {
    "raw": "METAR KORD 052051Z 28010G17KT 10SM FEW095 BKN150 OVC250 13/M06 A2978 RMK AO2 SLP085 T01331056 58001",
    "icao": "KORD",
    "flightCategory": "VFR",
    "windDir": 280,
    "windSpeed": 10,
    "windGust": 17,
    "visibility": 10,
    "ceiling": 15000,
    "temp": 13.3,
    "dewpoint": -5.6,
    "altimeter": 29.78,
    "conditions": "",
    "observationTime": "2026-05-05T21:00:00.000Z"
  }
}