{
  "LAS": {
    "raw": "METAR KLAS 081756Z 21006KT 10SM FEW150 FEW200 SCT250 31/01 A2982 RMK AO2 SLP069 T03110006 10311 20244 51003",
    "icao": "KLAS",
    "flightCategory": "VFR",
    "windDir": 210,
    "windSpeed": 6,
    "windGust": null,
    "visibility": 10,
    "ceiling": null,
    "temp": 31.1,
    "dewpoint": 0.6,
    "altimeter": 29.82,
    "conditions": "",
    "observationTime": "2026-06-08T18:00:00.000Z"
  },
  "LAX": {
    "raw": "SPECI KLAX 081724Z 25008KT 10SM BKN030 BKN140 21/13 A2989 RMK AO2 T02060128 $",
    "icao": "KLAX",
    "flightCategory": "MVFR",
    "windDir": 250,
    "windSpeed": 8,
    "windGust": null,
    "visibility": 10,
    "ceiling": 3000,
    "temp": 20.6,
    "dewpoint": 12.8,
    "altimeter": 29.89,
    "conditions": "",
    "observationTime": "2026-06-08T17:24:00.000Z"
  },
  "ORD": {
    "raw": "METAR KORD 081751Z 15009KT 10SM FEW027 FEW041 BKN170 BKN250 29/22 A2995 RMK AO2 SLP137 60001 T02890217 10289 20206 56014",
    "icao": "KORD",
    "flightCategory": "VFR",
    "windDir": 150,
    "windSpeed": 9,
    "windGust": null,
    "visibility": 10,
    "ceiling": 17000,
    "temp": 28.9,
    "dewpoint": 21.7,
    "altimeter": 29.95,
    "conditions": "",
    "observationTime": "2026-06-08T18:00:00.000Z"
  },
  "LHR": {
    "raw": "METAR EGLL 081720Z AUTO 21007KT 170V270 9999 FEW035 17/11 Q1012",
    "icao": "EGLL",
    "flightCategory": "VFR",
    "windDir": 210,
    "windSpeed": 7,
    "windGust": null,
    "visibility": 6,
    "ceiling": null,
    "temp": 17,
    "dewpoint": 11,
    "altimeter": 29.88,
    "conditions": "",
    "observationTime": "2026-06-08T17:20:00.000Z"
  },
  "SYD": {
    "raw": "METAR YSSY 081730Z AUTO 34006KT 9999 // FEW036 SCT048 13/12 Q1030",
    "icao": "YSSY",
    "flightCategory": "VFR",
    "windDir": 340,
    "windSpeed": 6,
    "windGust": null,
    "visibility": 6,
    "ceiling": null,
    "temp": 13,
    "dewpoint": 12,
    "altimeter": 30.42,
    "conditions": "",
    "observationTime": "2026-06-08T17:30:00.000Z"
  }
}