{
  "SYD": {
    "raw": "METAR YSSY 240430Z 19016KT 9999 FEW045 17/09 Q1028",
    "icao": "YSSY",
    "flightCategory": "VFR",
    "windDir": 190,
    "windSpeed": 16,
    "windGust": null,
    "visibility": 6,
    "ceiling": null,
    "temp": 17,
    "dewpoint": 9,
    "altimeter": 30.36,
    "conditions": "",
    "observationTime": "2026-06-24T04:30:00.000Z"
  },
  "LAS": {
    "raw": "METAR KLAS 240456Z 22014G24KT 10SM SCT120 BKN170 37/08 A2994 RMK AO2 SLP104 T03720078",
    "icao": "KLAS",
    "flightCategory": "VFR",
    "windDir": 220,
    "windSpeed": 14,
    "windGust": 24,
    "visibility": 10,
    "ceiling": 17000,
    "temp": 37.2,
    "dewpoint": 7.8,
    "altimeter": 29.94,
    "conditions": "",
    "observationTime": "2026-06-24T05:00:00.000Z"
  },
  "LAX": {
    "raw": "METAR KLAX 240453Z 27008KT 10SM FEW010 SCT150 18/16 A3002 RMK AO2 SLP164 T01780156 $",
    "icao": "KLAX",
    "flightCategory": "VFR",
    "windDir": 270,
    "windSpeed": 8,
    "windGust": null,
    "visibility": 10,
    "ceiling": null,
    "temp": 17.8,
    "dewpoint": 15.6,
    "altimeter": 30.02,
    "conditions": "",
    "observationTime": "2026-06-24T05:00:00.000Z"
  },
  "ORD": {
    "raw": "METAR KORD 240451Z 14003KT 10SM CLR 17/07 A3015 RMK AO2 SLP207 T01720067 $",
    "icao": "KORD",
    "flightCategory": "VFR",
    "windDir": 140,
    "windSpeed": 3,
    "windGust": null,
    "visibility": 10,
    "ceiling": null,
    "temp": 17.2,
    "dewpoint": 6.7,
    "altimeter": 30.15,
    "conditions": "",
    "observationTime": "2026-06-24T05:00:00.000Z"
  },
  "LHR": {
    "raw": "METAR EGLL 240450Z AUTO 34002KT 9999 NCD 23/20 Q1017",
    "icao": "EGLL",
    "flightCategory": "VFR",
    "windDir": 340,
    "windSpeed": 2,
    "windGust": null,
    "visibility": 6,
    "ceiling": null,
    "temp": 23,
    "dewpoint": 20,
    "altimeter": 30.03,
    "conditions": "",
    "observationTime": "2026-06-24T05:00:00.000Z"
  }
}