{
  "SYD": {
    "raw": "SPECI YSSY 241231Z AUTO 18015G27KT 9999 // SCT034 BKN071 15/10 Q1031",
    "icao": "YSSY",
    "flightCategory": "VFR",
    "windDir": 180,
    "windSpeed": 15,
    "windGust": 27,
    "visibility": 6,
    "ceiling": 7100,
    "temp": 15,
    "dewpoint": 10,
    "altimeter": 30.45,
    "conditions": "",
    "observationTime": "2026-06-24T12:31:00.000Z"
  },
  "LAS": {
    "raw": "METAR KLAS 241256Z 23005KT 10SM -RA FEW045 FEW070 BKN090 OVC130 30/18 A2995 RMK AO2 RAB13 SLP109 P0001 T03000183 $",
    "icao": "KLAS",
    "flightCategory": "VFR",
    "windDir": 230,
    "windSpeed": 5,
    "windGust": null,
    "visibility": 10,
    "ceiling": 9000,
    "temp": 30,
    "dewpoint": 18.3,
    "altimeter": 29.95,
    "conditions": "-RA",
    "observationTime": "2026-06-24T13:00:00.000Z"
  },
  "LAX": {
    "raw": "METAR KLAX 241253Z 25003KT 5SM BR FEW004 BKN007 OVC010 17/15 A3001 RMK AO2 SLP158 T01670150 $",
    "icao": "KLAX",
    "flightCategory": "IFR",
    "windDir": 250,
    "windSpeed": 3,
    "windGust": null,
    "visibility": 5,
    "ceiling": 700,
    "temp": 16.7,
    "dewpoint": 15,
    "altimeter": 30.01,
    "conditions": "BR",
    "observationTime": "2026-06-24T13:00:00.000Z"
  },
  "ORD": {
    "raw": "METAR KORD 241251Z 04008KT 10SM FEW038 BKN046 BKN065 18/11 A3010 RMK AO2 SLP190 T01780111",
    "icao": "KORD",
    "flightCategory": "VFR",
    "windDir": 40,
    "windSpeed": 8,
    "windGust": null,
    "visibility": 10,
    "ceiling": 4600,
    "temp": 17.8,
    "dewpoint": 11.1,
    "altimeter": 30.1,
    "conditions": "",
    "observationTime": "2026-06-24T13:00:00.000Z"
  },
  "LHR": {
    "raw": "METAR EGLL 241250Z AUTO 01007KT 330V060 9999 NCD 33/20 Q1017",
    "icao": "EGLL",
    "flightCategory": "VFR",
    "windDir": 10,
    "windSpeed": 7,
    "windGust": null,
    "visibility": 6,
    "ceiling": null,
    "temp": 33,
    "dewpoint": 20,
    "altimeter": 30.03,
    "conditions": "",
    "observationTime": "2026-06-24T13:00:00.000Z"
  }
}