{
  "ORD": {
    "raw": "METAR KORD 260851Z 35003KT 10SM CLR 06/04 A3003 RMK AO2 SLP171 T00610039 53002",
    "icao": "KORD",
    "flightCategory": "VFR",
    "windDir": 350,
    "windSpeed": 3,
    "windGust": null,
    "visibility": 10,
    "ceiling": null,
    "temp": 6.1,
    "dewpoint": 3.9,
    "altimeter": 30.03,
    "conditions": "",
    "observationTime": "2026-04-26T09:00:00.000Z"
  },
  "SYD": {
    "raw": "METAR YSSY 260800Z AUTO 04009KT 9999 // NCD 21/11 Q1022",
    "icao": "YSSY",
    "flightCategory": "VFR",
    "windDir": 40,
    "windSpeed": 9,
    "windGust": null,
    "visibility": 6,
    "ceiling": null,
    "temp": 21,
    "dewpoint": 11,
    "altimeter": 30.18,
    "conditions": "",
    "observationTime": "2026-04-26T08:00:00.000Z"
  },
  "LHR": {
    "raw": "METAR EGLL 260820Z COR AUTO 09007KT 050V120 9999 NCD 13/07 Q1025 NOSIG",
    "icao": "EGLL",
    "flightCategory": "VFR",
    "windDir": 90,
    "windSpeed": 7,
    "windGust": null,
    "visibility": 6,
    "ceiling": null,
    "temp": 13,
    "dewpoint": 7,
    "altimeter": 30.27,
    "conditions": "",
    "observationTime": "2026-04-26T08:20:00.000Z"
  },
  "LAS": {
    "raw": "METAR KLAS 260756Z 21012G20KT 10SM FEW090 SCT150 BKN200 14/04 A2969 RMK AO2 SLP038 T01390039 402500139",
    "icao": "KLAS",
    "flightCategory": "VFR",
    "windDir": 210,
    "windSpeed": 12,
    "windGust": 20,
    "visibility": 10,
    "ceiling": 20000,
    "temp": 13.9,
    "dewpoint": 3.9,
    "altimeter": 29.69,
    "conditions": "",
    "observationTime": "2026-04-26T08:00:00.000Z"
  }
}