{
  "LHR": {
    "raw": "METAR EGLL 291750Z COR AUTO 07018G31KT 9999 NCD 15/M00 Q1022 NOSIG",
    "icao": "EGLL",
    "flightCategory": "VFR",
    "windDir": 70,
    "windSpeed": 18,
    "windGust": 31,
    "visibility": 6,
    "ceiling": null,
    "temp": 15,
    "dewpoint": 0,
    "altimeter": 30.18,
    "conditions": "",
    "observationTime": "2026-04-29T18:00:00.000Z"
  },
  "SYD": {
    "raw": "METAR YSSY 291800Z AUTO 23005KT 9999 // FEW038 SCT052 BKN075 18/16 Q1030",
    "icao": "YSSY",
    "flightCategory": "VFR",
    "windDir": 230,
    "windSpeed": 5,
    "windGust": null,
    "visibility": 6,
    "ceiling": 7500,
    "temp": 18,
    "dewpoint": 16,
    "altimeter": 30.42,
    "conditions": "",
    "observationTime": "2026-04-29T18:00:00.000Z"
  },
  "LAS": {
    "raw": "METAR KLAS 291756Z VRB05KT 10SM FEW120 22/M02 A3004 RMK AO2 SLP154 T02221017 10228 20150 58006",
    "icao": "KLAS",
    "flightCategory": "VFR",
    "windDir": null,
    "windSpeed": 5,
    "windGust": null,
    "visibility": 10,
    "ceiling": null,
    "temp": 22.2,
    "dewpoint": -1.7,
    "altimeter": 30.04,
    "conditions": "",
    "observationTime": "2026-04-29T18:00:00.000Z"
  },
  "LAX": {
    "raw": "METAR KLAX 291753Z 26007KT 10SM CLR 19/12 A3003 RMK AO2 SLP167 T01940117 10200 20122 58005",
    "icao": "KLAX",
    "flightCategory": "VFR",
    "windDir": 260,
    "windSpeed": 7,
    "windGust": null,
    "visibility": 10,
    "ceiling": null,
    "temp": 19.4,
    "dewpoint": 11.7,
    "altimeter": 30.03,
    "conditions": "",
    "observationTime": "2026-04-29T18:00:00.000Z"
  },
  "ORD": {
    "raw": "METAR KORD 291751Z 33014KT 10SM BKN020 OVC033 11/07 A2993 RMK AO2 RAB10E41 SLP135 P0000 60000 T01110072 10133 20100 53006",
    "icao": "KORD",
    "flightCategory": "MVFR",
    "windDir": 330,
    "windSpeed": 14,
    "windGust": null,
    "visibility": 10,
    "ceiling": 2000,
    "temp": 11.1,
    "dewpoint": 7.2,
    "altimeter": 29.93,
    "conditions": "",
    "observationTime": "2026-04-29T18:00:00.000Z"
  }
}