{
  "LAX": {
    "raw": "METAR KLAX 081553Z 10004KT 4SM BR BKN008 BKN012 17/14 A2995 RMK AO2 SLP142 T01670144 $",
    "icao": "KLAX",
    "flightCategory": "IFR",
    "windDir": 100,
    "windSpeed": 4,
    "windGust": null,
    "visibility": 4,
    "ceiling": 800,
    "temp": 16.7,
    "dewpoint": 14.4,
    "altimeter": 29.95,
    "conditions": "BR",
    "observationTime": "2026-04-08T16:00:00.000Z"
  },
  "LHR": {
    "raw": "METAR EGLL 081550Z COR AUTO 19010KT 150V240 9999 NCD 25/09 Q1020 NOSIG",
    "icao": "EGLL",
    "flightCategory": "VFR",
    "windDir": 190,
    "windSpeed": 10,
    "windGust": null,
    "visibility": 6,
    "ceiling": null,
    "temp": 25,
    "dewpoint": 9,
    "altimeter": 30.12,
    "conditions": "",
    "observationTime": "2026-04-08T16:00:00.000Z"
  },
  "SYD": {
    "raw": "METAR YSSY 081530Z AUTO 01004KT 9999 // NCD 20/18 Q1017",
    "icao": "YSSY",
    "flightCategory": "VFR",
    "windDir": 10,
    "windSpeed": 4,
    "windGust": null,
    "visibility": 6,
    "ceiling": null,
    "temp": 20,
    "dewpoint": 18,
    "altimeter": 30.03,
    "conditions": "",
    "observationTime": "2026-04-08T15:30:00.000Z"
  },
  "LAS": {
    "raw": "METAR KLAS 081556Z 04005KT 10SM FEW250 24/M07 A2992 RMK AO2 SLP109 T02391067",
    "icao": "KLAS",
    "flightCategory": "VFR",
    "windDir": 40,
    "windSpeed": 5,
    "windGust": null,
    "visibility": 10,
    "ceiling": null,
    "temp": 23.9,
    "dewpoint": -6.7,
    "altimeter": 29.92,
    "conditions": "",
    "observationTime": "2026-04-08T16:00:00.000Z"
  },
  "ORD": {
    "raw": "METAR KORD 081551Z 16014G24KT 10SM FEW130 BKN230 11/M02 A3018 RMK AO2 SLP225 T01111022",
    "icao": "KORD",
    "flightCategory": "VFR",
    "windDir": 160,
    "windSpeed": 14,
    "windGust": 24,
    "visibility": 10,
    "ceiling": 23000,
    "temp": 11.1,
    "dewpoint": -2.2,
    "altimeter": 30.18,
    "conditions": "",
    "observationTime": "2026-04-08T16:00:00.000Z"
  }
}