{
  "SYD": {
    "raw": "METAR YSSY 010930Z AUTO 03010KT 9999 // NCD 23/18 Q1023",
    "icao": "YSSY",
    "flightCategory": "VFR",
    "windDir": 30,
    "windSpeed": 10,
    "windGust": null,
    "visibility": 6,
    "ceiling": null,
    "temp": 23,
    "dewpoint": 18,
    "altimeter": 30.21,
    "conditions": "",
    "observationTime": "2026-04-01T09:30:00.000Z"
  },
  "LAS": {
    "raw": "METAR KLAS 010956Z 23014KT 10SM BKN060 BKN100 OVC170 16/05 A2976 RMK AO2 PK WND 22030/0911 SLP059 TOPS OF MTNS OBSCURED DSNT W T01610050",
    "icao": "KLAS",
    "flightCategory": "VFR",
    "windDir": 230,
    "windSpeed": 14,
    "windGust": null,
    "visibility": 10,
    "ceiling": 6000,
    "temp": 16.1,
    "dewpoint": 5,
    "altimeter": 29.76,
    "conditions": "",
    "observationTime": "2026-04-01T10:00:00.000Z"
  },
  "LAX": {
    "raw": "METAR KLAX 010953Z 30007KT 9SM FEW007 SCT011 BKN060 16/15 A2992 RMK AO2 RAE0857 SLP130 P0000 T01610150 $",
    "icao": "KLAX",
    "flightCategory": "VFR",
    "windDir": 300,
    "windSpeed": 7,
    "windGust": null,
    "visibility": 9,
    "ceiling": 6000,
    "temp": 16.1,
    "dewpoint": 15,
    "altimeter": 29.92,
    "conditions": "",
    "observationTime": "2026-04-01T10:00:00.000Z"
  },
  "ORD": {
    "raw": "METAR KORD 010951Z 03018KT 10SM BKN130 OVC200 03/M02 A3013 RMK AO2 PK WND 04028/0857 SLP206 T00281017 $",
    "icao": "KORD",
    "flightCategory": "VFR",
    "windDir": 30,
    "windSpeed": 18,
    "windGust": null,
    "visibility": 10,
    "ceiling": 13000,
    "temp": 2.8,
    "dewpoint": -1.7,
    "altimeter": 30.13,
    "conditions": "",
    "observationTime": "2026-04-01T10:00:00.000Z"
  },
  "LHR": {
    "raw": "METAR EGLL 010920Z COR AUTO 31004KT 9999 OVC049 11/08 Q1026 NOSIG",
    "icao": "EGLL",
    "flightCategory": "VFR",
    "windDir": 310,
    "windSpeed": 4,
    "windGust": null,
    "visibility": 6,
    "ceiling": 4900,
    "temp": 11,
    "dewpoint": 8,
    "altimeter": 30.3,
    "conditions": "",
    "observationTime": "2026-04-01T09:20:00.000Z"
  }
}