{
  "SYD": {
    "raw": "METAR YSSY 111700Z AUTO 27015KT 9999 // NCD 14/01 Q1009",
    "icao": "YSSY",
    "flightCategory": "VFR",
    "windDir": 270,
    "windSpeed": 15,
    "windGust": null,
    "visibility": 6,
    "ceiling": null,
    "temp": 14,
    "dewpoint": 1,
    "altimeter": 29.8,
    "conditions": "",
    "observationTime": "2026-04-11T17:00:00.000Z"
  },
  "LHR": {
    "raw": "METAR EGLL 111650Z COR AUTO 23021KT 9999 NCD 12/M04 Q1007 NOSIG",
    "icao": "EGLL",
    "flightCategory": "VFR",
    "windDir": 230,
    "windSpeed": 21,
    "windGust": null,
    "visibility": 6,
    "ceiling": null,
    "temp": 12,
    "dewpoint": -4,
    "altimeter": 29.74,
    "conditions": "",
    "observationTime": "2026-04-11T17:00:00.000Z"
  },
  "LAS": {
    "raw": "METAR KLAS 111656Z 21016G32KT 10SM FEW150 SCT250 20/M02 A2988 RMK AO2 PK WND 21032/1654 SLP101 T02001017",
    "icao": "KLAS",
    "flightCategory": "VFR",
    "windDir": 210,
    "windSpeed": 16,
    "windGust": 32,
    "visibility": 10,
    "ceiling": null,
    "temp": 20,
    "dewpoint": -1.7,
    "altimeter": 29.88,
    "conditions": "",
    "observationTime": "2026-04-11T17:00:00.000Z"
  },
  "LAX": {
    "raw": "METAR KLAX 111653Z 24005KT 10SM FEW020 SCT036 SCT055 18/12 A3003 RMK AO2 SLP166 T01830122 $",
    "icao": "KLAX",
    "flightCategory": "VFR",
    "windDir": 240,
    "windSpeed": 5,
    "windGust": null,
    "visibility": 10,
    "ceiling": null,
    "temp": 18.3,
    "dewpoint": 12.2,
    "altimeter": 30.03,
    "conditions": "",
    "observationTime": "2026-04-11T17:00:00.000Z"
  },
  "ORD": {
    "raw": "METAR KORD 111651Z 09009KT 10SM FEW045 FEW100 FEW150 BKN250 11/M04 A3041 RMK AO2 SLP303 T01111039 $",
    "icao": "KORD",
    "flightCategory": "VFR",
    "windDir": 90,
    "windSpeed": 9,
    "windGust": null,
    "visibility": 10,
    "ceiling": 25000,
    "temp": 11.1,
    "dewpoint": -3.9,
    "altimeter": 30.41,
    "conditions": "",
    "observationTime": "2026-04-11T17:00:00.000Z"
  }
}