{
  "SYD": {
    "raw": "SPECI YSSY 112329Z 30019G29KT 9999 FEW030 13/02 Q1013",
    "icao": "YSSY",
    "flightCategory": "VFR",
    "windDir": 300,
    "windSpeed": 19,
    "windGust": 29,
    "visibility": 6,
    "ceiling": null,
    "temp": 13,
    "dewpoint": 2,
    "altimeter": 29.91,
    "conditions": "",
    "observationTime": "2026-07-11T23:29:00.000Z"
  },
  "LAS": {
    "raw": "METAR KLAS 112356Z 13010G16KT 10SM FEW200 SCT250 43/08 A2983 RMK AO2 SLP065 T04280078 10433 20383 56023",
    "icao": "KLAS",
    "flightCategory": "VFR",
    "windDir": 130,
    "windSpeed": 10,
    "windGust": 16,
    "visibility": 10,
    "ceiling": null,
    "temp": 42.8,
    "dewpoint": 7.8,
    "altimeter": 29.83,
    "conditions": "",
    "observationTime": "2026-07-12T00:00:00.000Z"
  },
  "LAX": {
    "raw": "METAR KLAX 112353Z 25009KT 10SM FEW040 SCT200 BKN250 22/16 A2992 RMK AO2 SLP129 T02220156 10250 20222 55005 $",
    "icao": "KLAX",
    "flightCategory": "VFR",
    "windDir": 250,
    "windSpeed": 9,
    "windGust": null,
    "visibility": 10,
    "ceiling": 25000,
    "temp": 22.2,
    "dewpoint": 15.6,
    "altimeter": 29.92,
    "conditions": "",
    "observationTime": "2026-07-12T00:00:00.000Z"
  },
  "ORD": {
    "raw": "METAR KORD 112351Z 03014KT 10SM BKN250 26/15 A3008 RMK AO2 SLP181 T02610150 10278 20261 53003 $",
    "icao": "KORD",
    "flightCategory": "VFR",
    "windDir": 30,
    "windSpeed": 14,
    "windGust": null,
    "visibility": 10,
    "ceiling": 25000,
    "temp": 26.1,
    "dewpoint": 15,
    "altimeter": 30.08,
    "conditions": "",
    "observationTime": "2026-07-12T00:00:00.000Z"
  },
  "LHR": {
    "raw": "METAR EGLL 112320Z AUTO 06013KT 9999 NCD 19/14 Q1023",
    "icao": "EGLL",
    "flightCategory": "VFR",
    "windDir": 60,
    "windSpeed": 13,
    "windGust": null,
    "visibility": 6,
    "ceiling": null,
    "temp": 19,
    "dewpoint": 14,
    "altimeter": 30.21,
    "conditions": "",
    "observationTime": "2026-07-11T23:20:00.000Z"
  }
}