{
  "LHR": {
    "raw": "METAR EGLL 171250Z COR AUTO 23017KT 9999 BKN041 16/07 Q1019 NOSIG",
    "icao": "EGLL",
    "flightCategory": "VFR",
    "windDir": 230,
    "windSpeed": 17,
    "windGust": null,
    "visibility": 6,
    "ceiling": 4100,
    "temp": 16,
    "dewpoint": 7,
    "altimeter": 30.09,
    "conditions": "",
    "observationTime": "2026-04-17T13:00:00.000Z"
  },
  "ORD": {
    "raw": "METAR KORD 171251Z 14004KT 4SM BR BKN250 13/11 A2991 RMK AO2 SLP129 T01330111",
    "icao": "KORD",
    "flightCategory": "MVFR",
    "windDir": 140,
    "windSpeed": 4,
    "windGust": null,
    "visibility": 4,
    "ceiling": 25000,
    "temp": 13.3,
    "dewpoint": 11.1,
    "altimeter": 29.91,
    "conditions": "BR",
    "observationTime": "2026-04-17T13:00:00.000Z"
  },
  "SYD": {
    "raw": "METAR YSSY 171300Z AUTO 19020KT 9999 // FEW028 BKN071 17/12 Q1017",
    "icao": "YSSY",
    "flightCategory": "VFR",
    "windDir": 190,
    "windSpeed": 20,
    "windGust": null,
    "visibility": 6,
    "ceiling": 7100,
    "temp": 17,
    "dewpoint": 12,
    "altimeter": 30.03,
    "conditions": "",
    "observationTime": "2026-04-17T13:00:00.000Z"
  },
  "LAS": {
    "raw": "METAR KLAS 171256Z 36025G32KT 10SM FEW120 11/M18 A3010 RMK AO2 SLP181 T01061183 $",
    "icao": "KLAS",
    "flightCategory": "VFR",
    "windDir": 360,
    "windSpeed": 25,
    "windGust": 32,
    "visibility": 10,
    "ceiling": null,
    "temp": 10.6,
    "dewpoint": -18.3,
    "altimeter": 30.1,
    "conditions": "",
    "observationTime": "2026-04-17T13:00:00.000Z"
  },
  "LAX": {
    "raw": "METAR KLAX 171253Z 08006KT 10SM FEW012 FEW020 SCT150 14/12 A2994 RMK AO2 SLP136 T01390117",
    "icao": "KLAX",
    "flightCategory": "VFR",
    "windDir": 80,
    "windSpeed": 6,
    "windGust": null,
    "visibility": 10,
    "ceiling": null,
    "temp": 13.9,
    "dewpoint": 11.7,
    "altimeter": 29.94,
    "conditions": "",
    "observationTime": "2026-04-17T13:00:00.000Z"
  }
}