{
  "LHR": {
    "raw": "METAR EGLL 040950Z COR AUTO 02005KT 340V080 9999 OVC011 13/10 Q1015 NOSIG",
    "icao": "EGLL",
    "flightCategory": "MVFR",
    "windDir": 20,
    "windSpeed": 5,
    "windGust": null,
    "visibility": 6,
    "ceiling": 1100,
    "temp": 13,
    "dewpoint": 10,
    "altimeter": 29.97,
    "conditions": "",
    "observationTime": "2026-05-04T10:00:00.000Z"
  },
  "SYD": {
    "raw": "METAR YSSY 040930Z AUTO 01013KT 9999 // BKN100 OVC125 22/15 Q1014",
    "icao": "YSSY",
    "flightCategory": "VFR",
    "windDir": 10,
    "windSpeed": 13,
    "windGust": null,
    "visibility": 6,
    "ceiling": 10000,
    "temp": 22,
    "dewpoint": 15,
    "altimeter": 29.94,
    "conditions": "",
    "observationTime": "2026-05-04T09:30:00.000Z"
  },
  "LAS": {
    "raw": "METAR KLAS 040956Z 16009G16KT 10SM FEW150 BKN200 20/03 A2977 RMK AO2 SLP057 T02000028",
    "icao": "KLAS",
    "flightCategory": "VFR",
    "windDir": 160,
    "windSpeed": 9,
    "windGust": 16,
    "visibility": 10,
    "ceiling": 20000,
    "temp": 20,
    "dewpoint": 2.8,
    "altimeter": 29.77,
    "conditions": "",
    "observationTime": "2026-05-04T10:00:00.000Z"
  },
  "LAX": {
    "raw": "METAR KLAX 040953Z 25007KT 10SM FEW015 BKN055 BKN150 14/11 A2996 RMK AO2 SLP144 T01440111",
    "icao": "KLAX",
    "flightCategory": "VFR",
    "windDir": 250,
    "windSpeed": 7,
    "windGust": null,
    "visibility": 10,
    "ceiling": 5500,
    "temp": 14.4,
    "dewpoint": 11.1,
    "altimeter": 29.96,
    "conditions": "",
    "observationTime": "2026-05-04T10:00:00.000Z"
  },
  "ORD": {
    "raw": "METAR KORD 040951Z 21008KT 10SM FEW250 11/06 A2964 RMK AO2 SLP037 T01060056 $",
    "icao": "KORD",
    "flightCategory": "VFR",
    "windDir": 210,
    "windSpeed": 8,
    "windGust": null,
    "visibility": 10,
    "ceiling": null,
    "temp": 10.6,
    "dewpoint": 5.6,
    "altimeter": 29.64,
    "conditions": "",
    "observationTime": "2026-05-04T10:00:00.000Z"
  }
}