{
  "SYD": {
    "raw": "METAR YSSY 110230Z 20006KT 160V230 CAVOK 20/14 Q1030",
    "icao": "YSSY",
    "flightCategory": "VFR",
    "windDir": 200,
    "windSpeed": 6,
    "windGust": null,
    "visibility": 6,
    "ceiling": null,
    "temp": 20,
    "dewpoint": 14,
    "altimeter": 30.42,
    "conditions": "",
    "observationTime": "2026-06-11T02:30:00.000Z"
  },
  "LAS": {
    "raw": "METAR KLAS 110256Z 27012G21KT 10SM CLR 38/02 A2970 RMK AO2 SLP025 T03780022 55003",
    "icao": "KLAS",
    "flightCategory": "VFR",
    "windDir": 270,
    "windSpeed": 12,
    "windGust": 21,
    "visibility": 10,
    "ceiling": null,
    "temp": 37.8,
    "dewpoint": 2.2,
    "altimeter": 29.7,
    "conditions": "",
    "observationTime": "2026-06-11T03:00:00.000Z"
  },
  "LAX": {
    "raw": "METAR KLAX 110253Z 26007KT 10SM FEW012 20/17 A2979 RMK AO2 SLP087 T02000167 53000",
    "icao": "KLAX",
    "flightCategory": "VFR",
    "windDir": 260,
    "windSpeed": 7,
    "windGust": null,
    "visibility": 10,
    "ceiling": null,
    "temp": 20,
    "dewpoint": 16.7,
    "altimeter": 29.79,
    "conditions": "",
    "observationTime": "2026-06-11T03:00:00.000Z"
  },
  "ORD": {
    "raw": "SPECI KORD 110220Z 25009G18KT 10SM -TSRA SCT047CB BKN110 BKN190 OVC250 23/19 A2973 RMK AO2 TSB19 OCNL LTGICCG OHD TS OHD MOV E P0000 T02280194 $",
    "icao": "KORD",
    "flightCategory": "VFR",
    "windDir": 250,
    "windSpeed": 9,
    "windGust": 18,
    "visibility": 10,
    "ceiling": 11000,
    "temp": 22.8,
    "dewpoint": 19.4,
    "altimeter": 29.73,
    "conditions": "-TSRA",
    "observationTime": "2026-06-11T02:20:00.000Z"
  },
  "LHR": {
    "raw": "METAR EGLL 110220Z AUTO 27007KT 9999 NCD 10/08 Q1020",
    "icao": "EGLL",
    "flightCategory": "VFR",
    "windDir": 270,
    "windSpeed": 7,
    "windGust": null,
    "visibility": 6,
    "ceiling": null,
    "temp": 10,
    "dewpoint": 8,
    "altimeter": 30.12,
    "conditions": "",
    "observationTime": "2026-06-11T02:20:00.000Z"
  }
}