{
  "LHR": {
    "raw": "METAR EGLL 011250Z COR AUTO 18011KT 140V200 9999 NCD 24/07 Q1019 NOSIG",
    "icao": "EGLL",
    "flightCategory": "VFR",
    "windDir": 180,
    "windSpeed": 11,
    "windGust": null,
    "visibility": 6,
    "ceiling": null,
    "temp": 24,
    "dewpoint": 7,
    "altimeter": 30.09,
    "conditions": "",
    "observationTime": "2026-05-01T13:00:00.000Z"
  },
  "ORD": {
    "raw": "METAR KORD 011251Z 35008KT 10SM SCT015 BKN037 BKN060 06/02 A3001 RMK AO2 SLP164 T00610022 $",
    "icao": "KORD",
    "flightCategory": "VFR",
    "windDir": 350,
    "windSpeed": 8,
    "windGust": null,
    "visibility": 10,
    "ceiling": 3700,
    "temp": 6.1,
    "dewpoint": 2.2,
    "altimeter": 30.01,
    "conditions": "",
    "observationTime": "2026-05-01T13:00:00.000Z"
  },
  "SYD": {
    "raw": "METAR YSSY 011300Z AUTO 04007KT 9999 // OVC063 20/18 Q1027",
    "icao": "YSSY",
    "flightCategory": "VFR",
    "windDir": 40,
    "windSpeed": 7,
    "windGust": null,
    "visibility": 6,
    "ceiling": 6300,
    "temp": 20,
    "dewpoint": 18,
    "altimeter": 30.33,
    "conditions": "",
    "observationTime": "2026-05-01T13:00:00.000Z"
  },
  "LAS": {
    "raw": "METAR KLAS 011256Z 36004KT 10SM FEW120 19/M04 A2993 RMK AO2 SLP115 T01941044",
    "icao": "KLAS",
    "flightCategory": "VFR",
    "windDir": 360,
    "windSpeed": 4,
    "windGust": null,
    "visibility": 10,
    "ceiling": null,
    "temp": 19.4,
    "dewpoint": -4.4,
    "altimeter": 29.93,
    "conditions": "",
    "observationTime": "2026-05-01T13:00:00.000Z"
  },
  "LAX": {
    "raw": "METAR KLAX 011253Z 08006KT 10SM FEW012 OVC017 17/12 A2993 RMK AO2 SLP135 T01670122",
    "icao": "KLAX",
    "flightCategory": "MVFR",
    "windDir": 80,
    "windSpeed": 6,
    "windGust": null,
    "visibility": 10,
    "ceiling": 1700,
    "temp": 16.7,
    "dewpoint": 12.2,
    "altimeter": 29.93,
    "conditions": "",
    "observationTime": "2026-05-01T13:00:00.000Z"
  }
}