{
  "SYD": {
    "raw": "METAR YSSY 111300Z AUTO 26017KT 9999 // NCD 16/01 Q1011",
    "icao": "YSSY",
    "flightCategory": "VFR",
    "windDir": 260,
    "windSpeed": 17,
    "windGust": null,
    "visibility": 6,
    "ceiling": null,
    "temp": 16,
    "dewpoint": 1,
    "altimeter": 29.85,
    "conditions": "",
    "observationTime": "2026-04-11T13:00:00.000Z"
  },
  "LHR": {
    "raw": "METAR EGLL 111250Z COR AUTO 24020KT 9999 NCD 11/M03 Q1006 NOSIG",
    "icao": "EGLL",
    "flightCategory": "VFR",
    "windDir": 240,
    "windSpeed": 20,
    "windGust": null,
    "visibility": 6,
    "ceiling": null,
    "temp": 11,
    "dewpoint": -3,
    "altimeter": 29.71,
    "conditions": "",
    "observationTime": "2026-04-11T13:00:00.000Z"
  },
  "LAS": {
    "raw": "METAR KLAS 111256Z 21012G22KT 10SM FEW120 FEW250 17/03 A2984 RMK AO2 SLP088 T01670033",
    "icao": "KLAS",
    "flightCategory": "VFR",
    "windDir": 210,
    "windSpeed": 12,
    "windGust": 22,
    "visibility": 10,
    "ceiling": null,
    "temp": 16.7,
    "dewpoint": 3.3,
    "altimeter": 29.84,
    "conditions": "",
    "observationTime": "2026-04-11T13:00:00.000Z"
  },
  "LAX": {
    "raw": "METAR KLAX 111253Z 00000KT 10SM FEW012 FEW050 SCT200 16/13 A2998 RMK AO2 SLP149 T01560128 $",
    "icao": "KLAX",
    "flightCategory": "VFR",
    "windDir": 0,
    "windSpeed": 0,
    "windGust": null,
    "visibility": 10,
    "ceiling": null,
    "temp": 15.6,
    "dewpoint": 12.8,
    "altimeter": 29.98,
    "conditions": "",
    "observationTime": "2026-04-11T13:00:00.000Z"
  },
  "ORD": {
    "raw": "METAR KORD 111251Z 11003KT 10SM FEW100 FEW250 06/02 A3042 RMK AO2 SLP304 T00560017 $",
    "icao": "KORD",
    "flightCategory": "VFR",
    "windDir": 110,
    "windSpeed": 3,
    "windGust": null,
    "visibility": 10,
    "ceiling": null,
    "temp": 5.6,
    "dewpoint": 1.7,
    "altimeter": 30.42,
    "conditions": "",
    "observationTime": "2026-04-11T13:00:00.000Z"
  }
}