{
  "LAX": {
    "raw": "METAR KLAX 212353Z 27014KT 10SM FEW018 FEW025 SCT060 19/13 A3004 RMK AO2 RAB35E44 SLP172 P0000 60000 T01940128 10211 20161 55004 $",
    "icao": "KLAX",
    "flightCategory": "VFR",
    "windDir": 270,
    "windSpeed": 14,
    "windGust": null,
    "visibility": 10,
    "ceiling": null,
    "temp": 19.4,
    "dewpoint": 12.8,
    "altimeter": 30.04,
    "conditions": "",
    "observationTime": "2026-04-22T00:00:00.000Z"
  },
  "ORD": {
    "raw": "METAR KORD 212351Z 28009KT 10SM FEW060 BKN250 24/11 A2985 RMK AO2 SLP107 60000 T02390106 10244 20217 53001 $",
    "icao": "KORD",
    "flightCategory": "VFR",
    "windDir": 280,
    "windSpeed": 9,
    "windGust": null,
    "visibility": 10,
    "ceiling": 25000,
    "temp": 23.9,
    "dewpoint": 10.6,
    "altimeter": 29.85,
    "conditions": "",
    "observationTime": "2026-04-22T00:00:00.000Z"
  },
  "LHR": {
    "raw": "METAR EGLL 212320Z COR AUTO 06010KT 9999 NCD 07/03 Q1025 NOSIG",
    "icao": "EGLL",
    "flightCategory": "VFR",
    "windDir": 60,
    "windSpeed": 10,
    "windGust": null,
    "visibility": 6,
    "ceiling": null,
    "temp": 7,
    "dewpoint": 3,
    "altimeter": 30.27,
    "conditions": "",
    "observationTime": "2026-04-21T23:20:00.000Z"
  },
  "SYD": {
    "raw": "METAR YSSY 212300Z 17009KT 9999 FEW040 BKN060 20/12 Q1027",
    "icao": "YSSY",
    "flightCategory": "VFR",
    "windDir": 170,
    "windSpeed": 9,
    "windGust": null,
    "visibility": 6,
    "ceiling": 6000,
    "temp": 20,
    "dewpoint": 12,
    "altimeter": 30.33,
    "conditions": "",
    "observationTime": "2026-04-21T23:00:00.000Z"
  }
}