{
  "LAS": {
    "raw": "METAR KLAS 012056Z 07013G19KT 10SM FEW130 28/M07 A2994 RMK AO2 SLP117 T02831067 58017",
    "icao": "KLAS",
    "flightCategory": "VFR",
    "windDir": 70,
    "windSpeed": 13,
    "windGust": 19,
    "visibility": 10,
    "ceiling": null,
    "temp": 28.3,
    "dewpoint": -6.7,
    "altimeter": 29.94,
    "conditions": "",
    "observationTime": "2026-05-01T21:00:00.000Z"
  },
  "LAX": {
    "raw": "METAR KLAX 012053Z 26012KT 10SM FEW045 FEW070 21/13 A2994 RMK AO2 SLP135 T02060128 56013",
    "icao": "KLAX",
    "flightCategory": "VFR",
    "windDir": 260,
    "windSpeed": 12,
    "windGust": null,
    "visibility": 10,
    "ceiling": null,
    "temp": 20.6,
    "dewpoint": 12.8,
    "altimeter": 29.94,
    "conditions": "",
    "observationTime": "2026-05-01T21:00:00.000Z"
  },
  "ORD": {
    "raw": "METAR KORD 012051Z 05007KT 10SM FEW027 SCT047 BKN060 07/01 A3005 RMK AO2 RAB17E46 SLP178 P0000 60000 T00670006 51010 $",
    "icao": "KORD",
    "flightCategory": "VFR",
    "windDir": 50,
    "windSpeed": 7,
    "windGust": null,
    "visibility": 10,
    "ceiling": 6000,
    "temp": 6.7,
    "dewpoint": 0.6,
    "altimeter": 30.05,
    "conditions": "",
    "observationTime": "2026-05-01T21:00:00.000Z"
  },
  "LHR": {
    "raw": "METAR EGLL 012020Z COR AUTO 22008KT 190V270 9999 NCD 17/11 Q1019 NOSIG",
    "icao": "EGLL",
    "flightCategory": "VFR",
    "windDir": 220,
    "windSpeed": 8,
    "windGust": null,
    "visibility": 6,
    "ceiling": null,
    "temp": 17,
    "dewpoint": 11,
    "altimeter": 30.09,
    "conditions": "",
    "observationTime": "2026-05-01T20:20:00.000Z"
  },
  "SYD": {
    "raw": "METAR YSSY 012030Z 29006KT 9999 FEW040 BKN055 17/16 Q1025",
    "icao": "YSSY",
    "flightCategory": "VFR",
    "windDir": 290,
    "windSpeed": 6,
    "windGust": null,
    "visibility": 6,
    "ceiling": 5500,
    "temp": 17,
    "dewpoint": 16,
    "altimeter": 30.27,
    "conditions": "",
    "observationTime": "2026-05-01T20:30:00.000Z"
  }
}