{
  "LHR": {
    "raw": "METAR EGLL 171850Z COR AUTO 22012KT 9999 NCD 15/06 Q1019 NOSIG",
    "icao": "EGLL",
    "flightCategory": "VFR",
    "windDir": 220,
    "windSpeed": 12,
    "windGust": null,
    "visibility": 6,
    "ceiling": null,
    "temp": 15,
    "dewpoint": 6,
    "altimeter": 30.09,
    "conditions": "",
    "observationTime": "2026-04-17T19:00:00.000Z"
  },
  "SYD": {
    "raw": "METAR YSSY 171830Z AUTO 26012KT 9999 // NCD 13/08 Q1017",
    "icao": "YSSY",
    "flightCategory": "VFR",
    "windDir": 260,
    "windSpeed": 12,
    "windGust": null,
    "visibility": 6,
    "ceiling": null,
    "temp": 13,
    "dewpoint": 8,
    "altimeter": 30.03,
    "conditions": "",
    "observationTime": "2026-04-17T18:30:00.000Z"
  },
  "LAS": {
    "raw": "METAR KLAS 171856Z 03018G29KT 10SM CLR 16/M23 A3018 RMK AO2 PK WND 05030/1757 SLP208 T01611233",
    "icao": "KLAS",
    "flightCategory": "VFR",
    "windDir": 30,
    "windSpeed": 18,
    "windGust": 29,
    "visibility": 10,
    "ceiling": null,
    "temp": 16.1,
    "dewpoint": -23.3,
    "altimeter": 30.18,
    "conditions": "",
    "observationTime": "2026-04-17T19:00:00.000Z"
  },
  "LAX": {
    "raw": "METAR KLAX 171853Z VRB03KT 10SM FEW018 FEW032 21/09 A3000 RMK AO2 SLP159 T02110094",
    "icao": "KLAX",
    "flightCategory": "VFR",
    "windDir": null,
    "windSpeed": 3,
    "windGust": null,
    "visibility": 10,
    "ceiling": null,
    "temp": 21.1,
    "dewpoint": 9.4,
    "altimeter": 30,
    "conditions": "",
    "observationTime": "2026-04-17T19:00:00.000Z"
  },
  "ORD": {
    "raw": "METAR KORD 171851Z 17014G27KT 10SM FEW038 BKN055 BKN250 25/17 A2981 RMK AO2 PK WND 17027/1845 SLP093 T02500167 $",
    "icao": "KORD",
    "flightCategory": "VFR",
    "windDir": 170,
    "windSpeed": 14,
    "windGust": 27,
    "visibility": 10,
    "ceiling": 5500,
    "temp": 25,
    "dewpoint": 16.7,
    "altimeter": 29.81,
    "conditions": "",
    "observationTime": "2026-04-17T19:00:00.000Z"
  }
}