{
  "SYD": {
    "raw": "METAR YSSY 272230Z 21009KT 9999 VCSH FEW012 SCT040 BKN130 13/12 Q1031",
    "icao": "YSSY",
    "flightCategory": "VFR",
    "windDir": 210,
    "windSpeed": 9,
    "windGust": null,
    "visibility": 6,
    "ceiling": 13000,
    "temp": 13,
    "dewpoint": 12,
    "altimeter": 30.45,
    "conditions": "VCSH",
    "observationTime": "2026-06-27T22:30:00.000Z"
  },
  "LAS": {
    "raw": "METAR KLAS 272256Z 22022G29KT 10SM FEW230 35/04 A2967 RMK AO2 PK WND 22032/2238 SLP019 T03500039",
    "icao": "KLAS",
    "flightCategory": "VFR",
    "windDir": 220,
    "windSpeed": 22,
    "windGust": 29,
    "visibility": 10,
    "ceiling": null,
    "temp": 35,
    "dewpoint": 3.9,
    "altimeter": 29.67,
    "conditions": "",
    "observationTime": "2026-06-27T23:00:00.000Z"
  },
  "LAX": {
    "raw": "METAR KLAX 272253Z 26013KT 10SM SCT018 21/14 A2994 RMK AO2 SLP137 T02110144",
    "icao": "KLAX",
    "flightCategory": "VFR",
    "windDir": 260,
    "windSpeed": 13,
    "windGust": null,
    "visibility": 10,
    "ceiling": null,
    "temp": 21.1,
    "dewpoint": 14.4,
    "altimeter": 29.94,
    "conditions": "",
    "observationTime": "2026-06-27T23:00:00.000Z"
  },
  "ORD": {
    "raw": "METAR KORD 272251Z 05011KT 10SM BKN045 BKN075 BKN250 23/16 A2994 RMK AO2 SLP134 T02330156 $",
    "icao": "KORD",
    "flightCategory": "VFR",
    "windDir": 50,
    "windSpeed": 11,
    "windGust": null,
    "visibility": 10,
    "ceiling": 4500,
    "temp": 23.3,
    "dewpoint": 15.6,
    "altimeter": 29.94,
    "conditions": "",
    "observationTime": "2026-06-27T23:00:00.000Z"
  },
  "LHR": {
    "raw": "METAR EGLL 272250Z AUTO 21008KT 9999 NCD 22/15 Q1014",
    "icao": "EGLL",
    "flightCategory": "VFR",
    "windDir": 210,
    "windSpeed": 8,
    "windGust": null,
    "visibility": 6,
    "ceiling": null,
    "temp": 22,
    "dewpoint": 15,
    "altimeter": 29.94,
    "conditions": "",
    "observationTime": "2026-06-27T23:00:00.000Z"
  }
}