{
  "LAX": {
    "raw": "METAR KLAX 221253Z 23005KT 9SM FEW004 OVC006 21/19 A2998 RMK AO2 SLP150 T02060194",
    "icao": "KLAX",
    "flightCategory": "IFR",
    "windDir": 230,
    "windSpeed": 5,
    "windGust": null,
    "visibility": 9,
    "ceiling": 600,
    "temp": 20.6,
    "dewpoint": 19.4,
    "altimeter": 29.98,
    "conditions": "",
    "observationTime": "2026-07-22T13:00:00.000Z"
  },
  "ORD": {
    "raw": "METAR KORD 221251Z 36010KT 10SM FEW030 FEW041 FEW250 18/09 A3004 RMK AO2 SLP170 T01780094",
    "icao": "KORD",
    "flightCategory": "VFR",
    "windDir": 360,
    "windSpeed": 10,
    "windGust": null,
    "visibility": 10,
    "ceiling": null,
    "temp": 17.8,
    "dewpoint": 9.4,
    "altimeter": 30.04,
    "conditions": "",
    "observationTime": "2026-07-22T13:00:00.000Z"
  },
  "LHR": {
    "raw": "METAR EGLL 221220Z AUTO VRB02KT 9999 SCT042 BKN048 24/13 Q1025",
    "icao": "EGLL",
    "flightCategory": "VFR",
    "windDir": null,
    "windSpeed": 2,
    "windGust": null,
    "visibility": 6,
    "ceiling": 4800,
    "temp": 24,
    "dewpoint": 13,
    "altimeter": 30.27,
    "conditions": "",
    "observationTime": "2026-07-22T12:20:00.000Z"
  },
  "SYD": {
    "raw": "METAR YSSY 221200Z AUTO 27010KT 9999 // NCD 15/07 Q1022",
    "icao": "YSSY",
    "flightCategory": "VFR",
    "windDir": 270,
    "windSpeed": 10,
    "windGust": null,
    "visibility": 6,
    "ceiling": null,
    "temp": 15,
    "dewpoint": 7,
    "altimeter": 30.18,
    "conditions": "",
    "observationTime": "2026-07-22T12:00:00.000Z"
  }
}