{
  "SYD": {
    "raw": "METAR YSSY 072330Z 32006KT 9999 FEW045 15/10 Q1033",
    "icao": "YSSY",
    "flightCategory": "VFR",
    "windDir": 320,
    "windSpeed": 6,
    "windGust": null,
    "visibility": 6,
    "ceiling": null,
    "temp": 15,
    "dewpoint": 10,
    "altimeter": 30.5,
    "conditions": "",
    "observationTime": "2026-06-07T23:30:00.000Z"
  },
  "LAS": {
    "raw": "METAR KLAS 072356Z 23013G25KT 10SM FEW150 36/M09 A2965 RMK AO2 PK WND 24026/2300 SLP011 T03611094 10361 20322 58011 $",
    "icao": "KLAS",
    "flightCategory": "VFR",
    "windDir": 230,
    "windSpeed": 13,
    "windGust": 25,
    "visibility": 10,
    "ceiling": null,
    "temp": 36.1,
    "dewpoint": -9.4,
    "altimeter": 29.65,
    "conditions": "",
    "observationTime": "2026-06-08T00:00:00.000Z"
  },
  "LAX": {
    "raw": "METAR KLAX 072353Z 25014KT 10SM FEW012 20/13 A2981 RMK AO2 SLP094 T02000133 10222 20200 58006 $",
    "icao": "KLAX",
    "flightCategory": "VFR",
    "windDir": 250,
    "windSpeed": 14,
    "windGust": null,
    "visibility": 10,
    "ceiling": null,
    "temp": 20,
    "dewpoint": 13.3,
    "altimeter": 29.81,
    "conditions": "",
    "observationTime": "2026-06-08T00:00:00.000Z"
  },
  "ORD": {
    "raw": "METAR KORD 072351Z 10004KT 10SM -RA SCT055 BKN080 BKN100 BKN180 OVC250 21/15 A2998 RMK AO2 SLP147 P0000 60000 T02110150 10283 20211 51011 $",
    "icao": "KORD",
    "flightCategory": "VFR",
    "windDir": 100,
    "windSpeed": 4,
    "windGust": null,
    "visibility": 10,
    "ceiling": 8000,
    "temp": 21.1,
    "dewpoint": 15,
    "altimeter": 29.98,
    "conditions": "-RA",
    "observationTime": "2026-06-08T00:00:00.000Z"
  },
  "LHR": {
    "raw": "METAR EGLL 072320Z AUTO 21010KT 9999 BKN039 15/11 Q1018",
    "icao": "EGLL",
    "flightCategory": "VFR",
    "windDir": 210,
    "windSpeed": 10,
    "windGust": null,
    "visibility": 6,
    "ceiling": 3900,
    "temp": 15,
    "dewpoint": 11,
    "altimeter": 30.06,
    "conditions": "",
    "observationTime": "2026-06-07T23:20:00.000Z"
  }
}