{
  "SYD": {
    "raw": "METAR YSSY 291030Z AUTO 12005KT 9999 // SCT034 SCT046 BKN057 20/16 Q1030",
    "icao": "YSSY",
    "flightCategory": "VFR",
    "windDir": 120,
    "windSpeed": 5,
    "windGust": null,
    "visibility": 6,
    "ceiling": 5700,
    "temp": 20,
    "dewpoint": 16,
    "altimeter": 30.42,
    "conditions": "",
    "observationTime": "2026-04-29T10:30:00.000Z"
  },
  "LAS": {
    "raw": "METAR KLAS 291056Z 20004KT 10SM CLR 16/M07 A3000 RMK AO2 SLP144 T01611072",
    "icao": "KLAS",
    "flightCategory": "VFR",
    "windDir": 200,
    "windSpeed": 4,
    "windGust": null,
    "visibility": 10,
    "ceiling": null,
    "temp": 16.1,
    "dewpoint": -7.2,
    "altimeter": 30,
    "conditions": "",
    "observationTime": "2026-04-29T11:00:00.000Z"
  },
  "LAX": {
    "raw": "METAR KLAX 291053Z 08003KT 10SM FEW012 FEW250 13/11 A3003 RMK AO2 SLP167 T01280111 $",
    "icao": "KLAX",
    "flightCategory": "VFR",
    "windDir": 80,
    "windSpeed": 3,
    "windGust": null,
    "visibility": 10,
    "ceiling": null,
    "temp": 12.8,
    "dewpoint": 11.1,
    "altimeter": 30.03,
    "conditions": "",
    "observationTime": "2026-04-29T11:00:00.000Z"
  },
  "ORD": {
    "raw": "METAR KORD 291051Z 36011KT 10SM OVC060 11/05 A2990 RMK AO2 SLP126 T01110050 $",
    "icao": "KORD",
    "flightCategory": "VFR",
    "windDir": 360,
    "windSpeed": 11,
    "windGust": null,
    "visibility": 10,
    "ceiling": 6000,
    "temp": 11.1,
    "dewpoint": 5,
    "altimeter": 29.9,
    "conditions": "",
    "observationTime": "2026-04-29T11:00:00.000Z"
  },
  "LHR": {
    "raw": "METAR EGLL 291020Z COR AUTO 09018G33KT 9999 NCD 17/M01 Q1024 NOSIG",
    "icao": "EGLL",
    "flightCategory": "VFR",
    "windDir": 90,
    "windSpeed": 18,
    "windGust": 33,
    "visibility": 6,
    "ceiling": null,
    "temp": 17,
    "dewpoint": -1,
    "altimeter": 30.24,
    "conditions": "",
    "observationTime": "2026-04-29T10:20:00.000Z"
  }
}