{
  "SYD": {
    "raw": "METAR YSSY 212200Z 27013KT 9999 FEW047 12/08 Q1026",
    "icao": "YSSY",
    "flightCategory": "VFR",
    "windDir": 270,
    "windSpeed": 13,
    "windGust": null,
    "visibility": 6,
    "ceiling": null,
    "temp": 12,
    "dewpoint": 8,
    "altimeter": 30.3,
    "conditions": "",
    "observationTime": "2026-06-21T22:00:00.000Z"
  },
  "LHR": {
    "raw": "METAR EGLL 212150Z AUTO 10006KT 070V130 9999 NCD 21/17 Q1027",
    "icao": "EGLL",
    "flightCategory": "VFR",
    "windDir": 100,
    "windSpeed": 6,
    "windGust": null,
    "visibility": 6,
    "ceiling": null,
    "temp": 21,
    "dewpoint": 17,
    "altimeter": 30.33,
    "conditions": "",
    "observationTime": "2026-06-21T22:00:00.000Z"
  },
  "ORD": {
    "raw": "METAR KORD 212151Z 12013G22KT 7SM -RA SCT020 BKN075 OVC100 17/14 A2986 RMK AO2 SLP111 P0004 T01720144 $",
    "icao": "KORD",
    "flightCategory": "VFR",
    "windDir": 120,
    "windSpeed": 13,
    "windGust": 22,
    "visibility": 7,
    "ceiling": 7500,
    "temp": 17.2,
    "dewpoint": 14.4,
    "altimeter": 29.86,
    "conditions": "-RA",
    "observationTime": "2026-06-21T22:00:00.000Z"
  },
  "LAS": {
    "raw": "METAR KLAS 212156Z VRB03KT 10SM CLR 38/M08 A2975 RMK AO2 SLP043 T03781083",
    "icao": "KLAS",
    "flightCategory": "VFR",
    "windDir": null,
    "windSpeed": 3,
    "windGust": null,
    "visibility": 10,
    "ceiling": null,
    "temp": 37.8,
    "dewpoint": -8.3,
    "altimeter": 29.75,
    "conditions": "",
    "observationTime": "2026-06-21T22:00:00.000Z"
  },
  "LAX": {
    "raw": "METAR KLAX 212153Z 26012KT 10SM FEW017 FEW250 21/13 A2990 RMK AO2 SLP125 T02110133 $",
    "icao": "KLAX",
    "flightCategory": "VFR",
    "windDir": 260,
    "windSpeed": 12,
    "windGust": null,
    "visibility": 10,
    "ceiling": null,
    "temp": 21.1,
    "dewpoint": 13.3,
    "altimeter": 29.9,
    "conditions": "",
    "observationTime": "2026-06-21T22:00:00.000Z"
  }
}