{
  "SYD": {
    "raw": "METAR YSSY 152300Z 29008KT CAVOK 20/13 Q1019",
    "icao": "YSSY",
    "flightCategory": "VFR",
    "windDir": 290,
    "windSpeed": 8,
    "windGust": null,
    "visibility": 6,
    "ceiling": null,
    "temp": 20,
    "dewpoint": 13,
    "altimeter": 30.09,
    "conditions": "",
    "observationTime": "2026-04-15T23:00:00.000Z"
  },
  "LHR": {
    "raw": "METAR EGLL 152250Z COR AUTO 21010KT 9999 NCD 10/08 Q1017 NOSIG",
    "icao": "EGLL",
    "flightCategory": "VFR",
    "windDir": 210,
    "windSpeed": 10,
    "windGust": null,
    "visibility": 6,
    "ceiling": null,
    "temp": 10,
    "dewpoint": 8,
    "altimeter": 30.03,
    "conditions": "",
    "observationTime": "2026-04-15T23:00:00.000Z"
  },
  "LAS": {
    "raw": "METAR KLAS 152256Z 16007G16KT 10SM FEW250 28/M07 A2988 RMK AO2 SLP100 T02781067",
    "icao": "KLAS",
    "flightCategory": "VFR",
    "windDir": 160,
    "windSpeed": 7,
    "windGust": 16,
    "visibility": 10,
    "ceiling": null,
    "temp": 27.8,
    "dewpoint": -6.7,
    "altimeter": 29.88,
    "conditions": "",
    "observationTime": "2026-04-15T23:00:00.000Z"
  },
  "LAX": {
    "raw": "METAR KLAX 152253Z 27013KT 10SM FEW050 FEW250 19/13 A3000 RMK AO2 SLP157 T01940128",
    "icao": "KLAX",
    "flightCategory": "VFR",
    "windDir": 270,
    "windSpeed": 13,
    "windGust": null,
    "visibility": 10,
    "ceiling": null,
    "temp": 19.4,
    "dewpoint": 12.8,
    "altimeter": 30,
    "conditions": "",
    "observationTime": "2026-04-15T23:00:00.000Z"
  },
  "ORD": {
    "raw": "METAR KORD 152251Z 19009KT 10SM SCT028 BKN100 BKN170 BKN250 22/17 A2976 RMK AO2 SLP072 T02220172",
    "icao": "KORD",
    "flightCategory": "VFR",
    "windDir": 190,
    "windSpeed": 9,
    "windGust": null,
    "visibility": 10,
    "ceiling": 10000,
    "temp": 22.2,
    "dewpoint": 17.2,
    "altimeter": 29.76,
    "conditions": "",
    "observationTime": "2026-04-15T23:00:00.000Z"
  }
}