{
  "ORD": {
    "raw": "SPECI KORD 171033Z 11003KT 1SM R10L/P6000FT BR BKN002 10/09 A2990 RMK AO2 T01000094 $",
    "icao": "KORD",
    "flightCategory": "LIFR",
    "windDir": 110,
    "windSpeed": 3,
    "windGust": null,
    "visibility": 1,
    "ceiling": 200,
    "temp": 10,
    "dewpoint": 9.4,
    "altimeter": 29.9,
    "conditions": "BR",
    "observationTime": "2026-04-17T10:33:00.000Z"
  },
  "SYD": {
    "raw": "METAR YSSY 171030Z AUTO 17019KT 9999 // SCT025 BKN034 OVC041 19/14 Q1015",
    "icao": "YSSY",
    "flightCategory": "VFR",
    "windDir": 170,
    "windSpeed": 19,
    "windGust": null,
    "visibility": 6,
    "ceiling": 3400,
    "temp": 19,
    "dewpoint": 14,
    "altimeter": 29.97,
    "conditions": "",
    "observationTime": "2026-04-17T10:30:00.000Z"
  },
  "LAS": {
    "raw": "METAR KLAS 171056Z 35026G39KT 10SM FEW250 12/M15 A3003 RMK AO2 SLP154 T01171150 $",
    "icao": "KLAS",
    "flightCategory": "VFR",
    "windDir": 350,
    "windSpeed": 26,
    "windGust": 39,
    "visibility": 10,
    "ceiling": null,
    "temp": 11.7,
    "dewpoint": -15,
    "altimeter": 30.03,
    "conditions": "",
    "observationTime": "2026-04-17T11:00:00.000Z"
  },
  "LAX": {
    "raw": "SPECI KLAX 171025Z 08006KT 10SM FEW012 BKN018 14/13 A2992 RMK AO2 T01440128",
    "icao": "KLAX",
    "flightCategory": "MVFR",
    "windDir": 80,
    "windSpeed": 6,
    "windGust": null,
    "visibility": 10,
    "ceiling": 1800,
    "temp": 14.4,
    "dewpoint": 12.8,
    "altimeter": 29.92,
    "conditions": "",
    "observationTime": "2026-04-17T10:25:00.000Z"
  },
  "LHR": {
    "raw": "METAR EGLL 171050Z COR AUTO 22014KT 190V250 9999 SCT032 16/08 Q1019 NOSIG",
    "icao": "EGLL",
    "flightCategory": "VFR",
    "windDir": 220,
    "windSpeed": 14,
    "windGust": null,
    "visibility": 6,
    "ceiling": null,
    "temp": 16,
    "dewpoint": 8,
    "altimeter": 30.09,
    "conditions": "",
    "observationTime": "2026-04-17T11:00:00.000Z"
  }
}