{
  "SYD": {
    "raw": "METAR YSSY 052130Z 31007KT 9999 FEW040 13/08 Q1020",
    "icao": "YSSY",
    "flightCategory": "VFR",
    "windDir": 310,
    "windSpeed": 7,
    "windGust": null,
    "visibility": 6,
    "ceiling": null,
    "temp": 13,
    "dewpoint": 8,
    "altimeter": 30.12,
    "conditions": "",
    "observationTime": "2026-05-05T21:30:00.000Z"
  },
  "LAS": {
    "raw": "METAR KLAS 052156Z 00000KT 10SM SCT120 SCT250 23/M04 A2981 RMK AO2 SLP078 T02281039",
    "icao": "KLAS",
    "flightCategory": "VFR",
    "windDir": 0,
    "windSpeed": 0,
    "windGust": null,
    "visibility": 10,
    "ceiling": null,
    "temp": 22.8,
    "dewpoint": -3.9,
    "altimeter": 29.81,
    "conditions": "",
    "observationTime": "2026-05-05T22:00:00.000Z"
  },
  "LAX": {
    "raw": "METAR KLAX 052153Z 25012G20KT 10SM FEW010 FEW060 BKN095 18/09 A2997 RMK AO2 SLP148 T01830094",
    "icao": "KLAX",
    "flightCategory": "VFR",
    "windDir": 250,
    "windSpeed": 12,
    "windGust": 20,
    "visibility": 10,
    "ceiling": 9500,
    "temp": 18.3,
    "dewpoint": 9.4,
    "altimeter": 29.97,
    "conditions": "",
    "observationTime": "2026-05-05T22:00:00.000Z"
  },
  "ORD": {
    "raw": "METAR KORD 052151Z 30008KT 10SM FEW100 BKN170 OVC250 13/M05 A2978 RMK AO2 SLP085 T01331050",
    "icao": "KORD",
    "flightCategory": "VFR",
    "windDir": 300,
    "windSpeed": 8,
    "windGust": null,
    "visibility": 10,
    "ceiling": 17000,
    "temp": 13.3,
    "dewpoint": -5,
    "altimeter": 29.78,
    "conditions": "",
    "observationTime": "2026-05-05T22:00:00.000Z"
  },
  "LHR": {
    "raw": "METAR EGLL 052120Z COR AUTO 07011KT 9999 BKN032 13/06 Q1012 NOSIG",
    "icao": "EGLL",
    "flightCategory": "VFR",
    "windDir": 70,
    "windSpeed": 11,
    "windGust": null,
    "visibility": 6,
    "ceiling": 3200,
    "temp": 13,
    "dewpoint": 6,
    "altimeter": 29.88,
    "conditions": "",
    "observationTime": "2026-05-05T21:20:00.000Z"
  }
}