{
  "SYD": {
    "raw": "METAR YSSY 062230Z AUTO 32008KT 9999 // FEW057 11/06 Q1031",
    "icao": "YSSY",
    "flightCategory": "VFR",
    "windDir": 320,
    "windSpeed": 8,
    "windGust": null,
    "visibility": 6,
    "ceiling": null,
    "temp": 11,
    "dewpoint": 6,
    "altimeter": 30.45,
    "conditions": "",
    "observationTime": "2026-06-06T22:30:00.000Z"
  },
  "LAS": {
    "raw": "METAR KLAS 062256Z 22014G30KT 10SM FEW130 SCT200 38/M05 A2965 RMK AO2 PK WND 24034/2202 SLP008 T03781050",
    "icao": "KLAS",
    "flightCategory": "VFR",
    "windDir": 220,
    "windSpeed": 14,
    "windGust": 30,
    "visibility": 10,
    "ceiling": null,
    "temp": 37.8,
    "dewpoint": -5,
    "altimeter": 29.65,
    "conditions": "",
    "observationTime": "2026-06-06T23:00:00.000Z"
  },
  "LAX": {
    "raw": "METAR KLAX 062253Z 25012KT 10SM FEW013 SCT220 SCT280 22/14 A2984 RMK AO2 SLP103 T02170139 $",
    "icao": "KLAX",
    "flightCategory": "VFR",
    "windDir": 250,
    "windSpeed": 12,
    "windGust": null,
    "visibility": 10,
    "ceiling": null,
    "temp": 21.7,
    "dewpoint": 13.9,
    "altimeter": 29.84,
    "conditions": "",
    "observationTime": "2026-06-06T23:00:00.000Z"
  },
  "ORD": {
    "raw": "METAR KORD 062251Z 06010KT 10SM FEW060 FEW110 SCT250 27/15 A2986 RMK AO2 SLP107 T02670150 $",
    "icao": "KORD",
    "flightCategory": "VFR",
    "windDir": 60,
    "windSpeed": 10,
    "windGust": null,
    "visibility": 10,
    "ceiling": null,
    "temp": 26.7,
    "dewpoint": 15,
    "altimeter": 29.86,
    "conditions": "",
    "observationTime": "2026-06-06T23:00:00.000Z"
  },
  "LHR": {
    "raw": "METAR EGLL 062250Z AUTO 26018KT 9999 OVC025 14/09 Q1014",
    "icao": "EGLL",
    "flightCategory": "MVFR",
    "windDir": 260,
    "windSpeed": 18,
    "windGust": null,
    "visibility": 6,
    "ceiling": 2500,
    "temp": 14,
    "dewpoint": 9,
    "altimeter": 29.94,
    "conditions": "",
    "observationTime": "2026-06-06T23:00:00.000Z"
  }
}