{
  "LAS": {
    "raw": "METAR KLAS 080556Z 18005KT 10SM CLR 25/M08 A2986 RMK AO2 SLP090 T02501083 10322 20250 51011",
    "icao": "KLAS",
    "flightCategory": "VFR",
    "windDir": 180,
    "windSpeed": 5,
    "windGust": null,
    "visibility": 10,
    "ceiling": null,
    "temp": 25,
    "dewpoint": -8.3,
    "altimeter": 29.86,
    "conditions": "",
    "observationTime": "2026-04-08T06:00:00.000Z"
  },
  "LAX": {
    "raw": "SPECI KLAX 080545Z 23005KT 10SM FEW007 FEW015 17/15 A2994 RMK AO2 T01670150 $",
    "icao": "KLAX",
    "flightCategory": "VFR",
    "windDir": 230,
    "windSpeed": 5,
    "windGust": null,
    "visibility": 10,
    "ceiling": null,
    "temp": 16.7,
    "dewpoint": 15,
    "altimeter": 29.94,
    "conditions": "",
    "observationTime": "2026-04-08T05:45:00.000Z"
  },
  "ORD": {
    "raw": "METAR KORD 080551Z 12005KT 10SM FEW080 BKN120 OVC250 02/M03 A3033 RMK AO2 SLP279 T00171028 10017 20000 400891022 58018 $",
    "icao": "KORD",
    "flightCategory": "VFR",
    "windDir": 120,
    "windSpeed": 5,
    "windGust": null,
    "visibility": 10,
    "ceiling": 12000,
    "temp": 1.7,
    "dewpoint": -2.8,
    "altimeter": 30.33,
    "conditions": "",
    "observationTime": "2026-04-08T06:00:00.000Z"
  },
  "LHR": {
    "raw": "METAR EGLL 080520Z COR AUTO 07003KT 9999 NCD 08/05 Q1022 NOSIG",
    "icao": "EGLL",
    "flightCategory": "VFR",
    "windDir": 70,
    "windSpeed": 3,
    "windGust": null,
    "visibility": 6,
    "ceiling": null,
    "temp": 8,
    "dewpoint": 5,
    "altimeter": 30.18,
    "conditions": "",
    "observationTime": "2026-04-08T05:20:00.000Z"
  },
  "SYD": {
    "raw": "METAR YSSY 080530Z 13008KT 9999 FEW030 BKN290 24/18 Q1014",
    "icao": "YSSY",
    "flightCategory": "VFR",
    "windDir": 130,
    "windSpeed": 8,
    "windGust": null,
    "visibility": 6,
    "ceiling": 29000,
    "temp": 24,
    "dewpoint": 18,
    "altimeter": 29.94,
    "conditions": "",
    "observationTime": "2026-04-08T05:30:00.000Z"
  }
}