{
  "SYD": {
    "raw": "METAR YSSY 270630Z AUTO 07011KT 9999 // NCD 22/13 Q1023",
    "icao": "YSSY",
    "flightCategory": "VFR",
    "windDir": 70,
    "windSpeed": 11,
    "windGust": null,
    "visibility": 6,
    "ceiling": null,
    "temp": 22,
    "dewpoint": 13,
    "altimeter": 30.21,
    "conditions": "",
    "observationTime": "2026-04-27T06:30:00.000Z"
  },
  "LAS": {
    "raw": "METAR KLAS 270656Z 20010KT 10SM CLR 16/01 A2982 RMK AO2 SLP087 T01560011",
    "icao": "KLAS",
    "flightCategory": "VFR",
    "windDir": 200,
    "windSpeed": 10,
    "windGust": null,
    "visibility": 10,
    "ceiling": null,
    "temp": 15.6,
    "dewpoint": 1.1,
    "altimeter": 29.82,
    "conditions": "",
    "observationTime": "2026-04-27T07:00:00.000Z"
  },
  "LAX": {
    "raw": "METAR KLAX 270653Z 27008KT 10SM FEW022 BKN060 16/08 A3000 RMK AO2 SLP158 T01560078 $",
    "icao": "KLAX",
    "flightCategory": "VFR",
    "windDir": 270,
    "windSpeed": 8,
    "windGust": null,
    "visibility": 10,
    "ceiling": 6000,
    "temp": 15.6,
    "dewpoint": 7.8,
    "altimeter": 30,
    "conditions": "",
    "observationTime": "2026-04-27T07:00:00.000Z"
  },
  "ORD": {
    "raw": "METAR KORD 270651Z 07004KT 10SM OVC210 09/07 A2996 RMK AO2 SLP148 T00940067 $",
    "icao": "KORD",
    "flightCategory": "VFR",
    "windDir": 70,
    "windSpeed": 4,
    "windGust": null,
    "visibility": 10,
    "ceiling": 21000,
    "temp": 9.4,
    "dewpoint": 6.7,
    "altimeter": 29.96,
    "conditions": "",
    "observationTime": "2026-04-27T07:00:00.000Z"
  },
  "LHR": {
    "raw": "METAR EGLL 270620Z COR AUTO VRB02KT 9999 NCD 09/06 Q1025 NOSIG",
    "icao": "EGLL",
    "flightCategory": "VFR",
    "windDir": null,
    "windSpeed": 2,
    "windGust": null,
    "visibility": 6,
    "ceiling": null,
    "temp": 9,
    "dewpoint": 6,
    "altimeter": 30.27,
    "conditions": "",
    "observationTime": "2026-04-27T06:20:00.000Z"
  }
}