{
  "LHR": {
    "raw": "METAR EGLL 302350Z COR AUTO 27008KT 9999 OVC043 09/02 Q1029 NOSIG",
    "icao": "EGLL",
    "flightCategory": "VFR",
    "windDir": 270,
    "windSpeed": 8,
    "windGust": null,
    "visibility": 6,
    "ceiling": 4300,
    "temp": 9,
    "dewpoint": 2,
    "altimeter": 30.39,
    "conditions": "",
    "observationTime": "2026-03-31T00:00:00.000Z"
  },
  "SYD": {
    "raw": "METAR YSSY 302330Z 26004KT 9999 FEW040 SCT250 22/15 Q1026",
    "icao": "YSSY",
    "flightCategory": "VFR",
    "windDir": 260,
    "windSpeed": 4,
    "windGust": null,
    "visibility": 6,
    "ceiling": null,
    "temp": 22,
    "dewpoint": 15,
    "altimeter": 30.3,
    "conditions": "",
    "observationTime": "2026-03-30T23:30:00.000Z"
  },
  "LAS": {
    "raw": "METAR KLAS 302356Z 23017G26KT 10SM BKN170 BKN220 29/M14 A2985 RMK AO2 PK WND 21028/2345 SLP084 T02891139 10311 20283 56013",
    "icao": "KLAS",
    "flightCategory": "VFR",
    "windDir": 230,
    "windSpeed": 17,
    "windGust": 26,
    "visibility": 10,
    "ceiling": 17000,
    "temp": 28.9,
    "dewpoint": -13.9,
    "altimeter": 29.85,
    "conditions": "",
    "observationTime": "2026-03-31T00:00:00.000Z"
  },
  "LAX": {
    "raw": "METAR KLAX 302353Z 25009KT 10SM FEW020 OVC240 18/14 A2998 RMK AO2 SLP150 T01830144 10211 20183 56013",
    "icao": "KLAX",
    "flightCategory": "VFR",
    "windDir": 250,
    "windSpeed": 9,
    "windGust": null,
    "visibility": 10,
    "ceiling": 24000,
    "temp": 18.3,
    "dewpoint": 14.4,
    "altimeter": 29.98,
    "conditions": "",
    "observationTime": "2026-03-31T00:00:00.000Z"
  },
  "ORD": {
    "raw": "METAR KORD 302351Z 21012G23KT 10SM FEW055 FEW150 BKN300 26/12 A2971 RMK AO2 PK WND 21030/2323 SLP059 T02610122 10272 20233 56016",
    "icao": "KORD",
    "flightCategory": "VFR",
    "windDir": 210,
    "windSpeed": 12,
    "windGust": 23,
    "visibility": 10,
    "ceiling": 30000,
    "temp": 26.1,
    "dewpoint": 12.2,
    "altimeter": 29.71,
    "conditions": "",
    "observationTime": "2026-03-31T00:00:00.000Z"
  }
}