{
  "SYD": {
    "raw": "METAR YSSY 191830Z AUTO 26011KT 9999 // NCD 14/09 Q1014",
    "icao": "YSSY",
    "flightCategory": "VFR",
    "windDir": 260,
    "windSpeed": 11,
    "windGust": null,
    "visibility": 6,
    "ceiling": null,
    "temp": 14,
    "dewpoint": 9,
    "altimeter": 29.94,
    "conditions": "",
    "observationTime": "2026-05-19T18:30:00.000Z"
  },
  "LAS": {
    "raw": "METAR KLAS 191856Z 01009G24KT 10SM FEW250 24/M13 A3006 RMK AO2 PK WND 02030/1826 SLP162 T02391133",
    "icao": "KLAS",
    "flightCategory": "VFR",
    "windDir": 10,
    "windSpeed": 9,
    "windGust": 24,
    "visibility": 10,
    "ceiling": null,
    "temp": 23.9,
    "dewpoint": -13.3,
    "altimeter": 30.06,
    "conditions": "",
    "observationTime": "2026-05-19T19:00:00.000Z"
  },
  "LAX": {
    "raw": "METAR KLAX 191853Z 26009KT 8SM FEW038 FEW240 22/12 A2998 RMK AO2 SLP150 FU FEW038 T02220122",
    "icao": "KLAX",
    "flightCategory": "VFR",
    "windDir": 260,
    "windSpeed": 9,
    "windGust": null,
    "visibility": 8,
    "ceiling": null,
    "temp": 22.2,
    "dewpoint": 12.2,
    "altimeter": 29.98,
    "conditions": "",
    "observationTime": "2026-05-19T19:00:00.000Z"
  },
  "ORD": {
    "raw": "METAR KORD 191851Z 24014G26KT 10SM BKN036 OVC048 25/17 A2991 RMK AO2 PK WND 23029/1817 SLP126 T02500172",
    "icao": "KORD",
    "flightCategory": "VFR",
    "windDir": 240,
    "windSpeed": 14,
    "windGust": 26,
    "visibility": 10,
    "ceiling": 3600,
    "temp": 25,
    "dewpoint": 17.2,
    "altimeter": 29.91,
    "conditions": "",
    "observationTime": "2026-05-19T19:00:00.000Z"
  },
  "LHR": {
    "raw": "METAR EGLL 191820Z AUTO 22016KT 180V250 9999 SCT030 16/09 Q1009",
    "icao": "EGLL",
    "flightCategory": "VFR",
    "windDir": 220,
    "windSpeed": 16,
    "windGust": null,
    "visibility": 6,
    "ceiling": null,
    "temp": 16,
    "dewpoint": 9,
    "altimeter": 29.8,
    "conditions": "",
    "observationTime": "2026-05-19T18:20:00.000Z"
  }
}