{
  "SYD": {
    "raw": "METAR YSSY 120030Z 25019KT CAVOK 18/03 Q1010",
    "icao": "YSSY",
    "flightCategory": "VFR",
    "windDir": 250,
    "windSpeed": 19,
    "windGust": null,
    "visibility": 6,
    "ceiling": null,
    "temp": 18,
    "dewpoint": 3,
    "altimeter": 29.83,
    "conditions": "",
    "observationTime": "2026-04-12T00:30:00.000Z"
  },
  "LAS": {
    "raw": "METAR KLAS 120056Z 24017G25KT 10SM FEW150 FEW250 24/M05 A2978 RMK AO2 PK WND 24026/0033 SLP066 T02441050",
    "icao": "KLAS",
    "flightCategory": "VFR",
    "windDir": 240,
    "windSpeed": 17,
    "windGust": 25,
    "visibility": 10,
    "ceiling": null,
    "temp": 24.4,
    "dewpoint": -5,
    "altimeter": 29.78,
    "conditions": "",
    "observationTime": "2026-04-12T01:00:00.000Z"
  },
  "LAX": {
    "raw": "METAR KLAX 120053Z 26013G17KT 10SM FEW019 SCT035 SCT060 18/11 A2995 RMK AO2 SLP142 T01830111 $",
    "icao": "KLAX",
    "flightCategory": "VFR",
    "windDir": 260,
    "windSpeed": 13,
    "windGust": 17,
    "visibility": 10,
    "ceiling": null,
    "temp": 18.3,
    "dewpoint": 11.1,
    "altimeter": 29.95,
    "conditions": "",
    "observationTime": "2026-04-12T01:00:00.000Z"
  },
  "ORD": {
    "raw": "METAR KORD 120051Z 09007KT 10SM BKN055 BKN140 OVC250 09/00 A3023 RMK AO2 SLP239 T00940000 $",
    "icao": "KORD",
    "flightCategory": "VFR",
    "windDir": 90,
    "windSpeed": 7,
    "windGust": null,
    "visibility": 10,
    "ceiling": 5500,
    "temp": 9.4,
    "dewpoint": 0,
    "altimeter": 30.23,
    "conditions": "",
    "observationTime": "2026-04-12T01:00:00.000Z"
  },
  "LHR": {
    "raw": "METAR EGLL 120020Z COR AUTO 22011KT 9999 NCD 09/04 Q1009 NOSIG",
    "icao": "EGLL",
    "flightCategory": "VFR",
    "windDir": 220,
    "windSpeed": 11,
    "windGust": null,
    "visibility": 6,
    "ceiling": null,
    "temp": 9,
    "dewpoint": 4,
    "altimeter": 29.8,
    "conditions": "",
    "observationTime": "2026-04-12T00:20:00.000Z"
  }
}