{
  "SYD": {
    "raw": "METAR YSSY 291200Z AUTO 11005KT 9999 // FEW036 BKN075 20/16 Q1030",
    "icao": "YSSY",
    "flightCategory": "VFR",
    "windDir": 110,
    "windSpeed": 5,
    "windGust": null,
    "visibility": 6,
    "ceiling": 7500,
    "temp": 20,
    "dewpoint": 16,
    "altimeter": 30.42,
    "conditions": "",
    "observationTime": "2026-04-29T12:00:00.000Z"
  },
  "LHR": {
    "raw": "METAR EGLL 291150Z COR AUTO 07018G29KT 9999 NCD 17/M01 Q1023 NOSIG",
    "icao": "EGLL",
    "flightCategory": "VFR",
    "windDir": 70,
    "windSpeed": 18,
    "windGust": 29,
    "visibility": 6,
    "ceiling": null,
    "temp": 17,
    "dewpoint": -1,
    "altimeter": 30.21,
    "conditions": "",
    "observationTime": "2026-04-29T12:00:00.000Z"
  },
  "LAS": {
    "raw": "METAR KLAS 291156Z 16003KT 10SM CLR 16/M06 A3001 RMK AO2 SLP146 T01561061 10206 20156 53004",
    "icao": "KLAS",
    "flightCategory": "VFR",
    "windDir": 160,
    "windSpeed": 3,
    "windGust": null,
    "visibility": 10,
    "ceiling": null,
    "temp": 15.6,
    "dewpoint": -6.1,
    "altimeter": 30.01,
    "conditions": "",
    "observationTime": "2026-04-29T12:00:00.000Z"
  },
  "LAX": {
    "raw": "METAR KLAX 291153Z 00000KT 10SM FEW012 13/11 A3004 RMK AO2 SLP171 T01330111 10156 20122 53004 $",
    "icao": "KLAX",
    "flightCategory": "VFR",
    "windDir": 0,
    "windSpeed": 0,
    "windGust": null,
    "visibility": 10,
    "ceiling": null,
    "temp": 13.3,
    "dewpoint": 11.1,
    "altimeter": 30.04,
    "conditions": "",
    "observationTime": "2026-04-29T12:00:00.000Z"
  },
  "ORD": {
    "raw": "METAR KORD 291151Z 35006KT 10SM OVC060 10/06 A2991 RMK AO2 RAB07E17B34E49 SLP130 P0000 60000 T01000061 10139 20100 51014",
    "icao": "KORD",
    "flightCategory": "VFR",
    "windDir": 350,
    "windSpeed": 6,
    "windGust": null,
    "visibility": 10,
    "ceiling": 6000,
    "temp": 10,
    "dewpoint": 6.1,
    "altimeter": 29.91,
    "conditions": "",
    "observationTime": "2026-04-29T12:00:00.000Z"
  }
}