{
  "SYD": {
    "raw": "METAR YSSY 271430Z AUTO 21007KT 9999 // FEW029 SCT036 OVC043 19/18 Q1015",
    "icao": "YSSY",
    "flightCategory": "VFR",
    "windDir": 210,
    "windSpeed": 7,
    "windGust": null,
    "visibility": 6,
    "ceiling": 4300,
    "temp": 19,
    "dewpoint": 18,
    "altimeter": 29.97,
    "conditions": "",
    "observationTime": "2026-05-27T14:30:00.000Z"
  },
  "LAS": {
    "raw": "METAR KLAS 271456Z 20011G18KT 10SM FEW060 17/03 A2974 RMK AO2 SLP052 T01670033 51028",
    "icao": "KLAS",
    "flightCategory": "VFR",
    "windDir": 200,
    "windSpeed": 11,
    "windGust": 18,
    "visibility": 10,
    "ceiling": null,
    "temp": 16.7,
    "dewpoint": 3.3,
    "altimeter": 29.74,
    "conditions": "",
    "observationTime": "2026-05-27T15:00:00.000Z"
  },
  "LAX": {
    "raw": "METAR KLAX 271453Z 15006KT 10SM FEW018 BKN024 BKN050 16/10 A2984 RMK AO2 SLP102 T01560100 51015 $",
    "icao": "KLAX",
    "flightCategory": "MVFR",
    "windDir": 150,
    "windSpeed": 6,
    "windGust": null,
    "visibility": 10,
    "ceiling": 2400,
    "temp": 15.6,
    "dewpoint": 10,
    "altimeter": 29.84,
    "conditions": "",
    "observationTime": "2026-05-27T15:00:00.000Z"
  },
  "ORD": {
    "raw": "METAR KORD 271451Z 00000KT 10SM FEW170 SCT300 26/11 A3000 RMK AO2 SLP154 T02610111 51006",
    "icao": "KORD",
    "flightCategory": "VFR",
    "windDir": 0,
    "windSpeed": 0,
    "windGust": null,
    "visibility": 10,
    "ceiling": null,
    "temp": 26.1,
    "dewpoint": 11.1,
    "altimeter": 30,
    "conditions": "",
    "observationTime": "2026-05-27T15:00:00.000Z"
  },
  "LHR": {
    "raw": "METAR EGLL 271420Z AUTO 09013KT 050V110 9999 NCD 27/13 Q1024",
    "icao": "EGLL",
    "flightCategory": "VFR",
    "windDir": 90,
    "windSpeed": 13,
    "windGust": null,
    "visibility": 6,
    "ceiling": null,
    "temp": 27,
    "dewpoint": 13,
    "altimeter": 30.24,
    "conditions": "",
    "observationTime": "2026-05-27T14:20:00.000Z"
  }
}