{
  "SYD": {
    "raw": "SPECI YSSY 241222Z AUTO 36003KT 6000 -SHRA FEW012 BKN029 BKN042 18/17 Q1023",
    "icao": "YSSY",
    "flightCategory": "MVFR",
    "windDir": 360,
    "windSpeed": 3,
    "windGust": null,
    "visibility": 3.73,
    "ceiling": 2900,
    "temp": 18,
    "dewpoint": 17,
    "altimeter": 30.21,
    "conditions": "-SHRA",
    "observationTime": "2026-05-24T12:22:00.000Z"
  },
  "LAS": {
    "raw": "METAR KLAS 241256Z 16005KT 10SM CLR 23/01 A2995 RMK AO2 SLP118 T02280006",
    "icao": "KLAS",
    "flightCategory": "VFR",
    "windDir": 160,
    "windSpeed": 5,
    "windGust": null,
    "visibility": 10,
    "ceiling": null,
    "temp": 22.8,
    "dewpoint": 0.6,
    "altimeter": 29.95,
    "conditions": "",
    "observationTime": "2026-05-24T13:00:00.000Z"
  },
  "LAX": {
    "raw": "METAR KLAX 241253Z 27007KT 10SM FEW014 OVC018 16/11 A3000 RMK AO2 SLP156 T01560111 $",
    "icao": "KLAX",
    "flightCategory": "MVFR",
    "windDir": 270,
    "windSpeed": 7,
    "windGust": null,
    "visibility": 10,
    "ceiling": 1800,
    "temp": 15.6,
    "dewpoint": 11.1,
    "altimeter": 30,
    "conditions": "",
    "observationTime": "2026-05-24T13:00:00.000Z"
  },
  "ORD": {
    "raw": "SPECI KORD 241223Z 32005KT 3SM -TSRA BR FEW011 BKN036CB OVC048 15/14 A3000 RMK AO2 OCNL LTGIC OHD TS OHD MOV NE P0017 T01500139 $",
    "icao": "KORD",
    "flightCategory": "MVFR",
    "windDir": 320,
    "windSpeed": 5,
    "windGust": null,
    "visibility": 3,
    "ceiling": 3600,
    "temp": 15,
    "dewpoint": 13.9,
    "altimeter": 30,
    "conditions": "-TSRA BR",
    "observationTime": "2026-05-24T12:23:00.000Z"
  },
  "LHR": {
    "raw": "METAR EGLL 241220Z AUTO 25008KT 220V300 9999 NCD 28/10 Q1030",
    "icao": "EGLL",
    "flightCategory": "VFR",
    "windDir": 250,
    "windSpeed": 8,
    "windGust": null,
    "visibility": 6,
    "ceiling": null,
    "temp": 28,
    "dewpoint": 10,
    "altimeter": 30.42,
    "conditions": "",
    "observationTime": "2026-05-24T12:20:00.000Z"
  }
}