{
  "SYD": {
    "raw": "SPECI YSSY 281330Z AUTO 20021KT 3500 +RA BKN008 OVC013 OVC032 18/18 Q1005",
    "icao": "YSSY",
    "flightCategory": "IFR",
    "windDir": 200,
    "windSpeed": 21,
    "windGust": null,
    "visibility": 2.17,
    "ceiling": 800,
    "temp": 18,
    "dewpoint": 18,
    "altimeter": 29.68,
    "conditions": "+RA",
    "observationTime": "2026-05-28T13:30:00.000Z"
  },
  "LAS": {
    "raw": "METAR KLAS 281356Z 17008KT 10SM FEW140 FEW200 14/01 A2986 RMK AO2 SLP094 T01440006",
    "icao": "KLAS",
    "flightCategory": "VFR",
    "windDir": 170,
    "windSpeed": 8,
    "windGust": null,
    "visibility": 10,
    "ceiling": null,
    "temp": 14.4,
    "dewpoint": 0.6,
    "altimeter": 29.86,
    "conditions": "",
    "observationTime": "2026-05-28T14:00:00.000Z"
  },
  "LAX": {
    "raw": "METAR KLAX 281353Z 11005KT 10SM FEW010 FEW040 SCT060 BKN140 14/08 A2993 RMK AO2 SLP133 T01440083 $",
    "icao": "KLAX",
    "flightCategory": "VFR",
    "windDir": 110,
    "windSpeed": 5,
    "windGust": null,
    "visibility": 10,
    "ceiling": 14000,
    "temp": 14.4,
    "dewpoint": 8.3,
    "altimeter": 29.93,
    "conditions": "",
    "observationTime": "2026-05-28T14:00:00.000Z"
  },
  "ORD": {
    "raw": "METAR KORD 281351Z 04011KT 10SM FEW300 18/08 A3019 RMK AO2 SLP221 T01780083",
    "icao": "KORD",
    "flightCategory": "VFR",
    "windDir": 40,
    "windSpeed": 11,
    "windGust": null,
    "visibility": 10,
    "ceiling": null,
    "temp": 17.8,
    "dewpoint": 8.3,
    "altimeter": 30.19,
    "conditions": "",
    "observationTime": "2026-05-28T14:00:00.000Z"
  },
  "LHR": {
    "raw": "METAR EGLL 281320Z AUTO 19011KT 160V240 9999 NCD 29/14 Q1020",
    "icao": "EGLL",
    "flightCategory": "VFR",
    "windDir": 190,
    "windSpeed": 11,
    "windGust": null,
    "visibility": 6,
    "ceiling": null,
    "temp": 29,
    "dewpoint": 14,
    "altimeter": 30.12,
    "conditions": "",
    "observationTime": "2026-05-28T13:20:00.000Z"
  }
}