{
  "LAS": {
    "raw": "METAR KLAS 290256Z 22007KT 10SM CLR 29/M08 A2989 RMK AO2 SLP098 T02891078 53002",
    "icao": "KLAS",
    "flightCategory": "VFR",
    "windDir": 220,
    "windSpeed": 7,
    "windGust": null,
    "visibility": 10,
    "ceiling": null,
    "temp": 28.9,
    "dewpoint": -7.8,
    "altimeter": 29.89,
    "conditions": "",
    "observationTime": "2026-03-29T03:00:00.000Z"
  },
  "LAX": {
    "raw": "SPECI KLAX 290227Z 26011KT 10SM BKN007 BKN200 BKN250 17/14 A2993 RMK AO2 T01670144",
    "icao": "KLAX",
    "flightCategory": "IFR",
    "windDir": 260,
    "windSpeed": 11,
    "windGust": null,
    "visibility": 10,
    "ceiling": 700,
    "temp": 16.7,
    "dewpoint": 14.4,
    "altimeter": 29.93,
    "conditions": "",
    "observationTime": "2026-03-29T02:27:00.000Z"
  },
  "ORD": {
    "raw": "METAR KORD 290251Z 19010G19KT 10SM SCT100 BKN250 07/M03 A3030 RMK AO2 SLP268 T00721033 58013",
    "icao": "KORD",
    "flightCategory": "VFR",
    "windDir": 190,
    "windSpeed": 10,
    "windGust": 19,
    "visibility": 10,
    "ceiling": 25000,
    "temp": 7.2,
    "dewpoint": -3.3,
    "altimeter": 30.3,
    "conditions": "",
    "observationTime": "2026-03-29T03:00:00.000Z"
  },
  "LHR": {
    "raw": "METAR EGLL 290220Z COR AUTO 29006KT 9999 NCD 03/M00 Q1031 NOSIG",
    "icao": "EGLL",
    "flightCategory": "VFR",
    "windDir": 290,
    "windSpeed": 6,
    "windGust": null,
    "visibility": 6,
    "ceiling": null,
    "temp": 3,
    "dewpoint": 0,
    "altimeter": 30.45,
    "conditions": "",
    "observationTime": "2026-03-29T02:20:00.000Z"
  },
  "SYD": {
    "raw": "METAR YSSY 290230Z 17013KT 9999 FEW045 21/14 Q1021",
    "icao": "YSSY",
    "flightCategory": "VFR",
    "windDir": 170,
    "windSpeed": 13,
    "windGust": null,
    "visibility": 6,
    "ceiling": null,
    "temp": 21,
    "dewpoint": 14,
    "altimeter": 30.15,
    "conditions": "",
    "observationTime": "2026-03-29T02:30:00.000Z"
  }
}