{
  "SYD": {
    "raw": "METAR YSSY 180130Z AUTO 35009KT 9999 // NCD 20/13 Q1019",
    "icao": "YSSY",
    "flightCategory": "VFR",
    "windDir": 350,
    "windSpeed": 9,
    "windGust": null,
    "visibility": 6,
    "ceiling": null,
    "temp": 20,
    "dewpoint": 13,
    "altimeter": 30.09,
    "conditions": "",
    "observationTime": "2026-06-18T01:30:00.000Z"
  },
  "LAS": {
    "raw": "METAR KLAS 180156Z 24012KT 10SM FEW130 SCT200 SCT250 40/M02 A2968 RMK AO2 SLP015 FU SCT200 T04001017",
    "icao": "KLAS",
    "flightCategory": "VFR",
    "windDir": 240,
    "windSpeed": 12,
    "windGust": null,
    "visibility": 10,
    "ceiling": null,
    "temp": 40,
    "dewpoint": -1.7,
    "altimeter": 29.68,
    "conditions": "",
    "observationTime": "2026-06-18T02:00:00.000Z"
  },
  "LAX": {
    "raw": "METAR KLAX 180153Z 28010G18KT 10SM SCT015 19/14 A2991 RMK AO2 SLP127 T01890144 $",
    "icao": "KLAX",
    "flightCategory": "VFR",
    "windDir": 280,
    "windSpeed": 10,
    "windGust": 18,
    "visibility": 10,
    "ceiling": null,
    "temp": 18.9,
    "dewpoint": 14.4,
    "altimeter": 29.91,
    "conditions": "",
    "observationTime": "2026-06-18T02:00:00.000Z"
  },
  "ORD": {
    "raw": "METAR KORD 180151Z 22009KT 10SM FEW040 SCT100 SCT250 19/18 A2935 RMK AO2 SLP935 CB DSNT NW MOV SE T01940178",
    "icao": "KORD",
    "flightCategory": "VFR",
    "windDir": 220,
    "windSpeed": 9,
    "windGust": null,
    "visibility": 10,
    "ceiling": null,
    "temp": 19.4,
    "dewpoint": 17.8,
    "altimeter": 29.35,
    "conditions": "",
    "observationTime": "2026-06-18T02:00:00.000Z"
  },
  "LHR": {
    "raw": "METAR EGLL 180150Z AUTO 21006KT 9999 OVC006 17/16 Q1018",
    "icao": "EGLL",
    "flightCategory": "IFR",
    "windDir": 210,
    "windSpeed": 6,
    "windGust": null,
    "visibility": 6,
    "ceiling": 600,
    "temp": 17,
    "dewpoint": 16,
    "altimeter": 30.06,
    "conditions": "",
    "observationTime": "2026-06-18T02:00:00.000Z"
  }
}