{
  "SYD": {
    "raw": "METAR YSSY 291100Z AUTO 15006KT 9999 // SCT032 BKN041 20/14 Q1024",
    "icao": "YSSY",
    "flightCategory": "VFR",
    "windDir": 150,
    "windSpeed": 6,
    "windGust": null,
    "visibility": 6,
    "ceiling": 4100,
    "temp": 20,
    "dewpoint": 14,
    "altimeter": 30.24,
    "conditions": "",
    "observationTime": "2026-03-29T11:00:00.000Z"
  },
  "LHR": {
    "raw": "METAR EGLL 291050Z COR AUTO 25014KT 9999 FEW049 10/01 Q1030 NOSIG",
    "icao": "EGLL",
    "flightCategory": "VFR",
    "windDir": 250,
    "windSpeed": 14,
    "windGust": null,
    "visibility": 6,
    "ceiling": null,
    "temp": 10,
    "dewpoint": 1,
    "altimeter": 30.42,
    "conditions": "",
    "observationTime": "2026-03-29T11:00:00.000Z"
  },
  "LAS": {
    "raw": "METAR KLAS 291056Z 25003KT 10SM CLR 22/M08 A2991 RMK AO2 SLP105 T02171078",
    "icao": "KLAS",
    "flightCategory": "VFR",
    "windDir": 250,
    "windSpeed": 3,
    "windGust": null,
    "visibility": 10,
    "ceiling": null,
    "temp": 21.7,
    "dewpoint": -7.8,
    "altimeter": 29.91,
    "conditions": "",
    "observationTime": "2026-03-29T11:00:00.000Z"
  },
  "LAX": {
    "raw": "METAR KLAX 291053Z 00000KT 6SM BR CLR 14/13 A2989 RMK AO2 SLP120 T01440133",
    "icao": "KLAX",
    "flightCategory": "VFR",
    "windDir": 0,
    "windSpeed": 0,
    "windGust": null,
    "visibility": 6,
    "ceiling": null,
    "temp": 14.4,
    "dewpoint": 13.3,
    "altimeter": 29.89,
    "conditions": "BR",
    "observationTime": "2026-03-29T11:00:00.000Z"
  },
  "ORD": {
    "raw": "METAR KORD 291051Z 20008KT 10SM FEW120 SCT210 BKN250 05/M02 A3023 RMK AO2 SLP242 T00501022 $",
    "icao": "KORD",
    "flightCategory": "VFR",
    "windDir": 200,
    "windSpeed": 8,
    "windGust": null,
    "visibility": 10,
    "ceiling": 25000,
    "temp": 5,
    "dewpoint": -2.2,
    "altimeter": 30.23,
    "conditions": "",
    "observationTime": "2026-03-29T11:00:00.000Z"
  }
}