{
  "SYD": {
    "raw": "METAR YSSY 301930Z AUTO 29007KT 9999 // NCD 11/08 Q1007",
    "icao": "YSSY",
    "flightCategory": "VFR",
    "windDir": 290,
    "windSpeed": 7,
    "windGust": null,
    "visibility": 6,
    "ceiling": null,
    "temp": 11,
    "dewpoint": 8,
    "altimeter": 29.74,
    "conditions": "",
    "observationTime": "2026-05-30T19:30:00.000Z"
  },
  "LAS": {
    "raw": "METAR KLAS 301956Z 05006KT 10SM FEW100 FEW250 28/00 A2994 RMK AO2 SLP117 T02830000",
    "icao": "KLAS",
    "flightCategory": "VFR",
    "windDir": 50,
    "windSpeed": 6,
    "windGust": null,
    "visibility": 10,
    "ceiling": null,
    "temp": 28.3,
    "dewpoint": 0,
    "altimeter": 29.94,
    "conditions": "",
    "observationTime": "2026-05-30T20:00:00.000Z"
  },
  "LAX": {
    "raw": "METAR KLAX 301953Z 26013KT 10SM FEW012 FEW100 21/12 A3001 RMK AO2 SLP160 T02060122 $",
    "icao": "KLAX",
    "flightCategory": "VFR",
    "windDir": 260,
    "windSpeed": 13,
    "windGust": null,
    "visibility": 10,
    "ceiling": null,
    "temp": 20.6,
    "dewpoint": 12.2,
    "altimeter": 30.01,
    "conditions": "",
    "observationTime": "2026-05-30T20:00:00.000Z"
  },
  "ORD": {
    "raw": "METAR KORD 301951Z 04012KT 10SM FEW200 BKN250 22/04 A3010 RMK AO2 SLP189 T02170044 $",
    "icao": "KORD",
    "flightCategory": "VFR",
    "windDir": 40,
    "windSpeed": 12,
    "windGust": null,
    "visibility": 10,
    "ceiling": 25000,
    "temp": 21.7,
    "dewpoint": 4.4,
    "altimeter": 30.1,
    "conditions": "",
    "observationTime": "2026-05-30T20:00:00.000Z"
  },
  "LHR": {
    "raw": "METAR EGLL 301920Z AUTO 29007KT 9999 NCD 25/06 Q1016",
    "icao": "EGLL",
    "flightCategory": "VFR",
    "windDir": 290,
    "windSpeed": 7,
    "windGust": null,
    "visibility": 6,
    "ceiling": null,
    "temp": 25,
    "dewpoint": 6,
    "altimeter": 30,
    "conditions": "",
    "observationTime": "2026-05-30T19:20:00.000Z"
  }
}