{
  "SYD": {
    "raw": "METAR YSSY 130100Z 31008KT CAVOK 21/14 Q1028",
    "icao": "YSSY",
    "flightCategory": "VFR",
    "windDir": 310,
    "windSpeed": 8,
    "windGust": null,
    "visibility": 6,
    "ceiling": null,
    "temp": 21,
    "dewpoint": 14,
    "altimeter": 30.36,
    "conditions": "",
    "observationTime": "2026-06-13T01:00:00.000Z"
  },
  "LHR": {
    "raw": "METAR EGLL 130050Z AUTO 25010KT 9999 NCD 13/11 Q1022",
    "icao": "EGLL",
    "flightCategory": "VFR",
    "windDir": 250,
    "windSpeed": 10,
    "windGust": null,
    "visibility": 6,
    "ceiling": null,
    "temp": 13,
    "dewpoint": 11,
    "altimeter": 30.18,
    "conditions": "",
    "observationTime": "2026-06-13T01:00:00.000Z"
  },
  "LAS": {
    "raw": "METAR KLAS 130056Z 12012G23KT 10SM FEW120 SCT200 41/05 A2971 RMK AO2 SLP028 T04060050",
    "icao": "KLAS",
    "flightCategory": "VFR",
    "windDir": 120,
    "windSpeed": 12,
    "windGust": 23,
    "visibility": 10,
    "ceiling": null,
    "temp": 40.6,
    "dewpoint": 5,
    "altimeter": 29.71,
    "conditions": "",
    "observationTime": "2026-06-13T01:00:00.000Z"
  },
  "LAX": {
    "raw": "METAR KLAX 130053Z 26016KT 10SM BKN007 BKN039 20/17 A2983 RMK AO2 SLP099 T02000167 $",
    "icao": "KLAX",
    "flightCategory": "IFR",
    "windDir": 260,
    "windSpeed": 16,
    "windGust": null,
    "visibility": 10,
    "ceiling": 700,
    "temp": 20,
    "dewpoint": 16.7,
    "altimeter": 29.83,
    "conditions": "",
    "observationTime": "2026-06-13T01:00:00.000Z"
  },
  "ORD": {
    "raw": "METAR KORD 130051Z 24006G16KT 10SM FEW060 26/13 A2992 RMK AO2 SLP128 T02560133 $",
    "icao": "KORD",
    "flightCategory": "VFR",
    "windDir": 240,
    "windSpeed": 6,
    "windGust": 16,
    "visibility": 10,
    "ceiling": null,
    "temp": 25.6,
    "dewpoint": 13.3,
    "altimeter": 29.92,
    "conditions": "",
    "observationTime": "2026-06-13T01:00:00.000Z"
  }
}