{
  "LAX": {
    "raw": "METAR KLAX 300053Z 25010KT 10SM FEW005 FEW200 19/15 A2991 RMK AO2 SLP127 T01890150 $",
    "icao": "KLAX",
    "flightCategory": "VFR",
    "windDir": 250,
    "windSpeed": 10,
    "windGust": null,
    "visibility": 10,
    "ceiling": null,
    "temp": 18.9,
    "dewpoint": 15,
    "altimeter": 29.91,
    "conditions": "",
    "observationTime": "2026-03-30T01:00:00.000Z"
  },
  "ORD": {
    "raw": "METAR KORD 300051Z 21012G18KT 10SM BKN048 BKN060 OVC250 16/M02 A3002 RMK AO2 SLP167 T01561022 $",
    "icao": "KORD",
    "flightCategory": "VFR",
    "windDir": 210,
    "windSpeed": 12,
    "windGust": 18,
    "visibility": 10,
    "ceiling": 4800,
    "temp": 15.6,
    "dewpoint": -2.2,
    "altimeter": 30.02,
    "conditions": "",
    "observationTime": "2026-03-30T01:00:00.000Z"
  },
  "LHR": {
    "raw": "METAR EGLL 300020Z COR AUTO 27010KT 9999 NCD 08/06 Q1021 NOSIG",
    "icao": "EGLL",
    "flightCategory": "VFR",
    "windDir": 270,
    "windSpeed": 10,
    "windGust": null,
    "visibility": 6,
    "ceiling": null,
    "temp": 8,
    "dewpoint": 6,
    "altimeter": 30.15,
    "conditions": "",
    "observationTime": "2026-03-30T00:20:00.000Z"
  },
  "SYD": {
    "raw": "METAR YSSY 300000Z 22006KT 150V240 9999 FEW026 BKN055 21/15 Q1025",
    "icao": "YSSY",
    "flightCategory": "VFR",
    "windDir": 220,
    "windSpeed": 6,
    "windGust": null,
    "visibility": 6,
    "ceiling": 5500,
    "temp": 21,
    "dewpoint": 15,
    "altimeter": 30.27,
    "conditions": "",
    "observationTime": "2026-03-30T00:00:00.000Z"
  }
}