{
  "SYD": {
    "raw": "METAR YSSY 211830Z AUTO 23010KT 9999 // FEW029 SCT038 BKN046 15/13 Q1026",
    "icao": "YSSY",
    "flightCategory": "VFR",
    "windDir": 230,
    "windSpeed": 10,
    "windGust": null,
    "visibility": 6,
    "ceiling": 4600,
    "temp": 15,
    "dewpoint": 13,
    "altimeter": 30.3,
    "conditions": "",
    "observationTime": "2026-05-21T18:30:00.000Z"
  },
  "LAS": {
    "raw": "METAR KLAS 211856Z VRB04KT 10SM FEW250 31/M09 A2987 RMK AO2 SLP090 T03061089",
    "icao": "KLAS",
    "flightCategory": "VFR",
    "windDir": null,
    "windSpeed": 4,
    "windGust": null,
    "visibility": 10,
    "ceiling": null,
    "temp": 30.6,
    "dewpoint": -8.9,
    "altimeter": 29.87,
    "conditions": "",
    "observationTime": "2026-05-21T19:00:00.000Z"
  },
  "LAX": {
    "raw": "METAR KLAX 211853Z 25011KT 10SM FEW010 22/15 A2990 RMK AO2 SLP124 T02170150 $",
    "icao": "KLAX",
    "flightCategory": "VFR",
    "windDir": 250,
    "windSpeed": 11,
    "windGust": null,
    "visibility": 10,
    "ceiling": null,
    "temp": 21.7,
    "dewpoint": 15,
    "altimeter": 29.9,
    "conditions": "",
    "observationTime": "2026-05-21T19:00:00.000Z"
  },
  "ORD": {
    "raw": "METAR KORD 211851Z 02012KT 10SM FEW110 SCT180 OVC250 13/06 A3028 RMK AO2 SLP255 T01330061",
    "icao": "KORD",
    "flightCategory": "VFR",
    "windDir": 20,
    "windSpeed": 12,
    "windGust": null,
    "visibility": 10,
    "ceiling": 25000,
    "temp": 13.3,
    "dewpoint": 6.1,
    "altimeter": 30.28,
    "conditions": "",
    "observationTime": "2026-05-21T19:00:00.000Z"
  },
  "LHR": {
    "raw": "METAR EGLL 211820Z AUTO 20009KT 150V240 9999 NCD 22/12 Q1025",
    "icao": "EGLL",
    "flightCategory": "VFR",
    "windDir": 200,
    "windSpeed": 9,
    "windGust": null,
    "visibility": 6,
    "ceiling": null,
    "temp": 22,
    "dewpoint": 12,
    "altimeter": 30.27,
    "conditions": "",
    "observationTime": "2026-05-21T18:20:00.000Z"
  }
}