{
  "SYD": {
    "raw": "METAR YSSY 081600Z AUTO 35006KT 9999 // NCD 20/18 Q1016",
    "icao": "YSSY",
    "flightCategory": "VFR",
    "windDir": 350,
    "windSpeed": 6,
    "windGust": null,
    "visibility": 6,
    "ceiling": null,
    "temp": 20,
    "dewpoint": 18,
    "altimeter": 30,
    "conditions": "",
    "observationTime": "2026-04-08T16:00:00.000Z"
  },
  "LAX": {
    "raw": "SPECI KLAX 081624Z 00000KT 5SM HZ FEW008 BKN010 17/14 A2996 RMK AO2 T01720144 $",
    "icao": "KLAX",
    "flightCategory": "MVFR",
    "windDir": 0,
    "windSpeed": 0,
    "windGust": null,
    "visibility": 5,
    "ceiling": 1000,
    "temp": 17.2,
    "dewpoint": 14.4,
    "altimeter": 29.96,
    "conditions": "HZ",
    "observationTime": "2026-04-08T16:24:00.000Z"
  },
  "LHR": {
    "raw": "METAR EGLL 081620Z COR AUTO 19009KT 150V240 9999 NCD 25/10 Q1020 NOSIG",
    "icao": "EGLL",
    "flightCategory": "VFR",
    "windDir": 190,
    "windSpeed": 9,
    "windGust": null,
    "visibility": 6,
    "ceiling": null,
    "temp": 25,
    "dewpoint": 10,
    "altimeter": 30.12,
    "conditions": "",
    "observationTime": "2026-04-08T16:20:00.000Z"
  },
  "LAS": {
    "raw": "METAR KLAS 081556Z 04005KT 10SM FEW250 24/M07 A2992 RMK AO2 SLP109 T02391067",
    "icao": "KLAS",
    "flightCategory": "VFR",
    "windDir": 40,
    "windSpeed": 5,
    "windGust": null,
    "visibility": 10,
    "ceiling": null,
    "temp": 23.9,
    "dewpoint": -6.7,
    "altimeter": 29.92,
    "conditions": "",
    "observationTime": "2026-04-08T16:00:00.000Z"
  }
}