{
  "LAS": {
    "raw": "METAR KLAS 021056Z 22022G31KT 10SM FEW060 FEW250 16/04 A2973 RMK AO2 PK WND 21032/1015 SLP050 T01560044",
    "icao": "KLAS",
    "flightCategory": "VFR",
    "windDir": 220,
    "windSpeed": 22,
    "windGust": 31,
    "visibility": 10,
    "ceiling": null,
    "temp": 15.6,
    "dewpoint": 4.4,
    "altimeter": 29.73,
    "conditions": "",
    "observationTime": "2026-04-02T11:00:00.000Z"
  },
  "LAX": {
    "raw": "SPECI KLAX 021018Z 27014KT 10SM FEW012 BKN021 BKN050 BKN250 16/12 A2998 RMK AO2 T01560122 $",
    "icao": "KLAX",
    "flightCategory": "MVFR",
    "windDir": 270,
    "windSpeed": 14,
    "windGust": null,
    "visibility": 10,
    "ceiling": 2100,
    "temp": 15.6,
    "dewpoint": 12.2,
    "altimeter": 29.98,
    "conditions": "",
    "observationTime": "2026-04-02T10:18:00.000Z"
  },
  "ORD": {
    "raw": "METAR KORD 021051Z 07009KT 6SM BR OVC006 04/02 A2992 RMK AO2 LTG DSNT NE RAE38 SLP138 P0004 T00390022",
    "icao": "KORD",
    "flightCategory": "IFR",
    "windDir": 70,
    "windSpeed": 9,
    "windGust": null,
    "visibility": 6,
    "ceiling": 600,
    "temp": 3.9,
    "dewpoint": 2.2,
    "altimeter": 29.92,
    "conditions": "BR",
    "observationTime": "2026-04-02T11:00:00.000Z"
  },
  "LHR": {
    "raw": "METAR EGLL 021020Z COR AUTO 04006KT 340V080 9999 OVC026 07/02 Q1022 NOSIG",
    "icao": "EGLL",
    "flightCategory": "MVFR",
    "windDir": 40,
    "windSpeed": 6,
    "windGust": null,
    "visibility": 6,
    "ceiling": 2600,
    "temp": 7,
    "dewpoint": 2,
    "altimeter": 30.18,
    "conditions": "",
    "observationTime": "2026-04-02T10:20:00.000Z"
  },
  "SYD": {
    "raw": "METAR YSSY 021030Z AUTO 03009KT 9999 // NCD 23/19 Q1022",
    "icao": "YSSY",
    "flightCategory": "VFR",
    "windDir": 30,
    "windSpeed": 9,
    "windGust": null,
    "visibility": 6,
    "ceiling": null,
    "temp": 23,
    "dewpoint": 19,
    "altimeter": 30.18,
    "conditions": "",
    "observationTime": "2026-04-02T10:30:00.000Z"
  }
}