{
  "SYD": {
    "raw": "METAR YSSY 120600Z 26019KT CAVOK 20/01 Q1010",
    "icao": "YSSY",
    "flightCategory": "VFR",
    "windDir": 260,
    "windSpeed": 19,
    "windGust": null,
    "visibility": 6,
    "ceiling": null,
    "temp": 20,
    "dewpoint": 1,
    "altimeter": 29.83,
    "conditions": "",
    "observationTime": "2026-04-12T06:00:00.000Z"
  },
  "LHR": {
    "raw": "METAR EGLL 120620Z COR AUTO 21011KT 9999 NCD 08/04 Q1009 NOSIG",
    "icao": "EGLL",
    "flightCategory": "VFR",
    "windDir": 210,
    "windSpeed": 11,
    "windGust": null,
    "visibility": 6,
    "ceiling": null,
    "temp": 8,
    "dewpoint": 4,
    "altimeter": 29.8,
    "conditions": "",
    "observationTime": "2026-04-12T06:20:00.000Z"
  },
  "LAS": {
    "raw": "METAR KLAS 120556Z 26012KT 10SM FEW200 21/M02 A2982 RMK AO2 SLP079 T02061017 10250 20206 51008",
    "icao": "KLAS",
    "flightCategory": "VFR",
    "windDir": 260,
    "windSpeed": 12,
    "windGust": null,
    "visibility": 10,
    "ceiling": null,
    "temp": 20.6,
    "dewpoint": -1.7,
    "altimeter": 29.82,
    "conditions": "",
    "observationTime": "2026-04-12T06:00:00.000Z"
  },
  "LAX": {
    "raw": "METAR KLAX 120553Z 25006KT 10SM SCT024 BKN030 17/12 A2999 RMK AO2 SLP152 T01670117 10189 20161 51008 $",
    "icao": "KLAX",
    "flightCategory": "MVFR",
    "windDir": 250,
    "windSpeed": 6,
    "windGust": null,
    "visibility": 10,
    "ceiling": 3000,
    "temp": 16.7,
    "dewpoint": 11.7,
    "altimeter": 29.99,
    "conditions": "",
    "observationTime": "2026-04-12T06:00:00.000Z"
  },
  "ORD": {
    "raw": "METAR KORD 120551Z 15008KT 10SM BKN100 OVC130 13/05 A3012 RMK AO2 SLP199 T01330050 10133 20089 401330017 58021 $",
    "icao": "KORD",
    "flightCategory": "VFR",
    "windDir": 150,
    "windSpeed": 8,
    "windGust": null,
    "visibility": 10,
    "ceiling": 10000,
    "temp": 13.3,
    "dewpoint": 5,
    "altimeter": 30.12,
    "conditions": "",
    "observationTime": "2026-04-12T06:00:00.000Z"
  }
}