{
  "LHR": {
    "raw": "METAR EGLL 201050Z COR AUTO 05010KT 360V080 9999 BKN045 13/01 Q1024 NOSIG",
    "icao": "EGLL",
    "flightCategory": "VFR",
    "windDir": 50,
    "windSpeed": 10,
    "windGust": null,
    "visibility": 6,
    "ceiling": 4500,
    "temp": 13,
    "dewpoint": 1,
    "altimeter": 30.24,
    "conditions": "",
    "observationTime": "2026-04-20T11:00:00.000Z"
  },
  "LAX": {
    "raw": "METAR KLAX 201053Z 24004KT 10SM SCT013 14/13 A2996 RMK AO2 SLP144 T01440128",
    "icao": "KLAX",
    "flightCategory": "VFR",
    "windDir": 240,
    "windSpeed": 4,
    "windGust": null,
    "visibility": 10,
    "ceiling": null,
    "temp": 14.4,
    "dewpoint": 12.8,
    "altimeter": 29.96,
    "conditions": "",
    "observationTime": "2026-04-20T11:00:00.000Z"
  },
  "SYD": {
    "raw": "METAR YSSY 201100Z AUTO 21012KT 9999 -SHRA SCT028 BKN035 BKN044 18/13 Q1026",
    "icao": "YSSY",
    "flightCategory": "VFR",
    "windDir": 210,
    "windSpeed": 12,
    "windGust": null,
    "visibility": 6,
    "ceiling": 3500,
    "temp": 18,
    "dewpoint": 13,
    "altimeter": 30.3,
    "conditions": "-SHRA",
    "observationTime": "2026-04-20T11:00:00.000Z"
  },
  "LAS": {
    "raw": "METAR KLAS 201056Z 29004KT 10SM SCT250 19/M07 A2990 RMK AO2 SLP103 T01891072",
    "icao": "KLAS",
    "flightCategory": "VFR",
    "windDir": 290,
    "windSpeed": 4,
    "windGust": null,
    "visibility": 10,
    "ceiling": null,
    "temp": 18.9,
    "dewpoint": -7.2,
    "altimeter": 29.9,
    "conditions": "",
    "observationTime": "2026-04-20T11:00:00.000Z"
  },
  "ORD": {
    "raw": "METAR KORD 201051Z 02003KT 10SM CLR 02/M02 A3031 RMK AO2 SLP270 T00221022 $",
    "icao": "KORD",
    "flightCategory": "VFR",
    "windDir": 20,
    "windSpeed": 3,
    "windGust": null,
    "visibility": 10,
    "ceiling": null,
    "temp": 2.2,
    "dewpoint": -2.2,
    "altimeter": 30.31,
    "conditions": "",
    "observationTime": "2026-04-20T11:00:00.000Z"
  }
}