{
  "ORD": {
    "raw": "METAR KORD 091351Z 21006KT 10SM SCT100 BKN130 14/06 A3012 RMK AO2 SLP198 T01440056",
    "icao": "KORD",
    "flightCategory": "VFR",
    "windDir": 210,
    "windSpeed": 6,
    "windGust": null,
    "visibility": 10,
    "ceiling": 13000,
    "temp": 14.4,
    "dewpoint": 5.6,
    "altimeter": 30.12,
    "conditions": "",
    "observationTime": "2026-04-09T14:00:00.000Z"
  },
  "LHR": {
    "raw": "METAR EGLL 091320Z COR AUTO 26015KT 9999 NCD 19/08 Q1016 NOSIG",
    "icao": "EGLL",
    "flightCategory": "VFR",
    "windDir": 260,
    "windSpeed": 15,
    "windGust": null,
    "visibility": 6,
    "ceiling": null,
    "temp": 19,
    "dewpoint": 8,
    "altimeter": 30,
    "conditions": "",
    "observationTime": "2026-04-09T13:20:00.000Z"
  },
  "SYD": {
    "raw": "SPECI YSSY 091303Z AUTO 27003KT 9999 // NCD 24/18 Q1013",
    "icao": "YSSY",
    "flightCategory": "VFR",
    "windDir": 270,
    "windSpeed": 3,
    "windGust": null,
    "visibility": 6,
    "ceiling": null,
    "temp": 24,
    "dewpoint": 18,
    "altimeter": 29.91,
    "conditions": "",
    "observationTime": "2026-04-09T13:03:00.000Z"
  },
  "LAS": {
    "raw": "METAR KLAS 091256Z 21010KT 10SM BKN250 22/M03 A2983 RMK AO2 SLP077 T02171033",
    "icao": "KLAS",
    "flightCategory": "VFR",
    "windDir": 210,
    "windSpeed": 10,
    "windGust": null,
    "visibility": 10,
    "ceiling": 25000,
    "temp": 21.7,
    "dewpoint": -3.3,
    "altimeter": 29.83,
    "conditions": "",
    "observationTime": "2026-04-09T13:00:00.000Z"
  }
}