{
  "LHR": {
    "raw": "METAR EGLL 112050Z AUTO 26016KT 9999 OVC016 16/14 Q1017",
    "icao": "EGLL",
    "flightCategory": "MVFR",
    "windDir": 260,
    "windSpeed": 16,
    "windGust": null,
    "visibility": 6,
    "ceiling": 1600,
    "temp": 16,
    "dewpoint": 14,
    "altimeter": 30.03,
    "conditions": "",
    "observationTime": "2026-06-11T21:00:00.000Z"
  },
  "SYD": {
    "raw": "METAR YSSY 112100Z 21007KT 9999 FEW011 SCT018 BKN100 16/15 Q1032",
    "icao": "YSSY",
    "flightCategory": "VFR",
    "windDir": 210,
    "windSpeed": 7,
    "windGust": null,
    "visibility": 6,
    "ceiling": 10000,
    "temp": 16,
    "dewpoint": 15,
    "altimeter": 30.47,
    "conditions": "",
    "observationTime": "2026-06-11T21:00:00.000Z"
  },
  "LAS": {
    "raw": "METAR KLAS 112056Z 03007KT 340V120 8SM CLR 37/M04 A2986 RMK AO2 SLP080 T03671044 58018",
    "icao": "KLAS",
    "flightCategory": "VFR",
    "windDir": 30,
    "windSpeed": 7,
    "windGust": null,
    "visibility": 8,
    "ceiling": null,
    "temp": 36.7,
    "dewpoint": -4.4,
    "altimeter": 29.86,
    "conditions": "",
    "observationTime": "2026-06-11T21:00:00.000Z"
  },
  "LAX": {
    "raw": "METAR KLAX 112053Z 24010KT 10SM FEW025 23/17 A2986 RMK AO2 SLP111 T02280167 58001",
    "icao": "KLAX",
    "flightCategory": "VFR",
    "windDir": 240,
    "windSpeed": 10,
    "windGust": null,
    "visibility": 10,
    "ceiling": null,
    "temp": 22.8,
    "dewpoint": 16.7,
    "altimeter": 29.86,
    "conditions": "",
    "observationTime": "2026-06-11T21:00:00.000Z"
  },
  "ORD": {
    "raw": "METAR KORD 112051Z 14013G18KT 10SM FEW100 BKN150 BKN210 OVC300 24/19 A2961 RMK AO2 PRESRR SLP023 60007 T02440194 58071",
    "icao": "KORD",
    "flightCategory": "VFR",
    "windDir": 140,
    "windSpeed": 13,
    "windGust": 18,
    "visibility": 10,
    "ceiling": 15000,
    "temp": 24.4,
    "dewpoint": 19.4,
    "altimeter": 29.61,
    "conditions": "",
    "observationTime": "2026-06-11T21:00:00.000Z"
  }
}