{
  "LAS": {
    "raw": "METAR KLAS 031656Z 10004KT 10SM FEW130 FEW250 26/M11 A2988 RMK AO2 SLP096 T02561111",
    "icao": "KLAS",
    "flightCategory": "VFR",
    "windDir": 100,
    "windSpeed": 4,
    "windGust": null,
    "visibility": 10,
    "ceiling": null,
    "temp": 25.6,
    "dewpoint": -11.1,
    "altimeter": 29.88,
    "conditions": "",
    "observationTime": "2026-05-03T17:00:00.000Z"
  },
  "LAX": {
    "raw": "SPECI KLAX 031632Z 24006KT 10SM SCT023 OVC030 16/11 A2996 RMK AO2 T01610106",
    "icao": "KLAX",
    "flightCategory": "MVFR",
    "windDir": 240,
    "windSpeed": 6,
    "windGust": null,
    "visibility": 10,
    "ceiling": 3000,
    "temp": 16.1,
    "dewpoint": 10.6,
    "altimeter": 29.96,
    "conditions": "",
    "observationTime": "2026-05-03T16:32:00.000Z"
  },
  "ORD": {
    "raw": "METAR KORD 031651Z 20012G24KT 10SM BKN075 BKN200 BKN250 12/05 A2989 RMK AO2 PK WND 23027/1553 RAB1552E31 SLP122 P0000 T01170050 $",
    "icao": "KORD",
    "flightCategory": "VFR",
    "windDir": 200,
    "windSpeed": 12,
    "windGust": 24,
    "visibility": 10,
    "ceiling": 7500,
    "temp": 11.7,
    "dewpoint": 5,
    "altimeter": 29.89,
    "conditions": "",
    "observationTime": "2026-05-03T17:00:00.000Z"
  },
  "LHR": {
    "raw": "METAR EGLL 031620Z COR AUTO 25006KT 180V310 9999 FEW040 18/09 Q1009 NOSIG",
    "icao": "EGLL",
    "flightCategory": "VFR",
    "windDir": 250,
    "windSpeed": 6,
    "windGust": null,
    "visibility": 6,
    "ceiling": null,
    "temp": 18,
    "dewpoint": 9,
    "altimeter": 29.8,
    "conditions": "",
    "observationTime": "2026-05-03T16:20:00.000Z"
  },
  "SYD": {
    "raw": "METAR YSSY 031630Z AUTO 35004KT 9999 // NCD 19/16 Q1016",
    "icao": "YSSY",
    "flightCategory": "VFR",
    "windDir": 350,
    "windSpeed": 4,
    "windGust": null,
    "visibility": 6,
    "ceiling": null,
    "temp": 19,
    "dewpoint": 16,
    "altimeter": 30,
    "conditions": "",
    "observationTime": "2026-05-03T16:30:00.000Z"
  }
}