{
  "LAS": {
    "raw": "METAR KLAS 231156Z 03007KT 10SM CLR 16/M06 A2996 RMK AO2 SLP129 T01611056 10194 20161 51009",
    "icao": "KLAS",
    "flightCategory": "VFR",
    "windDir": 30,
    "windSpeed": 7,
    "windGust": null,
    "visibility": 10,
    "ceiling": null,
    "temp": 16.1,
    "dewpoint": -5.6,
    "altimeter": 29.96,
    "conditions": "",
    "observationTime": "2026-04-23T12:00:00.000Z"
  },
  "LAX": {
    "raw": "METAR KLAX 231154Z AUTO 00000KT 13/09 A2999 RMK AO2 SLP155 6//// 7//// T01330094 10161 20133 RVRNO CHINO RWY24 VISNO RWY24 $",
    "icao": "KLAX",
    "flightCategory": "UNKNOWN",
    "windDir": 0,
    "windSpeed": 0,
    "windGust": null,
    "visibility": null,
    "ceiling": null,
    "temp": 13.3,
    "dewpoint": 9.4,
    "altimeter": 29.99,
    "conditions": "",
    "observationTime": "2026-04-23T12:00:00.000Z"
  },
  "ORD": {
    "raw": "METAR KORD 231151Z 21005KT 10SM FEW250 14/11 A2992 RMK AO2 SLP131 T01390111 10139 20111 53003",
    "icao": "KORD",
    "flightCategory": "VFR",
    "windDir": 210,
    "windSpeed": 5,
    "windGust": null,
    "visibility": 10,
    "ceiling": null,
    "temp": 13.9,
    "dewpoint": 11.1,
    "altimeter": 29.92,
    "conditions": "",
    "observationTime": "2026-04-23T12:00:00.000Z"
  },
  "LHR": {
    "raw": "METAR EGLL 231120Z COR AUTO 08012KT 9999 NCD 16/06 Q1030 NOSIG",
    "icao": "EGLL",
    "flightCategory": "VFR",
    "windDir": 80,
    "windSpeed": 12,
    "windGust": null,
    "visibility": 6,
    "ceiling": null,
    "temp": 16,
    "dewpoint": 6,
    "altimeter": 30.42,
    "conditions": "",
    "observationTime": "2026-04-23T11:20:00.000Z"
  },
  "SYD": {
    "raw": "METAR YSSY 231130Z AUTO 15009KT 9999 // OVC062 20/11 Q1030",
    "icao": "YSSY",
    "flightCategory": "VFR",
    "windDir": 150,
    "windSpeed": 9,
    "windGust": null,
    "visibility": 6,
    "ceiling": 6200,
    "temp": 20,
    "dewpoint": 11,
    "altimeter": 30.42,
    "conditions": "",
    "observationTime": "2026-04-23T11:30:00.000Z"
  }
}