{
  "SYD": {
    "raw": "METAR YSSY 151330Z AUTO 30005KT 9999 // NCD 18/14 Q1019",
    "icao": "YSSY",
    "flightCategory": "VFR",
    "windDir": 300,
    "windSpeed": 5,
    "windGust": null,
    "visibility": 6,
    "ceiling": null,
    "temp": 18,
    "dewpoint": 14,
    "altimeter": 30.09,
    "conditions": "",
    "observationTime": "2026-04-15T13:30:00.000Z"
  },
  "LAS": {
    "raw": "METAR KLAS 151356Z 00000KT 10SM CLR 16/M06 A3001 RMK AO2 SLP149 T01561061",
    "icao": "KLAS",
    "flightCategory": "VFR",
    "windDir": 0,
    "windSpeed": 0,
    "windGust": null,
    "visibility": 10,
    "ceiling": null,
    "temp": 15.6,
    "dewpoint": -6.1,
    "altimeter": 30.01,
    "conditions": "",
    "observationTime": "2026-04-15T14:00:00.000Z"
  },
  "LAX": {
    "raw": "METAR KLAX 151353Z 00000KT 10SM FEW009 FEW250 14/10 A3003 RMK AO2 SLP168 T01390100",
    "icao": "KLAX",
    "flightCategory": "VFR",
    "windDir": 0,
    "windSpeed": 0,
    "windGust": null,
    "visibility": 10,
    "ceiling": null,
    "temp": 13.9,
    "dewpoint": 10,
    "altimeter": 30.03,
    "conditions": "",
    "observationTime": "2026-04-15T14:00:00.000Z"
  },
  "ORD": {
    "raw": "METAR KORD 151351Z 18007KT 10SM BKN090 OVC110 17/16 A2977 RMK AO2 SLP078 T01720156",
    "icao": "KORD",
    "flightCategory": "VFR",
    "windDir": 180,
    "windSpeed": 7,
    "windGust": null,
    "visibility": 10,
    "ceiling": 9000,
    "temp": 17.2,
    "dewpoint": 15.6,
    "altimeter": 29.77,
    "conditions": "",
    "observationTime": "2026-04-15T14:00:00.000Z"
  },
  "LHR": {
    "raw": "METAR EGLL 151320Z COR AUTO 22017KT 190V250 9999 SCT028 BKN038 BKN046 16/10 Q1014 NOSIG",
    "icao": "EGLL",
    "flightCategory": "VFR",
    "windDir": 220,
    "windSpeed": 17,
    "windGust": null,
    "visibility": 6,
    "ceiling": 3800,
    "temp": 16,
    "dewpoint": 10,
    "altimeter": 29.94,
    "conditions": "",
    "observationTime": "2026-04-15T13:20:00.000Z"
  }
}