{
  "SYD": {
    "raw": "METAR YSSY 092300Z 33005KT CAVOK 27/15 Q1012",
    "icao": "YSSY",
    "flightCategory": "VFR",
    "windDir": 330,
    "windSpeed": 5,
    "windGust": null,
    "visibility": 6,
    "ceiling": null,
    "temp": 27,
    "dewpoint": 15,
    "altimeter": 29.88,
    "conditions": "",
    "observationTime": "2026-04-09T23:00:00.000Z"
  },
  "LHR": {
    "raw": "METAR EGLL 092250Z COR AUTO 27010KT 9999 NCD 07/M00 Q1022 NOSIG",
    "icao": "EGLL",
    "flightCategory": "VFR",
    "windDir": 270,
    "windSpeed": 10,
    "windGust": null,
    "visibility": 6,
    "ceiling": null,
    "temp": 7,
    "dewpoint": 0,
    "altimeter": 30.18,
    "conditions": "",
    "observationTime": "2026-04-09T23:00:00.000Z"
  },
  "LAS": {
    "raw": "METAR KLAS 092256Z 21012G22KT 10SM FEW200 BKN250 30/M06 A2980 RMK AO2 SLP068 T03001056",
    "icao": "KLAS",
    "flightCategory": "VFR",
    "windDir": 210,
    "windSpeed": 12,
    "windGust": 22,
    "visibility": 10,
    "ceiling": 25000,
    "temp": 30,
    "dewpoint": -5.6,
    "altimeter": 29.8,
    "conditions": "",
    "observationTime": "2026-04-09T23:00:00.000Z"
  },
  "LAX": {
    "raw": "METAR KLAX 092253Z COR 26009KT 10SM FEW060 FEW200 BKN250 20/16 A2994 RMK AO2 SLP136 T02000156 $",
    "icao": "KLAX",
    "flightCategory": "VFR",
    "windDir": 260,
    "windSpeed": 9,
    "windGust": null,
    "visibility": 10,
    "ceiling": 25000,
    "temp": 20,
    "dewpoint": 15.6,
    "altimeter": 29.94,
    "conditions": "",
    "observationTime": "2026-04-09T23:00:00.000Z"
  },
  "ORD": {
    "raw": "METAR KORD 092251Z 29007KT 10SM BKN075 OVC250 20/04 A3011 RMK AO2 SLP196 T02000044",
    "icao": "KORD",
    "flightCategory": "VFR",
    "windDir": 290,
    "windSpeed": 7,
    "windGust": null,
    "visibility": 10,
    "ceiling": 7500,
    "temp": 20,
    "dewpoint": 4.4,
    "altimeter": 30.11,
    "conditions": "",
    "observationTime": "2026-04-09T23:00:00.000Z"
  }
}