{
  "LAS": {
    "raw": "METAR KLAS 102256Z 20008G20KT 10SM CLR 41/02 A2973 RMK AO2 SLP034 T04060022",
    "icao": "KLAS",
    "flightCategory": "VFR",
    "windDir": 200,
    "windSpeed": 8,
    "windGust": 20,
    "visibility": 10,
    "ceiling": null,
    "temp": 40.6,
    "dewpoint": 2.2,
    "altimeter": 29.73,
    "conditions": "",
    "observationTime": "2026-06-10T23:00:00.000Z"
  },
  "LAX": {
    "raw": "METAR KLAX 102253Z 27012KT 10SM CLR 23/16 A2981 RMK AO2 SLP091 T02280161",
    "icao": "KLAX",
    "flightCategory": "VFR",
    "windDir": 270,
    "windSpeed": 12,
    "windGust": null,
    "visibility": 10,
    "ceiling": null,
    "temp": 22.8,
    "dewpoint": 16.1,
    "altimeter": 29.81,
    "conditions": "",
    "observationTime": "2026-06-10T23:00:00.000Z"
  },
  "ORD": {
    "raw": "METAR KORD 102251Z 20007KT 10SM FEW025 FEW090 SCT130 BKN170 OVC250 22/20 A2974 RMK AO2 RAE35 SLP065 P0004 T02170200 $",
    "icao": "KORD",
    "flightCategory": "VFR",
    "windDir": 200,
    "windSpeed": 7,
    "windGust": null,
    "visibility": 10,
    "ceiling": 17000,
    "temp": 21.7,
    "dewpoint": 20,
    "altimeter": 29.74,
    "conditions": "",
    "observationTime": "2026-06-10T23:00:00.000Z"
  },
  "LHR": {
    "raw": "METAR EGLL 102220Z AUTO 15004KT 9999 FEW031/// //////TCU 11/09 Q1019",
    "icao": "EGLL",
    "flightCategory": "VFR",
    "windDir": 150,
    "windSpeed": 4,
    "windGust": null,
    "visibility": 6,
    "ceiling": null,
    "temp": 11,
    "dewpoint": 9,
    "altimeter": 30.09,
    "conditions": "",
    "observationTime": "2026-06-10T22:20:00.000Z"
  },
  "SYD": {
    "raw": "METAR YSSY 102230Z 32006KT CAVOK 18/16 Q1031",
    "icao": "YSSY",
    "flightCategory": "VFR",
    "windDir": 320,
    "windSpeed": 6,
    "windGust": null,
    "visibility": 6,
    "ceiling": null,
    "temp": 18,
    "dewpoint": 16,
    "altimeter": 30.45,
    "conditions": "",
    "observationTime": "2026-06-10T22:30:00.000Z"
  }
}