{
  "ORD": {
    "raw": "METAR KORD 161051Z 20005KT 10SM FEW070 BKN110 BKN250 18/13 A2977 RMK AO2 SLP078 T01780133",
    "icao": "KORD",
    "flightCategory": "VFR",
    "windDir": 200,
    "windSpeed": 5,
    "windGust": null,
    "visibility": 10,
    "ceiling": 11000,
    "temp": 17.8,
    "dewpoint": 13.3,
    "altimeter": 29.77,
    "conditions": "",
    "observationTime": "2026-05-16T11:00:00.000Z"
  },
  "LHR": {
    "raw": "METAR EGLL 161020Z AUTO 23012KT 9999 NCD 13/03 Q1008",
    "icao": "EGLL",
    "flightCategory": "VFR",
    "windDir": 230,
    "windSpeed": 12,
    "windGust": null,
    "visibility": 6,
    "ceiling": null,
    "temp": 13,
    "dewpoint": 3,
    "altimeter": 29.77,
    "conditions": "",
    "observationTime": "2026-05-16T10:20:00.000Z"
  },
  "SYD": {
    "raw": "METAR YSSY 161000Z AUTO 03005KT 9999 // FEW018 20/17 Q1023",
    "icao": "YSSY",
    "flightCategory": "VFR",
    "windDir": 30,
    "windSpeed": 5,
    "windGust": null,
    "visibility": 6,
    "ceiling": null,
    "temp": 20,
    "dewpoint": 17,
    "altimeter": 30.21,
    "conditions": "",
    "observationTime": "2026-05-16T10:00:00.000Z"
  },
  "LAS": {
    "raw": "METAR KLAS 160956Z 18009G20KT 10SM CLR 26/M01 A2972 RMK AO2 SLP033 T02561006",
    "icao": "KLAS",
    "flightCategory": "VFR",
    "windDir": 180,
    "windSpeed": 9,
    "windGust": 20,
    "visibility": 10,
    "ceiling": null,
    "temp": 25.6,
    "dewpoint": -0.6,
    "altimeter": 29.72,
    "conditions": "",
    "observationTime": "2026-05-16T10:00:00.000Z"
  }
}