{
  "LHR": {
    "raw": "METAR EGLL 181050Z AUTO 31008KT 280V010 9999 SCT038 15/05 Q1022",
    "icao": "EGLL",
    "flightCategory": "VFR",
    "windDir": 310,
    "windSpeed": 8,
    "windGust": null,
    "visibility": 6,
    "ceiling": null,
    "temp": 15,
    "dewpoint": 5,
    "altimeter": 30.18,
    "conditions": "",
    "observationTime": "2026-04-18T11:00:00.000Z"
  },
  "SYD": {
    "raw": "METAR YSSY 181100Z AUTO 26009KT 9999 // NCD 15/08 Q1020",
    "icao": "YSSY",
    "flightCategory": "VFR",
    "windDir": 260,
    "windSpeed": 9,
    "windGust": null,
    "visibility": 6,
    "ceiling": null,
    "temp": 15,
    "dewpoint": 8,
    "altimeter": 30.12,
    "conditions": "",
    "observationTime": "2026-04-18T11:00:00.000Z"
  },
  "LAS": {
    "raw": "METAR KLAS 181056Z 00000KT 10SM CLR 11/M16 A3009 RMK AO2 SLP180 T01111161",
    "icao": "KLAS",
    "flightCategory": "VFR",
    "windDir": 0,
    "windSpeed": 0,
    "windGust": null,
    "visibility": 10,
    "ceiling": null,
    "temp": 11.1,
    "dewpoint": -16.1,
    "altimeter": 30.09,
    "conditions": "",
    "observationTime": "2026-04-18T11:00:00.000Z"
  },
  "LAX": {
    "raw": "METAR KLAX 181053Z 07003KT 10SM CLR 16/12 A2995 RMK AO2 SLP138 T01560117",
    "icao": "KLAX",
    "flightCategory": "VFR",
    "windDir": 70,
    "windSpeed": 3,
    "windGust": null,
    "visibility": 10,
    "ceiling": null,
    "temp": 15.6,
    "dewpoint": 11.7,
    "altimeter": 29.95,
    "conditions": "",
    "observationTime": "2026-04-18T11:00:00.000Z"
  },
  "ORD": {
    "raw": "METAR KORD 181051Z 28014G22KT 10SM OVC011 09/07 A2968 RMK AO2 SLP049 T00940067 $",
    "icao": "KORD",
    "flightCategory": "MVFR",
    "windDir": 280,
    "windSpeed": 14,
    "windGust": 22,
    "visibility": 10,
    "ceiling": 1100,
    "temp": 9.4,
    "dewpoint": 6.7,
    "altimeter": 29.68,
    "conditions": "",
    "observationTime": "2026-04-18T11:00:00.000Z"
  }
}