{
  "LHR": {
    "raw": "METAR EGLL 151450Z AUTO 21014KT 9999 SCT029 BKN035 OVC042 16/10 Q1014 TEMPO RA",
    "icao": "EGLL",
    "flightCategory": "VFR",
    "windDir": 210,
    "windSpeed": 14,
    "windGust": null,
    "visibility": 6,
    "ceiling": 3500,
    "temp": 16,
    "dewpoint": 10,
    "altimeter": 29.94,
    "conditions": "",
    "observationTime": "2026-04-15T15:00:00.000Z"
  },
  "SYD": {
    "raw": "METAR YSSY 151500Z AUTO 34005KT 9999 // NCD 17/13 Q1019",
    "icao": "YSSY",
    "flightCategory": "VFR",
    "windDir": 340,
    "windSpeed": 5,
    "windGust": null,
    "visibility": 6,
    "ceiling": null,
    "temp": 17,
    "dewpoint": 13,
    "altimeter": 30.09,
    "conditions": "",
    "observationTime": "2026-04-15T15:00:00.000Z"
  },
  "LAS": {
    "raw": "METAR KLAS 151456Z 00000KT 10SM CLR 17/M07 A3002 RMK AO2 SLP151 T01721067 53012",
    "icao": "KLAS",
    "flightCategory": "VFR",
    "windDir": 0,
    "windSpeed": 0,
    "windGust": null,
    "visibility": 10,
    "ceiling": null,
    "temp": 17.2,
    "dewpoint": -6.7,
    "altimeter": 30.02,
    "conditions": "",
    "observationTime": "2026-04-15T15:00:00.000Z"
  },
  "LAX": {
    "raw": "METAR KLAX 151453Z 08003KT 10SM FEW009 FEW250 16/11 A3004 RMK AO2 SLP170 T01560106 53010",
    "icao": "KLAX",
    "flightCategory": "VFR",
    "windDir": 80,
    "windSpeed": 3,
    "windGust": null,
    "visibility": 10,
    "ceiling": null,
    "temp": 15.6,
    "dewpoint": 10.6,
    "altimeter": 30.04,
    "conditions": "",
    "observationTime": "2026-04-15T15:00:00.000Z"
  },
  "ORD": {
    "raw": "METAR KORD 151451Z 20003KT 10SM -RA OVC100 17/15 A2976 RMK AO2 RAB00E19B44 SLP074 P0000 60006 T01720150 56014",
    "icao": "KORD",
    "flightCategory": "VFR",
    "windDir": 200,
    "windSpeed": 3,
    "windGust": null,
    "visibility": 10,
    "ceiling": 10000,
    "temp": 17.2,
    "dewpoint": 15,
    "altimeter": 29.76,
    "conditions": "-RA",
    "observationTime": "2026-04-15T15:00:00.000Z"
  }
}