{
  "SYD": {
    "raw": "METAR YSSY 061800Z AUTO 31007KT 9999 // SCT058 11/06 Q1029",
    "icao": "YSSY",
    "flightCategory": "VFR",
    "windDir": 310,
    "windSpeed": 7,
    "windGust": null,
    "visibility": 6,
    "ceiling": null,
    "temp": 11,
    "dewpoint": 6,
    "altimeter": 30.39,
    "conditions": "",
    "observationTime": "2026-06-06T18:00:00.000Z"
  },
  "LHR": {
    "raw": "METAR EGLL 061750Z AUTO 24020KT 7000 -RADZ BKN012 OVC017 15/13 Q1007",
    "icao": "EGLL",
    "flightCategory": "MVFR",
    "windDir": 240,
    "windSpeed": 20,
    "windGust": null,
    "visibility": 4.35,
    "ceiling": 1200,
    "temp": 15,
    "dewpoint": 13,
    "altimeter": 29.74,
    "conditions": "-RA -DZ",
    "observationTime": "2026-06-06T18:00:00.000Z"
  },
  "LAS": {
    "raw": "METAR KLAS 061756Z 22015G24KT 10SM CLR 34/00 A2975 RMK AO2 PK WND 23029/1725 SLP043 T03440000 10344 20278 50005",
    "icao": "KLAS",
    "flightCategory": "VFR",
    "windDir": 220,
    "windSpeed": 15,
    "windGust": 24,
    "visibility": 10,
    "ceiling": null,
    "temp": 34.4,
    "dewpoint": 0,
    "altimeter": 29.75,
    "conditions": "",
    "observationTime": "2026-06-06T18:00:00.000Z"
  },
  "LAX": {
    "raw": "METAR KLAX 061753Z 19004KT 10SM OVC023 21/14 A2988 RMK AO2 SLP116 T02060139 10206 20183 51006 $",
    "icao": "KLAX",
    "flightCategory": "MVFR",
    "windDir": 190,
    "windSpeed": 4,
    "windGust": null,
    "visibility": 10,
    "ceiling": 2300,
    "temp": 20.6,
    "dewpoint": 13.9,
    "altimeter": 29.88,
    "conditions": "",
    "observationTime": "2026-06-06T18:00:00.000Z"
  },
  "ORD": {
    "raw": "METAR KORD 061751Z 25006KT 10SM BKN040 BKN110 BKN250 29/20 A2986 RMK AO2 SLP106 T02890200 10294 20228 55000 $",
    "icao": "KORD",
    "flightCategory": "VFR",
    "windDir": 250,
    "windSpeed": 6,
    "windGust": null,
    "visibility": 10,
    "ceiling": 4000,
    "temp": 28.9,
    "dewpoint": 20,
    "altimeter": 29.86,
    "conditions": "",
    "observationTime": "2026-06-06T18:00:00.000Z"
  }
}