{
  "SYD": {
    "raw": "METAR YSSY 151430Z AUTO 25010KT 9999 // FEW044 10/06 Q1034",
    "icao": "YSSY",
    "flightCategory": "VFR",
    "windDir": 250,
    "windSpeed": 10,
    "windGust": null,
    "visibility": 6,
    "ceiling": null,
    "temp": 10,
    "dewpoint": 6,
    "altimeter": 30.53,
    "conditions": "",
    "observationTime": "2026-07-15T14:30:00.000Z"
  },
  "LAS": {
    "raw": "METAR KLAS 151456Z 15003KT 10SM FEW130 FEW180 FEW250 34/11 A2992 RMK AO2 SLP097 T03440106 51006",
    "icao": "KLAS",
    "flightCategory": "VFR",
    "windDir": 150,
    "windSpeed": 3,
    "windGust": null,
    "visibility": 10,
    "ceiling": null,
    "temp": 34.4,
    "dewpoint": 10.6,
    "altimeter": 29.92,
    "conditions": "",
    "observationTime": "2026-07-15T15:00:00.000Z"
  },
  "LAX": {
    "raw": "METAR KLAX 151453Z 00000KT 10SM FEW010 FEW160 SCT250 23/17 A2988 RMK AO2 SLP117 T02280167 55000 $",
    "icao": "KLAX",
    "flightCategory": "VFR",
    "windDir": 0,
    "windSpeed": 0,
    "windGust": null,
    "visibility": 10,
    "ceiling": null,
    "temp": 22.8,
    "dewpoint": 16.7,
    "altimeter": 29.88,
    "conditions": "",
    "observationTime": "2026-07-15T15:00:00.000Z"
  },
  "ORD": {
    "raw": "METAR KORD 151451Z 00000KT 10SM FEW300 30/22 A3009 RMK AO2 SLP183 T03000222 58004",
    "icao": "KORD",
    "flightCategory": "VFR",
    "windDir": 0,
    "windSpeed": 0,
    "windGust": null,
    "visibility": 10,
    "ceiling": null,
    "temp": 30,
    "dewpoint": 22.2,
    "altimeter": 30.09,
    "conditions": "",
    "observationTime": "2026-07-15T15:00:00.000Z"
  },
  "LHR": {
    "raw": "METAR EGLL 151420Z AUTO 07010KT 030V100 9999 NCD 28/13 Q1022",
    "icao": "EGLL",
    "flightCategory": "VFR",
    "windDir": 70,
    "windSpeed": 10,
    "windGust": null,
    "visibility": 6,
    "ceiling": null,
    "temp": 28,
    "dewpoint": 13,
    "altimeter": 30.18,
    "conditions": "",
    "observationTime": "2026-07-15T14:20:00.000Z"
  }
}