{
  "LHR": {
    "raw": "METAR EGLL 162050Z AUTO 24012KT 210V270 9999 NCD 19/14 Q1016",
    "icao": "EGLL",
    "flightCategory": "VFR",
    "windDir": 240,
    "windSpeed": 12,
    "windGust": null,
    "visibility": 6,
    "ceiling": null,
    "temp": 19,
    "dewpoint": 14,
    "altimeter": 30,
    "conditions": "",
    "observationTime": "2026-06-16T21:00:00.000Z"
  },
  "SYD": {
    "raw": "METAR YSSY 162100Z 31009KT CAVOK 15/12 Q1027",
    "icao": "YSSY",
    "flightCategory": "VFR",
    "windDir": 310,
    "windSpeed": 9,
    "windGust": null,
    "visibility": 6,
    "ceiling": null,
    "temp": 15,
    "dewpoint": 12,
    "altimeter": 30.33,
    "conditions": "",
    "observationTime": "2026-06-16T21:00:00.000Z"
  },
  "LAS": {
    "raw": "METAR KLAS 162056Z COR VRB04KT 10SM FEW130 BKN200 42/01 A2984 RMK AO2 PK WND 21026/2008 WSHFT 2006 SLP070 FU BKN200 T04170006 58022",
    "icao": "KLAS",
    "flightCategory": "VFR",
    "windDir": null,
    "windSpeed": 4,
    "windGust": null,
    "visibility": 10,
    "ceiling": 20000,
    "temp": 41.7,
    "dewpoint": 0.6,
    "altimeter": 29.84,
    "conditions": "",
    "observationTime": "2026-06-16T21:00:00.000Z"
  },
  "LAX": {
    "raw": "METAR KLAX 162053Z 25012KT 10SM SCT014 21/15 A2997 RMK AO2 SLP147 T02060150 58008 $",
    "icao": "KLAX",
    "flightCategory": "VFR",
    "windDir": 250,
    "windSpeed": 12,
    "windGust": null,
    "visibility": 10,
    "ceiling": null,
    "temp": 20.6,
    "dewpoint": 15,
    "altimeter": 29.97,
    "conditions": "",
    "observationTime": "2026-06-16T21:00:00.000Z"
  },
  "ORD": {
    "raw": "METAR KORD 162051Z 26015G29KT 10SM BKN070 BKN250 23/08 A2957 RMK AO2 PK WND 24033/2005 SLP010 TCU DSNT NE-SE T02330078 55010",
    "icao": "KORD",
    "flightCategory": "VFR",
    "windDir": 260,
    "windSpeed": 15,
    "windGust": 29,
    "visibility": 10,
    "ceiling": 7000,
    "temp": 23.3,
    "dewpoint": 7.8,
    "altimeter": 29.57,
    "conditions": "",
    "observationTime": "2026-06-16T21:00:00.000Z"
  }
}