{
  "SYD": {
    "raw": "METAR YSSY 072230Z 24010KT 9999 FEW018 SCT027 BKN035 12/10 Q1032",
    "icao": "YSSY",
    "flightCategory": "VFR",
    "windDir": 240,
    "windSpeed": 10,
    "windGust": null,
    "visibility": 6,
    "ceiling": 3500,
    "temp": 12,
    "dewpoint": 10,
    "altimeter": 30.47,
    "conditions": "",
    "observationTime": "2026-07-07T22:30:00.000Z"
  },
  "LAS": {
    "raw": "METAR KLAS 072256Z 23017G23KT 10SM FEW140 42/02 A2985 RMK AO2 SLP073 T04170017",
    "icao": "KLAS",
    "flightCategory": "VFR",
    "windDir": 230,
    "windSpeed": 17,
    "windGust": 23,
    "visibility": 10,
    "ceiling": null,
    "temp": 41.7,
    "dewpoint": 1.7,
    "altimeter": 29.85,
    "conditions": "",
    "observationTime": "2026-07-07T23:00:00.000Z"
  },
  "LAX": {
    "raw": "METAR KLAX 072253Z 26017KT 10SM CLR 23/14 A2993 RMK AO2 SLP132 T02330144",
    "icao": "KLAX",
    "flightCategory": "VFR",
    "windDir": 260,
    "windSpeed": 17,
    "windGust": null,
    "visibility": 10,
    "ceiling": null,
    "temp": 23.3,
    "dewpoint": 14.4,
    "altimeter": 29.93,
    "conditions": "",
    "observationTime": "2026-07-07T23:00:00.000Z"
  },
  "ORD": {
    "raw": "METAR KORD 072251Z 06008KT 10SM FEW055 SCT250 28/14 A3005 RMK AO2 SLP173 T02830139 $",
    "icao": "KORD",
    "flightCategory": "VFR",
    "windDir": 60,
    "windSpeed": 8,
    "windGust": null,
    "visibility": 10,
    "ceiling": null,
    "temp": 28.3,
    "dewpoint": 13.9,
    "altimeter": 30.05,
    "conditions": "",
    "observationTime": "2026-07-07T23:00:00.000Z"
  },
  "LHR": {
    "raw": "METAR EGLL 072220Z AUTO 33003KT 290V020 9999 NCD 26/14 Q1017",
    "icao": "EGLL",
    "flightCategory": "VFR",
    "windDir": 330,
    "windSpeed": 3,
    "windGust": null,
    "visibility": 6,
    "ceiling": null,
    "temp": 26,
    "dewpoint": 14,
    "altimeter": 30.03,
    "conditions": "",
    "observationTime": "2026-07-07T22:20:00.000Z"
  }
}