{
  "ORD": {
    "raw": "METAR KORD 150751Z 10004KT 10SM BKN045 OVC250 18/17 A2973 RMK AO2 LTG DSNT NE AND NW SLP062 T01830172",
    "icao": "KORD",
    "flightCategory": "VFR",
    "windDir": 100,
    "windSpeed": 4,
    "windGust": null,
    "visibility": 10,
    "ceiling": 4500,
    "temp": 18.3,
    "dewpoint": 17.2,
    "altimeter": 29.73,
    "conditions": "",
    "observationTime": "2026-04-15T08:00:00.000Z"
  },
  "LAX": {
    "raw": "SPECI KLAX 150738Z 22003KT 10SM FEW008 FEW012 16/12 A3003 RMK AO2 T01560122",
    "icao": "KLAX",
    "flightCategory": "VFR",
    "windDir": 220,
    "windSpeed": 3,
    "windGust": null,
    "visibility": 10,
    "ceiling": null,
    "temp": 15.6,
    "dewpoint": 12.2,
    "altimeter": 30.03,
    "conditions": "",
    "observationTime": "2026-04-15T07:38:00.000Z"
  },
  "SYD": {
    "raw": "METAR YSSY 150700Z AUTO 13009KT 9999 // NCD 22/13 Q1017",
    "icao": "YSSY",
    "flightCategory": "VFR",
    "windDir": 130,
    "windSpeed": 9,
    "windGust": null,
    "visibility": 6,
    "ceiling": null,
    "temp": 22,
    "dewpoint": 13,
    "altimeter": 30.03,
    "conditions": "",
    "observationTime": "2026-04-15T07:00:00.000Z"
  },
  "LHR": {
    "raw": "METAR EGLL 150720Z COR AUTO 18009KT 150V210 9999 BKN006 OVC016 13/11 Q1016 NOSIG",
    "icao": "EGLL",
    "flightCategory": "IFR",
    "windDir": 180,
    "windSpeed": 9,
    "windGust": null,
    "visibility": 6,
    "ceiling": 600,
    "temp": 13,
    "dewpoint": 11,
    "altimeter": 30,
    "conditions": "",
    "observationTime": "2026-04-15T07:20:00.000Z"
  },
  "LAS": {
    "raw": "METAR KLAS 150656Z 20004KT 10SM CLR 18/M08 A2998 RMK AO2 SLP136 T01781083",
    "icao": "KLAS",
    "flightCategory": "VFR",
    "windDir": 200,
    "windSpeed": 4,
    "windGust": null,
    "visibility": 10,
    "ceiling": null,
    "temp": 17.8,
    "dewpoint": -8.3,
    "altimeter": 29.98,
    "conditions": "",
    "observationTime": "2026-04-15T07:00:00.000Z"
  }
}