{
  "SYD": {
    "raw": "METAR YSSY 112330Z 11012KT 9999 DZ VCSH FEW018 BKN028 BKN035 18/15 Q1035",
    "icao": "YSSY",
    "flightCategory": "MVFR",
    "windDir": 110,
    "windSpeed": 12,
    "windGust": null,
    "visibility": 6,
    "ceiling": 2800,
    "temp": 18,
    "dewpoint": 15,
    "altimeter": 30.56,
    "conditions": "DZ VCSH",
    "observationTime": "2026-05-11T23:30:00.000Z"
  },
  "LAS": {
    "raw": "METAR KLAS 112356Z 25012G26KT 10SM FEW250 39/M09 A2989 RMK AO2 PK WND 26026/2352 SLP092 T03891094 10400 20333 56017",
    "icao": "KLAS",
    "flightCategory": "VFR",
    "windDir": 250,
    "windSpeed": 12,
    "windGust": 26,
    "visibility": 10,
    "ceiling": null,
    "temp": 38.9,
    "dewpoint": -9.4,
    "altimeter": 29.89,
    "conditions": "",
    "observationTime": "2026-05-12T00:00:00.000Z"
  },
  "LAX": {
    "raw": "METAR KLAX 112353Z 26012KT 10SM FEW009 18/14 A2994 RMK AO2 SLP137 T01830139 10194 20178 58015 $",
    "icao": "KLAX",
    "flightCategory": "VFR",
    "windDir": 260,
    "windSpeed": 12,
    "windGust": null,
    "visibility": 10,
    "ceiling": null,
    "temp": 18.3,
    "dewpoint": 13.9,
    "altimeter": 29.94,
    "conditions": "",
    "observationTime": "2026-05-12T00:00:00.000Z"
  },
  "ORD": {
    "raw": "METAR KORD 112351Z 06013KT 10SM BKN250 09/M04 A3023 RMK AO2 SLP238 T00891044 10133 20089 55000 $",
    "icao": "KORD",
    "flightCategory": "VFR",
    "windDir": 60,
    "windSpeed": 13,
    "windGust": null,
    "visibility": 10,
    "ceiling": 25000,
    "temp": 8.9,
    "dewpoint": -4.4,
    "altimeter": 30.23,
    "conditions": "",
    "observationTime": "2026-05-12T00:00:00.000Z"
  },
  "LHR": {
    "raw": "METAR EGLL 112320Z COR AUTO 04003KT 9999 NCD 07/00 Q1016 NOSIG",
    "icao": "EGLL",
    "flightCategory": "VFR",
    "windDir": 40,
    "windSpeed": 3,
    "windGust": null,
    "visibility": 6,
    "ceiling": null,
    "temp": 7,
    "dewpoint": 0,
    "altimeter": 30,
    "conditions": "",
    "observationTime": "2026-05-11T23:20:00.000Z"
  }
}