{
  "LAS": {
    "raw": "METAR KLAS 251356Z 00000KT 10SM FEW120 FEW250 23/M02 A2989 RMK AO2 SLP095 T02331017",
    "icao": "KLAS",
    "flightCategory": "VFR",
    "windDir": 0,
    "windSpeed": 0,
    "windGust": null,
    "visibility": 10,
    "ceiling": null,
    "temp": 23.3,
    "dewpoint": -1.7,
    "altimeter": 29.89,
    "conditions": "",
    "observationTime": "2026-05-25T14:00:00.000Z"
  },
  "LAX": {
    "raw": "METAR KLAX 251353Z 04003KT 10SM FEW010 FEW025 SCT150 15/11 A2998 RMK AO2 SLP149 T01500111 $",
    "icao": "KLAX",
    "flightCategory": "VFR",
    "windDir": 40,
    "windSpeed": 3,
    "windGust": null,
    "visibility": 10,
    "ceiling": null,
    "temp": 15,
    "dewpoint": 11.1,
    "altimeter": 29.98,
    "conditions": "",
    "observationTime": "2026-05-25T14:00:00.000Z"
  },
  "ORD": {
    "raw": "METAR KORD 251351Z 20009KT 10SM FEW250 22/12 A3014 RMK AO2 SLP203 T02220122 $",
    "icao": "KORD",
    "flightCategory": "VFR",
    "windDir": 200,
    "windSpeed": 9,
    "windGust": null,
    "visibility": 10,
    "ceiling": null,
    "temp": 22.2,
    "dewpoint": 12.2,
    "altimeter": 30.14,
    "conditions": "",
    "observationTime": "2026-05-25T14:00:00.000Z"
  },
  "LHR": {
    "raw": "METAR EGLL 251320Z AUTO 16009KT 120V200 9999 NCD 33/12 Q1030",
    "icao": "EGLL",
    "flightCategory": "VFR",
    "windDir": 160,
    "windSpeed": 9,
    "windGust": null,
    "visibility": 6,
    "ceiling": null,
    "temp": 33,
    "dewpoint": 12,
    "altimeter": 30.42,
    "conditions": "",
    "observationTime": "2026-05-25T13:20:00.000Z"
  },
  "SYD": {
    "raw": "METAR YSSY 251330Z AUTO 00000KT 8000 // BKN054 OVC063 18/17 Q1020",
    "icao": "YSSY",
    "flightCategory": "MVFR",
    "windDir": 0,
    "windSpeed": 0,
    "windGust": null,
    "visibility": 4.97,
    "ceiling": 5400,
    "temp": 18,
    "dewpoint": 17,
    "altimeter": 30.12,
    "conditions": "",
    "observationTime": "2026-05-25T13:30:00.000Z"
  }
}