{
  "SYD": {
    "raw": "SPECI YSSY 262300Z 31006KT 9999 BKN006 18/17 Q1019",
    "icao": "YSSY",
    "flightCategory": "IFR",
    "windDir": 310,
    "windSpeed": 6,
    "windGust": null,
    "visibility": 6,
    "ceiling": 600,
    "temp": 18,
    "dewpoint": 17,
    "altimeter": 30.09,
    "conditions": "",
    "observationTime": "2026-05-26T23:00:00.000Z"
  },
  "LHR": {
    "raw": "METAR EGLL 262250Z AUTO VRB02KT 9999 NCD 24/11 Q1024",
    "icao": "EGLL",
    "flightCategory": "VFR",
    "windDir": null,
    "windSpeed": 2,
    "windGust": null,
    "visibility": 6,
    "ceiling": null,
    "temp": 24,
    "dewpoint": 11,
    "altimeter": 30.24,
    "conditions": "",
    "observationTime": "2026-05-26T23:00:00.000Z"
  },
  "LAS": {
    "raw": "METAR KLAS 262256Z 24021G30KT 10SM FEW180 FEW250 32/M01 A2951 RMK AO2 PK WND 24035/2212 SLP965 ACSL NW T03221011",
    "icao": "KLAS",
    "flightCategory": "VFR",
    "windDir": 240,
    "windSpeed": 21,
    "windGust": 30,
    "visibility": 10,
    "ceiling": null,
    "temp": 32.2,
    "dewpoint": -1.1,
    "altimeter": 29.51,
    "conditions": "",
    "observationTime": "2026-05-26T23:00:00.000Z"
  },
  "LAX": {
    "raw": "METAR KLAX 262253Z 27016KT 10SM FEW033 SCT044 19/12 A2981 RMK AO2 SLP094 T01890117 $",
    "icao": "KLAX",
    "flightCategory": "VFR",
    "windDir": 270,
    "windSpeed": 16,
    "windGust": null,
    "visibility": 10,
    "ceiling": null,
    "temp": 18.9,
    "dewpoint": 11.7,
    "altimeter": 29.81,
    "conditions": "",
    "observationTime": "2026-05-26T23:00:00.000Z"
  },
  "ORD": {
    "raw": "METAR KORD 262251Z 15006KT 10SM FEW200 BKN250 28/09 A2997 RMK AO2 SLP143 T02780089",
    "icao": "KORD",
    "flightCategory": "VFR",
    "windDir": 150,
    "windSpeed": 6,
    "windGust": null,
    "visibility": 10,
    "ceiling": 25000,
    "temp": 27.8,
    "dewpoint": 8.9,
    "altimeter": 29.97,
    "conditions": "",
    "observationTime": "2026-05-26T23:00:00.000Z"
  }
}