{
  "LHR": {
    "raw": "METAR EGLL 010650Z AUTO 21009KT 180V240 9999 BKN027 16/11 Q1016",
    "icao": "EGLL",
    "flightCategory": "MVFR",
    "windDir": 210,
    "windSpeed": 9,
    "windGust": null,
    "visibility": 6,
    "ceiling": 2700,
    "temp": 16,
    "dewpoint": 11,
    "altimeter": 30,
    "conditions": "",
    "observationTime": "2026-06-01T07:00:00.000Z"
  },
  "SYD": {
    "raw": "METAR YSSY 010630Z AUTO 34007KT 9999 // NCD 18/03 Q1011",
    "icao": "YSSY",
    "flightCategory": "VFR",
    "windDir": 340,
    "windSpeed": 7,
    "windGust": null,
    "visibility": 6,
    "ceiling": null,
    "temp": 18,
    "dewpoint": 3,
    "altimeter": 29.85,
    "conditions": "",
    "observationTime": "2026-06-01T06:30:00.000Z"
  },
  "LAS": {
    "raw": "METAR KLAS 010656Z 00000KT 10SM CLR 29/M03 A2985 RMK AO2 SLP078 T02891033",
    "icao": "KLAS",
    "flightCategory": "VFR",
    "windDir": 0,
    "windSpeed": 0,
    "windGust": null,
    "visibility": 10,
    "ceiling": null,
    "temp": 28.9,
    "dewpoint": -3.3,
    "altimeter": 29.85,
    "conditions": "",
    "observationTime": "2026-06-01T07:00:00.000Z"
  },
  "LAX": {
    "raw": "METAR KLAX 010653Z 19004KT 10SM FEW009 17/15 A2990 RMK AO2 SLP123 T01720150 $",
    "icao": "KLAX",
    "flightCategory": "VFR",
    "windDir": 190,
    "windSpeed": 4,
    "windGust": null,
    "visibility": 10,
    "ceiling": null,
    "temp": 17.2,
    "dewpoint": 15,
    "altimeter": 29.9,
    "conditions": "",
    "observationTime": "2026-06-01T07:00:00.000Z"
  },
  "ORD": {
    "raw": "METAR KORD 010651Z 08007KT 10SM -RA OVC080 14/08 A3003 RMK AO2 SLP166 P0001 T01390083 $",
    "icao": "KORD",
    "flightCategory": "VFR",
    "windDir": 80,
    "windSpeed": 7,
    "windGust": null,
    "visibility": 10,
    "ceiling": 8000,
    "temp": 13.9,
    "dewpoint": 8.3,
    "altimeter": 30.03,
    "conditions": "-RA",
    "observationTime": "2026-06-01T07:00:00.000Z"
  }
}