{
  "LHR": {
    "raw": "METAR EGLL 172250Z AUTO 26010KT 9999 NCD 18/16 Q1018",
    "icao": "EGLL",
    "flightCategory": "VFR",
    "windDir": 260,
    "windSpeed": 10,
    "windGust": null,
    "visibility": 6,
    "ceiling": null,
    "temp": 18,
    "dewpoint": 16,
    "altimeter": 30.06,
    "conditions": "",
    "observationTime": "2026-06-17T23:00:00.000Z"
  },
  "ORD": {
    "raw": "METAR KORD 172251Z 17012G26KT 10SM OVC015 20/17 A2934 RMK AO2 PK WND 18032/2229 SLP933 T02000172",
    "icao": "KORD",
    "flightCategory": "MVFR",
    "windDir": 170,
    "windSpeed": 12,
    "windGust": 26,
    "visibility": 10,
    "ceiling": 1500,
    "temp": 20,
    "dewpoint": 17.2,
    "altimeter": 29.34,
    "conditions": "",
    "observationTime": "2026-06-17T23:00:00.000Z"
  },
  "SYD": {
    "raw": "METAR YSSY 172300Z 30007KT CAVOK 15/13 Q1021",
    "icao": "YSSY",
    "flightCategory": "VFR",
    "windDir": 300,
    "windSpeed": 7,
    "windGust": null,
    "visibility": 6,
    "ceiling": null,
    "temp": 15,
    "dewpoint": 13,
    "altimeter": 30.15,
    "conditions": "",
    "observationTime": "2026-06-17T23:00:00.000Z"
  },
  "LAS": {
    "raw": "METAR KLAS 172256Z 23013G21KT 10SM FEW130 SCT200 42/M01 A2971 RMK AO2 SLP025 FU SCT200 T04221011",
    "icao": "KLAS",
    "flightCategory": "VFR",
    "windDir": 230,
    "windSpeed": 13,
    "windGust": 21,
    "visibility": 10,
    "ceiling": null,
    "temp": 42.2,
    "dewpoint": -1.1,
    "altimeter": 29.71,
    "conditions": "",
    "observationTime": "2026-06-17T23:00:00.000Z"
  },
  "LAX": {
    "raw": "SPECI KLAX 172239Z 23011G21KT 10SM BKN015 20/14 A2993 RMK AO2 T02000139 $",
    "icao": "KLAX",
    "flightCategory": "MVFR",
    "windDir": 230,
    "windSpeed": 11,
    "windGust": 21,
    "visibility": 10,
    "ceiling": 1500,
    "temp": 20,
    "dewpoint": 13.9,
    "altimeter": 29.93,
    "conditions": "",
    "observationTime": "2026-06-17T22:39:00.000Z"
  }
}