{
  "SYD": {
    "raw": "METAR YSSY 171400Z AUTO 34005KT 9999 // NCD 15/13 Q1023",
    "icao": "YSSY",
    "flightCategory": "VFR",
    "windDir": 340,
    "windSpeed": 5,
    "windGust": null,
    "visibility": 6,
    "ceiling": null,
    "temp": 15,
    "dewpoint": 13,
    "altimeter": 30.21,
    "conditions": "",
    "observationTime": "2026-06-17T14:00:00.000Z"
  },
  "LHR": {
    "raw": "METAR EGLL 171350Z AUTO 23016KT 9999 BKN038 24/14 Q1017",
    "icao": "EGLL",
    "flightCategory": "VFR",
    "windDir": 230,
    "windSpeed": 16,
    "windGust": null,
    "visibility": 6,
    "ceiling": 3800,
    "temp": 24,
    "dewpoint": 14,
    "altimeter": 30.03,
    "conditions": "",
    "observationTime": "2026-06-17T14:00:00.000Z"
  },
  "LAS": {
    "raw": "METAR KLAS 171356Z 19009KT 10SM SCT200 32/04 A2979 RMK AO2 SLP055 FU SCT200 T03170044",
    "icao": "KLAS",
    "flightCategory": "VFR",
    "windDir": 190,
    "windSpeed": 9,
    "windGust": null,
    "visibility": 10,
    "ceiling": null,
    "temp": 31.7,
    "dewpoint": 4.4,
    "altimeter": 29.79,
    "conditions": "",
    "observationTime": "2026-06-17T14:00:00.000Z"
  },
  "LAX": {
    "raw": "SPECI KLAX 171346Z 14004KT 9SM OVC010 17/14 A2994 RMK AO2 T01670144 $",
    "icao": "KLAX",
    "flightCategory": "MVFR",
    "windDir": 140,
    "windSpeed": 4,
    "windGust": null,
    "visibility": 9,
    "ceiling": 1000,
    "temp": 16.7,
    "dewpoint": 14.4,
    "altimeter": 29.94,
    "conditions": "",
    "observationTime": "2026-06-17T13:46:00.000Z"
  },
  "ORD": {
    "raw": "METAR KORD 171351Z 19004KT 10SM -RA FEW085 BKN110 OVC180 16/11 A2963 RMK AO2 RAE1253B29 SLP031 P0001 T01560111",
    "icao": "KORD",
    "flightCategory": "VFR",
    "windDir": 190,
    "windSpeed": 4,
    "windGust": null,
    "visibility": 10,
    "ceiling": 11000,
    "temp": 15.6,
    "dewpoint": 11.1,
    "altimeter": 29.63,
    "conditions": "-RA",
    "observationTime": "2026-06-17T14:00:00.000Z"
  }
}