{
  "LHR": {
    "raw": "METAR EGLL 251050Z AUTO 08015KT 9999 NCD 30/19 Q1017",
    "icao": "EGLL",
    "flightCategory": "VFR",
    "windDir": 80,
    "windSpeed": 15,
    "windGust": null,
    "visibility": 6,
    "ceiling": null,
    "temp": 30,
    "dewpoint": 19,
    "altimeter": 30.03,
    "conditions": "",
    "observationTime": "2026-06-25T11:00:00.000Z"
  },
  "SYD": {
    "raw": "METAR YSSY 251030Z AUTO 24008KT 9999 -SHRA FEW044 BKN051 OVC060 13/12 Q1033",
    "icao": "YSSY",
    "flightCategory": "VFR",
    "windDir": 240,
    "windSpeed": 8,
    "windGust": null,
    "visibility": 6,
    "ceiling": 5100,
    "temp": 13,
    "dewpoint": 12,
    "altimeter": 30.5,
    "conditions": "-SHRA",
    "observationTime": "2026-06-25T10:30:00.000Z"
  },
  "LAS": {
    "raw": "METAR KLAS 251056Z 22006KT 10SM CLR 28/09 A2984 RMK AO2 SLP073 T02830089",
    "icao": "KLAS",
    "flightCategory": "VFR",
    "windDir": 220,
    "windSpeed": 6,
    "windGust": null,
    "visibility": 10,
    "ceiling": null,
    "temp": 28.3,
    "dewpoint": 8.9,
    "altimeter": 29.84,
    "conditions": "",
    "observationTime": "2026-06-25T11:00:00.000Z"
  },
  "LAX": {
    "raw": "METAR KLAX 251053Z 28003KT 10SM FEW009 OVC011 17/14 A2993 RMK AO2 SLP133 T01720144 $",
    "icao": "KLAX",
    "flightCategory": "MVFR",
    "windDir": 280,
    "windSpeed": 3,
    "windGust": null,
    "visibility": 10,
    "ceiling": 1100,
    "temp": 17.2,
    "dewpoint": 14.4,
    "altimeter": 29.93,
    "conditions": "",
    "observationTime": "2026-06-25T11:00:00.000Z"
  },
  "ORD": {
    "raw": "METAR KORD 251051Z 26006KT 8SM FEW070 SCT160 BKN250 17/17 A2990 RMK AO2 SLP123 T01720167 $",
    "icao": "KORD",
    "flightCategory": "VFR",
    "windDir": 260,
    "windSpeed": 6,
    "windGust": null,
    "visibility": 8,
    "ceiling": 25000,
    "temp": 17.2,
    "dewpoint": 16.7,
    "altimeter": 29.9,
    "conditions": "",
    "observationTime": "2026-06-25T11:00:00.000Z"
  }
}