{
  "LAX": {
    "raw": "METAR KLAX 131753Z 25009KT 10SM SCT032 BKN240 BKN280 19/11 A3012 RMK AO2 SLP199 T01890106 10189 20156 51010",
    "icao": "KLAX",
    "flightCategory": "VFR",
    "windDir": 250,
    "windSpeed": 9,
    "windGust": null,
    "visibility": 10,
    "ceiling": 24000,
    "temp": 18.9,
    "dewpoint": 10.6,
    "altimeter": 30.12,
    "conditions": "",
    "observationTime": "2026-05-13T18:00:00.000Z"
  },
  "ORD": {
    "raw": "METAR KORD 131751Z 05011KT 10SM SCT055 12/04 A3001 RMK AO2 SLP162 T01220039 10150 20122 51013 $",
    "icao": "KORD",
    "flightCategory": "VFR",
    "windDir": 50,
    "windSpeed": 11,
    "windGust": null,
    "visibility": 10,
    "ceiling": null,
    "temp": 12.2,
    "dewpoint": 3.9,
    "altimeter": 30.01,
    "conditions": "",
    "observationTime": "2026-05-13T18:00:00.000Z"
  },
  "LHR": {
    "raw": "METAR EGLL 131720Z AUTO 27011KT 9999 SCT032/// //////TCU 10/06 Q1002 4000 +SHRA",
    "icao": "EGLL",
    "flightCategory": "VFR",
    "windDir": 270,
    "windSpeed": 11,
    "windGust": null,
    "visibility": 6,
    "ceiling": null,
    "temp": 10,
    "dewpoint": 6,
    "altimeter": 29.59,
    "conditions": "+SHRA",
    "observationTime": "2026-05-13T17:20:00.000Z"
  },
  "HND": {
    "raw": "METAR RJTT 131700Z 01003KT 9999 FEW020 BKN120 19/14 Q1009 NOSIG",
    "icao": "RJTT",
    "flightCategory": "VFR",
    "windDir": 10,
    "windSpeed": 3,
    "windGust": null,
    "visibility": 6,
    "ceiling": 12000,
    "temp": 19,
    "dewpoint": 14,
    "altimeter": 29.8,
    "conditions": "",
    "observationTime": "2026-05-13T17:00:00.000Z"
  }
}