{
  "SYD": {
    "raw": "METAR YSSY 060230Z 32007KT 9999 VCSH FEW035 BKN080 BKN100 20/12 Q1018",
    "icao": "YSSY",
    "flightCategory": "VFR",
    "windDir": 320,
    "windSpeed": 7,
    "windGust": null,
    "visibility": 6,
    "ceiling": 8000,
    "temp": 20,
    "dewpoint": 12,
    "altimeter": 30.06,
    "conditions": "VCSH",
    "observationTime": "2026-04-06T02:30:00.000Z"
  },
  "LAS": {
    "raw": "METAR KLAS 060256Z VRB03KT 10SM FEW250 27/M11 A2997 RMK AO2 SLP131 T02671106 56009",
    "icao": "KLAS",
    "flightCategory": "VFR",
    "windDir": null,
    "windSpeed": 3,
    "windGust": null,
    "visibility": 10,
    "ceiling": null,
    "temp": 26.7,
    "dewpoint": -10.6,
    "altimeter": 29.97,
    "conditions": "",
    "observationTime": "2026-04-06T03:00:00.000Z"
  },
  "LAX": {
    "raw": "METAR KLAX 060253Z 25007KT 10SM BKN150 BKN250 18/14 A2996 RMK AO2 SLP143 T01830144 56004 $",
    "icao": "KLAX",
    "flightCategory": "VFR",
    "windDir": 250,
    "windSpeed": 7,
    "windGust": null,
    "visibility": 10,
    "ceiling": 15000,
    "temp": 18.3,
    "dewpoint": 14.4,
    "altimeter": 29.96,
    "conditions": "",
    "observationTime": "2026-04-06T03:00:00.000Z"
  },
  "ORD": {
    "raw": "METAR KORD 060251Z 23006KT 10SM FEW045 08/M01 A3014 RMK AO2 SLP212 T00831006 58000 $",
    "icao": "KORD",
    "flightCategory": "VFR",
    "windDir": 230,
    "windSpeed": 6,
    "windGust": null,
    "visibility": 10,
    "ceiling": null,
    "temp": 8.3,
    "dewpoint": -0.6,
    "altimeter": 30.14,
    "conditions": "",
    "observationTime": "2026-04-06T03:00:00.000Z"
  },
  "LHR": {
    "raw": "METAR EGLL 060220Z COR AUTO 19003KT 9999 NCD 03/00 Q1026 NOSIG",
    "icao": "EGLL",
    "flightCategory": "VFR",
    "windDir": 190,
    "windSpeed": 3,
    "windGust": null,
    "visibility": 6,
    "ceiling": null,
    "temp": 3,
    "dewpoint": 0,
    "altimeter": 30.3,
    "conditions": "",
    "observationTime": "2026-04-06T02:20:00.000Z"
  }
}