{
  "SYD": {
    "raw": "METAR YSSY 071100Z AUTO 31003KT 9999 // FEW087 22/19 Q1011",
    "icao": "YSSY",
    "flightCategory": "VFR",
    "windDir": 310,
    "windSpeed": 3,
    "windGust": null,
    "visibility": 6,
    "ceiling": null,
    "temp": 22,
    "dewpoint": 19,
    "altimeter": 29.85,
    "conditions": "",
    "observationTime": "2026-04-07T11:00:00.000Z"
  },
  "LHR": {
    "raw": "METAR EGLL 071050Z COR AUTO 11011KT 070V150 9999 NCD 18/02 Q1022 NOSIG",
    "icao": "EGLL",
    "flightCategory": "VFR",
    "windDir": 110,
    "windSpeed": 11,
    "windGust": null,
    "visibility": 6,
    "ceiling": null,
    "temp": 18,
    "dewpoint": 2,
    "altimeter": 30.18,
    "conditions": "",
    "observationTime": "2026-04-07T11:00:00.000Z"
  },
  "LAS": {
    "raw": "METAR KLAS 071056Z 30003KT 10SM CLR 18/M07 A2992 RMK AO2 SLP110 T01781067",
    "icao": "KLAS",
    "flightCategory": "VFR",
    "windDir": 300,
    "windSpeed": 3,
    "windGust": null,
    "visibility": 10,
    "ceiling": null,
    "temp": 17.8,
    "dewpoint": -6.7,
    "altimeter": 29.92,
    "conditions": "",
    "observationTime": "2026-04-07T11:00:00.000Z"
  },
  "LAX": {
    "raw": "METAR KLAX 071053Z 00000KT 10SM FEW011 15/13 A2999 RMK AO2 SLP155 T01500133 $",
    "icao": "KLAX",
    "flightCategory": "VFR",
    "windDir": 0,
    "windSpeed": 0,
    "windGust": null,
    "visibility": 10,
    "ceiling": null,
    "temp": 15,
    "dewpoint": 13.3,
    "altimeter": 29.99,
    "conditions": "",
    "observationTime": "2026-04-07T11:00:00.000Z"
  },
  "ORD": {
    "raw": "METAR KORD 071051Z 03012KT 10SM FEW032 FEW250 M02/M09 A3046 RMK AO2 SLP321 T10171089 $",
    "icao": "KORD",
    "flightCategory": "VFR",
    "windDir": 30,
    "windSpeed": 12,
    "windGust": null,
    "visibility": 10,
    "ceiling": null,
    "temp": -1.7,
    "dewpoint": -8.9,
    "altimeter": 30.46,
    "conditions": "",
    "observationTime": "2026-04-07T11:00:00.000Z"
  }
}