{
  "SYD": {
    "raw": "METAR YSSY 182000Z 32008KT 9999 FEW022 10/07 Q1021",
    "icao": "YSSY",
    "flightCategory": "VFR",
    "windDir": 320,
    "windSpeed": 8,
    "windGust": null,
    "visibility": 6,
    "ceiling": null,
    "temp": 10,
    "dewpoint": 7,
    "altimeter": 30.15,
    "conditions": "",
    "observationTime": "2026-04-18T20:00:00.000Z"
  },
  "LHR": {
    "raw": "METAR EGLL 181950Z COR AUTO 34008KT 310V020 9999 NCD 13/05 Q1023 NOSIG",
    "icao": "EGLL",
    "flightCategory": "VFR",
    "windDir": 340,
    "windSpeed": 8,
    "windGust": null,
    "visibility": 6,
    "ceiling": null,
    "temp": 13,
    "dewpoint": 5,
    "altimeter": 30.21,
    "conditions": "",
    "observationTime": "2026-04-18T20:00:00.000Z"
  },
  "LAS": {
    "raw": "METAR KLAS 181956Z 02007KT 10SM SCT120 BKN250 22/M18 A3010 RMK AO2 SLP180 T02171183",
    "icao": "KLAS",
    "flightCategory": "VFR",
    "windDir": 20,
    "windSpeed": 7,
    "windGust": null,
    "visibility": 10,
    "ceiling": 25000,
    "temp": 21.7,
    "dewpoint": -18.3,
    "altimeter": 30.1,
    "conditions": "",
    "observationTime": "2026-04-18T20:00:00.000Z"
  },
  "LAX": {
    "raw": "METAR KLAX 181953Z 26008KT 10SM SCT300 24/13 A2996 RMK AO2 SLP143 T02440128 $",
    "icao": "KLAX",
    "flightCategory": "VFR",
    "windDir": 260,
    "windSpeed": 8,
    "windGust": null,
    "visibility": 10,
    "ceiling": null,
    "temp": 24.4,
    "dewpoint": 12.8,
    "altimeter": 29.96,
    "conditions": "",
    "observationTime": "2026-04-18T20:00:00.000Z"
  },
  "ORD": {
    "raw": "METAR KORD 181951Z 26019G28KT 10SM BKN046 BKN250 09/M02 A2991 RMK AO2 PK WND 27033/1932 SLP128 T00941017 $",
    "icao": "KORD",
    "flightCategory": "VFR",
    "windDir": 260,
    "windSpeed": 19,
    "windGust": 28,
    "visibility": 10,
    "ceiling": 4600,
    "temp": 9.4,
    "dewpoint": -1.7,
    "altimeter": 29.91,
    "conditions": "",
    "observationTime": "2026-04-18T20:00:00.000Z"
  }
}