{
  "SYD": {
    "raw": "METAR YSSY 290830Z AUTO 16009KT 9999 // NCD 20/14 Q1022",
    "icao": "YSSY",
    "flightCategory": "VFR",
    "windDir": 160,
    "windSpeed": 9,
    "windGust": null,
    "visibility": 6,
    "ceiling": null,
    "temp": 20,
    "dewpoint": 14,
    "altimeter": 30.18,
    "conditions": "",
    "observationTime": "2026-03-29T08:30:00.000Z"
  },
  "LAS": {
    "raw": "METAR KLAS 290856Z 18004KT 10SM FEW200 24/M11 A2992 RMK AO2 SLP106 T02441106 58001",
    "icao": "KLAS",
    "flightCategory": "VFR",
    "windDir": 180,
    "windSpeed": 4,
    "windGust": null,
    "visibility": 10,
    "ceiling": null,
    "temp": 24.4,
    "dewpoint": -10.6,
    "altimeter": 29.92,
    "conditions": "",
    "observationTime": "2026-03-29T09:00:00.000Z"
  },
  "LAX": {
    "raw": "METAR KLAX 290853Z 09003KT 6SM BR FEW006 14/14 A2993 RMK AO2 SLP132 T01440139 58010",
    "icao": "KLAX",
    "flightCategory": "VFR",
    "windDir": 90,
    "windSpeed": 3,
    "windGust": null,
    "visibility": 6,
    "ceiling": null,
    "temp": 14.4,
    "dewpoint": 13.9,
    "altimeter": 29.93,
    "conditions": "BR",
    "observationTime": "2026-03-29T09:00:00.000Z"
  },
  "ORD": {
    "raw": "METAR KORD 290851Z 21006KT 10SM SCT110 SCT220 BKN250 05/M02 A3026 RMK AO2 SLP250 T00501017 58012",
    "icao": "KORD",
    "flightCategory": "VFR",
    "windDir": 210,
    "windSpeed": 6,
    "windGust": null,
    "visibility": 10,
    "ceiling": 25000,
    "temp": 5,
    "dewpoint": -1.7,
    "altimeter": 30.26,
    "conditions": "",
    "observationTime": "2026-03-29T09:00:00.000Z"
  },
  "LHR": {
    "raw": "METAR EGLL 290850Z COR AUTO 22008KT 180V250 9999 NCD 07/01 Q1030 NOSIG",
    "icao": "EGLL",
    "flightCategory": "VFR",
    "windDir": 220,
    "windSpeed": 8,
    "windGust": null,
    "visibility": 6,
    "ceiling": null,
    "temp": 7,
    "dewpoint": 1,
    "altimeter": 30.42,
    "conditions": "",
    "observationTime": "2026-03-29T09:00:00.000Z"
  }
}