{
  "SYD": {
    "raw": "METAR YSSY 011500Z AUTO 02007KT 9999 -RA FEW072 BKN100 OVC120 13/08 Q1008",
    "icao": "YSSY",
    "flightCategory": "VFR",
    "windDir": 20,
    "windSpeed": 7,
    "windGust": null,
    "visibility": 6,
    "ceiling": 10000,
    "temp": 13,
    "dewpoint": 8,
    "altimeter": 29.77,
    "conditions": "-RA",
    "observationTime": "2026-06-01T15:00:00.000Z"
  },
  "LHR": {
    "raw": "METAR EGLL 011450Z AUTO 24017KT 210V270 9999 SCT031 OVC045 21/12 Q1013",
    "icao": "EGLL",
    "flightCategory": "VFR",
    "windDir": 240,
    "windSpeed": 17,
    "windGust": null,
    "visibility": 6,
    "ceiling": 4500,
    "temp": 21,
    "dewpoint": 12,
    "altimeter": 29.91,
    "conditions": "",
    "observationTime": "2026-06-01T15:00:00.000Z"
  },
  "LAS": {
    "raw": "METAR KLAS 011456Z 04005KT 10SM FEW250 28/M04 A2992 RMK AO2 SLP103 T02781044 53015",
    "icao": "KLAS",
    "flightCategory": "VFR",
    "windDir": 40,
    "windSpeed": 5,
    "windGust": null,
    "visibility": 10,
    "ceiling": null,
    "temp": 27.8,
    "dewpoint": -4.4,
    "altimeter": 29.92,
    "conditions": "",
    "observationTime": "2026-06-01T15:00:00.000Z"
  },
  "LAX": {
    "raw": "METAR KLAX 011453Z 07005KT 7SM FEW009 OVC017 18/14 A2995 RMK AO2 SLP141 T01830139 52010 $",
    "icao": "KLAX",
    "flightCategory": "MVFR",
    "windDir": 70,
    "windSpeed": 5,
    "windGust": null,
    "visibility": 7,
    "ceiling": 1700,
    "temp": 18.3,
    "dewpoint": 13.9,
    "altimeter": 29.95,
    "conditions": "",
    "observationTime": "2026-06-01T15:00:00.000Z"
  },
  "ORD": {
    "raw": "METAR KORD 011451Z 07007KT 10SM OVC070 16/07 A3007 RMK AO2 SLP182 T01610072 53009",
    "icao": "KORD",
    "flightCategory": "VFR",
    "windDir": 70,
    "windSpeed": 7,
    "windGust": null,
    "visibility": 10,
    "ceiling": 7000,
    "temp": 16.1,
    "dewpoint": 7.2,
    "altimeter": 30.07,
    "conditions": "",
    "observationTime": "2026-06-01T15:00:00.000Z"
  }
}