{
  "ORD": {
    "raw": "METAR KORD 071651Z 31003KT 10SM FEW060 FEW250 28/13 A3010 RMK AO2 SLP188 T02830128 $",
    "icao": "KORD",
    "flightCategory": "VFR",
    "windDir": 310,
    "windSpeed": 3,
    "windGust": null,
    "visibility": 10,
    "ceiling": null,
    "temp": 28.3,
    "dewpoint": 12.8,
    "altimeter": 30.1,
    "conditions": "",
    "observationTime": "2026-07-07T17:00:00.000Z"
  },
  "LHR": {
    "raw": "METAR EGLL 071620Z AUTO 30008KT 270V340 9999 NCD 31/10 Q1016",
    "icao": "EGLL",
    "flightCategory": "VFR",
    "windDir": 300,
    "windSpeed": 8,
    "windGust": null,
    "visibility": 6,
    "ceiling": null,
    "temp": 31,
    "dewpoint": 10,
    "altimeter": 30,
    "conditions": "",
    "observationTime": "2026-07-07T16:20:00.000Z"
  },
  "SYD": {
    "raw": "METAR YSSY 071600Z AUTO 23007KT 9999 // FEW040 SCT062 13/10 Q1032",
    "icao": "YSSY",
    "flightCategory": "VFR",
    "windDir": 230,
    "windSpeed": 7,
    "windGust": null,
    "visibility": 6,
    "ceiling": null,
    "temp": 13,
    "dewpoint": 10,
    "altimeter": 30.47,
    "conditions": "",
    "observationTime": "2026-07-07T16:00:00.000Z"
  },
  "LAS": {
    "raw": "METAR KLAS 071556Z 20003KT 10SM CLR 34/04 A2994 RMK AO2 SLP107 T03440039",
    "icao": "KLAS",
    "flightCategory": "VFR",
    "windDir": 200,
    "windSpeed": 3,
    "windGust": null,
    "visibility": 10,
    "ceiling": null,
    "temp": 34.4,
    "dewpoint": 3.9,
    "altimeter": 29.94,
    "conditions": "",
    "observationTime": "2026-07-07T16:00:00.000Z"
  }
}