{
  "SYD": {
    "raw": "METAR YSSY 152200Z 30008KT CAVOK 18/12 Q1019",
    "icao": "YSSY",
    "flightCategory": "VFR",
    "windDir": 300,
    "windSpeed": 8,
    "windGust": null,
    "visibility": 6,
    "ceiling": null,
    "temp": 18,
    "dewpoint": 12,
    "altimeter": 30.09,
    "conditions": "",
    "observationTime": "2026-04-15T22:00:00.000Z"
  },
  "LHR": {
    "raw": "METAR EGLL 152220Z COR AUTO 22010KT 9999 NCD 11/08 Q1017 NOSIG",
    "icao": "EGLL",
    "flightCategory": "VFR",
    "windDir": 220,
    "windSpeed": 10,
    "windGust": null,
    "visibility": 6,
    "ceiling": null,
    "temp": 11,
    "dewpoint": 8,
    "altimeter": 30.03,
    "conditions": "",
    "observationTime": "2026-04-15T22:20:00.000Z"
  },
  "LAS": {
    "raw": "METAR KLAS 152156Z 18007G18KT 140V200 10SM FEW250 27/M06 A2991 RMK AO2 SLP112 T02671061",
    "icao": "KLAS",
    "flightCategory": "VFR",
    "windDir": 180,
    "windSpeed": 7,
    "windGust": 18,
    "visibility": 10,
    "ceiling": null,
    "temp": 26.7,
    "dewpoint": -6.1,
    "altimeter": 29.91,
    "conditions": "",
    "observationTime": "2026-04-15T22:00:00.000Z"
  },
  "LAX": {
    "raw": "METAR KLAX 152153Z 24011KT 10SM FEW050 FEW250 21/12 A3001 RMK AO2 SLP162 T02060122",
    "icao": "KLAX",
    "flightCategory": "VFR",
    "windDir": 240,
    "windSpeed": 11,
    "windGust": null,
    "visibility": 10,
    "ceiling": null,
    "temp": 20.6,
    "dewpoint": 12.2,
    "altimeter": 30.01,
    "conditions": "",
    "observationTime": "2026-04-15T22:00:00.000Z"
  }
}