{
  "SYD": {
    "raw": "METAR YSSY 201400Z AUTO 24010KT 9999 // SCT042 OVC055 17/12 Q1026",
    "icao": "YSSY",
    "flightCategory": "VFR",
    "windDir": 240,
    "windSpeed": 10,
    "windGust": null,
    "visibility": 6,
    "ceiling": 5500,
    "temp": 17,
    "dewpoint": 12,
    "altimeter": 30.3,
    "conditions": "",
    "observationTime": "2026-04-20T14:00:00.000Z"
  },
  "LHR": {
    "raw": "METAR EGLL 201350Z COR AUTO 06013KT 9999 NCD 13/02 Q1023 NOSIG",
    "icao": "EGLL",
    "flightCategory": "VFR",
    "windDir": 60,
    "windSpeed": 13,
    "windGust": null,
    "visibility": 6,
    "ceiling": null,
    "temp": 13,
    "dewpoint": 2,
    "altimeter": 30.21,
    "conditions": "",
    "observationTime": "2026-04-20T14:00:00.000Z"
  },
  "LAS": {
    "raw": "METAR KLAS 201356Z 21003KT 10SM FEW150 SCT250 18/M04 A2992 RMK AO2 SLP113 T01781044",
    "icao": "KLAS",
    "flightCategory": "VFR",
    "windDir": 210,
    "windSpeed": 3,
    "windGust": null,
    "visibility": 10,
    "ceiling": null,
    "temp": 17.8,
    "dewpoint": -4.4,
    "altimeter": 29.92,
    "conditions": "",
    "observationTime": "2026-04-20T14:00:00.000Z"
  },
  "LAX": {
    "raw": "METAR KLAX 201353Z 09003KT 10SM FEW014 FEW140 SCT180 BKN250 14/12 A2998 RMK AO2 SLP150 T01390122",
    "icao": "KLAX",
    "flightCategory": "VFR",
    "windDir": 90,
    "windSpeed": 3,
    "windGust": null,
    "visibility": 10,
    "ceiling": 25000,
    "temp": 13.9,
    "dewpoint": 12.2,
    "altimeter": 29.98,
    "conditions": "",
    "observationTime": "2026-04-20T14:00:00.000Z"
  },
  "ORD": {
    "raw": "METAR KORD 201351Z 13006KT 10SM FEW038 SCT250 07/M02 A3036 RMK AO2 SLP283 T00671017",
    "icao": "KORD",
    "flightCategory": "VFR",
    "windDir": 130,
    "windSpeed": 6,
    "windGust": null,
    "visibility": 10,
    "ceiling": null,
    "temp": 6.7,
    "dewpoint": -1.7,
    "altimeter": 30.36,
    "conditions": "",
    "observationTime": "2026-04-20T14:00:00.000Z"
  }
}