{
  "SYD": {
    "raw": "METAR YSSY 261000Z AUTO 19005KT 9999 // FEW047 OVC059 13/11 Q1030",
    "icao": "YSSY",
    "flightCategory": "VFR",
    "windDir": 190,
    "windSpeed": 5,
    "windGust": null,
    "visibility": 6,
    "ceiling": 5900,
    "temp": 13,
    "dewpoint": 11,
    "altimeter": 30.42,
    "conditions": "",
    "observationTime": "2026-06-26T10:00:00.000Z"
  },
  "LHR": {
    "raw": "METAR EGLL 260950Z AUTO 24010KT 200V260 9999 NCD 33/18 Q1013",
    "icao": "EGLL",
    "flightCategory": "VFR",
    "windDir": 240,
    "windSpeed": 10,
    "windGust": null,
    "visibility": 6,
    "ceiling": null,
    "temp": 33,
    "dewpoint": 18,
    "altimeter": 29.91,
    "conditions": "",
    "observationTime": "2026-06-26T10:00:00.000Z"
  },
  "LAS": {
    "raw": "METAR KLAS 260956Z 18011G19KT 10SM CLR 29/01 A2973 RMK AO2 SLP035 T02890011",
    "icao": "KLAS",
    "flightCategory": "VFR",
    "windDir": 180,
    "windSpeed": 11,
    "windGust": 19,
    "visibility": 10,
    "ceiling": null,
    "temp": 28.9,
    "dewpoint": 1.1,
    "altimeter": 29.73,
    "conditions": "",
    "observationTime": "2026-06-26T10:00:00.000Z"
  },
  "LAX": {
    "raw": "METAR KLAX 260953Z 30003KT 10SM FEW009 OVC014 17/14 A2990 RMK AO2 SLP123 T01720139",
    "icao": "KLAX",
    "flightCategory": "MVFR",
    "windDir": 300,
    "windSpeed": 3,
    "windGust": null,
    "visibility": 10,
    "ceiling": 1400,
    "temp": 17.2,
    "dewpoint": 13.9,
    "altimeter": 29.9,
    "conditions": "",
    "observationTime": "2026-06-26T10:00:00.000Z"
  },
  "ORD": {
    "raw": "METAR KORD 260951Z 03006KT 10SM BKN230 17/13 A3004 RMK AO2 SLP169 T01670133 $",
    "icao": "KORD",
    "flightCategory": "VFR",
    "windDir": 30,
    "windSpeed": 6,
    "windGust": null,
    "visibility": 10,
    "ceiling": 23000,
    "temp": 16.7,
    "dewpoint": 13.3,
    "altimeter": 30.04,
    "conditions": "",
    "observationTime": "2026-06-26T10:00:00.000Z"
  }
}