{
  "HND": {
    "raw": "METAR RJTT 121330Z 16006KT 110V200 CAVOK 18/14 Q1011 NOSIG",
    "icao": "RJTT",
    "flightCategory": "VFR",
    "windDir": 160,
    "windSpeed": 6,
    "windGust": null,
    "visibility": 6,
    "ceiling": null,
    "temp": 18,
    "dewpoint": 14,
    "altimeter": 29.85,
    "conditions": "",
    "observationTime": "2026-05-12T13:30:00.000Z"
  },
  "LAS": {
    "raw": "METAR KLAS 121356Z 25004KT 10SM CLR 27/M04 A2997 RMK AO2 SLP120 T02671039",
    "icao": "KLAS",
    "flightCategory": "VFR",
    "windDir": 250,
    "windSpeed": 4,
    "windGust": null,
    "visibility": 10,
    "ceiling": null,
    "temp": 26.7,
    "dewpoint": -3.9,
    "altimeter": 29.97,
    "conditions": "",
    "observationTime": "2026-05-12T14:00:00.000Z"
  },
  "LAX": {
    "raw": "METAR KLAX 121353Z VRB03KT 5SM BR FEW004 OVC008 15/13 A2996 RMK AO2 SLP143 T01500128 $",
    "icao": "KLAX",
    "flightCategory": "IFR",
    "windDir": null,
    "windSpeed": 3,
    "windGust": null,
    "visibility": 5,
    "ceiling": 800,
    "temp": 15,
    "dewpoint": 12.8,
    "altimeter": 29.96,
    "conditions": "BR",
    "observationTime": "2026-05-12T14:00:00.000Z"
  },
  "ORD": {
    "raw": "METAR KORD 121351Z 15009KT 10SM FEW110 SCT160 BKN250 12/M01 A3008 RMK AO2 SLP189 T01221011",
    "icao": "KORD",
    "flightCategory": "VFR",
    "windDir": 150,
    "windSpeed": 9,
    "windGust": null,
    "visibility": 10,
    "ceiling": 25000,
    "temp": 12.2,
    "dewpoint": -1.1,
    "altimeter": 30.08,
    "conditions": "",
    "observationTime": "2026-05-12T14:00:00.000Z"
  },
  "LHR": {
    "raw": "METAR EGLL 121320Z COR AUTO 29011KT 9999 BKN047 16/03 Q1013 NOSIG",
    "icao": "EGLL",
    "flightCategory": "VFR",
    "windDir": 290,
    "windSpeed": 11,
    "windGust": null,
    "visibility": 6,
    "ceiling": 4700,
    "temp": 16,
    "dewpoint": 3,
    "altimeter": 29.91,
    "conditions": "",
    "observationTime": "2026-05-12T13:20:00.000Z"
  }
}