{
  "SYD": {
    "raw": "METAR YSSY 170000Z 32005KT 290V360 9999 FEW018 SCT160 BKN210 20/16 Q1022",
    "icao": "YSSY",
    "flightCategory": "VFR",
    "windDir": 320,
    "windSpeed": 5,
    "windGust": null,
    "visibility": 6,
    "ceiling": 21000,
    "temp": 20,
    "dewpoint": 16,
    "altimeter": 30.18,
    "conditions": "",
    "observationTime": "2026-05-17T00:00:00.000Z"
  },
  "LHR": {
    "raw": "METAR EGLL 162350Z AUTO 22008KT 9999 -RA BKN039 11/09 Q1008",
    "icao": "EGLL",
    "flightCategory": "VFR",
    "windDir": 220,
    "windSpeed": 8,
    "windGust": null,
    "visibility": 6,
    "ceiling": 3900,
    "temp": 11,
    "dewpoint": 9,
    "altimeter": 29.77,
    "conditions": "-RA",
    "observationTime": "2026-05-17T00:00:00.000Z"
  },
  "LAS": {
    "raw": "METAR KLAS 162356Z 22011G16KT 10SM FEW120 33/M04 A2958 RMK AO2 SLP988 T03331039 10339 20300 56021",
    "icao": "KLAS",
    "flightCategory": "VFR",
    "windDir": 220,
    "windSpeed": 11,
    "windGust": 16,
    "visibility": 10,
    "ceiling": null,
    "temp": 33.3,
    "dewpoint": -3.9,
    "altimeter": 29.58,
    "conditions": "",
    "observationTime": "2026-05-17T00:00:00.000Z"
  },
  "LAX": {
    "raw": "METAR KLAX 162353Z 26013KT 10SM FEW014 FEW035 19/12 A2985 RMK AO2 SLP107 T01890117 10211 20189 58016",
    "icao": "KLAX",
    "flightCategory": "VFR",
    "windDir": 260,
    "windSpeed": 13,
    "windGust": null,
    "visibility": 10,
    "ceiling": null,
    "temp": 18.9,
    "dewpoint": 11.7,
    "altimeter": 29.85,
    "conditions": "",
    "observationTime": "2026-05-17T00:00:00.000Z"
  },
  "ORD": {
    "raw": "METAR KORD 162351Z 19006KT 10SM FEW060 BKN250 27/17 A2982 RMK AO2 SLP092 T02670167 10289 20256 58007",
    "icao": "KORD",
    "flightCategory": "VFR",
    "windDir": 190,
    "windSpeed": 6,
    "windGust": null,
    "visibility": 10,
    "ceiling": 25000,
    "temp": 26.7,
    "dewpoint": 16.7,
    "altimeter": 29.82,
    "conditions": "",
    "observationTime": "2026-05-17T00:00:00.000Z"
  }
}