{
  "SYD": {
    "raw": "METAR YSSY 240030Z 14010KT 9999 SCT040 21/12 Q1032",
    "icao": "YSSY",
    "flightCategory": "VFR",
    "windDir": 140,
    "windSpeed": 10,
    "windGust": null,
    "visibility": 6,
    "ceiling": null,
    "temp": 21,
    "dewpoint": 12,
    "altimeter": 30.47,
    "conditions": "",
    "observationTime": "2026-04-24T00:30:00.000Z"
  },
  "LAS": {
    "raw": "METAR KLAS 240056Z 00000KT 10SM SCT250 24/M07 A2986 RMK AO2 SLP094 T02391072",
    "icao": "KLAS",
    "flightCategory": "VFR",
    "windDir": 0,
    "windSpeed": 0,
    "windGust": null,
    "visibility": 10,
    "ceiling": null,
    "temp": 23.9,
    "dewpoint": -7.2,
    "altimeter": 29.86,
    "conditions": "",
    "observationTime": "2026-04-24T01:00:00.000Z"
  },
  "LAX": {
    "raw": "METAR KLAX 240053Z 27011KT 10SM BKN250 19/11 A2990 RMK AO2 SLP125 T01940111 $",
    "icao": "KLAX",
    "flightCategory": "VFR",
    "windDir": 270,
    "windSpeed": 11,
    "windGust": null,
    "visibility": 10,
    "ceiling": 25000,
    "temp": 19.4,
    "dewpoint": 11.1,
    "altimeter": 29.9,
    "conditions": "",
    "observationTime": "2026-04-24T01:00:00.000Z"
  },
  "ORD": {
    "raw": "METAR KORD 240051Z 18009KT 10SM BKN250 25/11 A2969 RMK AO2 SLP050 T02500106",
    "icao": "KORD",
    "flightCategory": "VFR",
    "windDir": 180,
    "windSpeed": 9,
    "windGust": null,
    "visibility": 10,
    "ceiling": 25000,
    "temp": 25,
    "dewpoint": 10.6,
    "altimeter": 29.69,
    "conditions": "",
    "observationTime": "2026-04-24T01:00:00.000Z"
  },
  "LHR": {
    "raw": "METAR EGLL 240020Z COR AUTO 06005KT 9999 NCD 06/01 Q1028 NOSIG",
    "icao": "EGLL",
    "flightCategory": "VFR",
    "windDir": 60,
    "windSpeed": 5,
    "windGust": null,
    "visibility": 6,
    "ceiling": null,
    "temp": 6,
    "dewpoint": 1,
    "altimeter": 30.36,
    "conditions": "",
    "observationTime": "2026-04-24T00:20:00.000Z"
  }
}