{
  "SYD": {
    "raw": "SPECI YSSY 252145Z 24005KT 6000 -SHRA SCT012 SCT025 BKN040 18/18 Q1019",
    "icao": "YSSY",
    "flightCategory": "MVFR",
    "windDir": 240,
    "windSpeed": 5,
    "windGust": null,
    "visibility": 3.73,
    "ceiling": 4000,
    "temp": 18,
    "dewpoint": 18,
    "altimeter": 30.09,
    "conditions": "-SHRA",
    "observationTime": "2026-05-25T21:45:00.000Z"
  },
  "LHR": {
    "raw": "METAR EGLL 252150Z AUTO 11006KT 9999 NCD 25/15 Q1029",
    "icao": "EGLL",
    "flightCategory": "VFR",
    "windDir": 110,
    "windSpeed": 6,
    "windGust": null,
    "visibility": 6,
    "ceiling": null,
    "temp": 25,
    "dewpoint": 15,
    "altimeter": 30.39,
    "conditions": "",
    "observationTime": "2026-05-25T22:00:00.000Z"
  },
  "LAS": {
    "raw": "METAR KLAS 252156Z VRB06KT 10SM FEW120 FEW250 34/M03 A2973 RMK AO2 SLP040 T03441028",
    "icao": "KLAS",
    "flightCategory": "VFR",
    "windDir": null,
    "windSpeed": 6,
    "windGust": null,
    "visibility": 10,
    "ceiling": null,
    "temp": 34.4,
    "dewpoint": -2.8,
    "altimeter": 29.73,
    "conditions": "",
    "observationTime": "2026-05-25T22:00:00.000Z"
  },
  "LAX": {
    "raw": "METAR KLAX 252153Z 24014G22KT 10SM FEW019 19/12 A2993 RMK AO2 SLP133 T01940122 $",
    "icao": "KLAX",
    "flightCategory": "VFR",
    "windDir": 240,
    "windSpeed": 14,
    "windGust": 22,
    "visibility": 10,
    "ceiling": null,
    "temp": 19.4,
    "dewpoint": 12.2,
    "altimeter": 29.93,
    "conditions": "",
    "observationTime": "2026-05-25T22:00:00.000Z"
  },
  "ORD": {
    "raw": "METAR KORD 252151Z 17009KT 10SM FEW075 FEW110 FEW250 28/11 A3005 RMK AO2 SLP171 T02830111 $",
    "icao": "KORD",
    "flightCategory": "VFR",
    "windDir": 170,
    "windSpeed": 9,
    "windGust": null,
    "visibility": 10,
    "ceiling": null,
    "temp": 28.3,
    "dewpoint": 11.1,
    "altimeter": 30.05,
    "conditions": "",
    "observationTime": "2026-05-25T22:00:00.000Z"
  }
}