{
  "SYD": {
    "raw": "METAR YSSY 020800Z AUTO 36016KT 9999 // FEW057 16/10 Q1001",
    "icao": "YSSY",
    "flightCategory": "VFR",
    "windDir": 360,
    "windSpeed": 16,
    "windGust": null,
    "visibility": 6,
    "ceiling": null,
    "temp": 16,
    "dewpoint": 10,
    "altimeter": 29.56,
    "conditions": "",
    "observationTime": "2026-06-02T08:00:00.000Z"
  },
  "LHR": {
    "raw": "METAR EGLL 020750Z COR 26011KT 4500 RADZ BKN012 OVC020 15/13 Q1003 RERA",
    "icao": "EGLL",
    "flightCategory": "IFR",
    "windDir": 260,
    "windSpeed": 11,
    "windGust": null,
    "visibility": 2.8,
    "ceiling": 1200,
    "temp": 15,
    "dewpoint": 13,
    "altimeter": 29.62,
    "conditions": "RA DZ",
    "observationTime": "2026-06-02T08:00:00.000Z"
  },
  "LAS": {
    "raw": "METAR KLAS 020756Z 18005KT 10SM CLR 29/M03 A2988 RMK AO2 SLP087 T02891028 403720233 $",
    "icao": "KLAS",
    "flightCategory": "VFR",
    "windDir": 180,
    "windSpeed": 5,
    "windGust": null,
    "visibility": 10,
    "ceiling": null,
    "temp": 28.9,
    "dewpoint": -2.8,
    "altimeter": 29.88,
    "conditions": "",
    "observationTime": "2026-06-02T08:00:00.000Z"
  },
  "LAX": {
    "raw": "METAR KLAX 020753Z 22003KT 9SM FEW008 OVC011 17/14 A3001 RMK AO2 SLP159 T01670139 402220161 $",
    "icao": "KLAX",
    "flightCategory": "MVFR",
    "windDir": 220,
    "windSpeed": 3,
    "windGust": null,
    "visibility": 9,
    "ceiling": 1100,
    "temp": 16.7,
    "dewpoint": 13.9,
    "altimeter": 30.01,
    "conditions": "",
    "observationTime": "2026-06-02T08:00:00.000Z"
  },
  "ORD": {
    "raw": "METAR KORD 020751Z 36005KT 10SM CLR 11/05 A3020 RMK AO2 SLP225 T01110050 $",
    "icao": "KORD",
    "flightCategory": "VFR",
    "windDir": 360,
    "windSpeed": 5,
    "windGust": null,
    "visibility": 10,
    "ceiling": null,
    "temp": 11.1,
    "dewpoint": 5,
    "altimeter": 30.2,
    "conditions": "",
    "observationTime": "2026-06-02T08:00:00.000Z"
  }
}