{
  "LHR": {
    "raw": "METAR EGLL 141550Z AUTO 36006KT 290V040 9999 NCD 20/09 Q1019",
    "icao": "EGLL",
    "flightCategory": "VFR",
    "windDir": 360,
    "windSpeed": 6,
    "windGust": null,
    "visibility": 6,
    "ceiling": null,
    "temp": 20,
    "dewpoint": 9,
    "altimeter": 30.09,
    "conditions": "",
    "observationTime": "2026-06-14T16:00:00.000Z"
  },
  "SYD": {
    "raw": "METAR YSSY 141600Z AUTO 17016KT 9999 // OVC063 17/12 Q1032",
    "icao": "YSSY",
    "flightCategory": "VFR",
    "windDir": 170,
    "windSpeed": 16,
    "windGust": null,
    "visibility": 6,
    "ceiling": 6300,
    "temp": 17,
    "dewpoint": 12,
    "altimeter": 30.47,
    "conditions": "",
    "observationTime": "2026-06-14T16:00:00.000Z"
  },
  "LAS": {
    "raw": "METAR KLAS 141556Z 16009KT 10SM FEW120 FEW170 34/06 A2991 RMK AO2 SLP096 T03440061",
    "icao": "KLAS",
    "flightCategory": "VFR",
    "windDir": 160,
    "windSpeed": 9,
    "windGust": null,
    "visibility": 10,
    "ceiling": null,
    "temp": 34.4,
    "dewpoint": 6.1,
    "altimeter": 29.91,
    "conditions": "",
    "observationTime": "2026-06-14T16:00:00.000Z"
  },
  "LAX": {
    "raw": "METAR KLAX 141553Z 18005KT 10SM FEW009 21/15 A2997 RMK AO2 SLP147 T02060150 $",
    "icao": "KLAX",
    "flightCategory": "VFR",
    "windDir": 180,
    "windSpeed": 5,
    "windGust": null,
    "visibility": 10,
    "ceiling": null,
    "temp": 20.6,
    "dewpoint": 15,
    "altimeter": 29.97,
    "conditions": "",
    "observationTime": "2026-06-14T16:00:00.000Z"
  },
  "ORD": {
    "raw": "METAR KORD 141551Z 28008KT 10SM SCT040 BKN075 BKN120 18/14 A2985 RMK AO2 SLP106 T01830144 $",
    "icao": "KORD",
    "flightCategory": "VFR",
    "windDir": 280,
    "windSpeed": 8,
    "windGust": null,
    "visibility": 10,
    "ceiling": 7500,
    "temp": 18.3,
    "dewpoint": 14.4,
    "altimeter": 29.85,
    "conditions": "",
    "observationTime": "2026-06-14T16:00:00.000Z"
  }
}