{
  "SYD": {
    "raw": "METAR YSSY 062300Z 20013KT 9999 -DZ VCSH FEW016 SCT020 BKN050 13/11 Q1034",
    "icao": "YSSY",
    "flightCategory": "VFR",
    "windDir": 200,
    "windSpeed": 13,
    "windGust": null,
    "visibility": 6,
    "ceiling": 5000,
    "temp": 13,
    "dewpoint": 11,
    "altimeter": 30.53,
    "conditions": "-DZ VCSH",
    "observationTime": "2026-07-06T23:00:00.000Z"
  },
  "LAS": {
    "raw": "METAR KLAS 062256Z VRB06G17KT 10SM FEW140 41/03 A2983 RMK AO2 PK WND 21030/2230 SLP066 T04110033",
    "icao": "KLAS",
    "flightCategory": "VFR",
    "windDir": null,
    "windSpeed": 6,
    "windGust": 17,
    "visibility": 10,
    "ceiling": null,
    "temp": 41.1,
    "dewpoint": 3.3,
    "altimeter": 29.83,
    "conditions": "",
    "observationTime": "2026-07-06T23:00:00.000Z"
  },
  "LHR": {
    "raw": "METAR EGLL 062250Z AUTO 27011KT 9999 NCD 23/08 Q1016",
    "icao": "EGLL",
    "flightCategory": "VFR",
    "windDir": 270,
    "windSpeed": 11,
    "windGust": null,
    "visibility": 6,
    "ceiling": null,
    "temp": 23,
    "dewpoint": 8,
    "altimeter": 30,
    "conditions": "",
    "observationTime": "2026-07-06T23:00:00.000Z"
  },
  "LAX": {
    "raw": "METAR KLAX 062253Z 25015KT 10SM FEW009 22/16 A2992 RMK AO2 SLP130 T02220156",
    "icao": "KLAX",
    "flightCategory": "VFR",
    "windDir": 250,
    "windSpeed": 15,
    "windGust": null,
    "visibility": 10,
    "ceiling": null,
    "temp": 22.2,
    "dewpoint": 15.6,
    "altimeter": 29.92,
    "conditions": "",
    "observationTime": "2026-07-06T23:00:00.000Z"
  },
  "ORD": {
    "raw": "METAR KORD 062251Z 04013KT 10SM FEW250 26/12 A3005 RMK AO2 SLP171 T02560117 $",
    "icao": "KORD",
    "flightCategory": "VFR",
    "windDir": 40,
    "windSpeed": 13,
    "windGust": null,
    "visibility": 10,
    "ceiling": null,
    "temp": 25.6,
    "dewpoint": 11.7,
    "altimeter": 30.05,
    "conditions": "",
    "observationTime": "2026-07-06T23:00:00.000Z"
  }
}