{
  "SYD": {
    "raw": "METAR YSSY 110700Z AUTO 24017KT 9999 // NCD 22/05 Q1007",
    "icao": "YSSY",
    "flightCategory": "VFR",
    "windDir": 240,
    "windSpeed": 17,
    "windGust": null,
    "visibility": 6,
    "ceiling": null,
    "temp": 22,
    "dewpoint": 5,
    "altimeter": 29.74,
    "conditions": "",
    "observationTime": "2026-04-11T07:00:00.000Z"
  },
  "LAX": {
    "raw": "METAR KLAX 110653Z 25006KT 10SM FEW012 SCT025 BKN045 16/14 A2997 RMK AO2 SLP147 T01610139 $",
    "icao": "KLAX",
    "flightCategory": "VFR",
    "windDir": 250,
    "windSpeed": 6,
    "windGust": null,
    "visibility": 10,
    "ceiling": 4500,
    "temp": 16.1,
    "dewpoint": 13.9,
    "altimeter": 29.97,
    "conditions": "",
    "observationTime": "2026-04-11T07:00:00.000Z"
  },
  "LHR": {
    "raw": "METAR EGLL 110650Z AUTO 18009KT 140V210 9999 BKN023 11/06 Q1003 TEMPO BKN012",
    "icao": "EGLL",
    "flightCategory": "MVFR",
    "windDir": 180,
    "windSpeed": 9,
    "windGust": null,
    "visibility": 6,
    "ceiling": 2300,
    "temp": 11,
    "dewpoint": 6,
    "altimeter": 29.62,
    "conditions": "",
    "observationTime": "2026-04-11T07:00:00.000Z"
  },
  "LAS": {
    "raw": "METAR KLAS 110656Z 21012G18KT 10SM FEW250 21/03 A2982 RMK AO2 SLP078 T02060033",
    "icao": "KLAS",
    "flightCategory": "VFR",
    "windDir": 210,
    "windSpeed": 12,
    "windGust": 18,
    "visibility": 10,
    "ceiling": null,
    "temp": 20.6,
    "dewpoint": 3.3,
    "altimeter": 29.82,
    "conditions": "",
    "observationTime": "2026-04-11T07:00:00.000Z"
  },
  "ORD": {
    "raw": "METAR KORD 110651Z 07003KT 10SM CLR 03/01 A3038 RMK AO2 SLP290 T00330006 $",
    "icao": "KORD",
    "flightCategory": "VFR",
    "windDir": 70,
    "windSpeed": 3,
    "windGust": null,
    "visibility": 10,
    "ceiling": null,
    "temp": 3.3,
    "dewpoint": 0.6,
    "altimeter": 30.38,
    "conditions": "",
    "observationTime": "2026-04-11T07:00:00.000Z"
  }
}