{
  "SYD": {
    "raw": "METAR YSSY 032200Z 34005KT 9999 -SHRA NSC 21/16 Q1017",
    "icao": "YSSY",
    "flightCategory": "VFR",
    "windDir": 340,
    "windSpeed": 5,
    "windGust": null,
    "visibility": 6,
    "ceiling": null,
    "temp": 21,
    "dewpoint": 16,
    "altimeter": 30.03,
    "conditions": "-SHRA",
    "observationTime": "2026-05-03T22:00:00.000Z"
  },
  "LAS": {
    "raw": "METAR KLAS 032156Z 14007G18KT 10SM SCT100 BKN200 31/M03 A2972 RMK AO2 SLP040 T03061033",
    "icao": "KLAS",
    "flightCategory": "VFR",
    "windDir": 140,
    "windSpeed": 7,
    "windGust": 18,
    "visibility": 10,
    "ceiling": 20000,
    "temp": 30.6,
    "dewpoint": -3.3,
    "altimeter": 29.72,
    "conditions": "",
    "observationTime": "2026-05-03T22:00:00.000Z"
  },
  "LHR": {
    "raw": "METAR EGLL 032150Z AUTO 24008KT 9999 //////CB 15/11 Q1011 NOSIG",
    "icao": "EGLL",
    "flightCategory": "UNKNOWN",
    "windDir": 240,
    "windSpeed": 8,
    "windGust": null,
    "visibility": 6,
    "ceiling": null,
    "temp": 15,
    "dewpoint": 11,
    "altimeter": 29.85,
    "conditions": "",
    "observationTime": "2026-05-03T22:00:00.000Z"
  },
  "LAX": {
    "raw": "METAR KLAX 032153Z 26011G20KT 10SM FEW025 BKN050 19/10 A2994 RMK AO2 SLP139 T01890100",
    "icao": "KLAX",
    "flightCategory": "VFR",
    "windDir": 260,
    "windSpeed": 11,
    "windGust": 20,
    "visibility": 10,
    "ceiling": 5000,
    "temp": 18.9,
    "dewpoint": 10,
    "altimeter": 29.94,
    "conditions": "",
    "observationTime": "2026-05-03T22:00:00.000Z"
  },
  "ORD": {
    "raw": "METAR KORD 032151Z 22017G28KT 10SM FEW070 FEW100 SCT250 19/03 A2971 RMK AO2 PK WND 19033/2101 SLP060 T01940033 $",
    "icao": "KORD",
    "flightCategory": "VFR",
    "windDir": 220,
    "windSpeed": 17,
    "windGust": 28,
    "visibility": 10,
    "ceiling": null,
    "temp": 19.4,
    "dewpoint": 3.3,
    "altimeter": 29.71,
    "conditions": "",
    "observationTime": "2026-05-03T22:00:00.000Z"
  }
}