{
  "SYD": {
    "raw": "METAR YSSY 190530Z 17015KT CAVOK 19/10 Q1020",
    "icao": "YSSY",
    "flightCategory": "VFR",
    "windDir": 170,
    "windSpeed": 15,
    "windGust": null,
    "visibility": 6,
    "ceiling": null,
    "temp": 19,
    "dewpoint": 10,
    "altimeter": 30.12,
    "conditions": "",
    "observationTime": "2026-04-19T05:30:00.000Z"
  },
  "LAS": {
    "raw": "METAR KLAS 190556Z 00000KT 10SM FEW250 18/M13 A2998 RMK AO2 SLP138 T01831128 10244 20183 50005",
    "icao": "KLAS",
    "flightCategory": "VFR",
    "windDir": 0,
    "windSpeed": 0,
    "windGust": null,
    "visibility": 10,
    "ceiling": null,
    "temp": 18.3,
    "dewpoint": -12.8,
    "altimeter": 29.98,
    "conditions": "",
    "observationTime": "2026-04-19T06:00:00.000Z"
  },
  "LAX": {
    "raw": "METAR KLAX 190553Z 00000KT 10SM SCT220 18/11 A2994 RMK AO2 SLP136 T01780111 10211 20178 51014 $",
    "icao": "KLAX",
    "flightCategory": "VFR",
    "windDir": 0,
    "windSpeed": 0,
    "windGust": null,
    "visibility": 10,
    "ceiling": null,
    "temp": 17.8,
    "dewpoint": 11.1,
    "altimeter": 29.94,
    "conditions": "",
    "observationTime": "2026-04-19T06:00:00.000Z"
  },
  "ORD": {
    "raw": "METAR KORD 190551Z 25005KT 10SM CLR 04/M03 A3007 RMK AO2 SLP185 T00441033 10078 20044 401720044 51005 $",
    "icao": "KORD",
    "flightCategory": "VFR",
    "windDir": 250,
    "windSpeed": 5,
    "windGust": null,
    "visibility": 10,
    "ceiling": null,
    "temp": 4.4,
    "dewpoint": -3.3,
    "altimeter": 30.07,
    "conditions": "",
    "observationTime": "2026-04-19T06:00:00.000Z"
  },
  "LHR": {
    "raw": "METAR EGLL 190520Z COR AUTO VRB02KT 9999 NCD 06/02 Q1025 NOSIG",
    "icao": "EGLL",
    "flightCategory": "VFR",
    "windDir": null,
    "windSpeed": 2,
    "windGust": null,
    "visibility": 6,
    "ceiling": null,
    "temp": 6,
    "dewpoint": 2,
    "altimeter": 30.27,
    "conditions": "",
    "observationTime": "2026-04-19T05:20:00.000Z"
  }
}