{
  "SYD": {
    "raw": "METAR YSSY 261330Z AUTO 22015KT 9999 // OVC046 13/12 Q1030",
    "icao": "YSSY",
    "flightCategory": "VFR",
    "windDir": 220,
    "windSpeed": 15,
    "windGust": null,
    "visibility": 6,
    "ceiling": 4600,
    "temp": 13,
    "dewpoint": 12,
    "altimeter": 30.42,
    "conditions": "",
    "observationTime": "2026-06-26T13:30:00.000Z"
  },
  "LAS": {
    "raw": "METAR KLAS 261356Z 17008G17KT 10SM FEW150 29/02 A2977 RMK AO2 SLP050 T02890022",
    "icao": "KLAS",
    "flightCategory": "VFR",
    "windDir": 170,
    "windSpeed": 8,
    "windGust": 17,
    "visibility": 10,
    "ceiling": null,
    "temp": 28.9,
    "dewpoint": 2.2,
    "altimeter": 29.77,
    "conditions": "",
    "observationTime": "2026-06-26T14:00:00.000Z"
  },
  "LAX": {
    "raw": "METAR KLAX 261353Z 24005KT 9SM FEW009 OVC014 17/14 A2992 RMK AO2 SLP132 T01720139",
    "icao": "KLAX",
    "flightCategory": "MVFR",
    "windDir": 240,
    "windSpeed": 5,
    "windGust": null,
    "visibility": 9,
    "ceiling": 1400,
    "temp": 17.2,
    "dewpoint": 13.9,
    "altimeter": 29.92,
    "conditions": "",
    "observationTime": "2026-06-26T14:00:00.000Z"
  },
  "ORD": {
    "raw": "METAR KORD 261351Z 07006KT 10SM BKN140 OVC190 18/13 A3009 RMK AO2 SLP186 T01830128",
    "icao": "KORD",
    "flightCategory": "VFR",
    "windDir": 70,
    "windSpeed": 6,
    "windGust": null,
    "visibility": 10,
    "ceiling": 14000,
    "temp": 18.3,
    "dewpoint": 12.8,
    "altimeter": 30.09,
    "conditions": "",
    "observationTime": "2026-06-26T14:00:00.000Z"
  },
  "LHR": {
    "raw": "METAR EGLL 261320Z AUTO 23013KT 9999 NCD 34/14 Q1014",
    "icao": "EGLL",
    "flightCategory": "VFR",
    "windDir": 230,
    "windSpeed": 13,
    "windGust": null,
    "visibility": 6,
    "ceiling": null,
    "temp": 34,
    "dewpoint": 14,
    "altimeter": 29.94,
    "conditions": "",
    "observationTime": "2026-06-26T13:20:00.000Z"
  }
}