{
  "SYD": {
    "raw": "METAR YSSY 041530Z AUTO 25009KT 9999 // SCT039 BKN078 OVC115 18/12 Q1016",
    "icao": "YSSY",
    "flightCategory": "VFR",
    "windDir": 250,
    "windSpeed": 9,
    "windGust": null,
    "visibility": 6,
    "ceiling": 7800,
    "temp": 18,
    "dewpoint": 12,
    "altimeter": 30,
    "conditions": "",
    "observationTime": "2026-05-04T15:30:00.000Z"
  },
  "LAS": {
    "raw": "METAR KLAS 041556Z 18013G24KT 10SM SCT200 BKN250 19/03 A2980 RMK AO2 SLP073 T01890033",
    "icao": "KLAS",
    "flightCategory": "VFR",
    "windDir": 180,
    "windSpeed": 13,
    "windGust": 24,
    "visibility": 10,
    "ceiling": 25000,
    "temp": 18.9,
    "dewpoint": 3.3,
    "altimeter": 29.8,
    "conditions": "",
    "observationTime": "2026-05-04T16:00:00.000Z"
  },
  "LAX": {
    "raw": "METAR KLAX 041553Z 24010KT 10SM FEW025 SCT070 BKN160 BKN250 16/09 A2999 RMK AO2 SLP152 T01610094",
    "icao": "KLAX",
    "flightCategory": "VFR",
    "windDir": 240,
    "windSpeed": 10,
    "windGust": null,
    "visibility": 10,
    "ceiling": 16000,
    "temp": 16.1,
    "dewpoint": 9.4,
    "altimeter": 29.99,
    "conditions": "",
    "observationTime": "2026-05-04T16:00:00.000Z"
  },
  "ORD": {
    "raw": "METAR KORD 041551Z 21015KT 10SM FEW300 22/06 A2958 RMK AO2 SLP013 T02170061",
    "icao": "KORD",
    "flightCategory": "VFR",
    "windDir": 210,
    "windSpeed": 15,
    "windGust": null,
    "visibility": 10,
    "ceiling": null,
    "temp": 21.7,
    "dewpoint": 6.1,
    "altimeter": 29.58,
    "conditions": "",
    "observationTime": "2026-05-04T16:00:00.000Z"
  },
  "LHR": {
    "raw": "METAR EGLL 041520Z COR AUTO 01007KT 340V060 9999 BKN022 15/10 Q1014 NOSIG",
    "icao": "EGLL",
    "flightCategory": "MVFR",
    "windDir": 10,
    "windSpeed": 7,
    "windGust": null,
    "visibility": 6,
    "ceiling": 2200,
    "temp": 15,
    "dewpoint": 10,
    "altimeter": 29.94,
    "conditions": "",
    "observationTime": "2026-05-04T15:20:00.000Z"
  }
}