{
  "SYD": {
    "raw": "METAR YSSY 140030Z 29004KT 250V340 CAVOK 21/08 Q1021",
    "icao": "YSSY",
    "flightCategory": "VFR",
    "windDir": 290,
    "windSpeed": 4,
    "windGust": null,
    "visibility": 6,
    "ceiling": null,
    "temp": 21,
    "dewpoint": 8,
    "altimeter": 30.15,
    "conditions": "",
    "observationTime": "2026-04-14T00:30:00.000Z"
  },
  "LAS": {
    "raw": "METAR KLAS 140056Z 22010KT 10SM BKN070 BKN100 OVC200 19/M06 A2983 RMK AO2 SLP090 T01891061",
    "icao": "KLAS",
    "flightCategory": "VFR",
    "windDir": 220,
    "windSpeed": 10,
    "windGust": null,
    "visibility": 10,
    "ceiling": 7000,
    "temp": 18.9,
    "dewpoint": -6.1,
    "altimeter": 29.83,
    "conditions": "",
    "observationTime": "2026-04-14T01:00:00.000Z"
  },
  "LAX": {
    "raw": "METAR KLAX 140053Z 25019KT 10SM FEW070 FEW095 18/08 A3001 RMK AO2 SLP161 T01780078 $",
    "icao": "KLAX",
    "flightCategory": "VFR",
    "windDir": 250,
    "windSpeed": 19,
    "windGust": null,
    "visibility": 10,
    "ceiling": null,
    "temp": 17.8,
    "dewpoint": 7.8,
    "altimeter": 30.01,
    "conditions": "",
    "observationTime": "2026-04-14T01:00:00.000Z"
  },
  "ORD": {
    "raw": "SPECI KORD 140021Z 16009KT 10SM FEW060 SCT120 BKN160 OVC250 22/14 A2980 RMK AO2 RAE2353 TSE15 P0000 T02220139",
    "icao": "KORD",
    "flightCategory": "VFR",
    "windDir": 160,
    "windSpeed": 9,
    "windGust": null,
    "visibility": 10,
    "ceiling": 16000,
    "temp": 22.2,
    "dewpoint": 13.9,
    "altimeter": 29.8,
    "conditions": "",
    "observationTime": "2026-04-14T00:21:00.000Z"
  },
  "LHR": {
    "raw": "METAR EGLL 140020Z COR AUTO 21006KT 9999 NCD 06/03 Q1016 NOSIG",
    "icao": "EGLL",
    "flightCategory": "VFR",
    "windDir": 210,
    "windSpeed": 6,
    "windGust": null,
    "visibility": 6,
    "ceiling": null,
    "temp": 6,
    "dewpoint": 3,
    "altimeter": 30,
    "conditions": "",
    "observationTime": "2026-04-14T00:20:00.000Z"
  }
}