{
  "LAS": {
    "raw": "METAR KLAS 022056Z 05006KT 10SM BKN250 29/M13 A2996 RMK AO2 SLP122 T02891133 58024",
    "icao": "KLAS",
    "flightCategory": "VFR",
    "windDir": 50,
    "windSpeed": 6,
    "windGust": null,
    "visibility": 10,
    "ceiling": 25000,
    "temp": 28.9,
    "dewpoint": -13.3,
    "altimeter": 29.96,
    "conditions": "",
    "observationTime": "2026-05-02T21:00:00.000Z"
  },
  "LAX": {
    "raw": "SPECI KLAX 022040Z 23012KT 9SM FEW010 SCT016 BKN220 BKN270 19/13 A2993 RMK AO2 T01890133",
    "icao": "KLAX",
    "flightCategory": "VFR",
    "windDir": 230,
    "windSpeed": 12,
    "windGust": null,
    "visibility": 9,
    "ceiling": 22000,
    "temp": 18.9,
    "dewpoint": 13.3,
    "altimeter": 29.93,
    "conditions": "",
    "observationTime": "2026-05-02T20:40:00.000Z"
  },
  "ORD": {
    "raw": "METAR KORD 022051Z 25007KT 10SM BKN080 BKN095 12/M03 A3002 RMK AO2 SLP171 T01221033 58020",
    "icao": "KORD",
    "flightCategory": "VFR",
    "windDir": 250,
    "windSpeed": 7,
    "windGust": null,
    "visibility": 10,
    "ceiling": 8000,
    "temp": 12.2,
    "dewpoint": -3.3,
    "altimeter": 30.02,
    "conditions": "",
    "observationTime": "2026-05-02T21:00:00.000Z"
  },
  "LHR": {
    "raw": "METAR EGLL 022020Z COR AUTO 14007KT 9999 NCD 15/12 Q1011 NOSIG",
    "icao": "EGLL",
    "flightCategory": "VFR",
    "windDir": 140,
    "windSpeed": 7,
    "windGust": null,
    "visibility": 6,
    "ceiling": null,
    "temp": 15,
    "dewpoint": 12,
    "altimeter": 29.85,
    "conditions": "",
    "observationTime": "2026-05-02T20:20:00.000Z"
  },
  "SYD": {
    "raw": "METAR YSSY 022030Z 32005KT 9999 FEW018 BKN270 19/15 Q1022",
    "icao": "YSSY",
    "flightCategory": "VFR",
    "windDir": 320,
    "windSpeed": 5,
    "windGust": null,
    "visibility": 6,
    "ceiling": 27000,
    "temp": 19,
    "dewpoint": 15,
    "altimeter": 30.18,
    "conditions": "",
    "observationTime": "2026-05-02T20:30:00.000Z"
  }
}