{
  "SYD": {
    "raw": "METAR YSSY 300600Z AUTO 05010KT 9999 // NCD 23/13 Q1022",
    "icao": "YSSY",
    "flightCategory": "VFR",
    "windDir": 50,
    "windSpeed": 10,
    "windGust": null,
    "visibility": 6,
    "ceiling": null,
    "temp": 23,
    "dewpoint": 13,
    "altimeter": 30.18,
    "conditions": "",
    "observationTime": "2026-03-30T06:00:00.000Z"
  },
  "LHR": {
    "raw": "METAR EGLL 300550Z COR 27009KT 9999 FEW040 05/03 Q1022",
    "icao": "EGLL",
    "flightCategory": "VFR",
    "windDir": 270,
    "windSpeed": 9,
    "windGust": null,
    "visibility": 6,
    "ceiling": null,
    "temp": 5,
    "dewpoint": 3,
    "altimeter": 30.18,
    "conditions": "",
    "observationTime": "2026-03-30T06:00:00.000Z"
  },
  "LAX": {
    "raw": "SPECI KLAX 300548Z 23005KT 2SM BR FEW001 BKN003 OVC008 14/13 A2995 RMK AO2 VIS 1 1/4V3 $",
    "icao": "KLAX",
    "flightCategory": "LIFR",
    "windDir": 230,
    "windSpeed": 5,
    "windGust": null,
    "visibility": 2,
    "ceiling": 300,
    "temp": 14,
    "dewpoint": 13,
    "altimeter": 29.95,
    "conditions": "BR",
    "observationTime": "2026-03-30T05:48:00.000Z"
  },
  "LAS": {
    "raw": "METAR KLAS 300556Z 20005KT 10SM FEW130 SCT200 26/M11 A2989 RMK AO2 SLP097 T02561106 10322 20256 51010 $",
    "icao": "KLAS",
    "flightCategory": "VFR",
    "windDir": 200,
    "windSpeed": 5,
    "windGust": null,
    "visibility": 10,
    "ceiling": null,
    "temp": 25.6,
    "dewpoint": -10.6,
    "altimeter": 29.89,
    "conditions": "",
    "observationTime": "2026-03-30T06:00:00.000Z"
  },
  "ORD": {
    "raw": "METAR KORD 300551Z 19004KT 10SM CLR 11/00 A2998 RMK AO2 SLP153 T01110000 10161 20111 401720050 58017 $",
    "icao": "KORD",
    "flightCategory": "VFR",
    "windDir": 190,
    "windSpeed": 4,
    "windGust": null,
    "visibility": 10,
    "ceiling": null,
    "temp": 11.1,
    "dewpoint": 0,
    "altimeter": 29.98,
    "conditions": "",
    "observationTime": "2026-03-30T06:00:00.000Z"
  }
}