{
  "ORD": {
    "raw": "METAR KORD 291951Z 22012G19KT 10SM OVC070 17/M05 A3009 RMK AO2 SLP190 T01671050 $",
    "icao": "KORD",
    "flightCategory": "VFR",
    "windDir": 220,
    "windSpeed": 12,
    "windGust": 19,
    "visibility": 10,
    "ceiling": 7000,
    "temp": 16.7,
    "dewpoint": -5,
    "altimeter": 30.09,
    "conditions": "",
    "observationTime": "2026-03-29T20:00:00.000Z"
  },
  "LHR": {
    "raw": "METAR EGLL 291920Z AUTO 24016KT 9999 BKN011 09/07 Q1021 BECMG BKN015",
    "icao": "EGLL",
    "flightCategory": "MVFR",
    "windDir": 240,
    "windSpeed": 16,
    "windGust": null,
    "visibility": 6,
    "ceiling": 1100,
    "temp": 9,
    "dewpoint": 7,
    "altimeter": 30.15,
    "conditions": "",
    "observationTime": "2026-03-29T19:20:00.000Z"
  },
  "SYD": {
    "raw": "METAR YSSY 291900Z 32006KT 9999 -SHRA FEW025 SCT030 BKN038 17/14 Q1023",
    "icao": "YSSY",
    "flightCategory": "VFR",
    "windDir": 320,
    "windSpeed": 6,
    "windGust": null,
    "visibility": 6,
    "ceiling": 3800,
    "temp": 17,
    "dewpoint": 14,
    "altimeter": 30.21,
    "conditions": "-SHRA",
    "observationTime": "2026-03-29T19:00:00.000Z"
  },
  "LAS": {
    "raw": "METAR KLAS 291856Z 07005KT 10SM FEW160 FEW200 BKN250 28/M04 A2998 RMK AO2 SLP128 T02831039 $",
    "icao": "KLAS",
    "flightCategory": "VFR",
    "windDir": 70,
    "windSpeed": 5,
    "windGust": null,
    "visibility": 10,
    "ceiling": 25000,
    "temp": 28.3,
    "dewpoint": -3.9,
    "altimeter": 29.98,
    "conditions": "",
    "observationTime": "2026-03-29T19:00:00.000Z"
  }
}