{
  "LAS": {
    "raw": "METAR KLAS 052356Z 28004KT 10SM FEW120 FEW220 23/M03 A2977 RMK AO2 SLP065 T02331033 10244 20200 56017",
    "icao": "KLAS",
    "flightCategory": "VFR",
    "windDir": 280,
    "windSpeed": 4,
    "windGust": null,
    "visibility": 10,
    "ceiling": null,
    "temp": 23.3,
    "dewpoint": -3.3,
    "altimeter": 29.77,
    "conditions": "",
    "observationTime": "2026-05-06T00:00:00.000Z"
  },
  "LAX": {
    "raw": "METAR KLAX 052353Z 22009KT 10SM FEW010 SCT080 SCT100 18/09 A2995 RMK AO2 SLP142 T01780094 10189 20167 56009",
    "icao": "KLAX",
    "flightCategory": "VFR",
    "windDir": 220,
    "windSpeed": 9,
    "windGust": null,
    "visibility": 10,
    "ceiling": null,
    "temp": 17.8,
    "dewpoint": 9.4,
    "altimeter": 29.95,
    "conditions": "",
    "observationTime": "2026-05-06T00:00:00.000Z"
  },
  "ORD": {
    "raw": "METAR KORD 052351Z 32011KT 10SM BKN120 BKN160 OVC250 13/M05 A2977 RMK AO2 SLP081 T01281050 10139 20128 58005",
    "icao": "KORD",
    "flightCategory": "VFR",
    "windDir": 320,
    "windSpeed": 11,
    "windGust": null,
    "visibility": 10,
    "ceiling": 12000,
    "temp": 12.8,
    "dewpoint": -5,
    "altimeter": 29.77,
    "conditions": "",
    "observationTime": "2026-05-06T00:00:00.000Z"
  },
  "LHR": {
    "raw": "METAR EGLL 052320Z COR AUTO 04009KT 360V070 9999 SCT048 11/05 Q1013 NOSIG",
    "icao": "EGLL",
    "flightCategory": "VFR",
    "windDir": 40,
    "windSpeed": 9,
    "windGust": null,
    "visibility": 6,
    "ceiling": null,
    "temp": 11,
    "dewpoint": 5,
    "altimeter": 29.91,
    "conditions": "",
    "observationTime": "2026-05-05T23:20:00.000Z"
  },
  "SYD": {
    "raw": "METAR YSSY 052330Z 30006KT 9999 FEW048 18/09 Q1020",
    "icao": "YSSY",
    "flightCategory": "VFR",
    "windDir": 300,
    "windSpeed": 6,
    "windGust": null,
    "visibility": 6,
    "ceiling": null,
    "temp": 18,
    "dewpoint": 9,
    "altimeter": 30.12,
    "conditions": "",
    "observationTime": "2026-05-05T23:30:00.000Z"
  }
}