{
  "SYD": {
    "raw": "SPECI YSSY 190558Z 19018G28KT 9999 -SHRA VCSH FEW018 SCT022 BKN040 17/14 Q1008",
    "icao": "YSSY",
    "flightCategory": "VFR",
    "windDir": 190,
    "windSpeed": 18,
    "windGust": 28,
    "visibility": 6,
    "ceiling": 4000,
    "temp": 17,
    "dewpoint": 14,
    "altimeter": 29.77,
    "conditions": "-SHRA VCSH",
    "observationTime": "2026-05-19T05:58:00.000Z"
  },
  "LHR": {
    "raw": "METAR EGLL 190550Z COR 16013KT 9999 -RADZ BKN008 OVC012 12/10 Q1008",
    "icao": "EGLL",
    "flightCategory": "IFR",
    "windDir": 160,
    "windSpeed": 13,
    "windGust": null,
    "visibility": 6,
    "ceiling": 800,
    "temp": 12,
    "dewpoint": 10,
    "altimeter": 29.77,
    "conditions": "-RA -DZ",
    "observationTime": "2026-05-19T06:00:00.000Z"
  },
  "LAS": {
    "raw": "METAR KLAS 190556Z 04007KT 10SM CLR 20/M06 A3003 RMK AO2 SLP152 T02001061 10244 20200 51026",
    "icao": "KLAS",
    "flightCategory": "VFR",
    "windDir": 40,
    "windSpeed": 7,
    "windGust": null,
    "visibility": 10,
    "ceiling": null,
    "temp": 20,
    "dewpoint": -6.1,
    "altimeter": 30.03,
    "conditions": "",
    "observationTime": "2026-05-19T06:00:00.000Z"
  },
  "LAX": {
    "raw": "METAR KLAX 190553Z COR 00000KT 10SM FEW012 FEW040 17/12 A2995 RMK AO2 SLP141 FU FEW040 T01720122 10206 20172 51018",
    "icao": "KLAX",
    "flightCategory": "VFR",
    "windDir": 0,
    "windSpeed": 0,
    "windGust": null,
    "visibility": 10,
    "ceiling": null,
    "temp": 17.2,
    "dewpoint": 12.2,
    "altimeter": 29.95,
    "conditions": "",
    "observationTime": "2026-05-19T06:00:00.000Z"
  },
  "ORD": {
    "raw": "METAR KORD 190551Z 17008KT 10SM SCT070 BKN100 OVC250 19/17 A2990 RMK AO2 SLP122 T01940167 10233 20194 402610194 50006",
    "icao": "KORD",
    "flightCategory": "VFR",
    "windDir": 170,
    "windSpeed": 8,
    "windGust": null,
    "visibility": 10,
    "ceiling": 10000,
    "temp": 19.4,
    "dewpoint": 16.7,
    "altimeter": 29.9,
    "conditions": "",
    "observationTime": "2026-05-19T06:00:00.000Z"
  }
}