{
  "SYD": {
    "raw": "METAR YSSY 150030Z 19006KT 9999 VCSH FEW008 SCT022 BKN055 19/17 Q1030",
    "icao": "YSSY",
    "flightCategory": "VFR",
    "windDir": 190,
    "windSpeed": 6,
    "windGust": null,
    "visibility": 6,
    "ceiling": 5500,
    "temp": 19,
    "dewpoint": 17,
    "altimeter": 30.42,
    "conditions": "VCSH",
    "observationTime": "2026-05-15T00:30:00.000Z"
  },
  "LAS": {
    "raw": "METAR KLAS 150056Z VRB03KT 10SM CLR 34/M03 A2979 RMK AO2 SLP063 T03441033",
    "icao": "KLAS",
    "flightCategory": "VFR",
    "windDir": null,
    "windSpeed": 3,
    "windGust": null,
    "visibility": 10,
    "ceiling": null,
    "temp": 34.4,
    "dewpoint": -3.3,
    "altimeter": 29.79,
    "conditions": "",
    "observationTime": "2026-05-15T01:00:00.000Z"
  },
  "LAX": {
    "raw": "METAR KLAX 150053Z 25012KT 10SM FEW015 18/13 A2996 RMK AO2 SLP146 T01830133",
    "icao": "KLAX",
    "flightCategory": "VFR",
    "windDir": 250,
    "windSpeed": 12,
    "windGust": null,
    "visibility": 10,
    "ceiling": null,
    "temp": 18.3,
    "dewpoint": 13.3,
    "altimeter": 29.96,
    "conditions": "",
    "observationTime": "2026-05-15T01:00:00.000Z"
  },
  "ORD": {
    "raw": "METAR KORD 150051Z 13007KT 10SM BKN300 14/M02 A2999 RMK AO2 SLP157 T01441017",
    "icao": "KORD",
    "flightCategory": "VFR",
    "windDir": 130,
    "windSpeed": 7,
    "windGust": null,
    "visibility": 10,
    "ceiling": 30000,
    "temp": 14.4,
    "dewpoint": -1.7,
    "altimeter": 29.99,
    "conditions": "",
    "observationTime": "2026-05-15T01:00:00.000Z"
  },
  "LHR": {
    "raw": "METAR EGLL 150050Z COR AUTO 29005KT 9999 NCD 07/04 Q1005 NOSIG",
    "icao": "EGLL",
    "flightCategory": "VFR",
    "windDir": 290,
    "windSpeed": 5,
    "windGust": null,
    "visibility": 6,
    "ceiling": null,
    "temp": 7,
    "dewpoint": 4,
    "altimeter": 29.68,
    "conditions": "",
    "observationTime": "2026-05-15T01:00:00.000Z"
  }
}