{
  "LHR": {
    "raw": "METAR EGLL 200550Z COR AUTO 02003KT 9999 NCD 06/04 Q1024 NOSIG",
    "icao": "EGLL",
    "flightCategory": "VFR",
    "windDir": 20,
    "windSpeed": 3,
    "windGust": null,
    "visibility": 6,
    "ceiling": null,
    "temp": 6,
    "dewpoint": 4,
    "altimeter": 30.24,
    "conditions": "",
    "observationTime": "2026-04-20T06:00:00.000Z"
  },
  "SYD": {
    "raw": "SPECI YSSY 200531Z 18017G27KT 9999 SCT033 20/14 Q1024",
    "icao": "YSSY",
    "flightCategory": "VFR",
    "windDir": 180,
    "windSpeed": 17,
    "windGust": 27,
    "visibility": 6,
    "ceiling": null,
    "temp": 20,
    "dewpoint": 14,
    "altimeter": 30.24,
    "conditions": "",
    "observationTime": "2026-04-20T05:31:00.000Z"
  },
  "LAS": {
    "raw": "METAR KLAS 200556Z 00000KT 10SM FEW150 SCT250 23/M09 A2988 RMK AO2 SLP099 T02281094 10289 20222 50011",
    "icao": "KLAS",
    "flightCategory": "VFR",
    "windDir": 0,
    "windSpeed": 0,
    "windGust": null,
    "visibility": 10,
    "ceiling": null,
    "temp": 22.8,
    "dewpoint": -9.4,
    "altimeter": 29.88,
    "conditions": "",
    "observationTime": "2026-04-20T06:00:00.000Z"
  },
  "LAX": {
    "raw": "METAR KLAX 200553Z 23007KT 10SM SCT011 16/13 A2995 RMK AO2 SLP139 T01560133 10206 20156 51017",
    "icao": "KLAX",
    "flightCategory": "VFR",
    "windDir": 230,
    "windSpeed": 7,
    "windGust": null,
    "visibility": 10,
    "ceiling": null,
    "temp": 15.6,
    "dewpoint": 13.3,
    "altimeter": 29.95,
    "conditions": "",
    "observationTime": "2026-04-20T06:00:00.000Z"
  },
  "ORD": {
    "raw": "METAR KORD 200551Z 00000KT 10SM CLR 04/M03 A3026 RMK AO2 SLP251 T00391028 10083 20033 401000022 53012 $",
    "icao": "KORD",
    "flightCategory": "VFR",
    "windDir": 0,
    "windSpeed": 0,
    "windGust": null,
    "visibility": 10,
    "ceiling": null,
    "temp": 3.9,
    "dewpoint": -2.8,
    "altimeter": 30.26,
    "conditions": "",
    "observationTime": "2026-04-20T06:00:00.000Z"
  }
}