{
  "SYD": {
    "raw": "METAR YSSY 030900Z AUTO 30015KT 9999 // BKN072 17/05 Q1004",
    "icao": "YSSY",
    "flightCategory": "VFR",
    "windDir": 300,
    "windSpeed": 15,
    "windGust": null,
    "visibility": 6,
    "ceiling": 7200,
    "temp": 17,
    "dewpoint": 5,
    "altimeter": 29.65,
    "conditions": "",
    "observationTime": "2026-06-03T09:00:00.000Z"
  },
  "LHR": {
    "raw": "METAR EGLL 030850Z AUTO 21014KT 180V260 9999 -RADZ BKN021 BKN027 15/11 Q1005",
    "icao": "EGLL",
    "flightCategory": "MVFR",
    "windDir": 210,
    "windSpeed": 14,
    "windGust": null,
    "visibility": 6,
    "ceiling": 2100,
    "temp": 15,
    "dewpoint": 11,
    "altimeter": 29.68,
    "conditions": "-RA -DZ",
    "observationTime": "2026-06-03T09:00:00.000Z"
  },
  "LAS": {
    "raw": "METAR KLAS 030856Z 18008KT 10SM FEW250 28/M04 A2990 RMK AO2 SLP095 T02831039 51002 $",
    "icao": "KLAS",
    "flightCategory": "VFR",
    "windDir": 180,
    "windSpeed": 8,
    "windGust": null,
    "visibility": 10,
    "ceiling": null,
    "temp": 28.3,
    "dewpoint": -3.9,
    "altimeter": 29.9,
    "conditions": "",
    "observationTime": "2026-06-03T09:00:00.000Z"
  },
  "LAX": {
    "raw": "METAR KLAX 030853Z 00000KT 10SM BKN013 16/13 A2999 RMK AO2 SLP154 T01610133 58012 $",
    "icao": "KLAX",
    "flightCategory": "MVFR",
    "windDir": 0,
    "windSpeed": 0,
    "windGust": null,
    "visibility": 10,
    "ceiling": 1300,
    "temp": 16.1,
    "dewpoint": 13.3,
    "altimeter": 29.99,
    "conditions": "",
    "observationTime": "2026-06-03T09:00:00.000Z"
  },
  "ORD": {
    "raw": "METAR KORD 030851Z 01003KT 10SM CLR 13/06 A3034 RMK AO2 SLP275 T01280061 51010 $",
    "icao": "KORD",
    "flightCategory": "VFR",
    "windDir": 10,
    "windSpeed": 3,
    "windGust": null,
    "visibility": 10,
    "ceiling": null,
    "temp": 12.8,
    "dewpoint": 6.1,
    "altimeter": 30.34,
    "conditions": "",
    "observationTime": "2026-06-03T09:00:00.000Z"
  }
}