{
  "SYD": {
    "raw": "METAR YSSY 202330Z 21021KT 9999 FEW040 SCT045 17/11 Q1027",
    "icao": "YSSY",
    "flightCategory": "VFR",
    "windDir": 210,
    "windSpeed": 21,
    "windGust": null,
    "visibility": 6,
    "ceiling": null,
    "temp": 17,
    "dewpoint": 11,
    "altimeter": 30.33,
    "conditions": "",
    "observationTime": "2026-05-20T23:30:00.000Z"
  },
  "LAS": {
    "raw": "METAR KLAS 202356Z VRB03KT 10SM SCT250 29/M11 A2985 RMK AO2 SLP089 T02941106 10306 20261 56025",
    "icao": "KLAS",
    "flightCategory": "VFR",
    "windDir": null,
    "windSpeed": 3,
    "windGust": null,
    "visibility": 10,
    "ceiling": null,
    "temp": 29.4,
    "dewpoint": -10.6,
    "altimeter": 29.85,
    "conditions": "",
    "observationTime": "2026-05-21T00:00:00.000Z"
  },
  "LAX": {
    "raw": "METAR KLAX 202353Z 24012KT 10SM FEW250 23/13 A2983 RMK AO2 SLP102 T02280133 10244 20228 56015",
    "icao": "KLAX",
    "flightCategory": "VFR",
    "windDir": 240,
    "windSpeed": 12,
    "windGust": null,
    "visibility": 10,
    "ceiling": null,
    "temp": 22.8,
    "dewpoint": 13.3,
    "altimeter": 29.83,
    "conditions": "",
    "observationTime": "2026-05-21T00:00:00.000Z"
  },
  "ORD": {
    "raw": "METAR KORD 202351Z 02015G20KT 10SM FEW250 12/01 A3025 RMK AO2 SLP245 T01220006 10150 20122 56001",
    "icao": "KORD",
    "flightCategory": "VFR",
    "windDir": 20,
    "windSpeed": 15,
    "windGust": 20,
    "visibility": 10,
    "ceiling": null,
    "temp": 12.2,
    "dewpoint": 0.6,
    "altimeter": 30.25,
    "conditions": "",
    "observationTime": "2026-05-21T00:00:00.000Z"
  },
  "LHR": {
    "raw": "METAR EGLL 202320Z AUTO 23008KT 9999 FEW030 14/10 Q1025",
    "icao": "EGLL",
    "flightCategory": "VFR",
    "windDir": 230,
    "windSpeed": 8,
    "windGust": null,
    "visibility": 6,
    "ceiling": null,
    "temp": 14,
    "dewpoint": 10,
    "altimeter": 30.27,
    "conditions": "",
    "observationTime": "2026-05-20T23:20:00.000Z"
  }
}