{
  "SYD": {
    "raw": "METAR YSSY 260530Z 05013KT CAVOK 23/10 Q1022",
    "icao": "YSSY",
    "flightCategory": "VFR",
    "windDir": 50,
    "windSpeed": 13,
    "windGust": null,
    "visibility": 6,
    "ceiling": null,
    "temp": 23,
    "dewpoint": 10,
    "altimeter": 30.18,
    "conditions": "",
    "observationTime": "2026-04-26T05:30:00.000Z"
  },
  "LAS": {
    "raw": "METAR KLAS 260556Z 22018G28KT 10SM SCT065 BKN080 OVC100 15/06 A2969 RMK AO2 PK WND 23030/0546 SLP039 T01500056 10233 20150 51016",
    "icao": "KLAS",
    "flightCategory": "VFR",
    "windDir": 220,
    "windSpeed": 18,
    "windGust": 28,
    "visibility": 10,
    "ceiling": 8000,
    "temp": 15,
    "dewpoint": 5.6,
    "altimeter": 29.69,
    "conditions": "",
    "observationTime": "2026-04-26T06:00:00.000Z"
  },
  "LAX": {
    "raw": "METAR KLAX 260553Z 22007KT 10SM BKN019 BKN034 OVC085 14/11 A2990 RMK AO2 RAB21E39 SLP123 P0001 60001 T01440111 10161 20139 50004",
    "icao": "KLAX",
    "flightCategory": "MVFR",
    "windDir": 220,
    "windSpeed": 7,
    "windGust": null,
    "visibility": 10,
    "ceiling": 1900,
    "temp": 14.4,
    "dewpoint": 11.1,
    "altimeter": 29.9,
    "conditions": "",
    "observationTime": "2026-04-26T06:00:00.000Z"
  },
  "ORD": {
    "raw": "METAR KORD 260551Z 03007KT 10SM FEW250 06/04 A3002 RMK AO2 SLP169 T00610039 10089 20061 401330061 55001",
    "icao": "KORD",
    "flightCategory": "VFR",
    "windDir": 30,
    "windSpeed": 7,
    "windGust": null,
    "visibility": 10,
    "ceiling": null,
    "temp": 6.1,
    "dewpoint": 3.9,
    "altimeter": 30.02,
    "conditions": "",
    "observationTime": "2026-04-26T06:00:00.000Z"
  },
  "LHR": {
    "raw": "METAR EGLL 260520Z 06005KT 9999 SCT006 08/06 Q1025 TEMPO BKN006",
    "icao": "EGLL",
    "flightCategory": "VFR",
    "windDir": 60,
    "windSpeed": 5,
    "windGust": null,
    "visibility": 6,
    "ceiling": null,
    "temp": 8,
    "dewpoint": 6,
    "altimeter": 30.27,
    "conditions": "",
    "observationTime": "2026-04-26T05:20:00.000Z"
  }
}