{
  "SYD": {
    "raw": "METAR YSSY 110000Z 17005KT 160V230 9999 SCT030 BKN060 20/17 Q1033",
    "icao": "YSSY",
    "flightCategory": "VFR",
    "windDir": 170,
    "windSpeed": 5,
    "windGust": null,
    "visibility": 6,
    "ceiling": 6000,
    "temp": 20,
    "dewpoint": 17,
    "altimeter": 30.5,
    "conditions": "",
    "observationTime": "2026-05-11T00:00:00.000Z"
  },
  "LHR": {
    "raw": "METAR EGLL 102350Z COR AUTO 36003KT 9999 NCD 06/M00 Q1013 NOSIG",
    "icao": "EGLL",
    "flightCategory": "VFR",
    "windDir": 360,
    "windSpeed": 3,
    "windGust": null,
    "visibility": 6,
    "ceiling": null,
    "temp": 6,
    "dewpoint": 0,
    "altimeter": 29.91,
    "conditions": "",
    "observationTime": "2026-05-11T00:00:00.000Z"
  },
  "LAS": {
    "raw": "METAR KLAS 102356Z VRB04KT 10SM CLR 37/M07 A2988 RMK AO2 SLP090 T03671067 10378 20328 56020",
    "icao": "KLAS",
    "flightCategory": "VFR",
    "windDir": null,
    "windSpeed": 4,
    "windGust": null,
    "visibility": 10,
    "ceiling": null,
    "temp": 36.7,
    "dewpoint": -6.7,
    "altimeter": 29.88,
    "conditions": "",
    "observationTime": "2026-05-11T00:00:00.000Z"
  },
  "LAX": {
    "raw": "METAR KLAX 102353Z 25010KT 9SM FEW010 19/14 A2993 RMK AO2 SLP133 T01890139 10211 20189 55004",
    "icao": "KLAX",
    "flightCategory": "VFR",
    "windDir": 250,
    "windSpeed": 10,
    "windGust": null,
    "visibility": 9,
    "ceiling": null,
    "temp": 18.9,
    "dewpoint": 13.9,
    "altimeter": 29.93,
    "conditions": "",
    "observationTime": "2026-05-11T00:00:00.000Z"
  },
  "ORD": {
    "raw": "METAR KORD 102351Z 31010KT 10SM FEW100 SCT250 17/M05 A3008 RMK AO2 SLP186 T01721050 10183 20150 50001 $",
    "icao": "KORD",
    "flightCategory": "VFR",
    "windDir": 310,
    "windSpeed": 10,
    "windGust": null,
    "visibility": 10,
    "ceiling": null,
    "temp": 17.2,
    "dewpoint": -5,
    "altimeter": 30.08,
    "conditions": "",
    "observationTime": "2026-05-11T00:00:00.000Z"
  }
}