{
  "LAX": {
    "raw": "METAR KLAX 041553Z 00000KT 10SM FEW220 FEW260 SCT300 22/06 A3003 RMK AO2 SLP168 T02170056 $",
    "icao": "KLAX",
    "flightCategory": "VFR",
    "windDir": 0,
    "windSpeed": 0,
    "windGust": null,
    "visibility": 10,
    "ceiling": null,
    "temp": 21.7,
    "dewpoint": 5.6,
    "altimeter": 30.03,
    "conditions": "",
    "observationTime": "2026-04-04T16:00:00.000Z"
  },
  "ORD": {
    "raw": "SPECI KORD 041501Z 25014G24KT 4SM -RA BR BKN005 OVC012 11/11 A2981 RMK AO2 P0000 T01110106 $",
    "icao": "KORD",
    "flightCategory": "IFR",
    "windDir": 250,
    "windSpeed": 14,
    "windGust": 24,
    "visibility": 4,
    "ceiling": 500,
    "temp": 11.1,
    "dewpoint": 10.6,
    "altimeter": 29.81,
    "conditions": "-RA BR",
    "observationTime": "2026-04-04T15:01:00.000Z"
  },
  "LHR": {
    "raw": "METAR EGLL 041520Z COR AUTO 21019KT 9999 OVC026 13/07 Q1012 NOSIG",
    "icao": "EGLL",
    "flightCategory": "MVFR",
    "windDir": 210,
    "windSpeed": 19,
    "windGust": null,
    "visibility": 6,
    "ceiling": 2600,
    "temp": 13,
    "dewpoint": 7,
    "altimeter": 29.88,
    "conditions": "",
    "observationTime": "2026-04-04T15:20:00.000Z"
  },
  "SYD": {
    "raw": "METAR YSSY 041500Z AUTO 08008KT 9999 // FEW032 BKN045 BKN052 18/16 Q1025",
    "icao": "YSSY",
    "flightCategory": "VFR",
    "windDir": 80,
    "windSpeed": 8,
    "windGust": null,
    "visibility": 6,
    "ceiling": 4500,
    "temp": 18,
    "dewpoint": 16,
    "altimeter": 30.27,
    "conditions": "",
    "observationTime": "2026-04-04T15:00:00.000Z"
  }
}