{
  "SYD": {
    "raw": "SPECI YSSY 120731Z AUTO 25019G29KT 9999 // NCD 18/01 Q1011",
    "icao": "YSSY",
    "flightCategory": "VFR",
    "windDir": 250,
    "windSpeed": 19,
    "windGust": 29,
    "visibility": 6,
    "ceiling": null,
    "temp": 18,
    "dewpoint": 1,
    "altimeter": 29.85,
    "conditions": "",
    "observationTime": "2026-04-12T07:31:00.000Z"
  },
  "LAS": {
    "raw": "METAR KLAS 120756Z 21005KT 10SM FEW200 18/01 A2981 RMK AO2 SLP075 T01830006 402560161",
    "icao": "KLAS",
    "flightCategory": "VFR",
    "windDir": 210,
    "windSpeed": 5,
    "windGust": null,
    "visibility": 10,
    "ceiling": null,
    "temp": 18.3,
    "dewpoint": 0.6,
    "altimeter": 29.81,
    "conditions": "",
    "observationTime": "2026-04-12T08:00:00.000Z"
  },
  "LAX": {
    "raw": "METAR KLAX 120753Z 15005KT 10SM SCT025 BKN036 OVC055 17/12 A2997 RMK AO2 RAB42E51 SLP146 P0000 T01670117 402060150 $",
    "icao": "KLAX",
    "flightCategory": "VFR",
    "windDir": 150,
    "windSpeed": 5,
    "windGust": null,
    "visibility": 10,
    "ceiling": 3600,
    "temp": 16.7,
    "dewpoint": 11.7,
    "altimeter": 29.97,
    "conditions": "",
    "observationTime": "2026-04-12T08:00:00.000Z"
  },
  "ORD": {
    "raw": "METAR KORD 120751Z 17008KT 10SM SCT110 BKN250 14/05 A3006 RMK AO2 SLP181 T01390050 $",
    "icao": "KORD",
    "flightCategory": "VFR",
    "windDir": 170,
    "windSpeed": 8,
    "windGust": null,
    "visibility": 10,
    "ceiling": 25000,
    "temp": 13.9,
    "dewpoint": 5,
    "altimeter": 30.06,
    "conditions": "",
    "observationTime": "2026-04-12T08:00:00.000Z"
  },
  "LHR": {
    "raw": "METAR EGLL 120720Z COR AUTO 21013KT 180V240 9999 NCD 10/04 Q1010 NOSIG",
    "icao": "EGLL",
    "flightCategory": "VFR",
    "windDir": 210,
    "windSpeed": 13,
    "windGust": null,
    "visibility": 6,
    "ceiling": null,
    "temp": 10,
    "dewpoint": 4,
    "altimeter": 29.83,
    "conditions": "",
    "observationTime": "2026-04-12T07:20:00.000Z"
  }
}