{
  "SYD": {
    "raw": "SPECI YSSY 210600Z 18021KT 6000 -SHRA FEW015 SCT022 BKN026 16/13 Q1027",
    "icao": "YSSY",
    "flightCategory": "MVFR",
    "windDir": 180,
    "windSpeed": 21,
    "windGust": null,
    "visibility": 3.73,
    "ceiling": 2600,
    "temp": 16,
    "dewpoint": 13,
    "altimeter": 30.33,
    "conditions": "-SHRA",
    "observationTime": "2026-05-21T06:00:00.000Z"
  },
  "LHR": {
    "raw": "METAR EGLL 210620Z AUTO 21009KT 9999 FEW023 OVC032 14/11 Q1026",
    "icao": "EGLL",
    "flightCategory": "VFR",
    "windDir": 210,
    "windSpeed": 9,
    "windGust": null,
    "visibility": 6,
    "ceiling": 3200,
    "temp": 14,
    "dewpoint": 11,
    "altimeter": 30.3,
    "conditions": "",
    "observationTime": "2026-05-21T06:20:00.000Z"
  },
  "LAS": {
    "raw": "METAR KLAS 210556Z 22005KT 10SM BKN250 24/M09 A2986 RMK AO2 SLP089 T02391094 10306 20239 51006",
    "icao": "KLAS",
    "flightCategory": "VFR",
    "windDir": 220,
    "windSpeed": 5,
    "windGust": null,
    "visibility": 10,
    "ceiling": 25000,
    "temp": 23.9,
    "dewpoint": -9.4,
    "altimeter": 29.86,
    "conditions": "",
    "observationTime": "2026-05-21T06:00:00.000Z"
  },
  "LAX": {
    "raw": "METAR KLAX 210553Z 19004KT 10SM FEW250 18/14 A2985 RMK AO2 SLP105 T01830144 10233 20183 53011",
    "icao": "KLAX",
    "flightCategory": "VFR",
    "windDir": 190,
    "windSpeed": 4,
    "windGust": null,
    "visibility": 10,
    "ceiling": null,
    "temp": 18.3,
    "dewpoint": 14.4,
    "altimeter": 29.85,
    "conditions": "",
    "observationTime": "2026-05-21T06:00:00.000Z"
  },
  "ORD": {
    "raw": "METAR KORD 210551Z 03009KT 10SM SCT150 09/02 A3027 RMK AO2 SLP252 T00940017 10122 20089 401500089 50001",
    "icao": "KORD",
    "flightCategory": "VFR",
    "windDir": 30,
    "windSpeed": 9,
    "windGust": null,
    "visibility": 10,
    "ceiling": null,
    "temp": 9.4,
    "dewpoint": 1.7,
    "altimeter": 30.27,
    "conditions": "",
    "observationTime": "2026-05-21T06:00:00.000Z"
  }
}