{
  "ORD": {
    "raw": "METAR KORD 251951Z 18008G14KT 10SM FEW070 FEW120 FEW250 28/11 A3008 RMK AO2 SLP182 T02780111 $",
    "icao": "KORD",
    "flightCategory": "VFR",
    "windDir": 180,
    "windSpeed": 8,
    "windGust": 14,
    "visibility": 10,
    "ceiling": null,
    "temp": 27.8,
    "dewpoint": 11.1,
    "altimeter": 30.08,
    "conditions": "",
    "observationTime": "2026-05-25T20:00:00.000Z"
  },
  "SYD": {
    "raw": "METAR YSSY 251900Z AUTO 14006KT 6000 // SCT072 18/17 Q1019",
    "icao": "YSSY",
    "flightCategory": "MVFR",
    "windDir": 140,
    "windSpeed": 6,
    "windGust": null,
    "visibility": 3.73,
    "ceiling": null,
    "temp": 18,
    "dewpoint": 17,
    "altimeter": 30.09,
    "conditions": "",
    "observationTime": "2026-05-25T19:00:00.000Z"
  },
  "LHR": {
    "raw": "METAR EGLL 251920Z AUTO 15008KT 9999 NCD 30/12 Q1029",
    "icao": "EGLL",
    "flightCategory": "VFR",
    "windDir": 150,
    "windSpeed": 8,
    "windGust": null,
    "visibility": 6,
    "ceiling": null,
    "temp": 30,
    "dewpoint": 12,
    "altimeter": 30.39,
    "conditions": "",
    "observationTime": "2026-05-25T19:20:00.000Z"
  },
  "LAS": {
    "raw": "METAR KLAS 251856Z 10008G15KT 10SM FEW120 FEW250 32/00 A2984 RMK AO2 SLP077 T03220000",
    "icao": "KLAS",
    "flightCategory": "VFR",
    "windDir": 100,
    "windSpeed": 8,
    "windGust": 15,
    "visibility": 10,
    "ceiling": null,
    "temp": 32.2,
    "dewpoint": 0,
    "altimeter": 29.84,
    "conditions": "",
    "observationTime": "2026-05-25T19:00:00.000Z"
  }
}