{
  "LHR": {
    "raw": "METAR EGLL 272350Z COR AUTO 31005KT 9999 NCD 07/01 Q1020 NOSIG",
    "icao": "EGLL",
    "flightCategory": "VFR",
    "windDir": 310,
    "windSpeed": 5,
    "windGust": null,
    "visibility": 6,
    "ceiling": null,
    "temp": 7,
    "dewpoint": 1,
    "altimeter": 30.12,
    "conditions": "",
    "observationTime": "2026-03-28T00:00:00.000Z"
  },
  "LAS": {
    "raw": "METAR KLAS 272356Z 09005KT 10SM FEW250 32/M06 A2992 RMK AO2 SLP109 T03171061 10322 20261 56027",
    "icao": "KLAS",
    "flightCategory": "VFR",
    "windDir": 90,
    "windSpeed": 5,
    "windGust": null,
    "visibility": 10,
    "ceiling": null,
    "temp": 31.7,
    "dewpoint": -6.1,
    "altimeter": 29.92,
    "conditions": "",
    "observationTime": "2026-03-28T00:00:00.000Z"
  },
  "LAX": {
    "raw": "METAR KLAX 272353Z 26010KT 7SM FEW011 FEW220 SCT270 BKN300 18/14 A2993 RMK AO2 SLP132 T01830139 10217 20183 55007",
    "icao": "KLAX",
    "flightCategory": "VFR",
    "windDir": 260,
    "windSpeed": 10,
    "windGust": null,
    "visibility": 7,
    "ceiling": 30000,
    "temp": 18.3,
    "dewpoint": 13.9,
    "altimeter": 29.93,
    "conditions": "",
    "observationTime": "2026-03-28T00:00:00.000Z"
  },
  "ORD": {
    "raw": "METAR KORD 272351Z 32012G18KT 10SM BKN075 06/M09 A3040 RMK AO2 SLP302 T00611089 10078 20044 53008",
    "icao": "KORD",
    "flightCategory": "VFR",
    "windDir": 320,
    "windSpeed": 12,
    "windGust": 18,
    "visibility": 10,
    "ceiling": 7500,
    "temp": 6.1,
    "dewpoint": -8.9,
    "altimeter": 30.4,
    "conditions": "",
    "observationTime": "2026-03-28T00:00:00.000Z"
  }
}