{
  "SYD": {
    "raw": "METAR YSSY 141330Z AUTO 16015KT 9999 // SCT026 BKN034 BKN045 17/13 Q1032",
    "icao": "YSSY",
    "flightCategory": "VFR",
    "windDir": 160,
    "windSpeed": 15,
    "windGust": null,
    "visibility": 6,
    "ceiling": 3400,
    "temp": 17,
    "dewpoint": 13,
    "altimeter": 30.47,
    "conditions": "",
    "observationTime": "2026-06-14T13:30:00.000Z"
  },
  "LAS": {
    "raw": "METAR KLAS 141356Z 20007G18KT 10SM FEW140 32/07 A2989 RMK AO2 SLP087 T03170067",
    "icao": "KLAS",
    "flightCategory": "VFR",
    "windDir": 200,
    "windSpeed": 7,
    "windGust": 18,
    "visibility": 10,
    "ceiling": null,
    "temp": 31.7,
    "dewpoint": 6.7,
    "altimeter": 29.89,
    "conditions": "",
    "observationTime": "2026-06-14T14:00:00.000Z"
  },
  "LAX": {
    "raw": "METAR KLAX 141353Z 20004KT 10SM BKN009 18/16 A2995 RMK AO2 SLP139 T01780156 $",
    "icao": "KLAX",
    "flightCategory": "IFR",
    "windDir": 200,
    "windSpeed": 4,
    "windGust": null,
    "visibility": 10,
    "ceiling": 900,
    "temp": 17.8,
    "dewpoint": 15.6,
    "altimeter": 29.95,
    "conditions": "",
    "observationTime": "2026-06-14T14:00:00.000Z"
  },
  "ORD": {
    "raw": "METAR KORD 141351Z 33003KT 10SM -RA SCT055 BKN070 BKN100 OVC200 16/14 A2982 RMK AO2 SLP096 P0006 T01560139 $",
    "icao": "KORD",
    "flightCategory": "VFR",
    "windDir": 330,
    "windSpeed": 3,
    "windGust": null,
    "visibility": 10,
    "ceiling": 7000,
    "temp": 15.6,
    "dewpoint": 13.9,
    "altimeter": 29.82,
    "conditions": "-RA",
    "observationTime": "2026-06-14T14:00:00.000Z"
  },
  "LHR": {
    "raw": "METAR EGLL 141320Z AUTO 33006KT 260V020 9999 NCD 20/08 Q1020",
    "icao": "EGLL",
    "flightCategory": "VFR",
    "windDir": 330,
    "windSpeed": 6,
    "windGust": null,
    "visibility": 6,
    "ceiling": null,
    "temp": 20,
    "dewpoint": 8,
    "altimeter": 30.12,
    "conditions": "",
    "observationTime": "2026-06-14T13:20:00.000Z"
  }
}