{
  "SYD": {
    "raw": "METAR YSSY 190030Z 20013KT CAVOK 19/07 Q1022",
    "icao": "YSSY",
    "flightCategory": "VFR",
    "windDir": 200,
    "windSpeed": 13,
    "windGust": null,
    "visibility": 6,
    "ceiling": null,
    "temp": 19,
    "dewpoint": 7,
    "altimeter": 30.18,
    "conditions": "",
    "observationTime": "2026-04-19T00:30:00.000Z"
  },
  "LAS": {
    "raw": "METAR KLAS 190056Z 00000KT 10SM FEW120 BKN250 24/M17 A2997 RMK AO2 SLP138 T02441172",
    "icao": "KLAS",
    "flightCategory": "VFR",
    "windDir": 0,
    "windSpeed": 0,
    "windGust": null,
    "visibility": 10,
    "ceiling": 25000,
    "temp": 24.4,
    "dewpoint": -17.2,
    "altimeter": 29.97,
    "conditions": "",
    "observationTime": "2026-04-19T01:00:00.000Z"
  },
  "LAX": {
    "raw": "METAR KLAX 190053Z 26012KT 10SM SCT250 20/12 A2990 RMK AO2 SLP123 T02000122 $",
    "icao": "KLAX",
    "flightCategory": "VFR",
    "windDir": 260,
    "windSpeed": 12,
    "windGust": null,
    "visibility": 10,
    "ceiling": null,
    "temp": 20,
    "dewpoint": 12.2,
    "altimeter": 29.9,
    "conditions": "",
    "observationTime": "2026-04-19T01:00:00.000Z"
  },
  "ORD": {
    "raw": "METAR KORD 190051Z 28012G26KT 10SM FEW050 FEW250 07/M04 A3000 RMK AO2 PK WND 30035/0012 SLP163 T00721039 $",
    "icao": "KORD",
    "flightCategory": "VFR",
    "windDir": 280,
    "windSpeed": 12,
    "windGust": 26,
    "visibility": 10,
    "ceiling": null,
    "temp": 7.2,
    "dewpoint": -3.9,
    "altimeter": 30,
    "conditions": "",
    "observationTime": "2026-04-19T01:00:00.000Z"
  },
  "LHR": {
    "raw": "METAR EGLL 190020Z COR AUTO 30004KT 280V340 9999 NCD 09/04 Q1025 NOSIG",
    "icao": "EGLL",
    "flightCategory": "VFR",
    "windDir": 300,
    "windSpeed": 4,
    "windGust": null,
    "visibility": 6,
    "ceiling": null,
    "temp": 9,
    "dewpoint": 4,
    "altimeter": 30.27,
    "conditions": "",
    "observationTime": "2026-04-19T00:20:00.000Z"
  }
}