{
  "ORD": {
    "raw": "METAR KORD 281451Z 26012G18KT 10SM OVC025 11/06 A2991 RMK AO2 SLP128 T01110061 51034 $",
    "icao": "KORD",
    "flightCategory": "MVFR",
    "windDir": 260,
    "windSpeed": 12,
    "windGust": 18,
    "visibility": 10,
    "ceiling": 2500,
    "temp": 11.1,
    "dewpoint": 6.1,
    "altimeter": 29.91,
    "conditions": "",
    "observationTime": "2026-04-28T15:00:00.000Z"
  },
  "SYD": {
    "raw": "METAR YSSY 281500Z AUTO 35005KT 9999 // NCD 16/13 Q1026",
    "icao": "YSSY",
    "flightCategory": "VFR",
    "windDir": 350,
    "windSpeed": 5,
    "windGust": null,
    "visibility": 6,
    "ceiling": null,
    "temp": 16,
    "dewpoint": 13,
    "altimeter": 30.3,
    "conditions": "",
    "observationTime": "2026-04-28T15:00:00.000Z"
  },
  "LHR": {
    "raw": "METAR EGLL 281520Z COR AUTO 05014KT 020V080 9999 NCD 16/M00 Q1023 NOSIG",
    "icao": "EGLL",
    "flightCategory": "VFR",
    "windDir": 50,
    "windSpeed": 14,
    "windGust": null,
    "visibility": 6,
    "ceiling": null,
    "temp": 16,
    "dewpoint": 0,
    "altimeter": 30.21,
    "conditions": "",
    "observationTime": "2026-04-28T15:20:00.000Z"
  },
  "LAS": {
    "raw": "METAR KLAS 281456Z 02005KT 10SM FEW200 15/01 A3007 RMK AO2 SLP172 T01500006 53019",
    "icao": "KLAS",
    "flightCategory": "VFR",
    "windDir": 20,
    "windSpeed": 5,
    "windGust": null,
    "visibility": 10,
    "ceiling": null,
    "temp": 15,
    "dewpoint": 0.6,
    "altimeter": 30.07,
    "conditions": "",
    "observationTime": "2026-04-28T15:00:00.000Z"
  },
  "LAX": {
    "raw": "METAR KLAX 281453Z 08005KT 10SM FEW120 SCT160 BKN180 BKN250 14/08 A3008 RMK AO2 SLP184 T01440078 51016 $",
    "icao": "KLAX",
    "flightCategory": "VFR",
    "windDir": 80,
    "windSpeed": 5,
    "windGust": null,
    "visibility": 10,
    "ceiling": 18000,
    "temp": 14.4,
    "dewpoint": 7.8,
    "altimeter": 30.08,
    "conditions": "",
    "observationTime": "2026-04-28T15:00:00.000Z"
  }
}