{
  "SYD": {
    "raw": "METAR YSSY 290100Z 33003KT 9999 FEW025 SCT030 BKN065 16/14 Q1029",
    "icao": "YSSY",
    "flightCategory": "VFR",
    "windDir": 330,
    "windSpeed": 3,
    "windGust": null,
    "visibility": 6,
    "ceiling": 6500,
    "temp": 16,
    "dewpoint": 14,
    "altimeter": 30.39,
    "conditions": "",
    "observationTime": "2026-06-29T01:00:00.000Z"
  },
  "LHR": {
    "raw": "METAR EGLL 290050Z AUTO 27009KT 9999 NCD 14/09 Q1024",
    "icao": "EGLL",
    "flightCategory": "VFR",
    "windDir": 270,
    "windSpeed": 9,
    "windGust": null,
    "visibility": 6,
    "ceiling": null,
    "temp": 14,
    "dewpoint": 9,
    "altimeter": 30.24,
    "conditions": "",
    "observationTime": "2026-06-29T01:00:00.000Z"
  },
  "LAS": {
    "raw": "METAR KLAS 290056Z 28013G22KT 10SM FEW130 33/02 A2964 RMK AO2 PK WND 25026/0040 SLP009 T03330017",
    "icao": "KLAS",
    "flightCategory": "VFR",
    "windDir": 280,
    "windSpeed": 13,
    "windGust": 22,
    "visibility": 10,
    "ceiling": null,
    "temp": 33.3,
    "dewpoint": 1.7,
    "altimeter": 29.64,
    "conditions": "",
    "observationTime": "2026-06-29T01:00:00.000Z"
  },
  "LAX": {
    "raw": "METAR KLAX 290053Z 26012KT 10SM FEW028 20/13 A2985 RMK AO2 SLP107 T02000128",
    "icao": "KLAX",
    "flightCategory": "VFR",
    "windDir": 260,
    "windSpeed": 12,
    "windGust": null,
    "visibility": 10,
    "ceiling": null,
    "temp": 20,
    "dewpoint": 12.8,
    "altimeter": 29.85,
    "conditions": "",
    "observationTime": "2026-06-29T01:00:00.000Z"
  },
  "ORD": {
    "raw": "METAR KORD 290051Z 08005KT 10SM FEW031 BKN160 BKN200 OVC250 27/22 A2987 RMK AO2 SLP111 T02670217 $",
    "icao": "KORD",
    "flightCategory": "VFR",
    "windDir": 80,
    "windSpeed": 5,
    "windGust": null,
    "visibility": 10,
    "ceiling": 16000,
    "temp": 26.7,
    "dewpoint": 21.7,
    "altimeter": 29.87,
    "conditions": "",
    "observationTime": "2026-06-29T01:00:00.000Z"
  }
}