{
  "LHR": {
    "raw": "METAR EGLL 120350Z COR AUTO 31001KT 9999 NCD 04/01 Q1016 NOSIG",
    "icao": "EGLL",
    "flightCategory": "VFR",
    "windDir": 310,
    "windSpeed": 1,
    "windGust": null,
    "visibility": 6,
    "ceiling": null,
    "temp": 4,
    "dewpoint": 1,
    "altimeter": 30,
    "conditions": "",
    "observationTime": "2026-05-12T04:00:00.000Z"
  },
  "SYD": {
    "raw": "METAR YSSY 120400Z 14013KT 9999 FEW014 22/11 Q1033",
    "icao": "YSSY",
    "flightCategory": "VFR",
    "windDir": 140,
    "windSpeed": 13,
    "windGust": null,
    "visibility": 6,
    "ceiling": null,
    "temp": 22,
    "dewpoint": 11,
    "altimeter": 30.5,
    "conditions": "",
    "observationTime": "2026-05-12T04:00:00.000Z"
  },
  "LAS": {
    "raw": "METAR KLAS 120356Z 24009KT 10SM FEW250 34/M07 A2992 RMK AO2 SLP100 T03441072",
    "icao": "KLAS",
    "flightCategory": "VFR",
    "windDir": 240,
    "windSpeed": 9,
    "windGust": null,
    "visibility": 10,
    "ceiling": null,
    "temp": 34.4,
    "dewpoint": -7.2,
    "altimeter": 29.92,
    "conditions": "",
    "observationTime": "2026-05-12T04:00:00.000Z"
  },
  "LAX": {
    "raw": "SPECI KLAX 120351Z 26010KT 1/4SM R25L/3000VP6000FT FG VV002 14/14 A2994 RMK AO2 $",
    "icao": "KLAX",
    "flightCategory": "LIFR",
    "windDir": 260,
    "windSpeed": 10,
    "windGust": null,
    "visibility": 0.25,
    "ceiling": 200,
    "temp": 14,
    "dewpoint": 14,
    "altimeter": 29.94,
    "conditions": "FG",
    "observationTime": "2026-05-12T03:51:00.000Z"
  },
  "ORD": {
    "raw": "METAR KORD 120351Z 08007KT 10SM BKN250 06/M02 A3023 RMK AO2 SLP240 T00611022 $",
    "icao": "KORD",
    "flightCategory": "VFR",
    "windDir": 80,
    "windSpeed": 7,
    "windGust": null,
    "visibility": 10,
    "ceiling": 25000,
    "temp": 6.1,
    "dewpoint": -2.2,
    "altimeter": 30.23,
    "conditions": "",
    "observationTime": "2026-05-12T04:00:00.000Z"
  }
}