{
  "SYD": {
    "raw": "METAR YSSY 032130Z 19015KT 9999 -SHRA FEW009 SCT015 BKN022 19/17 Q1025",
    "icao": "YSSY",
    "flightCategory": "MVFR",
    "windDir": 190,
    "windSpeed": 15,
    "windGust": null,
    "visibility": 6,
    "ceiling": 2200,
    "temp": 19,
    "dewpoint": 17,
    "altimeter": 30.27,
    "conditions": "-SHRA",
    "observationTime": "2026-04-03T21:30:00.000Z"
  },
  "LAS": {
    "raw": "METAR KLAS 032156Z 05021G27KT 10SM FEW250 21/M15 A3020 RMK AO2 PK WND 06027/2149 SLP215 T02061150",
    "icao": "KLAS",
    "flightCategory": "VFR",
    "windDir": 50,
    "windSpeed": 21,
    "windGust": 27,
    "visibility": 10,
    "ceiling": null,
    "temp": 20.6,
    "dewpoint": -15,
    "altimeter": 30.2,
    "conditions": "",
    "observationTime": "2026-04-03T22:00:00.000Z"
  },
  "LAX": {
    "raw": "METAR KLAX 032153Z 28013KT 10SM FEW230 SCT270 BKN300 21/13 A2999 RMK AO2 SLP155 T02110133 $",
    "icao": "KLAX",
    "flightCategory": "VFR",
    "windDir": 280,
    "windSpeed": 13,
    "windGust": null,
    "visibility": 10,
    "ceiling": 30000,
    "temp": 21.1,
    "dewpoint": 13.3,
    "altimeter": 29.99,
    "conditions": "",
    "observationTime": "2026-04-03T22:00:00.000Z"
  },
  "ORD": {
    "raw": "METAR KORD 032151Z 06016KT 10SM SCT026 OVC041 08/03 A3010 RMK AO2 SLP194 T00780028",
    "icao": "KORD",
    "flightCategory": "VFR",
    "windDir": 60,
    "windSpeed": 16,
    "windGust": null,
    "visibility": 10,
    "ceiling": 4100,
    "temp": 7.8,
    "dewpoint": 2.8,
    "altimeter": 30.1,
    "conditions": "",
    "observationTime": "2026-04-03T22:00:00.000Z"
  },
  "LHR": {
    "raw": "METAR EGLL 032120Z COR AUTO 26019KT 9999 NCD 12/06 Q1013 NOSIG",
    "icao": "EGLL",
    "flightCategory": "VFR",
    "windDir": 260,
    "windSpeed": 19,
    "windGust": null,
    "visibility": 6,
    "ceiling": null,
    "temp": 12,
    "dewpoint": 6,
    "altimeter": 29.91,
    "conditions": "",
    "observationTime": "2026-04-03T21:20:00.000Z"
  }
}