{
  "SYD": {
    "raw": "METAR YSSY 242200Z 35009KT 9999 VCSH FEW033 BKN037 16/14 Q1032",
    "icao": "YSSY",
    "flightCategory": "VFR",
    "windDir": 350,
    "windSpeed": 9,
    "windGust": null,
    "visibility": 6,
    "ceiling": 3700,
    "temp": 16,
    "dewpoint": 14,
    "altimeter": 30.47,
    "conditions": "VCSH",
    "observationTime": "2026-04-24T22:00:00.000Z"
  },
  "LHR": {
    "raw": "METAR EGLL 242220Z COR AUTO 10005KT 070V150 9999 NCD 08/00 Q1023 NOSIG",
    "icao": "EGLL",
    "flightCategory": "VFR",
    "windDir": 100,
    "windSpeed": 5,
    "windGust": null,
    "visibility": 6,
    "ceiling": null,
    "temp": 8,
    "dewpoint": 0,
    "altimeter": 30.21,
    "conditions": "",
    "observationTime": "2026-04-24T22:20:00.000Z"
  },
  "LAS": {
    "raw": "METAR KLAS 242156Z 23014G23KT 10SM SCT140 SCT200 27/M11 A2974 RMK AO2 SLP050 T02721111",
    "icao": "KLAS",
    "flightCategory": "VFR",
    "windDir": 230,
    "windSpeed": 14,
    "windGust": 23,
    "visibility": 10,
    "ceiling": null,
    "temp": 27.2,
    "dewpoint": -11.1,
    "altimeter": 29.74,
    "conditions": "",
    "observationTime": "2026-04-24T22:00:00.000Z"
  },
  "LAX": {
    "raw": "METAR KLAX 242153Z 24014KT 10SM FEW010 FEW035 SCT100 BKN140 BKN250 21/12 A2988 RMK AO2 SLP116 T02110117 $",
    "icao": "KLAX",
    "flightCategory": "VFR",
    "windDir": 240,
    "windSpeed": 14,
    "windGust": null,
    "visibility": 10,
    "ceiling": 14000,
    "temp": 21.1,
    "dewpoint": 11.7,
    "altimeter": 29.88,
    "conditions": "",
    "observationTime": "2026-04-24T22:00:00.000Z"
  },
  "ORD": {
    "raw": "METAR KORD 242151Z 27007KT 10SM SCT039 BKN250 21/12 A2972 RMK AO2 SLP058 T02060122",
    "icao": "KORD",
    "flightCategory": "VFR",
    "windDir": 270,
    "windSpeed": 7,
    "windGust": null,
    "visibility": 10,
    "ceiling": 25000,
    "temp": 20.6,
    "dewpoint": 12.2,
    "altimeter": 29.72,
    "conditions": "",
    "observationTime": "2026-04-24T22:00:00.000Z"
  }
}