{
  "LHR": {
    "raw": "METAR EGLL 060850Z AUTO 15016KT 9999 BKN011/// OVC016/// //////TCU 14/12 Q1005",
    "icao": "EGLL",
    "flightCategory": "MVFR",
    "windDir": 150,
    "windSpeed": 16,
    "windGust": null,
    "visibility": 6,
    "ceiling": 1100,
    "temp": 14,
    "dewpoint": 12,
    "altimeter": 29.68,
    "conditions": "",
    "observationTime": "2026-06-06T09:00:00.000Z"
  },
  "ORD": {
    "raw": "SPECI KORD 060843Z 19004KT 10SM -TSRA BKN028CB OVC120 22/18 A2982 RMK AO2 RAB25 TSB43 FRQ LTGIC W TS W MOV SE P0000 T02220183 $",
    "icao": "KORD",
    "flightCategory": "MVFR",
    "windDir": 190,
    "windSpeed": 4,
    "windGust": null,
    "visibility": 10,
    "ceiling": 2800,
    "temp": 22.2,
    "dewpoint": 18.3,
    "altimeter": 29.82,
    "conditions": "-TSRA",
    "observationTime": "2026-06-06T08:43:00.000Z"
  },
  "SYD": {
    "raw": "METAR YSSY 060900Z AUTO 00000KT 9999 // NCD 15/08 Q1027",
    "icao": "YSSY",
    "flightCategory": "VFR",
    "windDir": 0,
    "windSpeed": 0,
    "windGust": null,
    "visibility": 6,
    "ceiling": null,
    "temp": 15,
    "dewpoint": 8,
    "altimeter": 30.33,
    "conditions": "",
    "observationTime": "2026-06-06T09:00:00.000Z"
  },
  "LAS": {
    "raw": "METAR KLAS 060856Z 22010KT 10SM CLR 31/M03 A2971 RMK AO2 SLP027 T03061028 51004",
    "icao": "KLAS",
    "flightCategory": "VFR",
    "windDir": 220,
    "windSpeed": 10,
    "windGust": null,
    "visibility": 10,
    "ceiling": null,
    "temp": 30.6,
    "dewpoint": -2.8,
    "altimeter": 29.71,
    "conditions": "",
    "observationTime": "2026-06-06T09:00:00.000Z"
  },
  "LAX": {
    "raw": "METAR KLAX 060853Z 12005KT 10SM BKN013 OVC017 18/14 A2984 RMK AO2 SLP103 T01830144 56008 $",
    "icao": "KLAX",
    "flightCategory": "MVFR",
    "windDir": 120,
    "windSpeed": 5,
    "windGust": null,
    "visibility": 10,
    "ceiling": 1300,
    "temp": 18.3,
    "dewpoint": 14.4,
    "altimeter": 29.84,
    "conditions": "",
    "observationTime": "2026-06-06T09:00:00.000Z"
  }
}