{
  "LHR": {
    "raw": "METAR EGLL 040850Z COR AUTO 21011KT 160V270 9999 BKN017 BKN025 OVC038 11/08 Q1017 NOSIG",
    "icao": "EGLL",
    "flightCategory": "MVFR",
    "windDir": 210,
    "windSpeed": 11,
    "windGust": null,
    "visibility": 6,
    "ceiling": 1700,
    "temp": 11,
    "dewpoint": 8,
    "altimeter": 30.03,
    "conditions": "",
    "observationTime": "2026-04-04T09:00:00.000Z"
  },
  "SYD": {
    "raw": "METAR YSSY 040900Z AUTO 20015KT 9999 // BKN027 19/16 Q1025",
    "icao": "YSSY",
    "flightCategory": "MVFR",
    "windDir": 200,
    "windSpeed": 15,
    "windGust": null,
    "visibility": 6,
    "ceiling": 2700,
    "temp": 19,
    "dewpoint": 16,
    "altimeter": 30.27,
    "conditions": "",
    "observationTime": "2026-04-04T09:00:00.000Z"
  },
  "LAS": {
    "raw": "METAR KLAS 040856Z 10003KT 10SM CLR 16/M09 A3024 RMK AO2 SLP228 T01561094 50004",
    "icao": "KLAS",
    "flightCategory": "VFR",
    "windDir": 100,
    "windSpeed": 3,
    "windGust": null,
    "visibility": 10,
    "ceiling": null,
    "temp": 15.6,
    "dewpoint": -9.4,
    "altimeter": 30.24,
    "conditions": "",
    "observationTime": "2026-04-04T09:00:00.000Z"
  },
  "LAX": {
    "raw": "METAR KLAX 040853Z 00000KT 10SM FEW240 SCT290 17/14 A3003 RMK AO2 SLP168 T01670144 50001 $",
    "icao": "KLAX",
    "flightCategory": "VFR",
    "windDir": 0,
    "windSpeed": 0,
    "windGust": null,
    "visibility": 10,
    "ceiling": null,
    "temp": 16.7,
    "dewpoint": 14.4,
    "altimeter": 30.03,
    "conditions": "",
    "observationTime": "2026-04-04T09:00:00.000Z"
  },
  "ORD": {
    "raw": "METAR KORD 040851Z 04008KT 6SM -RA BR OVC003 06/06 A2985 RMK AO2 RAB47 SLP113 P0000 60000 T00610056 56042 $",
    "icao": "KORD",
    "flightCategory": "LIFR",
    "windDir": 40,
    "windSpeed": 8,
    "windGust": null,
    "visibility": 6,
    "ceiling": 300,
    "temp": 6.1,
    "dewpoint": 5.6,
    "altimeter": 29.85,
    "conditions": "-RA BR",
    "observationTime": "2026-04-04T09:00:00.000Z"
  }
}