{
  "LHR": {
    "raw": "METAR EGLL 222250Z COR AUTO 07007KT 9999 NCD 09/02 Q1028 NOSIG",
    "icao": "EGLL",
    "flightCategory": "VFR",
    "windDir": 70,
    "windSpeed": 7,
    "windGust": null,
    "visibility": 6,
    "ceiling": null,
    "temp": 9,
    "dewpoint": 2,
    "altimeter": 30.36,
    "conditions": "",
    "observationTime": "2026-04-22T23:00:00.000Z"
  },
  "SYD": {
    "raw": "METAR YSSY 222300Z 15009KT 9999 FEW045 BKN053 20/11 Q1029",
    "icao": "YSSY",
    "flightCategory": "VFR",
    "windDir": 150,
    "windSpeed": 9,
    "windGust": null,
    "visibility": 6,
    "ceiling": 5300,
    "temp": 20,
    "dewpoint": 11,
    "altimeter": 30.39,
    "conditions": "",
    "observationTime": "2026-04-22T23:00:00.000Z"
  },
  "LAS": {
    "raw": "METAR KLAS 222256Z 28011G21KT 10SM FEW120 FEW200 SCT250 24/M07 A2989 RMK AO2 SLP106 T02441072",
    "icao": "KLAS",
    "flightCategory": "VFR",
    "windDir": 280,
    "windSpeed": 11,
    "windGust": 21,
    "visibility": 10,
    "ceiling": null,
    "temp": 24.4,
    "dewpoint": -7.2,
    "altimeter": 29.89,
    "conditions": "",
    "observationTime": "2026-04-22T23:00:00.000Z"
  },
  "LAX": {
    "raw": "METAR KLAX 222253Z 26016G26KT 10SM FEW010 FEW100 SCT250 18/09 A3007 RMK AO2 PK WND 25026/2245 SLP183 T01830089 $",
    "icao": "KLAX",
    "flightCategory": "VFR",
    "windDir": 260,
    "windSpeed": 16,
    "windGust": 26,
    "visibility": 10,
    "ceiling": null,
    "temp": 18.3,
    "dewpoint": 8.9,
    "altimeter": 30.07,
    "conditions": "",
    "observationTime": "2026-04-22T23:00:00.000Z"
  },
  "ORD": {
    "raw": "METAR KORD 222251Z 07009KT 10SM SCT250 17/09 A2993 RMK AO2 SLP133 T01720089",
    "icao": "KORD",
    "flightCategory": "VFR",
    "windDir": 70,
    "windSpeed": 9,
    "windGust": null,
    "visibility": 10,
    "ceiling": null,
    "temp": 17.2,
    "dewpoint": 8.9,
    "altimeter": 29.93,
    "conditions": "",
    "observationTime": "2026-04-22T23:00:00.000Z"
  }
}