{
  "LHR": {
    "raw": "METAR EGLL 101650Z COR AUTO 06010KT 020V090 9999 BKN043 13/03 Q1014 NOSIG",
    "icao": "EGLL",
    "flightCategory": "VFR",
    "windDir": 60,
    "windSpeed": 10,
    "windGust": null,
    "visibility": 6,
    "ceiling": 4300,
    "temp": 13,
    "dewpoint": 3,
    "altimeter": 29.94,
    "conditions": "",
    "observationTime": "2026-05-10T17:00:00.000Z"
  },
  "LAS": {
    "raw": "METAR KLAS 101656Z 06013G20KT 10SM FEW250 32/M11 A3000 RMK AO2 SLP128 T03221106",
    "icao": "KLAS",
    "flightCategory": "VFR",
    "windDir": 60,
    "windSpeed": 13,
    "windGust": 20,
    "visibility": 10,
    "ceiling": null,
    "temp": 32.2,
    "dewpoint": -10.6,
    "altimeter": 30,
    "conditions": "",
    "observationTime": "2026-05-10T17:00:00.000Z"
  },
  "SYD": {
    "raw": "METAR YSSY 101700Z AUTO 21011KT 9999 // NCD 14/12 Q1031",
    "icao": "YSSY",
    "flightCategory": "VFR",
    "windDir": 210,
    "windSpeed": 11,
    "windGust": null,
    "visibility": 6,
    "ceiling": null,
    "temp": 14,
    "dewpoint": 12,
    "altimeter": 30.45,
    "conditions": "",
    "observationTime": "2026-05-10T17:00:00.000Z"
  },
  "LAX": {
    "raw": "SPECI KLAX 101638Z VRB03KT 7SM SCT014 18/13 A2993 RMK AO2 T01830133",
    "icao": "KLAX",
    "flightCategory": "VFR",
    "windDir": null,
    "windSpeed": 3,
    "windGust": null,
    "visibility": 7,
    "ceiling": null,
    "temp": 18.3,
    "dewpoint": 13.3,
    "altimeter": 29.93,
    "conditions": "",
    "observationTime": "2026-05-10T16:38:00.000Z"
  },
  "ORD": {
    "raw": "METAR KORD 101651Z 34008KT 10SM SCT075 SCT250 16/M04 A3010 RMK AO2 SLP193 T01561039 $",
    "icao": "KORD",
    "flightCategory": "VFR",
    "windDir": 340,
    "windSpeed": 8,
    "windGust": null,
    "visibility": 10,
    "ceiling": null,
    "temp": 15.6,
    "dewpoint": -3.9,
    "altimeter": 30.1,
    "conditions": "",
    "observationTime": "2026-05-10T17:00:00.000Z"
  }
}