{
  "SYD": {
    "raw": "METAR YSSY 290730Z AUTO 20014KT 9999 // NCD 19/15 Q1003",
    "icao": "YSSY",
    "flightCategory": "VFR",
    "windDir": 200,
    "windSpeed": 14,
    "windGust": null,
    "visibility": 6,
    "ceiling": null,
    "temp": 19,
    "dewpoint": 15,
    "altimeter": 29.62,
    "conditions": "",
    "observationTime": "2026-05-29T07:30:00.000Z"
  },
  "LAS": {
    "raw": "METAR KLAS 290756Z 21008KT 10SM BKN160 OVC200 20/00 A2979 RMK AO2 SLP067 T02000000 402830139",
    "icao": "KLAS",
    "flightCategory": "VFR",
    "windDir": 210,
    "windSpeed": 8,
    "windGust": null,
    "visibility": 10,
    "ceiling": 16000,
    "temp": 20,
    "dewpoint": 0,
    "altimeter": 29.79,
    "conditions": "",
    "observationTime": "2026-05-29T08:00:00.000Z"
  },
  "LAX": {
    "raw": "METAR KLAX 290753Z 28010KT 10SM FEW025 SCT060 OVC075 16/11 A2997 RMK AO2 SLP145 T01560111 402000133 $",
    "icao": "KLAX",
    "flightCategory": "VFR",
    "windDir": 280,
    "windSpeed": 10,
    "windGust": null,
    "visibility": 10,
    "ceiling": 7500,
    "temp": 15.6,
    "dewpoint": 11.1,
    "altimeter": 29.97,
    "conditions": "",
    "observationTime": "2026-05-29T08:00:00.000Z"
  },
  "ORD": {
    "raw": "METAR KORD 290751Z 02006KT 10SM FEW300 11/07 A3010 RMK AO2 SLP193 T01110067",
    "icao": "KORD",
    "flightCategory": "VFR",
    "windDir": 20,
    "windSpeed": 6,
    "windGust": null,
    "visibility": 10,
    "ceiling": null,
    "temp": 11.1,
    "dewpoint": 6.7,
    "altimeter": 30.1,
    "conditions": "",
    "observationTime": "2026-05-29T08:00:00.000Z"
  },
  "LHR": {
    "raw": "METAR EGLL 290720Z AUTO 31006KT 270V010 9999 //////TCU 18/12 Q1022",
    "icao": "EGLL",
    "flightCategory": "UNKNOWN",
    "windDir": 310,
    "windSpeed": 6,
    "windGust": null,
    "visibility": 6,
    "ceiling": null,
    "temp": 18,
    "dewpoint": 12,
    "altimeter": 30.18,
    "conditions": "",
    "observationTime": "2026-05-29T07:20:00.000Z"
  }
}