{
  "SYD": {
    "raw": "METAR YSSY 032330Z AUTO 33010KT 9999 // FEW071 17/07 Q1002",
    "icao": "YSSY",
    "flightCategory": "VFR",
    "windDir": 330,
    "windSpeed": 10,
    "windGust": null,
    "visibility": 6,
    "ceiling": null,
    "temp": 17,
    "dewpoint": 7,
    "altimeter": 29.59,
    "conditions": "",
    "observationTime": "2026-06-03T23:30:00.000Z"
  },
  "LAS": {
    "raw": "METAR KLAS 032356Z 17004KT 10SM FEW250 39/M05 A2980 RMK AO2 SLP061 T03891050 10394 20344 56026",
    "icao": "KLAS",
    "flightCategory": "VFR",
    "windDir": 170,
    "windSpeed": 4,
    "windGust": null,
    "visibility": 10,
    "ceiling": null,
    "temp": 38.9,
    "dewpoint": -5,
    "altimeter": 29.8,
    "conditions": "",
    "observationTime": "2026-06-04T00:00:00.000Z"
  },
  "LAX": {
    "raw": "METAR KLAX 032353Z 25011KT 10SM FEW015 FEW250 19/13 A2990 RMK AO2 SLP126 T01940133 10206 20189 56020 $",
    "icao": "KLAX",
    "flightCategory": "VFR",
    "windDir": 250,
    "windSpeed": 11,
    "windGust": null,
    "visibility": 10,
    "ceiling": null,
    "temp": 19.4,
    "dewpoint": 13.3,
    "altimeter": 29.9,
    "conditions": "",
    "observationTime": "2026-06-04T00:00:00.000Z"
  },
  "ORD": {
    "raw": "METAR KORD 032351Z 08008KT 10SM BKN250 24/06 A3018 RMK AO2 SLP218 T02440056 10283 20244 56018",
    "icao": "KORD",
    "flightCategory": "VFR",
    "windDir": 80,
    "windSpeed": 8,
    "windGust": null,
    "visibility": 10,
    "ceiling": 25000,
    "temp": 24.4,
    "dewpoint": 5.6,
    "altimeter": 30.18,
    "conditions": "",
    "observationTime": "2026-06-04T00:00:00.000Z"
  },
  "LHR": {
    "raw": "METAR EGLL 032320Z AUTO 22015KT 9999 SCT024 SCT032 BKN042 15/11 Q0997",
    "icao": "EGLL",
    "flightCategory": "VFR",
    "windDir": 220,
    "windSpeed": 15,
    "windGust": null,
    "visibility": 6,
    "ceiling": 4200,
    "temp": 15,
    "dewpoint": 11,
    "altimeter": 29.44,
    "conditions": "",
    "observationTime": "2026-06-03T23:20:00.000Z"
  }
}