{
  "SYD": {
    "raw": "METAR YSSY 270600Z 20007KT 9999 FEW012 SCT080 14/13 Q1028",
    "icao": "YSSY",
    "flightCategory": "VFR",
    "windDir": 200,
    "windSpeed": 7,
    "windGust": null,
    "visibility": 6,
    "ceiling": null,
    "temp": 14,
    "dewpoint": 13,
    "altimeter": 30.36,
    "conditions": "",
    "observationTime": "2026-06-27T06:00:00.000Z"
  },
  "LHR": {
    "raw": "METAR EGLL 270550Z AUTO 22003KT 170V280 9999 NCD 21/17 Q1017",
    "icao": "EGLL",
    "flightCategory": "VFR",
    "windDir": 220,
    "windSpeed": 3,
    "windGust": null,
    "visibility": 6,
    "ceiling": null,
    "temp": 21,
    "dewpoint": 17,
    "altimeter": 30.03,
    "conditions": "",
    "observationTime": "2026-06-27T06:00:00.000Z"
  },
  "LAS": {
    "raw": "METAR KLAS 270556Z VRB03G22KT 10SM FEW140 FEW220 30/03 A2973 RMK AO2 PK WND 22034/0507 SLP035 T03000028 10383 20300 52015",
    "icao": "KLAS",
    "flightCategory": "VFR",
    "windDir": null,
    "windSpeed": 3,
    "windGust": 22,
    "visibility": 10,
    "ceiling": null,
    "temp": 30,
    "dewpoint": 2.8,
    "altimeter": 29.73,
    "conditions": "",
    "observationTime": "2026-06-27T06:00:00.000Z"
  },
  "LAX": {
    "raw": "METAR KLAX 270553Z 00000KT 10SM FEW013 BKN019 17/14 A2996 RMK AO2 SLP143 T01720139 10206 20172 50009",
    "icao": "KLAX",
    "flightCategory": "MVFR",
    "windDir": 0,
    "windSpeed": 0,
    "windGust": null,
    "visibility": 10,
    "ceiling": 1900,
    "temp": 17.2,
    "dewpoint": 13.9,
    "altimeter": 29.96,
    "conditions": "",
    "observationTime": "2026-06-27T06:00:00.000Z"
  },
  "ORD": {
    "raw": "METAR KORD 270551Z 05007KT 10SM OVC055 16/14 A3002 RMK AO2 SLP163 T01610144 10167 20156 401890156 58009 $",
    "icao": "KORD",
    "flightCategory": "VFR",
    "windDir": 50,
    "windSpeed": 7,
    "windGust": null,
    "visibility": 10,
    "ceiling": 5500,
    "temp": 16.1,
    "dewpoint": 14.4,
    "altimeter": 30.02,
    "conditions": "",
    "observationTime": "2026-06-27T06:00:00.000Z"
  }
}