{
  "LHR": {
    "raw": "METAR EGLL 280650Z COR AUTO 27010KT 9999 NCD 04/00 Q1023 NOSIG",
    "icao": "EGLL",
    "flightCategory": "VFR",
    "windDir": 270,
    "windSpeed": 10,
    "windGust": null,
    "visibility": 6,
    "ceiling": null,
    "temp": 4,
    "dewpoint": 0,
    "altimeter": 30.21,
    "conditions": "",
    "observationTime": "2026-03-28T07:00:00.000Z"
  },
  "LAS": {
    "raw": "METAR KLAS 280656Z 00000KT 10SM BKN250 24/M02 A2994 RMK AO2 SLP118 T02441017",
    "icao": "KLAS",
    "flightCategory": "VFR",
    "windDir": 0,
    "windSpeed": 0,
    "windGust": null,
    "visibility": 10,
    "ceiling": 25000,
    "temp": 24.4,
    "dewpoint": -1.7,
    "altimeter": 29.94,
    "conditions": "",
    "observationTime": "2026-03-28T07:00:00.000Z"
  },
  "LAX": {
    "raw": "METAR KLAX 280653Z 25005KT 9SM FEW010 15/13 A2999 RMK AO2 SLP154 T01500133 $",
    "icao": "KLAX",
    "flightCategory": "VFR",
    "windDir": 250,
    "windSpeed": 5,
    "windGust": null,
    "visibility": 9,
    "ceiling": null,
    "temp": 15,
    "dewpoint": 13.3,
    "altimeter": 29.99,
    "conditions": "",
    "observationTime": "2026-03-28T07:00:00.000Z"
  },
  "ORD": {
    "raw": "METAR KORD 280651Z 35006KT 10SM CLR M02/M07 A3058 RMK AO2 SLP364 T10171067",
    "icao": "KORD",
    "flightCategory": "VFR",
    "windDir": 350,
    "windSpeed": 6,
    "windGust": null,
    "visibility": 10,
    "ceiling": null,
    "temp": -1.7,
    "dewpoint": -6.7,
    "altimeter": 30.58,
    "conditions": "",
    "observationTime": "2026-03-28T07:00:00.000Z"
  }
}