{
  "LAX": {
    "raw": "METAR KLAX 290153Z 25012KT 10SM FEW250 17/11 A3002 RMK AO2 SLP163 T01670111 $",
    "icao": "KLAX",
    "flightCategory": "VFR",
    "windDir": 250,
    "windSpeed": 12,
    "windGust": null,
    "visibility": 10,
    "ceiling": null,
    "temp": 16.7,
    "dewpoint": 11.1,
    "altimeter": 30.02,
    "conditions": "",
    "observationTime": "2026-04-29T02:00:00.000Z"
  },
  "ORD": {
    "raw": "METAR KORD 290151Z 21003KT 10SM SCT130 OVC250 15/07 A2990 RMK AO2 SLP127 T01500072 $",
    "icao": "KORD",
    "flightCategory": "VFR",
    "windDir": 210,
    "windSpeed": 3,
    "windGust": null,
    "visibility": 10,
    "ceiling": 25000,
    "temp": 15,
    "dewpoint": 7.2,
    "altimeter": 29.9,
    "conditions": "",
    "observationTime": "2026-04-29T02:00:00.000Z"
  },
  "LHR": {
    "raw": "METAR EGLL 290120Z COR AUTO 05008KT 9999 NCD 08/03 Q1024 NOSIG",
    "icao": "EGLL",
    "flightCategory": "VFR",
    "windDir": 50,
    "windSpeed": 8,
    "windGust": null,
    "visibility": 6,
    "ceiling": null,
    "temp": 8,
    "dewpoint": 3,
    "altimeter": 30.24,
    "conditions": "",
    "observationTime": "2026-04-29T01:20:00.000Z"
  },
  "SYD": {
    "raw": "METAR YSSY 290100Z 27005KT 9999 FEW035 BKN300 24/13 Q1029",
    "icao": "YSSY",
    "flightCategory": "VFR",
    "windDir": 270,
    "windSpeed": 5,
    "windGust": null,
    "visibility": 6,
    "ceiling": 30000,
    "temp": 24,
    "dewpoint": 13,
    "altimeter": 30.39,
    "conditions": "",
    "observationTime": "2026-04-29T01:00:00.000Z"
  },
  "LAS": {
    "raw": "METAR KLAS 290056Z 00000KT 10SM FEW100 FEW200 24/M06 A2993 RMK AO2 SLP122 T02441061",
    "icao": "KLAS",
    "flightCategory": "VFR",
    "windDir": 0,
    "windSpeed": 0,
    "windGust": null,
    "visibility": 10,
    "ceiling": null,
    "temp": 24.4,
    "dewpoint": -6.1,
    "altimeter": 29.93,
    "conditions": "",
    "observationTime": "2026-04-29T01:00:00.000Z"
  }
}