{
  "LAS": {
    "raw": "METAR KLAS 161156Z 16009G16KT 10SM SCT210 18/01 A2981 RMK AO2 SLP074 T01830006 10222 20178 56010",
    "icao": "KLAS",
    "flightCategory": "VFR",
    "windDir": 160,
    "windSpeed": 9,
    "windGust": 16,
    "visibility": 10,
    "ceiling": null,
    "temp": 18.3,
    "dewpoint": 0.6,
    "altimeter": 29.81,
    "conditions": "",
    "observationTime": "2026-04-16T12:00:00.000Z"
  },
  "LAX": {
    "raw": "SPECI KLAX 161109Z 26003KT 10SM FEW009 FEW012 BKN200 BKN250 15/13 A2991 RMK AO2 T01500128",
    "icao": "KLAX",
    "flightCategory": "VFR",
    "windDir": 260,
    "windSpeed": 3,
    "windGust": null,
    "visibility": 10,
    "ceiling": 20000,
    "temp": 15,
    "dewpoint": 12.8,
    "altimeter": 29.91,
    "conditions": "",
    "observationTime": "2026-04-16T11:09:00.000Z"
  },
  "ORD": {
    "raw": "SPECI KORD 161109Z 18008KT 9SM -RA SCT023 BKN028 OVC036 16/14 A2972 RMK AO2 RAB1057 P0002 T01560139 $",
    "icao": "KORD",
    "flightCategory": "MVFR",
    "windDir": 180,
    "windSpeed": 8,
    "windGust": null,
    "visibility": 9,
    "ceiling": 2800,
    "temp": 15.6,
    "dewpoint": 13.9,
    "altimeter": 29.72,
    "conditions": "-RA",
    "observationTime": "2026-04-16T11:09:00.000Z"
  },
  "LHR": {
    "raw": "METAR EGLL 161120Z COR AUTO 24015KT 9999 FEW039 15/07 Q1019 NOSIG",
    "icao": "EGLL",
    "flightCategory": "VFR",
    "windDir": 240,
    "windSpeed": 15,
    "windGust": null,
    "visibility": 6,
    "ceiling": null,
    "temp": 15,
    "dewpoint": 7,
    "altimeter": 30.09,
    "conditions": "",
    "observationTime": "2026-04-16T11:20:00.000Z"
  },
  "SYD": {
    "raw": "METAR YSSY 161130Z AUTO 27005KT 9999 // NCD 20/16 Q1015",
    "icao": "YSSY",
    "flightCategory": "VFR",
    "windDir": 270,
    "windSpeed": 5,
    "windGust": null,
    "visibility": 6,
    "ceiling": null,
    "temp": 20,
    "dewpoint": 16,
    "altimeter": 29.97,
    "conditions": "",
    "observationTime": "2026-04-16T11:30:00.000Z"
  }
}