{
  "SYD": {
    "raw": "METAR YSSY 201500Z AUTO 23008KT 9999 // BKN049 OVC058 OVC067 14/07 Q1023",
    "icao": "YSSY",
    "flightCategory": "VFR",
    "windDir": 230,
    "windSpeed": 8,
    "windGust": null,
    "visibility": 6,
    "ceiling": 4900,
    "temp": 14,
    "dewpoint": 7,
    "altimeter": 30.21,
    "conditions": "",
    "observationTime": "2026-05-20T15:00:00.000Z"
  },
  "LHR": {
    "raw": "METAR EGLL 201450Z AUTO 25017KT 9999 SCT037 BKN045 19/10 Q1020",
    "icao": "EGLL",
    "flightCategory": "VFR",
    "windDir": 250,
    "windSpeed": 17,
    "windGust": null,
    "visibility": 6,
    "ceiling": 4500,
    "temp": 19,
    "dewpoint": 10,
    "altimeter": 30.12,
    "conditions": "",
    "observationTime": "2026-05-20T15:00:00.000Z"
  },
  "LAS": {
    "raw": "METAR KLAS 201456Z 00000KT 10SM CLR 21/M10 A3002 RMK AO2 SLP148 T02111100 53007",
    "icao": "KLAS",
    "flightCategory": "VFR",
    "windDir": 0,
    "windSpeed": 0,
    "windGust": null,
    "visibility": 10,
    "ceiling": null,
    "temp": 21.1,
    "dewpoint": -10,
    "altimeter": 30.02,
    "conditions": "",
    "observationTime": "2026-05-20T15:00:00.000Z"
  },
  "LAX": {
    "raw": "METAR KLAX 201453Z 12004KT 9SM FEW055 19/14 A2993 RMK AO2 SLP132 FU FEW055 T01940144 53008",
    "icao": "KLAX",
    "flightCategory": "VFR",
    "windDir": 120,
    "windSpeed": 4,
    "windGust": null,
    "visibility": 9,
    "ceiling": null,
    "temp": 19.4,
    "dewpoint": 14.4,
    "altimeter": 29.93,
    "conditions": "",
    "observationTime": "2026-05-20T15:00:00.000Z"
  },
  "ORD": {
    "raw": "METAR KORD 201451Z 02015G21KT 10SM SCT033 BKN250 15/06 A3025 RMK AO2 SLP243 T01500061 51012",
    "icao": "KORD",
    "flightCategory": "VFR",
    "windDir": 20,
    "windSpeed": 15,
    "windGust": 21,
    "visibility": 10,
    "ceiling": 25000,
    "temp": 15,
    "dewpoint": 6.1,
    "altimeter": 30.25,
    "conditions": "",
    "observationTime": "2026-05-20T15:00:00.000Z"
  }
}