{
  "SYD": {
    "raw": "METAR YSSY 040100Z 17015KT 9999 FEW017 SCT025 BKN037 20/16 Q1026",
    "icao": "YSSY",
    "flightCategory": "VFR",
    "windDir": 170,
    "windSpeed": 15,
    "windGust": null,
    "visibility": 6,
    "ceiling": 3700,
    "temp": 20,
    "dewpoint": 16,
    "altimeter": 30.3,
    "conditions": "",
    "observationTime": "2026-04-04T01:00:00.000Z"
  },
  "LHR": {
    "raw": "METAR EGLL 040050Z COR AUTO 25011KT 9999 NCD 10/06 Q1016 NOSIG",
    "icao": "EGLL",
    "flightCategory": "VFR",
    "windDir": 250,
    "windSpeed": 11,
    "windGust": null,
    "visibility": 6,
    "ceiling": null,
    "temp": 10,
    "dewpoint": 6,
    "altimeter": 30,
    "conditions": "",
    "observationTime": "2026-04-04T01:00:00.000Z"
  },
  "LAS": {
    "raw": "METAR KLAS 040056Z 03015G22KT 10SM FEW250 21/M13 A3016 RMK AO2 SLP203 T02111128",
    "icao": "KLAS",
    "flightCategory": "VFR",
    "windDir": 30,
    "windSpeed": 15,
    "windGust": 22,
    "visibility": 10,
    "ceiling": null,
    "temp": 21.1,
    "dewpoint": -12.8,
    "altimeter": 30.16,
    "conditions": "",
    "observationTime": "2026-04-04T01:00:00.000Z"
  },
  "LAX": {
    "raw": "METAR KLAX 040053Z 26009KT 10SM FEW240 BKN280 20/13 A2996 RMK AO2 SLP144 T02000133 $",
    "icao": "KLAX",
    "flightCategory": "VFR",
    "windDir": 260,
    "windSpeed": 9,
    "windGust": null,
    "visibility": 10,
    "ceiling": 28000,
    "temp": 20,
    "dewpoint": 13.3,
    "altimeter": 29.96,
    "conditions": "",
    "observationTime": "2026-04-04T01:00:00.000Z"
  },
  "ORD": {
    "raw": "METAR KORD 040051Z 06015KT 10SM OVC022 05/01 A3011 RMK AO2 SLP198 T00500011",
    "icao": "KORD",
    "flightCategory": "MVFR",
    "windDir": 60,
    "windSpeed": 15,
    "windGust": null,
    "visibility": 10,
    "ceiling": 2200,
    "temp": 5,
    "dewpoint": 1.1,
    "altimeter": 30.11,
    "conditions": "",
    "observationTime": "2026-04-04T01:00:00.000Z"
  }
}