{
  "SYD": {
    "raw": "METAR YSSY 101430Z AUTO 36007KT 9999 -SHRA OVC068 18/15 Q1028",
    "icao": "YSSY",
    "flightCategory": "VFR",
    "windDir": 360,
    "windSpeed": 7,
    "windGust": null,
    "visibility": 6,
    "ceiling": 6800,
    "temp": 18,
    "dewpoint": 15,
    "altimeter": 30.36,
    "conditions": "-SHRA",
    "observationTime": "2026-06-10T14:30:00.000Z"
  },
  "LAS": {
    "raw": "METAR KLAS 101456Z 03003KT 10SM CLR 29/06 A2987 RMK AO2 SLP084 T02940061 53018",
    "icao": "KLAS",
    "flightCategory": "VFR",
    "windDir": 30,
    "windSpeed": 3,
    "windGust": null,
    "visibility": 10,
    "ceiling": null,
    "temp": 29.4,
    "dewpoint": 6.1,
    "altimeter": 29.87,
    "conditions": "",
    "observationTime": "2026-06-10T15:00:00.000Z"
  },
  "LAX": {
    "raw": "SPECI KLAX 101438Z VRB04KT 10SM FEW008 BKN011 19/16 A2985 RMK AO2 BKN V SCT T01890161",
    "icao": "KLAX",
    "flightCategory": "MVFR",
    "windDir": null,
    "windSpeed": 4,
    "windGust": null,
    "visibility": 10,
    "ceiling": 1100,
    "temp": 18.9,
    "dewpoint": 16.1,
    "altimeter": 29.85,
    "conditions": "",
    "observationTime": "2026-06-10T14:38:00.000Z"
  },
  "ORD": {
    "raw": "METAR KORD 101451Z 23014G20KT 10SM FEW028 BKN300 29/22 A2977 RMK AO2 SLP074 T02940222 55009",
    "icao": "KORD",
    "flightCategory": "VFR",
    "windDir": 230,
    "windSpeed": 14,
    "windGust": 20,
    "visibility": 10,
    "ceiling": 30000,
    "temp": 29.4,
    "dewpoint": 22.2,
    "altimeter": 29.77,
    "conditions": "",
    "observationTime": "2026-06-10T15:00:00.000Z"
  },
  "LHR": {
    "raw": "METAR EGLL 101420Z 26016KT 9999 VCSH FEW048CB 18/05 Q1016",
    "icao": "EGLL",
    "flightCategory": "VFR",
    "windDir": 260,
    "windSpeed": 16,
    "windGust": null,
    "visibility": 6,
    "ceiling": null,
    "temp": 18,
    "dewpoint": 5,
    "altimeter": 30,
    "conditions": "VCSH",
    "observationTime": "2026-06-10T14:20:00.000Z"
  }
}