{
  "SYD": {
    "raw": "METAR YSSY 111500Z AUTO 34009KT 9999 // NCD 13/07 Q1012",
    "icao": "YSSY",
    "flightCategory": "VFR",
    "windDir": 340,
    "windSpeed": 9,
    "windGust": null,
    "visibility": 6,
    "ceiling": null,
    "temp": 13,
    "dewpoint": 7,
    "altimeter": 29.88,
    "conditions": "",
    "observationTime": "2026-07-11T15:00:00.000Z"
  },
  "LHR": {
    "raw": "METAR EGLL 111520Z AUTO 06012KT 020V090 9999 NCD 30/11 Q1021",
    "icao": "EGLL",
    "flightCategory": "VFR",
    "windDir": 60,
    "windSpeed": 12,
    "windGust": null,
    "visibility": 6,
    "ceiling": null,
    "temp": 30,
    "dewpoint": 11,
    "altimeter": 30.15,
    "conditions": "",
    "observationTime": "2026-07-11T15:20:00.000Z"
  },
  "LAS": {
    "raw": "METAR KLAS 111456Z 00000KT 10SM CLR 32/02 A2995 RMK AO2 SLP107 T03220022 53023",
    "icao": "KLAS",
    "flightCategory": "VFR",
    "windDir": 0,
    "windSpeed": 0,
    "windGust": null,
    "visibility": 10,
    "ceiling": null,
    "temp": 32.2,
    "dewpoint": 2.2,
    "altimeter": 29.95,
    "conditions": "",
    "observationTime": "2026-07-11T15:00:00.000Z"
  }
}