{
  "LHR": {
    "raw": "METAR EGLL 052050Z COR AUTO 28007KT 9999 NCD 07/M00 Q1025 NOSIG",
    "icao": "EGLL",
    "flightCategory": "VFR",
    "windDir": 280,
    "windSpeed": 7,
    "windGust": null,
    "visibility": 6,
    "ceiling": null,
    "temp": 7,
    "dewpoint": 0,
    "altimeter": 30.27,
    "conditions": "",
    "observationTime": "2026-04-05T21:00:00.000Z"
  },
  "LAS": {
    "raw": "METAR KLAS 052056Z 04009G16KT 10SM FEW200 27/M09 A3006 RMK AO2 SLP163 T02721094 58026",
    "icao": "KLAS",
    "flightCategory": "VFR",
    "windDir": 40,
    "windSpeed": 9,
    "windGust": 16,
    "visibility": 10,
    "ceiling": null,
    "temp": 27.2,
    "dewpoint": -9.4,
    "altimeter": 30.06,
    "conditions": "",
    "observationTime": "2026-04-05T21:00:00.000Z"
  },
  "SYD": {
    "raw": "METAR YSSY 052030Z 31008KT 9999 FEW040 15/13 Q1021",
    "icao": "YSSY",
    "flightCategory": "VFR",
    "windDir": 310,
    "windSpeed": 8,
    "windGust": null,
    "visibility": 6,
    "ceiling": null,
    "temp": 15,
    "dewpoint": 13,
    "altimeter": 30.15,
    "conditions": "",
    "observationTime": "2026-04-05T20:30:00.000Z"
  },
  "LAX": {
    "raw": "METAR KLAX 052053Z 24011KT 10SM FEW220 FEW260 SCT300 23/11 A3000 RMK AO2 SLP158 T02330106 58003 $",
    "icao": "KLAX",
    "flightCategory": "VFR",
    "windDir": 240,
    "windSpeed": 11,
    "windGust": null,
    "visibility": 10,
    "ceiling": null,
    "temp": 23.3,
    "dewpoint": 10.6,
    "altimeter": 30,
    "conditions": "",
    "observationTime": "2026-04-05T21:00:00.000Z"
  },
  "ORD": {
    "raw": "METAR KORD 052051Z 31013G21KT 10SM FEW035 12/M06 A3015 RMK AO2 SLP212 T01171061 58003 $",
    "icao": "KORD",
    "flightCategory": "VFR",
    "windDir": 310,
    "windSpeed": 13,
    "windGust": 21,
    "visibility": 10,
    "ceiling": null,
    "temp": 11.7,
    "dewpoint": -6.1,
    "altimeter": 30.15,
    "conditions": "",
    "observationTime": "2026-04-05T21:00:00.000Z"
  }
}