{
  "LAS": {
    "raw": "METAR KLAS 230556Z 19011G18KT 10SM CLR 29/M07 A2976 RMK AO2 SLP049 T02941067 10350 20294 51014",
    "icao": "KLAS",
    "flightCategory": "VFR",
    "windDir": 190,
    "windSpeed": 11,
    "windGust": 18,
    "visibility": 10,
    "ceiling": null,
    "temp": 29.4,
    "dewpoint": -6.7,
    "altimeter": 29.76,
    "conditions": "",
    "observationTime": "2026-05-23T06:00:00.000Z"
  },
  "LAX": {
    "raw": "SPECI KLAX 230534Z 25005KT 10SM SCT013 16/12 A2991 RMK AO2 T01560122",
    "icao": "KLAX",
    "flightCategory": "VFR",
    "windDir": 250,
    "windSpeed": 5,
    "windGust": null,
    "visibility": 10,
    "ceiling": null,
    "temp": 15.6,
    "dewpoint": 12.2,
    "altimeter": 29.91,
    "conditions": "",
    "observationTime": "2026-05-23T05:34:00.000Z"
  },
  "ORD": {
    "raw": "METAR KORD 230551Z 08008KT 10SM BKN026 BKN040 OVC110 16/09 A2997 RMK AO2 SLP146 T01610094 10172 20161 401890111 56005",
    "icao": "KORD",
    "flightCategory": "MVFR",
    "windDir": 80,
    "windSpeed": 8,
    "windGust": null,
    "visibility": 10,
    "ceiling": 2600,
    "temp": 16.1,
    "dewpoint": 9.4,
    "altimeter": 29.97,
    "conditions": "",
    "observationTime": "2026-05-23T06:00:00.000Z"
  },
  "LHR": {
    "raw": "METAR EGLL 230520Z AUTO 18004KT 150V220 9999 NCD 18/14 Q1025",
    "icao": "EGLL",
    "flightCategory": "VFR",
    "windDir": 180,
    "windSpeed": 4,
    "windGust": null,
    "visibility": 6,
    "ceiling": null,
    "temp": 18,
    "dewpoint": 14,
    "altimeter": 30.27,
    "conditions": "",
    "observationTime": "2026-05-23T05:20:00.000Z"
  },
  "SYD": {
    "raw": "SPECI YSSY 230530Z 20010KT 5000 SHRA SCT005 BKN011 BKN015 17/16 Q1025",
    "icao": "YSSY",
    "flightCategory": "MVFR",
    "windDir": 200,
    "windSpeed": 10,
    "windGust": null,
    "visibility": 3.11,
    "ceiling": 1100,
    "temp": 17,
    "dewpoint": 16,
    "altimeter": 30.27,
    "conditions": "SHRA",
    "observationTime": "2026-05-23T05:30:00.000Z"
  }
}