{
  "LHR": {
    "raw": "METAR EGLL 170750Z AUTO 27011KT 9999 NCD 12/08 Q1010",
    "icao": "EGLL",
    "flightCategory": "VFR",
    "windDir": 270,
    "windSpeed": 11,
    "windGust": null,
    "visibility": 6,
    "ceiling": null,
    "temp": 12,
    "dewpoint": 8,
    "altimeter": 29.83,
    "conditions": "",
    "observationTime": "2026-05-17T08:00:00.000Z"
  },
  "SYD": {
    "raw": "METAR YSSY 170800Z AUTO 26003KT 9999 // OVC098 19/16 Q1019",
    "icao": "YSSY",
    "flightCategory": "VFR",
    "windDir": 260,
    "windSpeed": 3,
    "windGust": null,
    "visibility": 6,
    "ceiling": 9800,
    "temp": 19,
    "dewpoint": 16,
    "altimeter": 30.09,
    "conditions": "",
    "observationTime": "2026-05-17T08:00:00.000Z"
  },
  "LAS": {
    "raw": "METAR KLAS 170756Z 19006KT 10SM CLR 25/M06 A2964 RMK AO2 SLP009 T02501056 403390239",
    "icao": "KLAS",
    "flightCategory": "VFR",
    "windDir": 190,
    "windSpeed": 6,
    "windGust": null,
    "visibility": 10,
    "ceiling": null,
    "temp": 25,
    "dewpoint": -5.6,
    "altimeter": 29.64,
    "conditions": "",
    "observationTime": "2026-05-17T08:00:00.000Z"
  },
  "LAX": {
    "raw": "METAR KLAX 170753Z VRB04KT 10SM CLR 17/13 A2984 RMK AO2 SLP103 T01670128 402110161",
    "icao": "KLAX",
    "flightCategory": "VFR",
    "windDir": null,
    "windSpeed": 4,
    "windGust": null,
    "visibility": 10,
    "ceiling": null,
    "temp": 16.7,
    "dewpoint": 12.8,
    "altimeter": 29.84,
    "conditions": "",
    "observationTime": "2026-05-17T08:00:00.000Z"
  },
  "ORD": {
    "raw": "METAR KORD 170751Z 20006KT 10SM OVC230 21/16 A2989 RMK AO2 SLP116 T02060161",
    "icao": "KORD",
    "flightCategory": "VFR",
    "windDir": 200,
    "windSpeed": 6,
    "windGust": null,
    "visibility": 10,
    "ceiling": 23000,
    "temp": 20.6,
    "dewpoint": 16.1,
    "altimeter": 29.89,
    "conditions": "",
    "observationTime": "2026-05-17T08:00:00.000Z"
  }
}