{
  "SYD": {
    "raw": "METAR YSSY 021130Z AUTO 36011KT 9999 // NCD 15/09 Q1002",
    "icao": "YSSY",
    "flightCategory": "VFR",
    "windDir": 360,
    "windSpeed": 11,
    "windGust": null,
    "visibility": 6,
    "ceiling": null,
    "temp": 15,
    "dewpoint": 9,
    "altimeter": 29.59,
    "conditions": "",
    "observationTime": "2026-06-02T11:30:00.000Z"
  },
  "LAS": {
    "raw": "METAR KLAS 021156Z 19006KT 10SM FEW250 26/01 A2990 RMK AO2 SLP096 T02610006 10306 20261 53008 $",
    "icao": "KLAS",
    "flightCategory": "VFR",
    "windDir": 190,
    "windSpeed": 6,
    "windGust": null,
    "visibility": 10,
    "ceiling": null,
    "temp": 26.1,
    "dewpoint": 0.6,
    "altimeter": 29.9,
    "conditions": "",
    "observationTime": "2026-06-02T12:00:00.000Z"
  },
  "LAX": {
    "raw": "METAR KLAX 021153Z 29005KT 9SM FEW008 OVC012 17/14 A2998 RMK AO2 SLP151 T01670139 10172 20161 56005 $",
    "icao": "KLAX",
    "flightCategory": "MVFR",
    "windDir": 290,
    "windSpeed": 5,
    "windGust": null,
    "visibility": 9,
    "ceiling": 1200,
    "temp": 16.7,
    "dewpoint": 13.9,
    "altimeter": 29.98,
    "conditions": "",
    "observationTime": "2026-06-02T12:00:00.000Z"
  },
  "ORD": {
    "raw": "METAR KORD 021151Z 04004KT 10SM FEW090 SCT300 15/09 A3029 RMK AO2 SLP257 T01500089 10150 20100 53027 $",
    "icao": "KORD",
    "flightCategory": "VFR",
    "windDir": 40,
    "windSpeed": 4,
    "windGust": null,
    "visibility": 10,
    "ceiling": null,
    "temp": 15,
    "dewpoint": 8.9,
    "altimeter": 30.29,
    "conditions": "",
    "observationTime": "2026-06-02T12:00:00.000Z"
  },
  "LHR": {
    "raw": "METAR EGLL 021120Z AUTO 28011KT 250V310 9999 FEW027/// SCT042/// //////CB 19/13 Q1003",
    "icao": "EGLL",
    "flightCategory": "VFR",
    "windDir": 280,
    "windSpeed": 11,
    "windGust": null,
    "visibility": 6,
    "ceiling": null,
    "temp": 19,
    "dewpoint": 13,
    "altimeter": 29.62,
    "conditions": "",
    "observationTime": "2026-06-02T11:20:00.000Z"
  }
}