{
  "HND": {
    "raw": "METAR RJTT 130400Z 19007KT 9999 FEW025 BKN/// 25/07 Q1007 NOSIG",
    "icao": "RJTT",
    "flightCategory": "VFR",
    "windDir": 190,
    "windSpeed": 7,
    "windGust": null,
    "visibility": 6,
    "ceiling": null,
    "temp": 25,
    "dewpoint": 7,
    "altimeter": 29.74,
    "conditions": "",
    "observationTime": "2026-05-13T04:00:00.000Z"
  },
  "LHR": {
    "raw": "METAR EGLL 130350Z COR AUTO 27010KT 9999 NCD 10/05 Q1005 NOSIG",
    "icao": "EGLL",
    "flightCategory": "VFR",
    "windDir": 270,
    "windSpeed": 10,
    "windGust": null,
    "visibility": 6,
    "ceiling": null,
    "temp": 10,
    "dewpoint": 5,
    "altimeter": 29.68,
    "conditions": "",
    "observationTime": "2026-05-13T04:00:00.000Z"
  },
  "LAS": {
    "raw": "METAR KLAS 130356Z 19010G17KT 10SM SCT120 SCT220 36/M01 A2988 RMK AO2 SLP087 T03561006",
    "icao": "KLAS",
    "flightCategory": "VFR",
    "windDir": 190,
    "windSpeed": 10,
    "windGust": 17,
    "visibility": 10,
    "ceiling": null,
    "temp": 35.6,
    "dewpoint": -0.6,
    "altimeter": 29.88,
    "conditions": "",
    "observationTime": "2026-05-13T04:00:00.000Z"
  },
  "LAX": {
    "raw": "METAR KLAX 130353Z 25007KT 10SM FEW250 16/13 A3004 RMK AO2 SLP170 T01610128",
    "icao": "KLAX",
    "flightCategory": "VFR",
    "windDir": 250,
    "windSpeed": 7,
    "windGust": null,
    "visibility": 10,
    "ceiling": null,
    "temp": 16.1,
    "dewpoint": 12.8,
    "altimeter": 30.04,
    "conditions": "",
    "observationTime": "2026-05-13T04:00:00.000Z"
  },
  "ORD": {
    "raw": "METAR KORD 130351Z 25010KT 10SM CLR 18/09 A2978 RMK AO2 SLP082 T01830089 $",
    "icao": "KORD",
    "flightCategory": "VFR",
    "windDir": 250,
    "windSpeed": 10,
    "windGust": null,
    "visibility": 10,
    "ceiling": null,
    "temp": 18.3,
    "dewpoint": 8.9,
    "altimeter": 29.78,
    "conditions": "",
    "observationTime": "2026-05-13T04:00:00.000Z"
  }
}