{
  "LHR": {
    "raw": "METAR EGLL 091450Z AUTO 25019KT 9999 NCD 19/04 Q1014",
    "icao": "EGLL",
    "flightCategory": "VFR",
    "windDir": 250,
    "windSpeed": 19,
    "windGust": null,
    "visibility": 6,
    "ceiling": null,
    "temp": 19,
    "dewpoint": 4,
    "altimeter": 29.94,
    "conditions": "",
    "observationTime": "2026-06-09T15:00:00.000Z"
  },
  "LAX": {
    "raw": "METAR KLAX 091453Z 26003KT 9SM BKN014 18/14 A2990 RMK AO2 SLP125 BKN V SCT T01830144 51007 $",
    "icao": "KLAX",
    "flightCategory": "MVFR",
    "windDir": 260,
    "windSpeed": 3,
    "windGust": null,
    "visibility": 9,
    "ceiling": 1400,
    "temp": 18.3,
    "dewpoint": 14.4,
    "altimeter": 29.9,
    "conditions": "",
    "observationTime": "2026-06-09T15:00:00.000Z"
  },
  "SYD": {
    "raw": "METAR YSSY 091500Z AUTO 00000KT 9999 // SCT100 15/12 Q1028",
    "icao": "YSSY",
    "flightCategory": "VFR",
    "windDir": 0,
    "windSpeed": 0,
    "windGust": null,
    "visibility": 6,
    "ceiling": null,
    "temp": 15,
    "dewpoint": 12,
    "altimeter": 30.36,
    "conditions": "",
    "observationTime": "2026-06-09T15:00:00.000Z"
  },
  "LAS": {
    "raw": "METAR KLAS 091456Z 19011G20KT 10SM CLR 26/M02 A2982 RMK AO2 SLP070 T02611022 53010",
    "icao": "KLAS",
    "flightCategory": "VFR",
    "windDir": 190,
    "windSpeed": 11,
    "windGust": 20,
    "visibility": 10,
    "ceiling": null,
    "temp": 26.1,
    "dewpoint": -2.2,
    "altimeter": 29.82,
    "conditions": "",
    "observationTime": "2026-06-09T15:00:00.000Z"
  },
  "ORD": {
    "raw": "METAR KORD 091451Z 20008KT 10SM BKN011 OVC016 24/22 A2992 RMK AO2 RAE09 SLP127 P0001 60009 T02440222 58004",
    "icao": "KORD",
    "flightCategory": "MVFR",
    "windDir": 200,
    "windSpeed": 8,
    "windGust": null,
    "visibility": 10,
    "ceiling": 1100,
    "temp": 24.4,
    "dewpoint": 22.2,
    "altimeter": 29.92,
    "conditions": "",
    "observationTime": "2026-06-09T15:00:00.000Z"
  }
}