{
  "SYD": {
    "raw": "METAR YSSY 050700Z AUTO 16007KT 9999 // SCT062 BKN071 BKN081 19/13 Q1023",
    "icao": "YSSY",
    "flightCategory": "VFR",
    "windDir": 160,
    "windSpeed": 7,
    "windGust": null,
    "visibility": 6,
    "ceiling": 7100,
    "temp": 19,
    "dewpoint": 13,
    "altimeter": 30.21,
    "conditions": "",
    "observationTime": "2026-04-05T07:00:00.000Z"
  },
  "LHR": {
    "raw": "METAR EGLL 050720Z AUTO 24015KT 9999 BKN030/// //////TCU 09/04 Q1013 NOSIG",
    "icao": "EGLL",
    "flightCategory": "MVFR",
    "windDir": 240,
    "windSpeed": 15,
    "windGust": null,
    "visibility": 6,
    "ceiling": 3000,
    "temp": 9,
    "dewpoint": 4,
    "altimeter": 29.91,
    "conditions": "",
    "observationTime": "2026-04-05T07:20:00.000Z"
  },
  "LAS": {
    "raw": "METAR KLAS 050656Z 21003KT 10SM FEW250 18/M10 A3011 RMK AO2 SLP180 T01781100",
    "icao": "KLAS",
    "flightCategory": "VFR",
    "windDir": 210,
    "windSpeed": 3,
    "windGust": null,
    "visibility": 10,
    "ceiling": null,
    "temp": 17.8,
    "dewpoint": -10,
    "altimeter": 30.11,
    "conditions": "",
    "observationTime": "2026-04-05T07:00:00.000Z"
  },
  "LAX": {
    "raw": "METAR KLAX 050653Z 11003KT 10SM CLR 18/11 A2999 RMK AO2 SLP153 T01830106 $",
    "icao": "KLAX",
    "flightCategory": "VFR",
    "windDir": 110,
    "windSpeed": 3,
    "windGust": null,
    "visibility": 10,
    "ceiling": null,
    "temp": 18.3,
    "dewpoint": 10.6,
    "altimeter": 29.99,
    "conditions": "",
    "observationTime": "2026-04-05T07:00:00.000Z"
  },
  "ORD": {
    "raw": "METAR KORD 050651Z 27013G25KT 10SM FEW035 BKN050 04/M03 A2997 RMK AO2 SLP152 T00441028 $",
    "icao": "KORD",
    "flightCategory": "VFR",
    "windDir": 270,
    "windSpeed": 13,
    "windGust": 25,
    "visibility": 10,
    "ceiling": 5000,
    "temp": 4.4,
    "dewpoint": -2.8,
    "altimeter": 29.97,
    "conditions": "",
    "observationTime": "2026-04-05T07:00:00.000Z"
  }
}