{
  "SYD": {
    "raw": "METAR YSSY 170100Z 32007KT CAVOK 17/12 Q1027",
    "icao": "YSSY",
    "flightCategory": "VFR",
    "windDir": 320,
    "windSpeed": 7,
    "windGust": null,
    "visibility": 6,
    "ceiling": null,
    "temp": 17,
    "dewpoint": 12,
    "altimeter": 30.33,
    "conditions": "",
    "observationTime": "2026-06-17T01:00:00.000Z"
  },
  "LHR": {
    "raw": "METAR EGLL 170120Z AUTO 20007KT 9999 -RADZ FEW010 17/15 Q1016",
    "icao": "EGLL",
    "flightCategory": "VFR",
    "windDir": 200,
    "windSpeed": 7,
    "windGust": null,
    "visibility": 6,
    "ceiling": null,
    "temp": 17,
    "dewpoint": 15,
    "altimeter": 30,
    "conditions": "-RA -DZ",
    "observationTime": "2026-06-17T01:20:00.000Z"
  },
  "LAX": {
    "raw": "SPECI KLAX 170102Z 26013KT 10SM BKN009 19/15 A2992 RMK AO2 T01890150 $",
    "icao": "KLAX",
    "flightCategory": "IFR",
    "windDir": 260,
    "windSpeed": 13,
    "windGust": null,
    "visibility": 10,
    "ceiling": 900,
    "temp": 18.9,
    "dewpoint": 15,
    "altimeter": 29.92,
    "conditions": "",
    "observationTime": "2026-06-17T01:02:00.000Z"
  },
  "LAS": {
    "raw": "METAR KLAS 170056Z 21011G22KT 10SM FEW130 SCT200 42/M02 A2976 RMK AO2 SLP042 FU SCT200 T04171017",
    "icao": "KLAS",
    "flightCategory": "VFR",
    "windDir": 210,
    "windSpeed": 11,
    "windGust": 22,
    "visibility": 10,
    "ceiling": null,
    "temp": 41.7,
    "dewpoint": -1.7,
    "altimeter": 29.76,
    "conditions": "",
    "observationTime": "2026-06-17T01:00:00.000Z"
  }
}