{
  "SYD": {
    "raw": "METAR YSSY 180330Z AUTO 17012KT 9999 // NCD 18/09 Q1018",
    "icao": "YSSY",
    "flightCategory": "VFR",
    "windDir": 170,
    "windSpeed": 12,
    "windGust": null,
    "visibility": 6,
    "ceiling": null,
    "temp": 18,
    "dewpoint": 9,
    "altimeter": 30.06,
    "conditions": "",
    "observationTime": "2026-04-18T03:30:00.000Z"
  },
  "LAS": {
    "raw": "METAR KLAS 180356Z 04006KT 10SM CLR 18/M18 A3006 RMK AO2 SLP171 T01781183",
    "icao": "KLAS",
    "flightCategory": "VFR",
    "windDir": 40,
    "windSpeed": 6,
    "windGust": null,
    "visibility": 10,
    "ceiling": null,
    "temp": 17.8,
    "dewpoint": -18.3,
    "altimeter": 30.06,
    "conditions": "",
    "observationTime": "2026-04-18T04:00:00.000Z"
  },
  "LAX": {
    "raw": "METAR KLAX 180353Z 27005KT 10SM CLR 18/13 A2993 RMK AO2 SLP134 T01830128",
    "icao": "KLAX",
    "flightCategory": "VFR",
    "windDir": 270,
    "windSpeed": 5,
    "windGust": null,
    "visibility": 10,
    "ceiling": null,
    "temp": 18.3,
    "dewpoint": 12.8,
    "altimeter": 29.93,
    "conditions": "",
    "observationTime": "2026-04-18T04:00:00.000Z"
  },
  "ORD": {
    "raw": "SPECI KORD 180322Z 24010G16KT 5SM -TSRA BR FEW010 SCT040CB OVC085 17/16 A2965 RMK AO2 WSHFT 0239 CONS LTGICCG NE-S TS NE-S MOV NE P0011 T01720156 $",
    "icao": "KORD",
    "flightCategory": "MVFR",
    "windDir": 240,
    "windSpeed": 10,
    "windGust": 16,
    "visibility": 5,
    "ceiling": 8500,
    "temp": 17.2,
    "dewpoint": 15.6,
    "altimeter": 29.65,
    "conditions": "-TSRA BR",
    "observationTime": "2026-04-18T03:22:00.000Z"
  },
  "LHR": {
    "raw": "METAR EGLL 180320Z COR AUTO 28006KT 9999 NCD 10/08 Q1021 NOSIG",
    "icao": "EGLL",
    "flightCategory": "VFR",
    "windDir": 280,
    "windSpeed": 6,
    "windGust": null,
    "visibility": 6,
    "ceiling": null,
    "temp": 10,
    "dewpoint": 8,
    "altimeter": 30.15,
    "conditions": "",
    "observationTime": "2026-04-18T03:20:00.000Z"
  }
}