{
  "LAS": {
    "raw": "METAR KLAS 161556Z 17010G16KT 10SM CLR 27/M03 A2974 RMK AO2 SLP041 T02721028",
    "icao": "KLAS",
    "flightCategory": "VFR",
    "windDir": 170,
    "windSpeed": 10,
    "windGust": 16,
    "visibility": 10,
    "ceiling": null,
    "temp": 27.2,
    "dewpoint": -2.8,
    "altimeter": 29.74,
    "conditions": "",
    "observationTime": "2026-05-16T16:00:00.000Z"
  },
  "LAX": {
    "raw": "SPECI KLAX 161517Z 25007KT 10SM SCT024 BKN030 18/14 A2993 RMK AO2 T01780139",
    "icao": "KLAX",
    "flightCategory": "MVFR",
    "windDir": 250,
    "windSpeed": 7,
    "windGust": null,
    "visibility": 10,
    "ceiling": 3000,
    "temp": 17.8,
    "dewpoint": 13.9,
    "altimeter": 29.93,
    "conditions": "",
    "observationTime": "2026-05-16T15:17:00.000Z"
  },
  "ORD": {
    "raw": "METAR KORD 161551Z 22011KT 10SM FEW020 FEW090 SCT250 24/16 A2987 RMK AO2 SLP109 T02390156",
    "icao": "KORD",
    "flightCategory": "VFR",
    "windDir": 220,
    "windSpeed": 11,
    "windGust": null,
    "visibility": 10,
    "ceiling": null,
    "temp": 23.9,
    "dewpoint": 15.6,
    "altimeter": 29.87,
    "conditions": "",
    "observationTime": "2026-05-16T16:00:00.000Z"
  },
  "LHR": {
    "raw": "METAR EGLL 161520Z AUTO 24016KT 210V270 9999 BKN040 BKN048 14/05 Q1008",
    "icao": "EGLL",
    "flightCategory": "VFR",
    "windDir": 240,
    "windSpeed": 16,
    "windGust": null,
    "visibility": 6,
    "ceiling": 4000,
    "temp": 14,
    "dewpoint": 5,
    "altimeter": 29.77,
    "conditions": "",
    "observationTime": "2026-05-16T15:20:00.000Z"
  },
  "SYD": {
    "raw": "METAR YSSY 161530Z AUTO 24004KT 9999 // NCD 17/15 Q1022",
    "icao": "YSSY",
    "flightCategory": "VFR",
    "windDir": 240,
    "windSpeed": 4,
    "windGust": null,
    "visibility": 6,
    "ceiling": null,
    "temp": 17,
    "dewpoint": 15,
    "altimeter": 30.18,
    "conditions": "",
    "observationTime": "2026-05-16T15:30:00.000Z"
  }
}