{
  "LHR": {
    "raw": "METAR EGLL 271050Z AUTO 10011KT 9999 NCD 26/13 Q1025",
    "icao": "EGLL",
    "flightCategory": "VFR",
    "windDir": 100,
    "windSpeed": 11,
    "windGust": null,
    "visibility": 6,
    "ceiling": null,
    "temp": 26,
    "dewpoint": 13,
    "altimeter": 30.27,
    "conditions": "",
    "observationTime": "2026-05-27T11:00:00.000Z"
  },
  "SYD": {
    "raw": "METAR YSSY 271030Z AUTO 11005KT 9999 // OVC105 20/18 Q1017",
    "icao": "YSSY",
    "flightCategory": "VFR",
    "windDir": 110,
    "windSpeed": 5,
    "windGust": null,
    "visibility": 6,
    "ceiling": 10500,
    "temp": 20,
    "dewpoint": 18,
    "altimeter": 30.03,
    "conditions": "",
    "observationTime": "2026-05-27T10:30:00.000Z"
  },
  "LAS": {
    "raw": "METAR KLAS 271056Z 21006KT 10SM FEW080 FEW250 16/03 A2963 RMK AO2 PK WND 15027/1021 SLP013 T01560028",
    "icao": "KLAS",
    "flightCategory": "VFR",
    "windDir": 210,
    "windSpeed": 6,
    "windGust": null,
    "visibility": 10,
    "ceiling": null,
    "temp": 15.6,
    "dewpoint": 2.8,
    "altimeter": 29.63,
    "conditions": "",
    "observationTime": "2026-05-27T11:00:00.000Z"
  },
  "LAX": {
    "raw": "METAR KLAX 271053Z 35004KT 10SM BKN022 BKN034 14/10 A2979 RMK AO2 SLP087 T01440100 $",
    "icao": "KLAX",
    "flightCategory": "MVFR",
    "windDir": 350,
    "windSpeed": 4,
    "windGust": null,
    "visibility": 10,
    "ceiling": 2200,
    "temp": 14.4,
    "dewpoint": 10,
    "altimeter": 29.79,
    "conditions": "",
    "observationTime": "2026-05-27T11:00:00.000Z"
  },
  "ORD": {
    "raw": "METAR KORD 271051Z 00000KT 10SM SCT250 16/11 A2997 RMK AO2 SLP144 T01610111 $",
    "icao": "KORD",
    "flightCategory": "VFR",
    "windDir": 0,
    "windSpeed": 0,
    "windGust": null,
    "visibility": 10,
    "ceiling": null,
    "temp": 16.1,
    "dewpoint": 11.1,
    "altimeter": 29.97,
    "conditions": "",
    "observationTime": "2026-05-27T11:00:00.000Z"
  }
}