{
  "LHR": {
    "raw": "METAR EGLL 041950Z AUTO 28013KT 9999 NCD 24/15 Q1024",
    "icao": "EGLL",
    "flightCategory": "VFR",
    "windDir": 280,
    "windSpeed": 13,
    "windGust": null,
    "visibility": 6,
    "ceiling": null,
    "temp": 24,
    "dewpoint": 15,
    "altimeter": 30.24,
    "conditions": "",
    "observationTime": "2026-07-04T20:00:00.000Z"
  },
  "ORD": {
    "raw": "METAR KORD 041951Z 07012KT 10SM SCT035 BKN100 27/21 A2994 RMK AO2 WSHFT 1858 SLP133 OCNL LTGIC DSNT SW-NW CB DSNT SW-NW MOV E T02670206 $",
    "icao": "KORD",
    "flightCategory": "VFR",
    "windDir": 70,
    "windSpeed": 12,
    "windGust": null,
    "visibility": 10,
    "ceiling": 10000,
    "temp": 26.7,
    "dewpoint": 20.6,
    "altimeter": 29.94,
    "conditions": "",
    "observationTime": "2026-07-04T20:00:00.000Z"
  },
  "LAS": {
    "raw": "METAR KLAS 041956Z 06011G15KT 040V110 10SM FEW200 FEW250 38/M05 A2999 RMK AO2 SLP125 T03781050 $",
    "icao": "KLAS",
    "flightCategory": "VFR",
    "windDir": 60,
    "windSpeed": 11,
    "windGust": 15,
    "visibility": 10,
    "ceiling": null,
    "temp": 37.8,
    "dewpoint": -5,
    "altimeter": 29.99,
    "conditions": "",
    "observationTime": "2026-07-04T20:00:00.000Z"
  },
  "SYD": {
    "raw": "METAR YSSY 042000Z 33007KT 9999 VCSH FEW016 SCT030 BKN060 10/06 Q1031",
    "icao": "YSSY",
    "flightCategory": "VFR",
    "windDir": 330,
    "windSpeed": 7,
    "windGust": null,
    "visibility": 6,
    "ceiling": 6000,
    "temp": 10,
    "dewpoint": 6,
    "altimeter": 30.45,
    "conditions": "VCSH",
    "observationTime": "2026-07-04T20:00:00.000Z"
  },
  "LAX": {
    "raw": "METAR KLAX 041953Z 25008KT 10SM FEW140 BKN190 BKN240 22/16 A3003 RMK AO2 SLP169 T02220156 $",
    "icao": "KLAX",
    "flightCategory": "VFR",
    "windDir": 250,
    "windSpeed": 8,
    "windGust": null,
    "visibility": 10,
    "ceiling": 19000,
    "temp": 22.2,
    "dewpoint": 15.6,
    "altimeter": 30.03,
    "conditions": "",
    "observationTime": "2026-07-04T20:00:00.000Z"
  }
}