{
  "LHR": {
    "raw": "METAR EGLL 172250Z AUTO 29006KT 9999 OVC012 12/10 Q1020 BECMG OVC025",
    "icao": "EGLL",
    "flightCategory": "MVFR",
    "windDir": 290,
    "windSpeed": 6,
    "windGust": null,
    "visibility": 6,
    "ceiling": 1200,
    "temp": 12,
    "dewpoint": 10,
    "altimeter": 30.12,
    "conditions": "",
    "observationTime": "2026-04-17T23:00:00.000Z"
  },
  "SYD": {
    "raw": "METAR YSSY 172230Z AUTO 24012KT 9999 // NCD 15/05 Q1019",
    "icao": "YSSY",
    "flightCategory": "VFR",
    "windDir": 240,
    "windSpeed": 12,
    "windGust": null,
    "visibility": 6,
    "ceiling": null,
    "temp": 15,
    "dewpoint": 5,
    "altimeter": 30.09,
    "conditions": "",
    "observationTime": "2026-04-17T22:30:00.000Z"
  },
  "LAS": {
    "raw": "METAR KLAS 172256Z 05015G21KT 10SM CLR 20/M21 A3007 RMK AO2 SLP172 T02001211",
    "icao": "KLAS",
    "flightCategory": "VFR",
    "windDir": 50,
    "windSpeed": 15,
    "windGust": 21,
    "visibility": 10,
    "ceiling": null,
    "temp": 20,
    "dewpoint": -21.1,
    "altimeter": 30.07,
    "conditions": "",
    "observationTime": "2026-04-17T23:00:00.000Z"
  },
  "LAX": {
    "raw": "METAR KLAX 172253Z 27016KT 10SM FEW065 21/12 A2996 RMK AO2 SLP144 T02110122",
    "icao": "KLAX",
    "flightCategory": "VFR",
    "windDir": 270,
    "windSpeed": 16,
    "windGust": null,
    "visibility": 10,
    "ceiling": null,
    "temp": 21.1,
    "dewpoint": 12.2,
    "altimeter": 29.96,
    "conditions": "",
    "observationTime": "2026-04-17T23:00:00.000Z"
  },
  "ORD": {
    "raw": "METAR KORD 172251Z 17020G29KT 10SM SCT055 OVC250 26/16 A2965 RMK AO2 PK WND 15034/2239 SLP036 T02610161 $",
    "icao": "KORD",
    "flightCategory": "VFR",
    "windDir": 170,
    "windSpeed": 20,
    "windGust": 29,
    "visibility": 10,
    "ceiling": 25000,
    "temp": 26.1,
    "dewpoint": 16.1,
    "altimeter": 29.65,
    "conditions": "",
    "observationTime": "2026-04-17T23:00:00.000Z"
  }
}