{
  "SYD": {
    "raw": "METAR YSSY 210630Z AUTO 17013KT 9999 // BKN040 BKN047 OVC056 19/12 Q1025",
    "icao": "YSSY",
    "flightCategory": "VFR",
    "windDir": 170,
    "windSpeed": 13,
    "windGust": null,
    "visibility": 6,
    "ceiling": 4000,
    "temp": 19,
    "dewpoint": 12,
    "altimeter": 30.27,
    "conditions": "",
    "observationTime": "2026-04-21T06:30:00.000Z"
  },
  "LAS": {
    "raw": "METAR KLAS 210656Z 18006KT 10SM BKN250 25/M04 A2989 RMK AO2 SLP096 T02501044",
    "icao": "KLAS",
    "flightCategory": "VFR",
    "windDir": 180,
    "windSpeed": 6,
    "windGust": null,
    "visibility": 10,
    "ceiling": 25000,
    "temp": 25,
    "dewpoint": -4.4,
    "altimeter": 29.89,
    "conditions": "",
    "observationTime": "2026-04-21T07:00:00.000Z"
  },
  "LAX": {
    "raw": "METAR KLAX 210653Z 25007KT 10SM FEW018 SCT250 16/12 A3002 RMK AO2 SLP163 T01560122 $",
    "icao": "KLAX",
    "flightCategory": "VFR",
    "windDir": 250,
    "windSpeed": 7,
    "windGust": null,
    "visibility": 10,
    "ceiling": null,
    "temp": 15.6,
    "dewpoint": 12.2,
    "altimeter": 30.02,
    "conditions": "",
    "observationTime": "2026-04-21T07:00:00.000Z"
  },
  "ORD": {
    "raw": "METAR KORD 210651Z 19010G18KT 10SM BKN250 11/M02 A3007 RMK AO2 SLP184 T01061022 $",
    "icao": "KORD",
    "flightCategory": "VFR",
    "windDir": 190,
    "windSpeed": 10,
    "windGust": 18,
    "visibility": 10,
    "ceiling": 25000,
    "temp": 10.6,
    "dewpoint": -2.2,
    "altimeter": 30.07,
    "conditions": "",
    "observationTime": "2026-04-21T07:00:00.000Z"
  },
  "LHR": {
    "raw": "METAR EGLL 210620Z COR AUTO 06008KT 010V080 9999 FEW027 OVC049 08/05 Q1025 NOSIG",
    "icao": "EGLL",
    "flightCategory": "VFR",
    "windDir": 60,
    "windSpeed": 8,
    "windGust": null,
    "visibility": 6,
    "ceiling": 4900,
    "temp": 8,
    "dewpoint": 5,
    "altimeter": 30.27,
    "conditions": "",
    "observationTime": "2026-04-21T06:20:00.000Z"
  }
}