{
  "SYD": {
    "raw": "METAR YSSY 050230Z 20005KT 9999 FEW030 SCT050 BKN065 21/13 Q1025",
    "icao": "YSSY",
    "flightCategory": "VFR",
    "windDir": 200,
    "windSpeed": 5,
    "windGust": null,
    "visibility": 6,
    "ceiling": 6500,
    "temp": 21,
    "dewpoint": 13,
    "altimeter": 30.27,
    "conditions": "",
    "observationTime": "2026-04-05T02:30:00.000Z"
  },
  "LAS": {
    "raw": "METAR KLAS 050256Z 02006KT 10SM BKN250 23/M13 A3007 RMK AO2 SLP170 T02331133 56005",
    "icao": "KLAS",
    "flightCategory": "VFR",
    "windDir": 20,
    "windSpeed": 6,
    "windGust": null,
    "visibility": 10,
    "ceiling": 25000,
    "temp": 23.3,
    "dewpoint": -13.3,
    "altimeter": 30.07,
    "conditions": "",
    "observationTime": "2026-04-05T03:00:00.000Z"
  },
  "LAX": {
    "raw": "METAR KLAX 050253Z 25010KT 10SM FEW200 SCT250 22/03 A2995 RMK AO2 SLP141 T02170033 52001 $",
    "icao": "KLAX",
    "flightCategory": "VFR",
    "windDir": 250,
    "windSpeed": 10,
    "windGust": null,
    "visibility": 10,
    "ceiling": null,
    "temp": 21.7,
    "dewpoint": 3.3,
    "altimeter": 29.95,
    "conditions": "",
    "observationTime": "2026-04-05T03:00:00.000Z"
  },
  "ORD": {
    "raw": "METAR KORD 050251Z 25011G20KT 10SM FEW036 OVC050 05/M02 A2996 RMK AO2 PK WND 26030/0204 SLP149 T00501017 51012 $",
    "icao": "KORD",
    "flightCategory": "VFR",
    "windDir": 250,
    "windSpeed": 11,
    "windGust": 20,
    "visibility": 10,
    "ceiling": 5000,
    "temp": 5,
    "dewpoint": -1.7,
    "altimeter": 29.96,
    "conditions": "",
    "observationTime": "2026-04-05T03:00:00.000Z"
  },
  "LHR": {
    "raw": "METAR EGLL 050220Z COR AUTO 25020KT 9999 SCT037 BKN044 10/03 Q1009 NOSIG",
    "icao": "EGLL",
    "flightCategory": "VFR",
    "windDir": 250,
    "windSpeed": 20,
    "windGust": null,
    "visibility": 6,
    "ceiling": 4400,
    "temp": 10,
    "dewpoint": 3,
    "altimeter": 29.8,
    "conditions": "",
    "observationTime": "2026-04-05T02:20:00.000Z"
  }
}