{
  "SYD": {
    "raw": "METAR YSSY 310800Z AUTO 05013KT 9999 // NCD 23/15 Q1022",
    "icao": "YSSY",
    "flightCategory": "VFR",
    "windDir": 50,
    "windSpeed": 13,
    "windGust": null,
    "visibility": 6,
    "ceiling": null,
    "temp": 23,
    "dewpoint": 15,
    "altimeter": 30.18,
    "conditions": "",
    "observationTime": "2026-03-31T08:00:00.000Z"
  },
  "LHR": {
    "raw": "METAR EGLL 310750Z AUTO 28007KT 9999 BKN016 10/07 Q1030 TEMPO BKN014",
    "icao": "EGLL",
    "flightCategory": "MVFR",
    "windDir": 280,
    "windSpeed": 7,
    "windGust": null,
    "visibility": 6,
    "ceiling": 1600,
    "temp": 10,
    "dewpoint": 7,
    "altimeter": 30.42,
    "conditions": "",
    "observationTime": "2026-03-31T08:00:00.000Z"
  },
  "LAS": {
    "raw": "METAR KLAS 310756Z 21010G20KT 10SM SCT180 BKN220 24/M06 A2984 RMK AO2 SLP081 T02391056 403110217",
    "icao": "KLAS",
    "flightCategory": "VFR",
    "windDir": 210,
    "windSpeed": 10,
    "windGust": 20,
    "visibility": 10,
    "ceiling": 22000,
    "temp": 23.9,
    "dewpoint": -5.6,
    "altimeter": 29.84,
    "conditions": "",
    "observationTime": "2026-03-31T08:00:00.000Z"
  },
  "LAX": {
    "raw": "METAR KLAX 310753Z 16005KT 10SM BKN016 OVC250 18/14 A2995 RMK AO2 SLP141 T01830144 402110133",
    "icao": "KLAX",
    "flightCategory": "MVFR",
    "windDir": 160,
    "windSpeed": 5,
    "windGust": null,
    "visibility": 10,
    "ceiling": 1600,
    "temp": 18.3,
    "dewpoint": 14.4,
    "altimeter": 29.95,
    "conditions": "",
    "observationTime": "2026-03-31T08:00:00.000Z"
  },
  "ORD": {
    "raw": "METAR KORD 310751Z 21012G24KT 10SM FEW150 BKN250 20/13 A2976 RMK AO2 PK WND 21026/0710 SLP074 T02000133 $",
    "icao": "KORD",
    "flightCategory": "VFR",
    "windDir": 210,
    "windSpeed": 12,
    "windGust": 24,
    "visibility": 10,
    "ceiling": 25000,
    "temp": 20,
    "dewpoint": 13.3,
    "altimeter": 29.76,
    "conditions": "",
    "observationTime": "2026-03-31T08:00:00.000Z"
  }
}