{
  "LHR": {
    "raw": "METAR EGLL 291250Z COR AUTO 25019KT 9999 BKN041 OVC048 10/02 Q1027 NOSIG",
    "icao": "EGLL",
    "flightCategory": "VFR",
    "windDir": 250,
    "windSpeed": 19,
    "windGust": null,
    "visibility": 6,
    "ceiling": 4100,
    "temp": 10,
    "dewpoint": 2,
    "altimeter": 30.33,
    "conditions": "",
    "observationTime": "2026-03-29T13:00:00.000Z"
  },
  "LAX": {
    "raw": "SPECI KLAX 291236Z 26007KT 1/4SM R25L/0700V1000FT FG BKN001 15/14 A2988 RMK AO2 T01500144",
    "icao": "KLAX",
    "flightCategory": "LIFR",
    "windDir": 260,
    "windSpeed": 7,
    "windGust": null,
    "visibility": 0.25,
    "ceiling": 100,
    "temp": 15,
    "dewpoint": 14.4,
    "altimeter": 29.88,
    "conditions": "FG",
    "observationTime": "2026-03-29T12:36:00.000Z"
  },
  "SYD": {
    "raw": "METAR YSSY 291230Z AUTO 25005KT 9999 // FEW034 SCT055 20/14 Q1024",
    "icao": "YSSY",
    "flightCategory": "VFR",
    "windDir": 250,
    "windSpeed": 5,
    "windGust": null,
    "visibility": 6,
    "ceiling": null,
    "temp": 20,
    "dewpoint": 14,
    "altimeter": 30.24,
    "conditions": "",
    "observationTime": "2026-03-29T12:30:00.000Z"
  },
  "LAS": {
    "raw": "METAR KLAS 291256Z 27003KT 10SM SCT200 21/M04 A2993 RMK AO2 SLP112 T02061044 $",
    "icao": "KLAS",
    "flightCategory": "VFR",
    "windDir": 270,
    "windSpeed": 3,
    "windGust": null,
    "visibility": 10,
    "ceiling": null,
    "temp": 20.6,
    "dewpoint": -4.4,
    "altimeter": 29.93,
    "conditions": "",
    "observationTime": "2026-03-29T13:00:00.000Z"
  },
  "ORD": {
    "raw": "METAR KORD 291251Z 19010KT 10SM BKN110 BKN250 06/M03 A3022 RMK AO2 SLP236 T00611028 $",
    "icao": "KORD",
    "flightCategory": "VFR",
    "windDir": 190,
    "windSpeed": 10,
    "windGust": null,
    "visibility": 10,
    "ceiling": 11000,
    "temp": 6.1,
    "dewpoint": -2.8,
    "altimeter": 30.22,
    "conditions": "",
    "observationTime": "2026-03-29T13:00:00.000Z"
  }
}