{
  "LAX": {
    "raw": "METAR KLAX 140453Z 25008KT 10SM BKN008 20/18 A2997 RMK AO2 SLP146 T02000178 $",
    "icao": "KLAX",
    "flightCategory": "IFR",
    "windDir": 250,
    "windSpeed": 8,
    "windGust": null,
    "visibility": 10,
    "ceiling": 800,
    "temp": 20,
    "dewpoint": 17.8,
    "altimeter": 29.97,
    "conditions": "",
    "observationTime": "2026-07-14T05:00:00.000Z"
  },
  "SYD": {
    "raw": "METAR YSSY 140430Z 25011KT CAVOK 19/06 Q1020",
    "icao": "YSSY",
    "flightCategory": "VFR",
    "windDir": 250,
    "windSpeed": 11,
    "windGust": null,
    "visibility": 6,
    "ceiling": null,
    "temp": 19,
    "dewpoint": 6,
    "altimeter": 30.12,
    "conditions": "",
    "observationTime": "2026-07-14T04:30:00.000Z"
  },
  "LAS": {
    "raw": "METAR KLAS 140456Z 27006KT 10SM FEW100 SCT150 SCT200 36/12 A2997 RMK AO2 SLP116 T03560122 $",
    "icao": "KLAS",
    "flightCategory": "VFR",
    "windDir": 270,
    "windSpeed": 6,
    "windGust": null,
    "visibility": 10,
    "ceiling": null,
    "temp": 35.6,
    "dewpoint": 12.2,
    "altimeter": 29.97,
    "conditions": "",
    "observationTime": "2026-07-14T05:00:00.000Z"
  },
  "ORD": {
    "raw": "METAR KORD 140451Z 26004KT 10SM CLR 27/19 A3016 RMK AO2 SLP207 T02720194",
    "icao": "KORD",
    "flightCategory": "VFR",
    "windDir": 260,
    "windSpeed": 4,
    "windGust": null,
    "visibility": 10,
    "ceiling": null,
    "temp": 27.2,
    "dewpoint": 19.4,
    "altimeter": 30.16,
    "conditions": "",
    "observationTime": "2026-07-14T05:00:00.000Z"
  },
  "LHR": {
    "raw": "METAR EGLL 140420Z AUTO 05010KT 9999 OVC014 17/14 Q1021",
    "icao": "EGLL",
    "flightCategory": "MVFR",
    "windDir": 50,
    "windSpeed": 10,
    "windGust": null,
    "visibility": 6,
    "ceiling": 1400,
    "temp": 17,
    "dewpoint": 14,
    "altimeter": 30.15,
    "conditions": "",
    "observationTime": "2026-07-14T04:20:00.000Z"
  }
}