{
  "LHR": {
    "raw": "METAR EGLL 312050Z AUTO 27012KT 9999 NCD 18/09 Q1017",
    "icao": "EGLL",
    "flightCategory": "VFR",
    "windDir": 270,
    "windSpeed": 12,
    "windGust": null,
    "visibility": 6,
    "ceiling": null,
    "temp": 18,
    "dewpoint": 9,
    "altimeter": 30.03,
    "conditions": "",
    "observationTime": "2026-05-31T21:00:00.000Z"
  },
  "SYD": {
    "raw": "METAR YSSY 312100Z 27011KT CAVOK 10/05 Q1014",
    "icao": "YSSY",
    "flightCategory": "VFR",
    "windDir": 270,
    "windSpeed": 11,
    "windGust": null,
    "visibility": 6,
    "ceiling": null,
    "temp": 10,
    "dewpoint": 5,
    "altimeter": 29.94,
    "conditions": "",
    "observationTime": "2026-05-31T21:00:00.000Z"
  },
  "LAS": {
    "raw": "METAR KLAS 312056Z VRB04KT 10SM FEW120 32/M03 A2989 RMK AO2 SLP096 T03221033 58016",
    "icao": "KLAS",
    "flightCategory": "VFR",
    "windDir": null,
    "windSpeed": 4,
    "windGust": null,
    "visibility": 10,
    "ceiling": null,
    "temp": 32.2,
    "dewpoint": -3.3,
    "altimeter": 29.89,
    "conditions": "",
    "observationTime": "2026-05-31T21:00:00.000Z"
  },
  "LAX": {
    "raw": "METAR KLAX 312053Z 26012KT 10SM CLR 22/14 A2992 RMK AO2 SLP131 T02170144 58007 $",
    "icao": "KLAX",
    "flightCategory": "VFR",
    "windDir": 260,
    "windSpeed": 12,
    "windGust": null,
    "visibility": 10,
    "ceiling": null,
    "temp": 21.7,
    "dewpoint": 14.4,
    "altimeter": 29.92,
    "conditions": "",
    "observationTime": "2026-05-31T21:00:00.000Z"
  },
  "ORD": {
    "raw": "METAR KORD 312051Z 08008KT 10SM FEW150 SCT190 BKN300 23/07 A3000 RMK AO2 SLP159 T02280072 56024 $",
    "icao": "KORD",
    "flightCategory": "VFR",
    "windDir": 80,
    "windSpeed": 8,
    "windGust": null,
    "visibility": 10,
    "ceiling": 30000,
    "temp": 22.8,
    "dewpoint": 7.2,
    "altimeter": 30,
    "conditions": "",
    "observationTime": "2026-05-31T21:00:00.000Z"
  }
}