{
  "SYD": {
    "raw": "METAR YSSY 232030Z 26015KT CAVOK 08/00 Q1024",
    "icao": "YSSY",
    "flightCategory": "VFR",
    "windDir": 260,
    "windSpeed": 15,
    "windGust": null,
    "visibility": 6,
    "ceiling": null,
    "temp": 8,
    "dewpoint": 0,
    "altimeter": 30.24,
    "conditions": "",
    "observationTime": "2026-07-23T20:30:00.000Z"
  },
  "LAS": {
    "raw": "METAR KLAS 232056Z 08007KT 10SM FEW140 42/10 A2988 RMK AO2 SLP084 T04220100 58022",
    "icao": "KLAS",
    "flightCategory": "VFR",
    "windDir": 80,
    "windSpeed": 7,
    "windGust": null,
    "visibility": 10,
    "ceiling": null,
    "temp": 42.2,
    "dewpoint": 10,
    "altimeter": 29.88,
    "conditions": "",
    "observationTime": "2026-07-23T21:00:00.000Z"
  },
  "LAX": {
    "raw": "METAR KLAX 232053Z 25013KT 10SM FEW110 FEW280 27/17 A2986 RMK AO2 SLP108 T02670167 58010 $",
    "icao": "KLAX",
    "flightCategory": "VFR",
    "windDir": 250,
    "windSpeed": 13,
    "windGust": null,
    "visibility": 10,
    "ceiling": null,
    "temp": 26.7,
    "dewpoint": 16.7,
    "altimeter": 29.86,
    "conditions": "",
    "observationTime": "2026-07-23T21:00:00.000Z"
  },
  "ORD": {
    "raw": "METAR KORD 232051Z 07004KT 10SM BKN070 25/08 A3017 RMK AO2 SLP214 T02500083 58012 $",
    "icao": "KORD",
    "flightCategory": "VFR",
    "windDir": 70,
    "windSpeed": 4,
    "windGust": null,
    "visibility": 10,
    "ceiling": 7000,
    "temp": 25,
    "dewpoint": 8.3,
    "altimeter": 30.17,
    "conditions": "",
    "observationTime": "2026-07-23T21:00:00.000Z"
  },
  "LHR": {
    "raw": "METAR EGLL 232050Z AUTO 23009KT 9999 NCD 22/13 Q1021",
    "icao": "EGLL",
    "flightCategory": "VFR",
    "windDir": 230,
    "windSpeed": 9,
    "windGust": null,
    "visibility": 6,
    "ceiling": null,
    "temp": 22,
    "dewpoint": 13,
    "altimeter": 30.15,
    "conditions": "",
    "observationTime": "2026-07-23T21:00:00.000Z"
  }
}