{
  "HND": {
    "raw": "METAR RJTT 120730Z 19012KT 9999 FEW030 BKN/// 23/12 Q1010 NOSIG",
    "icao": "RJTT",
    "flightCategory": "VFR",
    "windDir": 190,
    "windSpeed": 12,
    "windGust": null,
    "visibility": 6,
    "ceiling": null,
    "temp": 23,
    "dewpoint": 12,
    "altimeter": 29.83,
    "conditions": "",
    "observationTime": "2026-05-12T07:30:00.000Z"
  },
  "LAS": {
    "raw": "METAR KLAS 120756Z 19006KT 10SM CLR 31/M06 A2994 RMK AO2 SLP107 T03061061 404000233",
    "icao": "KLAS",
    "flightCategory": "VFR",
    "windDir": 190,
    "windSpeed": 6,
    "windGust": null,
    "visibility": 10,
    "ceiling": null,
    "temp": 30.6,
    "dewpoint": -6.1,
    "altimeter": 29.94,
    "conditions": "",
    "observationTime": "2026-05-12T08:00:00.000Z"
  },
  "LAX": {
    "raw": "SPECI KLAX 120736Z 24008KT 1/4SM R25L/P6000FT FG VV001 14/13 A2995 RMK AO2 T01390133 $",
    "icao": "KLAX",
    "flightCategory": "LIFR",
    "windDir": 240,
    "windSpeed": 8,
    "windGust": null,
    "visibility": 0.25,
    "ceiling": 100,
    "temp": 13.9,
    "dewpoint": 13.3,
    "altimeter": 29.95,
    "conditions": "FG",
    "observationTime": "2026-05-12T07:36:00.000Z"
  },
  "ORD": {
    "raw": "METAR KORD 120751Z 13003KT 10SM CLR 06/00 A3015 RMK AO2 SLP212 T00560000 $",
    "icao": "KORD",
    "flightCategory": "VFR",
    "windDir": 130,
    "windSpeed": 3,
    "windGust": null,
    "visibility": 10,
    "ceiling": null,
    "temp": 5.6,
    "dewpoint": 0,
    "altimeter": 30.15,
    "conditions": "",
    "observationTime": "2026-05-12T08:00:00.000Z"
  },
  "LHR": {
    "raw": "METAR EGLL 120720Z COR AUTO 27008KT 9999 NCD 08/02 Q1016 NOSIG",
    "icao": "EGLL",
    "flightCategory": "VFR",
    "windDir": 270,
    "windSpeed": 8,
    "windGust": null,
    "visibility": 6,
    "ceiling": null,
    "temp": 8,
    "dewpoint": 2,
    "altimeter": 30,
    "conditions": "",
    "observationTime": "2026-05-12T07:20:00.000Z"
  }
}