{
  "SYD": {
    "raw": "METAR YSSY 211800Z AUTO 17012KT 9999 // OVC064 18/12 Q1025",
    "icao": "YSSY",
    "flightCategory": "VFR",
    "windDir": 170,
    "windSpeed": 12,
    "windGust": null,
    "visibility": 6,
    "ceiling": 6400,
    "temp": 18,
    "dewpoint": 12,
    "altimeter": 30.27,
    "conditions": "",
    "observationTime": "2026-04-21T18:00:00.000Z"
  },
  "LHR": {
    "raw": "METAR EGLL 211820Z COR AUTO 07010KT 9999 NCD 12/M02 Q1024 NOSIG",
    "icao": "EGLL",
    "flightCategory": "VFR",
    "windDir": 70,
    "windSpeed": 10,
    "windGust": null,
    "visibility": 6,
    "ceiling": null,
    "temp": 12,
    "dewpoint": -2,
    "altimeter": 30.24,
    "conditions": "",
    "observationTime": "2026-04-21T18:20:00.000Z"
  },
  "LAS": {
    "raw": "METAR KLAS 211756Z VRB06G15KT 10SM CLR 27/M02 A2990 RMK AO2 SLP104 T02671022 10267 20194 58003",
    "icao": "KLAS",
    "flightCategory": "VFR",
    "windDir": null,
    "windSpeed": 6,
    "windGust": 15,
    "visibility": 10,
    "ceiling": null,
    "temp": 26.7,
    "dewpoint": -2.2,
    "altimeter": 29.9,
    "conditions": "",
    "observationTime": "2026-04-21T18:00:00.000Z"
  },
  "LAX": {
    "raw": "METAR KLAX 211753Z 19004KT 8SM -RA FEW011 SCT027 OVC037 17/12 A3007 RMK AO2 RAB30 SLP180 P0001 60001 T01670117 10189 20133 53014 $",
    "icao": "KLAX",
    "flightCategory": "VFR",
    "windDir": 190,
    "windSpeed": 4,
    "windGust": null,
    "visibility": 8,
    "ceiling": 3700,
    "temp": 16.7,
    "dewpoint": 11.7,
    "altimeter": 30.07,
    "conditions": "-RA",
    "observationTime": "2026-04-21T18:00:00.000Z"
  },
  "ORD": {
    "raw": "METAR KORD 211751Z 21014G23KT 10SM FEW060 FEW110 SCT200 BKN300 22/09 A2986 RMK AO2 PK WND 23027/1703 SLP111 CB DSNT N MOV SE T02220094 10222 20111 58022 $",
    "icao": "KORD",
    "flightCategory": "VFR",
    "windDir": 210,
    "windSpeed": 14,
    "windGust": 23,
    "visibility": 10,
    "ceiling": 30000,
    "temp": 22.2,
    "dewpoint": 9.4,
    "altimeter": 29.86,
    "conditions": "",
    "observationTime": "2026-04-21T18:00:00.000Z"
  }
}