{
  "SYD": {
    "raw": "METAR YSSY 241530Z AUTO 00000KT 4000 BR ////// 17/17 Q1022",
    "icao": "YSSY",
    "flightCategory": "UNKNOWN",
    "windDir": 0,
    "windSpeed": 0,
    "windGust": null,
    "visibility": 2.49,
    "ceiling": null,
    "temp": 17,
    "dewpoint": 17,
    "altimeter": 30.18,
    "conditions": "BR",
    "observationTime": "2026-05-24T15:30:00.000Z"
  },
  "LAS": {
    "raw": "METAR KLAS 241556Z VRB04KT 10SM CLR 28/00 A3000 RMK AO2 SLP132 T02780000",
    "icao": "KLAS",
    "flightCategory": "VFR",
    "windDir": null,
    "windSpeed": 4,
    "windGust": null,
    "visibility": 10,
    "ceiling": null,
    "temp": 27.8,
    "dewpoint": 0,
    "altimeter": 30,
    "conditions": "",
    "observationTime": "2026-05-24T16:00:00.000Z"
  },
  "LAX": {
    "raw": "METAR KLAX 241553Z 23004KT 10SM BKN016 OVC019 16/12 A3004 RMK AO2 SLP170 T01610117 $",
    "icao": "KLAX",
    "flightCategory": "MVFR",
    "windDir": 230,
    "windSpeed": 4,
    "windGust": null,
    "visibility": 10,
    "ceiling": 1600,
    "temp": 16.1,
    "dewpoint": 11.7,
    "altimeter": 30.04,
    "conditions": "",
    "observationTime": "2026-05-24T16:00:00.000Z"
  },
  "ORD": {
    "raw": "SPECI KORD 241542Z 27003KT 10SM FEW009 BKN110 17/15 A3004 RMK AO2 RAE1454 P0000 T01720150 $",
    "icao": "KORD",
    "flightCategory": "VFR",
    "windDir": 270,
    "windSpeed": 3,
    "windGust": null,
    "visibility": 10,
    "ceiling": 11000,
    "temp": 17.2,
    "dewpoint": 15,
    "altimeter": 30.04,
    "conditions": "",
    "observationTime": "2026-05-24T15:42:00.000Z"
  },
  "LHR": {
    "raw": "METAR EGLL 241520Z AUTO VRB05KT 9999 NCD 31/11 Q1029",
    "icao": "EGLL",
    "flightCategory": "VFR",
    "windDir": null,
    "windSpeed": 5,
    "windGust": null,
    "visibility": 6,
    "ceiling": null,
    "temp": 31,
    "dewpoint": 11,
    "altimeter": 30.39,
    "conditions": "",
    "observationTime": "2026-05-24T15:20:00.000Z"
  }
}