{
  "SYD": {
    "raw": "METAR YSSY 182130Z 20006KT 9999 FEW035 BKN040 15/13 Q1033",
    "icao": "YSSY",
    "flightCategory": "VFR",
    "windDir": 200,
    "windSpeed": 6,
    "windGust": null,
    "visibility": 6,
    "ceiling": 4000,
    "temp": 15,
    "dewpoint": 13,
    "altimeter": 30.5,
    "conditions": "",
    "observationTime": "2026-07-18T21:30:00.000Z"
  },
  "LAS": {
    "raw": "METAR KLAS 182156Z VRB03KT 10SM FEW080 FEW150 SCT200 38/15 A2992 RMK AO2 SLP100 TCU DSNT ALQDS T03830150 $",
    "icao": "KLAS",
    "flightCategory": "VFR",
    "windDir": null,
    "windSpeed": 3,
    "windGust": null,
    "visibility": 10,
    "ceiling": null,
    "temp": 38.3,
    "dewpoint": 15,
    "altimeter": 29.92,
    "conditions": "",
    "observationTime": "2026-07-18T22:00:00.000Z"
  },
  "LAX": {
    "raw": "METAR KLAX 182153Z 26012KT 10SM FEW120 FEW180 SCT220 25/19 A2996 RMK AO2 SLP142 ACSL DSNT NE T02500189 $",
    "icao": "KLAX",
    "flightCategory": "VFR",
    "windDir": 260,
    "windSpeed": 12,
    "windGust": null,
    "visibility": 10,
    "ceiling": null,
    "temp": 25,
    "dewpoint": 18.9,
    "altimeter": 29.96,
    "conditions": "",
    "observationTime": "2026-07-18T22:00:00.000Z"
  },
  "ORD": {
    "raw": "SPECI KORD 182114Z 04014KT 10SM FEW042 FEW060 SCT250 32/21 A2985 RMK AO2 WSHFT 2057 T03170211 $",
    "icao": "KORD",
    "flightCategory": "VFR",
    "windDir": 40,
    "windSpeed": 14,
    "windGust": null,
    "visibility": 10,
    "ceiling": null,
    "temp": 31.7,
    "dewpoint": 21.1,
    "altimeter": 29.85,
    "conditions": "",
    "observationTime": "2026-07-18T21:14:00.000Z"
  },
  "LHR": {
    "raw": "METAR EGLL 182120Z AUTO 05007KT 9999 NCD 18/10 Q1022",
    "icao": "EGLL",
    "flightCategory": "VFR",
    "windDir": 50,
    "windSpeed": 7,
    "windGust": null,
    "visibility": 6,
    "ceiling": null,
    "temp": 18,
    "dewpoint": 10,
    "altimeter": 30.18,
    "conditions": "",
    "observationTime": "2026-07-18T21:20:00.000Z"
  }
}