{
  "SYD": {
    "raw": "METAR YSSY 090130Z 03008KT 9999 FEW022 20/13 Q1029",
    "icao": "YSSY",
    "flightCategory": "VFR",
    "windDir": 30,
    "windSpeed": 8,
    "windGust": null,
    "visibility": 6,
    "ceiling": null,
    "temp": 20,
    "dewpoint": 13,
    "altimeter": 30.39,
    "conditions": "",
    "observationTime": "2026-06-09T01:30:00.000Z"
  },
  "LAS": {
    "raw": "METAR KLAS 090156Z 23013G21KT 10SM FEW150 BKN200 BKN250 33/M03 A2974 RMK AO2 SLP044 ACSL ALQDS T03331028",
    "icao": "KLAS",
    "flightCategory": "VFR",
    "windDir": 230,
    "windSpeed": 13,
    "windGust": 21,
    "visibility": 10,
    "ceiling": 20000,
    "temp": 33.3,
    "dewpoint": -2.8,
    "altimeter": 29.74,
    "conditions": "",
    "observationTime": "2026-06-09T02:00:00.000Z"
  },
  "LAX": {
    "raw": "METAR KLAX 090153Z 25013KT 10SM FEW014 FEW250 18/14 A2990 RMK AO2 SLP122 T01780144 $",
    "icao": "KLAX",
    "flightCategory": "VFR",
    "windDir": 250,
    "windSpeed": 13,
    "windGust": null,
    "visibility": 10,
    "ceiling": null,
    "temp": 17.8,
    "dewpoint": 14.4,
    "altimeter": 29.9,
    "conditions": "",
    "observationTime": "2026-06-09T02:00:00.000Z"
  },
  "ORD": {
    "raw": "METAR KORD 090151Z 17009KT 10SM FEW030 SCT100 BKN140 BKN190 BKN250 24/21 A2994 RMK AO2 SLP135 T02390206",
    "icao": "KORD",
    "flightCategory": "VFR",
    "windDir": 170,
    "windSpeed": 9,
    "windGust": null,
    "visibility": 10,
    "ceiling": 14000,
    "temp": 23.9,
    "dewpoint": 20.6,
    "altimeter": 29.94,
    "conditions": "",
    "observationTime": "2026-06-09T02:00:00.000Z"
  },
  "LHR": {
    "raw": "METAR EGLL 090150Z AUTO 24007KT 9999 NCD 09/06 Q1015",
    "icao": "EGLL",
    "flightCategory": "VFR",
    "windDir": 240,
    "windSpeed": 7,
    "windGust": null,
    "visibility": 6,
    "ceiling": null,
    "temp": 9,
    "dewpoint": 6,
    "altimeter": 29.97,
    "conditions": "",
    "observationTime": "2026-06-09T02:00:00.000Z"
  }
}