{
  "LHR": {
    "raw": "METAR EGLL 141350Z AUTO 36005KT 310V060 9999 -RA FEW049 12/02 Q1001 TEMPO SHRA",
    "icao": "EGLL",
    "flightCategory": "VFR",
    "windDir": 360,
    "windSpeed": 5,
    "windGust": null,
    "visibility": 6,
    "ceiling": null,
    "temp": 12,
    "dewpoint": 2,
    "altimeter": 29.56,
    "conditions": "-RA",
    "observationTime": "2026-05-14T14:00:00.000Z"
  },
  "SYD": {
    "raw": "METAR YSSY 141400Z AUTO 27003KT 9999 // FEW039 SCT049 16/15 Q1030",
    "icao": "YSSY",
    "flightCategory": "VFR",
    "windDir": 270,
    "windSpeed": 3,
    "windGust": null,
    "visibility": 6,
    "ceiling": null,
    "temp": 16,
    "dewpoint": 15,
    "altimeter": 30.42,
    "conditions": "",
    "observationTime": "2026-05-14T14:00:00.000Z"
  },
  "LAS": {
    "raw": "METAR KLAS 141356Z 22004KT 10SM CLR 24/M01 A2992 RMK AO2 SLP105 T02391006",
    "icao": "KLAS",
    "flightCategory": "VFR",
    "windDir": 220,
    "windSpeed": 4,
    "windGust": null,
    "visibility": 10,
    "ceiling": null,
    "temp": 23.9,
    "dewpoint": -0.6,
    "altimeter": 29.92,
    "conditions": "",
    "observationTime": "2026-05-14T14:00:00.000Z"
  },
  "LAX": {
    "raw": "METAR KLAX 141353Z 04004KT 10SM FEW012 SCT018 OVC021 16/12 A3002 RMK AO2 SLP163 T01610122",
    "icao": "KLAX",
    "flightCategory": "MVFR",
    "windDir": 40,
    "windSpeed": 4,
    "windGust": null,
    "visibility": 10,
    "ceiling": 2100,
    "temp": 16.1,
    "dewpoint": 12.2,
    "altimeter": 30.02,
    "conditions": "",
    "observationTime": "2026-05-14T14:00:00.000Z"
  },
  "ORD": {
    "raw": "METAR KORD 141351Z 33005KT 10SM FEW300 14/02 A3014 RMK AO2 SLP208 T01390022 $",
    "icao": "KORD",
    "flightCategory": "VFR",
    "windDir": 330,
    "windSpeed": 5,
    "windGust": null,
    "visibility": 10,
    "ceiling": null,
    "temp": 13.9,
    "dewpoint": 2.2,
    "altimeter": 30.14,
    "conditions": "",
    "observationTime": "2026-05-14T14:00:00.000Z"
  }
}