{
  "ORD": {
    "raw": "METAR KORD 260151Z 02009KT 10SM FEW007 FEW180 SCT250 08/04 A3002 RMK AO2 SLP167 T00830044",
    "icao": "KORD",
    "flightCategory": "VFR",
    "windDir": 20,
    "windSpeed": 9,
    "windGust": null,
    "visibility": 10,
    "ceiling": null,
    "temp": 8.3,
    "dewpoint": 4.4,
    "altimeter": 30.02,
    "conditions": "",
    "observationTime": "2026-04-26T02:00:00.000Z"
  },
  "LHR": {
    "raw": "METAR EGLL 260120Z COR AUTO 07003KT 9999 NCD 08/02 Q1024 NOSIG",
    "icao": "EGLL",
    "flightCategory": "VFR",
    "windDir": 70,
    "windSpeed": 3,
    "windGust": null,
    "visibility": 6,
    "ceiling": null,
    "temp": 8,
    "dewpoint": 2,
    "altimeter": 30.24,
    "conditions": "",
    "observationTime": "2026-04-26T01:20:00.000Z"
  },
  "SYD": {
    "raw": "METAR YSSY 260100Z 33011KT 9999 FEW044 22/11 Q1025",
    "icao": "YSSY",
    "flightCategory": "VFR",
    "windDir": 330,
    "windSpeed": 11,
    "windGust": null,
    "visibility": 6,
    "ceiling": null,
    "temp": 22,
    "dewpoint": 11,
    "altimeter": 30.27,
    "conditions": "",
    "observationTime": "2026-04-26T01:00:00.000Z"
  },
  "LAS": {
    "raw": "METAR KLAS 260056Z 24014G22KT 210V270 10SM BKN120 OVC200 22/M02 A2965 RMK AO2 PK WND 22029/0017 SLP025 T02221022",
    "icao": "KLAS",
    "flightCategory": "VFR",
    "windDir": 240,
    "windSpeed": 14,
    "windGust": 22,
    "visibility": 10,
    "ceiling": 12000,
    "temp": 22.2,
    "dewpoint": -2.2,
    "altimeter": 29.65,
    "conditions": "",
    "observationTime": "2026-04-26T01:00:00.000Z"
  }
}