{
  "SYD": {
    "raw": "METAR YSSY 281130Z AUTO 30006KT 9999 // NCD 19/13 Q1026",
    "icao": "YSSY",
    "flightCategory": "VFR",
    "windDir": 300,
    "windSpeed": 6,
    "windGust": null,
    "visibility": 6,
    "ceiling": null,
    "temp": 19,
    "dewpoint": 13,
    "altimeter": 30.3,
    "conditions": "",
    "observationTime": "2026-04-28T11:30:00.000Z"
  },
  "LAS": {
    "raw": "METAR KLAS 281156Z 26003KT 10SM CLR 14/M01 A3001 RMK AO2 SLP150 T01391006 10178 20139 53005",
    "icao": "KLAS",
    "flightCategory": "VFR",
    "windDir": 260,
    "windSpeed": 3,
    "windGust": null,
    "visibility": 10,
    "ceiling": null,
    "temp": 13.9,
    "dewpoint": -0.6,
    "altimeter": 30.01,
    "conditions": "",
    "observationTime": "2026-04-28T12:00:00.000Z"
  },
  "LAX": {
    "raw": "METAR KLAX 281153Z 05004KT 10SM FEW200 FEW250 13/08 A3003 RMK AO2 SLP168 T01280083 10161 20117 55006 $",
    "icao": "KLAX",
    "flightCategory": "VFR",
    "windDir": 50,
    "windSpeed": 4,
    "windGust": null,
    "visibility": 10,
    "ceiling": null,
    "temp": 12.8,
    "dewpoint": 8.3,
    "altimeter": 30.03,
    "conditions": "",
    "observationTime": "2026-04-28T12:00:00.000Z"
  },
  "ORD": {
    "raw": "METAR KORD 281151Z 27010G21KT 10SM OVC020 11/06 A2981 RMK AO2 PK WND 27031/1052 SLP093 70092 T01060061 10156 20106 53034",
    "icao": "KORD",
    "flightCategory": "MVFR",
    "windDir": 270,
    "windSpeed": 10,
    "windGust": 21,
    "visibility": 10,
    "ceiling": 2000,
    "temp": 10.6,
    "dewpoint": 6.1,
    "altimeter": 29.81,
    "conditions": "",
    "observationTime": "2026-04-28T12:00:00.000Z"
  },
  "LHR": {
    "raw": "METAR EGLL 281120Z COR AUTO 05010KT 360V080 9999 OVC024 11/05 Q1025 NOSIG",
    "icao": "EGLL",
    "flightCategory": "MVFR",
    "windDir": 50,
    "windSpeed": 10,
    "windGust": null,
    "visibility": 6,
    "ceiling": 2400,
    "temp": 11,
    "dewpoint": 5,
    "altimeter": 30.27,
    "conditions": "",
    "observationTime": "2026-04-28T11:20:00.000Z"
  }
}