{
  "SYD": {
    "raw": "METAR YSSY 290500Z 07011KT 9999 FEW045 BKN300 24/15 Q1028",
    "icao": "YSSY",
    "flightCategory": "VFR",
    "windDir": 70,
    "windSpeed": 11,
    "windGust": null,
    "visibility": 6,
    "ceiling": 30000,
    "temp": 24,
    "dewpoint": 15,
    "altimeter": 30.36,
    "conditions": "",
    "observationTime": "2026-04-29T05:00:00.000Z"
  },
  "LHR": {
    "raw": "METAR EGLL 290450Z COR AUTO 06009KT 9999 NCD 09/04 Q1023 NOSIG",
    "icao": "EGLL",
    "flightCategory": "VFR",
    "windDir": 60,
    "windSpeed": 9,
    "windGust": null,
    "visibility": 6,
    "ceiling": null,
    "temp": 9,
    "dewpoint": 4,
    "altimeter": 30.21,
    "conditions": "",
    "observationTime": "2026-04-29T05:00:00.000Z"
  },
  "LAS": {
    "raw": "METAR KLAS 290456Z 00000KT 10SM CLR 22/M06 A2998 RMK AO2 SLP135 T02171056",
    "icao": "KLAS",
    "flightCategory": "VFR",
    "windDir": 0,
    "windSpeed": 0,
    "windGust": null,
    "visibility": 10,
    "ceiling": null,
    "temp": 21.7,
    "dewpoint": -5.6,
    "altimeter": 29.98,
    "conditions": "",
    "observationTime": "2026-04-29T05:00:00.000Z"
  },
  "LAX": {
    "raw": "METAR KLAX 290453Z 24008KT 10SM CLR 16/10 A3004 RMK AO2 SLP172 T01610100 $",
    "icao": "KLAX",
    "flightCategory": "VFR",
    "windDir": 240,
    "windSpeed": 8,
    "windGust": null,
    "visibility": 10,
    "ceiling": null,
    "temp": 16.1,
    "dewpoint": 10,
    "altimeter": 30.04,
    "conditions": "",
    "observationTime": "2026-04-29T05:00:00.000Z"
  },
  "ORD": {
    "raw": "METAR KORD 290451Z 34009KT 10SM FEW050 BKN130 BKN250 13/06 A2989 RMK AO2 SLP120 T01330056 $",
    "icao": "KORD",
    "flightCategory": "VFR",
    "windDir": 340,
    "windSpeed": 9,
    "windGust": null,
    "visibility": 10,
    "ceiling": 13000,
    "temp": 13.3,
    "dewpoint": 5.6,
    "altimeter": 29.89,
    "conditions": "",
    "observationTime": "2026-04-29T05:00:00.000Z"
  }
}