{
  "ORD": {
    "raw": "SPECI KORD 120037Z 05011KT 10SM TS FEW020 SCT040CB BKN085 BKN130 OVC250 23/19 A2961 RMK AO2 TSB36 FRQ LTGICCG SW TS SW MOV NE T02280194 $",
    "icao": "KORD",
    "flightCategory": "VFR",
    "windDir": 50,
    "windSpeed": 11,
    "windGust": null,
    "visibility": 10,
    "ceiling": 8500,
    "temp": 22.8,
    "dewpoint": 19.4,
    "altimeter": 29.61,
    "conditions": "TS",
    "observationTime": "2026-06-12T00:37:00.000Z"
  },
  "SYD": {
    "raw": "METAR YSSY 120000Z 21009KT 9999 SCT013 SCT022 BKN100 18/16 Q1033",
    "icao": "YSSY",
    "flightCategory": "VFR",
    "windDir": 210,
    "windSpeed": 9,
    "windGust": null,
    "visibility": 6,
    "ceiling": 10000,
    "temp": 18,
    "dewpoint": 16,
    "altimeter": 30.5,
    "conditions": "",
    "observationTime": "2026-06-12T00:00:00.000Z"
  },
  "LHR": {
    "raw": "METAR EGLL 120020Z AUTO 26013KT 9999 BKN013 16/14 Q1018",
    "icao": "EGLL",
    "flightCategory": "MVFR",
    "windDir": 260,
    "windSpeed": 13,
    "windGust": null,
    "visibility": 6,
    "ceiling": 1300,
    "temp": 16,
    "dewpoint": 14,
    "altimeter": 30.06,
    "conditions": "",
    "observationTime": "2026-06-12T00:20:00.000Z"
  },
  "LAS": {
    "raw": "METAR KLAS 112356Z 10004KT 10SM FEW250 38/M02 A2979 RMK AO2 SLP056 HAZY T03781022 10383 20333 56023",
    "icao": "KLAS",
    "flightCategory": "VFR",
    "windDir": 100,
    "windSpeed": 4,
    "windGust": null,
    "visibility": 10,
    "ceiling": null,
    "temp": 37.8,
    "dewpoint": -2.2,
    "altimeter": 29.79,
    "conditions": "",
    "observationTime": "2026-06-12T00:00:00.000Z"
  }
}