{
  "LAX": {
    "raw": "SPECI KLAX 100128Z 26010KT 10SM SCT009 SCT200 BKN250 18/16 A2993 RMK AO2 T01830161 $",
    "icao": "KLAX",
    "flightCategory": "VFR",
    "windDir": 260,
    "windSpeed": 10,
    "windGust": null,
    "visibility": 10,
    "ceiling": 25000,
    "temp": 18.3,
    "dewpoint": 16.1,
    "altimeter": 29.93,
    "conditions": "",
    "observationTime": "2026-04-10T01:28:00.000Z"
  },
  "ORD": {
    "raw": "METAR KORD 100151Z 02003KT 10SM BKN085 OVC100 14/07 A3010 RMK AO2 SLP193 T01440072",
    "icao": "KORD",
    "flightCategory": "VFR",
    "windDir": 20,
    "windSpeed": 3,
    "windGust": null,
    "visibility": 10,
    "ceiling": 8500,
    "temp": 14.4,
    "dewpoint": 7.2,
    "altimeter": 30.1,
    "conditions": "",
    "observationTime": "2026-04-10T02:00:00.000Z"
  },
  "LHR": {
    "raw": "METAR EGLL 100120Z COR AUTO 27013KT 9999 NCD 07/M00 Q1023 NOSIG",
    "icao": "EGLL",
    "flightCategory": "VFR",
    "windDir": 270,
    "windSpeed": 13,
    "windGust": null,
    "visibility": 6,
    "ceiling": null,
    "temp": 7,
    "dewpoint": 0,
    "altimeter": 30.21,
    "conditions": "",
    "observationTime": "2026-04-10T01:20:00.000Z"
  },
  "SYD": {
    "raw": "METAR YSSY 100100Z 29013KT CAVOK 29/13 Q1012",
    "icao": "YSSY",
    "flightCategory": "VFR",
    "windDir": 290,
    "windSpeed": 13,
    "windGust": null,
    "visibility": 6,
    "ceiling": null,
    "temp": 29,
    "dewpoint": 13,
    "altimeter": 29.88,
    "conditions": "",
    "observationTime": "2026-04-10T01:00:00.000Z"
  },
  "LAS": {
    "raw": "METAR KLAS 100056Z 23014KT 10SM FEW200 BKN220 28/M04 A2981 RMK AO2 SLP071 T02831039",
    "icao": "KLAS",
    "flightCategory": "VFR",
    "windDir": 230,
    "windSpeed": 14,
    "windGust": null,
    "visibility": 10,
    "ceiling": 22000,
    "temp": 28.3,
    "dewpoint": -3.9,
    "altimeter": 29.81,
    "conditions": "",
    "observationTime": "2026-04-10T01:00:00.000Z"
  }
}