{
  "SYD": {
    "raw": "SPECI YSSY 201723Z AUTO 25011KT 9999 // OVC057 16/12 Q1025",
    "icao": "YSSY",
    "flightCategory": "VFR",
    "windDir": 250,
    "windSpeed": 11,
    "windGust": null,
    "visibility": 6,
    "ceiling": 5700,
    "temp": 16,
    "dewpoint": 12,
    "altimeter": 30.27,
    "conditions": "",
    "observationTime": "2026-04-20T17:23:00.000Z"
  },
  "LAS": {
    "raw": "METAR KLAS 201756Z 06005KT 10SM FEW150 BKN250 27/M06 A2996 RMK AO2 SLP126 T02671056 10267 20172 51007",
    "icao": "KLAS",
    "flightCategory": "VFR",
    "windDir": 60,
    "windSpeed": 5,
    "windGust": null,
    "visibility": 10,
    "ceiling": 25000,
    "temp": 26.7,
    "dewpoint": -5.6,
    "altimeter": 29.96,
    "conditions": "",
    "observationTime": "2026-04-20T18:00:00.000Z"
  },
  "LAX": {
    "raw": "METAR KLAX 201753Z 26008KT 10SM FEW020 SCT150 21/12 A3002 RMK AO2 SLP163 T02060122 10206 20133 51006",
    "icao": "KLAX",
    "flightCategory": "VFR",
    "windDir": 260,
    "windSpeed": 8,
    "windGust": null,
    "visibility": 10,
    "ceiling": null,
    "temp": 20.6,
    "dewpoint": 12.2,
    "altimeter": 30.02,
    "conditions": "",
    "observationTime": "2026-04-20T18:00:00.000Z"
  },
  "ORD": {
    "raw": "METAR KORD 201751Z 20007KT 160V240 10SM FEW055 SCT250 11/M07 A3032 RMK AO2 SLP270 T01061067 10106 20028 58010 $",
    "icao": "KORD",
    "flightCategory": "VFR",
    "windDir": 200,
    "windSpeed": 7,
    "windGust": null,
    "visibility": 10,
    "ceiling": null,
    "temp": 10.6,
    "dewpoint": -6.7,
    "altimeter": 30.32,
    "conditions": "",
    "observationTime": "2026-04-20T18:00:00.000Z"
  },
  "LHR": {
    "raw": "METAR EGLL 201750Z COR AUTO 05006KT 020V080 9999 NCD 12/01 Q1023 NOSIG",
    "icao": "EGLL",
    "flightCategory": "VFR",
    "windDir": 50,
    "windSpeed": 6,
    "windGust": null,
    "visibility": 6,
    "ceiling": null,
    "temp": 12,
    "dewpoint": 1,
    "altimeter": 30.21,
    "conditions": "",
    "observationTime": "2026-04-20T18:00:00.000Z"
  }
}