{
  "SYD": {
    "raw": "METAR YSSY 011700Z AUTO 35005KT 9999 // OVC115 12/09 Q1008 RESHRA",
    "icao": "YSSY",
    "flightCategory": "VFR",
    "windDir": 350,
    "windSpeed": 5,
    "windGust": null,
    "visibility": 6,
    "ceiling": 11500,
    "temp": 12,
    "dewpoint": 9,
    "altimeter": 29.77,
    "conditions": "",
    "observationTime": "2026-06-01T17:00:00.000Z"
  },
  "LHR": {
    "raw": "METAR EGLL 011650Z AUTO 23015KT 190V260 9999 BKN025 20/13 Q1012",
    "icao": "EGLL",
    "flightCategory": "MVFR",
    "windDir": 230,
    "windSpeed": 15,
    "windGust": null,
    "visibility": 6,
    "ceiling": 2500,
    "temp": 20,
    "dewpoint": 13,
    "altimeter": 29.88,
    "conditions": "",
    "observationTime": "2026-06-01T17:00:00.000Z"
  },
  "LAX": {
    "raw": "METAR KLAX 011653Z 00000KT 10SM FEW009 BKN021 20/13 A2996 RMK AO2 SLP143 BKN V SCT T02000133 $",
    "icao": "KLAX",
    "flightCategory": "MVFR",
    "windDir": 0,
    "windSpeed": 0,
    "windGust": null,
    "visibility": 10,
    "ceiling": 2100,
    "temp": 20,
    "dewpoint": 13.3,
    "altimeter": 29.96,
    "conditions": "",
    "observationTime": "2026-06-01T17:00:00.000Z"
  },
  "LAS": {
    "raw": "METAR KLAS 011656Z 00000KT 10SM FEW250 31/M03 A2992 RMK AO2 SLP103 T03061033",
    "icao": "KLAS",
    "flightCategory": "VFR",
    "windDir": 0,
    "windSpeed": 0,
    "windGust": null,
    "visibility": 10,
    "ceiling": null,
    "temp": 30.6,
    "dewpoint": -3.3,
    "altimeter": 29.92,
    "conditions": "",
    "observationTime": "2026-06-01T17:00:00.000Z"
  },
  "ORD": {
    "raw": "METAR KORD 011651Z 03007KT 10SM OVC070 18/07 A3008 RMK AO2 SLP186 T01780067",
    "icao": "KORD",
    "flightCategory": "VFR",
    "windDir": 30,
    "windSpeed": 7,
    "windGust": null,
    "visibility": 10,
    "ceiling": 7000,
    "temp": 17.8,
    "dewpoint": 6.7,
    "altimeter": 30.08,
    "conditions": "",
    "observationTime": "2026-06-01T17:00:00.000Z"
  }
}