{
  "SYD": {
    "raw": "METAR YSSY 100230Z 30014KT CAVOK 29/13 Q1010",
    "icao": "YSSY",
    "flightCategory": "VFR",
    "windDir": 300,
    "windSpeed": 14,
    "windGust": null,
    "visibility": 6,
    "ceiling": null,
    "temp": 29,
    "dewpoint": 13,
    "altimeter": 29.83,
    "conditions": "",
    "observationTime": "2026-04-10T02:30:00.000Z"
  },
  "LAS": {
    "raw": "METAR KLAS 100256Z 20012G20KT 10SM FEW180 BKN220 27/00 A2979 RMK AO2 SLP066 T02720000 58004",
    "icao": "KLAS",
    "flightCategory": "VFR",
    "windDir": 200,
    "windSpeed": 12,
    "windGust": 20,
    "visibility": 10,
    "ceiling": 22000,
    "temp": 27.2,
    "dewpoint": 0,
    "altimeter": 29.79,
    "conditions": "",
    "observationTime": "2026-04-10T03:00:00.000Z"
  },
  "LAX": {
    "raw": "METAR KLAX 100253Z 23006KT 10SM FEW011 BKN250 18/16 A2993 RMK AO2 SLP133 T01780156 56000 $",
    "icao": "KLAX",
    "flightCategory": "VFR",
    "windDir": 230,
    "windSpeed": 6,
    "windGust": null,
    "visibility": 10,
    "ceiling": 25000,
    "temp": 17.8,
    "dewpoint": 15.6,
    "altimeter": 29.93,
    "conditions": "",
    "observationTime": "2026-04-10T03:00:00.000Z"
  },
  "ORD": {
    "raw": "METAR KORD 100251Z 29004KT 10SM FEW065 BKN080 OVC120 15/08 A3012 RMK AO2 SLP198 60000 T01500078 55005",
    "icao": "KORD",
    "flightCategory": "VFR",
    "windDir": 290,
    "windSpeed": 4,
    "windGust": null,
    "visibility": 10,
    "ceiling": 8000,
    "temp": 15,
    "dewpoint": 7.8,
    "altimeter": 30.12,
    "conditions": "",
    "observationTime": "2026-04-10T03:00:00.000Z"
  },
  "LHR": {
    "raw": "METAR EGLL 100220Z COR AUTO 30008KT 9999 NCD 07/M00 Q1022 NOSIG",
    "icao": "EGLL",
    "flightCategory": "VFR",
    "windDir": 300,
    "windSpeed": 8,
    "windGust": null,
    "visibility": 6,
    "ceiling": null,
    "temp": 7,
    "dewpoint": 0,
    "altimeter": 30.18,
    "conditions": "",
    "observationTime": "2026-04-10T02:20:00.000Z"
  }
}