{
  "SYD": {
    "raw": "METAR YSSY 240600Z 19014KT 9999 FEW040 SCT250 17/10 Q1029",
    "icao": "YSSY",
    "flightCategory": "VFR",
    "windDir": 190,
    "windSpeed": 14,
    "windGust": null,
    "visibility": 6,
    "ceiling": null,
    "temp": 17,
    "dewpoint": 10,
    "altimeter": 30.39,
    "conditions": "",
    "observationTime": "2026-06-24T06:00:00.000Z"
  },
  "LHR": {
    "raw": "METAR EGLL 240550Z AUTO 35003KT 310V040 9999 NCD 24/20 Q1017",
    "icao": "EGLL",
    "flightCategory": "VFR",
    "windDir": 350,
    "windSpeed": 3,
    "windGust": null,
    "visibility": 6,
    "ceiling": null,
    "temp": 24,
    "dewpoint": 20,
    "altimeter": 30.03,
    "conditions": "",
    "observationTime": "2026-06-24T06:00:00.000Z"
  },
  "LAS": {
    "raw": "METAR KLAS 240556Z 19013G20KT 10SM FEW120 SCT150 BKN170 37/08 A2994 RMK AO2 SLP105 VIRGA S-W-NW T03720078 10428 20367 51011",
    "icao": "KLAS",
    "flightCategory": "VFR",
    "windDir": 190,
    "windSpeed": 13,
    "windGust": 20,
    "visibility": 10,
    "ceiling": 17000,
    "temp": 37.2,
    "dewpoint": 7.8,
    "altimeter": 29.94,
    "conditions": "",
    "observationTime": "2026-06-24T06:00:00.000Z"
  },
  "LAX": {
    "raw": "METAR KLAX 240553Z 26009KT 10SM FEW007 SCT009 BKN011 18/16 A3003 RMK AO2 SLP167 T01780156 10211 20178 52012 $",
    "icao": "KLAX",
    "flightCategory": "MVFR",
    "windDir": 260,
    "windSpeed": 9,
    "windGust": null,
    "visibility": 10,
    "ceiling": 1100,
    "temp": 17.8,
    "dewpoint": 15.6,
    "altimeter": 30.03,
    "conditions": "",
    "observationTime": "2026-06-24T06:00:00.000Z"
  },
  "ORD": {
    "raw": "METAR KORD 240551Z 00000KT 10SM CLR 17/08 A3014 RMK AO2 SLP203 T01670078 10211 20167 402330122 58011 $",
    "icao": "KORD",
    "flightCategory": "VFR",
    "windDir": 0,
    "windSpeed": 0,
    "windGust": null,
    "visibility": 10,
    "ceiling": null,
    "temp": 16.7,
    "dewpoint": 7.8,
    "altimeter": 30.14,
    "conditions": "",
    "observationTime": "2026-06-24T06:00:00.000Z"
  }
}