{
  "LHR": {
    "raw": "METAR EGLL 241450Z AUTO 36007KT 330V040 9999 NCD 34/21 Q1017",
    "icao": "EGLL",
    "flightCategory": "VFR",
    "windDir": 360,
    "windSpeed": 7,
    "windGust": null,
    "visibility": 6,
    "ceiling": null,
    "temp": 34,
    "dewpoint": 21,
    "altimeter": 30.03,
    "conditions": "",
    "observationTime": "2026-06-24T15:00:00.000Z"
  },
  "SYD": {
    "raw": "METAR YSSY 241430Z AUTO 19014KT 9999 // SCT032 15/11 Q1031",
    "icao": "YSSY",
    "flightCategory": "VFR",
    "windDir": 190,
    "windSpeed": 14,
    "windGust": null,
    "visibility": 6,
    "ceiling": null,
    "temp": 15,
    "dewpoint": 11,
    "altimeter": 30.45,
    "conditions": "",
    "observationTime": "2026-06-24T14:30:00.000Z"
  },
  "LAS": {
    "raw": "METAR KLAS 241456Z 31015G19KT 10SM FEW055 SCT100 OVC120 31/14 A3000 RMK AO2 RAE00B43E52 SLP126 P0000 60001 T03110144 53017",
    "icao": "KLAS",
    "flightCategory": "VFR",
    "windDir": 310,
    "windSpeed": 15,
    "windGust": 19,
    "visibility": 10,
    "ceiling": 12000,
    "temp": 31.1,
    "dewpoint": 14.4,
    "altimeter": 30,
    "conditions": "",
    "observationTime": "2026-06-24T15:00:00.000Z"
  },
  "LAX": {
    "raw": "SPECI KLAX 241437Z 00000KT 6SM BR FEW006 OVC011 18/15 A3002 RMK AO2 T01780150 $",
    "icao": "KLAX",
    "flightCategory": "MVFR",
    "windDir": 0,
    "windSpeed": 0,
    "windGust": null,
    "visibility": 6,
    "ceiling": 1100,
    "temp": 17.8,
    "dewpoint": 15,
    "altimeter": 30.02,
    "conditions": "BR",
    "observationTime": "2026-06-24T14:37:00.000Z"
  },
  "ORD": {
    "raw": "METAR KORD 241451Z 21007KT 10SM FEW060 SCT090 BKN130 BKN250 22/14 A3005 RMK AO2 SLP172 T02170139 58016 $",
    "icao": "KORD",
    "flightCategory": "VFR",
    "windDir": 210,
    "windSpeed": 7,
    "windGust": null,
    "visibility": 10,
    "ceiling": 13000,
    "temp": 21.7,
    "dewpoint": 13.9,
    "altimeter": 30.05,
    "conditions": "",
    "observationTime": "2026-06-24T15:00:00.000Z"
  }
}