{
  "SYD": {
    "raw": "METAR YSSY 200900Z AUTO 26008KT 9999 // OVC074 17/08 Q1023",
    "icao": "YSSY",
    "flightCategory": "VFR",
    "windDir": 260,
    "windSpeed": 8,
    "windGust": null,
    "visibility": 6,
    "ceiling": 7400,
    "temp": 17,
    "dewpoint": 8,
    "altimeter": 30.21,
    "conditions": "",
    "observationTime": "2026-06-20T09:00:00.000Z"
  },
  "LHR": {
    "raw": "METAR EGLL 200920Z AUTO 22010KT 170V250 9999 BKN023 22/17 Q1018",
    "icao": "EGLL",
    "flightCategory": "MVFR",
    "windDir": 220,
    "windSpeed": 10,
    "windGust": null,
    "visibility": 6,
    "ceiling": 2300,
    "temp": 22,
    "dewpoint": 17,
    "altimeter": 30.06,
    "conditions": "",
    "observationTime": "2026-06-20T09:20:00.000Z"
  },
  "LAS": {
    "raw": "METAR KLAS 200856Z 14011G17KT 10SM CLR 28/M03 A2982 RMK A02 SLP068 T02831033 50001",
    "icao": "KLAS",
    "flightCategory": "VFR",
    "windDir": 140,
    "windSpeed": 11,
    "windGust": 17,
    "visibility": 10,
    "ceiling": null,
    "temp": 28.3,
    "dewpoint": -3.3,
    "altimeter": 29.82,
    "conditions": "",
    "observationTime": "2026-06-20T09:00:00.000Z"
  },
  "LAX": {
    "raw": "METAR KLAX 200853Z 09005KT 10SM CLR 16/13 A2996 RMK AO2 SLP144 T01560133 56009",
    "icao": "KLAX",
    "flightCategory": "VFR",
    "windDir": 90,
    "windSpeed": 5,
    "windGust": null,
    "visibility": 10,
    "ceiling": null,
    "temp": 15.6,
    "dewpoint": 13.3,
    "altimeter": 29.96,
    "conditions": "",
    "observationTime": "2026-06-20T09:00:00.000Z"
  }
}