{
  "SYD": {
    "raw": "METAR YSSY 241930Z AUTO 18019KT 9999 // BKN029 16/11 Q1031",
    "icao": "YSSY",
    "flightCategory": "MVFR",
    "windDir": 180,
    "windSpeed": 19,
    "windGust": null,
    "visibility": 6,
    "ceiling": 2900,
    "temp": 16,
    "dewpoint": 11,
    "altimeter": 30.45,
    "conditions": "",
    "observationTime": "2026-06-24T19:30:00.000Z"
  },
  "LAS": {
    "raw": "METAR KLAS 241956Z 00000KT 10SM SCT085 BKN120 32/13 A3000 RMK AO2 SLP128 VIRGA DSNT S T03220128",
    "icao": "KLAS",
    "flightCategory": "VFR",
    "windDir": 0,
    "windSpeed": 0,
    "windGust": null,
    "visibility": 10,
    "ceiling": 12000,
    "temp": 32.2,
    "dewpoint": 12.8,
    "altimeter": 30,
    "conditions": "",
    "observationTime": "2026-06-24T20:00:00.000Z"
  },
  "LAX": {
    "raw": "METAR KLAX 241953Z 27012KT 10SM FEW009 FEW018 SCT060 21/14 A3001 RMK AO2 SLP160 T02060144 $",
    "icao": "KLAX",
    "flightCategory": "VFR",
    "windDir": 270,
    "windSpeed": 12,
    "windGust": null,
    "visibility": 10,
    "ceiling": null,
    "temp": 20.6,
    "dewpoint": 14.4,
    "altimeter": 30.01,
    "conditions": "",
    "observationTime": "2026-06-24T20:00:00.000Z"
  },
  "ORD": {
    "raw": "SPECI KORD 241921Z VRB03KT 6SM -RA BR SCT012 BKN032 OVC045 19/17 A3002 RMK AO2 P0004 T01940172 $",
    "icao": "KORD",
    "flightCategory": "VFR",
    "windDir": null,
    "windSpeed": 3,
    "windGust": null,
    "visibility": 6,
    "ceiling": 3200,
    "temp": 19.4,
    "dewpoint": 17.2,
    "altimeter": 30.02,
    "conditions": "-RA BR",
    "observationTime": "2026-06-24T19:21:00.000Z"
  },
  "LHR": {
    "raw": "METAR EGLL 241950Z AUTO 05009KT 9999 NCD 30/21 Q1018",
    "icao": "EGLL",
    "flightCategory": "VFR",
    "windDir": 50,
    "windSpeed": 9,
    "windGust": null,
    "visibility": 6,
    "ceiling": null,
    "temp": 30,
    "dewpoint": 21,
    "altimeter": 30.06,
    "conditions": "",
    "observationTime": "2026-06-24T20:00:00.000Z"
  }
}