{
  "SYD": {
    "raw": "METAR YSSY 241330Z AUTO 33005KT 9999 // SCT030 18/16 Q1031",
    "icao": "YSSY",
    "flightCategory": "VFR",
    "windDir": 330,
    "windSpeed": 5,
    "windGust": null,
    "visibility": 6,
    "ceiling": null,
    "temp": 18,
    "dewpoint": 16,
    "altimeter": 30.45,
    "conditions": "",
    "observationTime": "2026-04-24T13:30:00.000Z"
  },
  "LAS": {
    "raw": "METAR KLAS 241356Z 20005KT 10SM SCT250 16/M09 A2986 RMK AO2 SLP097 T01561094 $",
    "icao": "KLAS",
    "flightCategory": "VFR",
    "windDir": 200,
    "windSpeed": 5,
    "windGust": null,
    "visibility": 10,
    "ceiling": null,
    "temp": 15.6,
    "dewpoint": -9.4,
    "altimeter": 29.86,
    "conditions": "",
    "observationTime": "2026-04-24T14:00:00.000Z"
  },
  "LAX": {
    "raw": "METAR KLAX 241353Z 09008KT 10SM FEW010 SCT018 SCT160 BKN200 15/11 A2992 RMK AO2 SLP131 T01500111 $",
    "icao": "KLAX",
    "flightCategory": "VFR",
    "windDir": 90,
    "windSpeed": 8,
    "windGust": null,
    "visibility": 10,
    "ceiling": 20000,
    "temp": 15,
    "dewpoint": 11.1,
    "altimeter": 29.92,
    "conditions": "",
    "observationTime": "2026-04-24T14:00:00.000Z"
  },
  "ORD": {
    "raw": "METAR KORD 241351Z 22009KT 10SM FEW035 SCT110 BKN200 BKN250 21/16 A2964 RMK AO2 SLP033 T02110156",
    "icao": "KORD",
    "flightCategory": "VFR",
    "windDir": 220,
    "windSpeed": 9,
    "windGust": null,
    "visibility": 10,
    "ceiling": 20000,
    "temp": 21.1,
    "dewpoint": 15.6,
    "altimeter": 29.64,
    "conditions": "",
    "observationTime": "2026-04-24T14:00:00.000Z"
  },
  "LHR": {
    "raw": "METAR EGLL 241320Z COR AUTO 07009KT 030V120 9999 NCD 19/M01 Q1024 NOSIG",
    "icao": "EGLL",
    "flightCategory": "VFR",
    "windDir": 70,
    "windSpeed": 9,
    "windGust": null,
    "visibility": 6,
    "ceiling": null,
    "temp": 19,
    "dewpoint": -1,
    "altimeter": 30.24,
    "conditions": "",
    "observationTime": "2026-04-24T13:20:00.000Z"
  }
}