{
  "LHR": {
    "raw": "METAR EGLL 020450Z 21006KT 180V240 3000 BR BKN002 10/09 Q1018 TEMPO 5000 HZ BKN004",
    "icao": "EGLL",
    "flightCategory": "LIFR",
    "windDir": 210,
    "windSpeed": 6,
    "windGust": null,
    "visibility": 1.86,
    "ceiling": 200,
    "temp": 10,
    "dewpoint": 9,
    "altimeter": 30.06,
    "conditions": "BR",
    "observationTime": "2026-05-02T05:00:00.000Z"
  },
  "SYD": {
    "raw": "METAR YSSY 020430Z 03019KT 9999 FEW030 BKN290 25/16 Q1023",
    "icao": "YSSY",
    "flightCategory": "VFR",
    "windDir": 30,
    "windSpeed": 19,
    "windGust": null,
    "visibility": 6,
    "ceiling": 29000,
    "temp": 25,
    "dewpoint": 16,
    "altimeter": 30.21,
    "conditions": "",
    "observationTime": "2026-05-02T04:30:00.000Z"
  },
  "LAS": {
    "raw": "METAR KLAS 020456Z 04005KT 10SM FEW250 26/M11 A2995 RMK AO2 SLP122 T02561106",
    "icao": "KLAS",
    "flightCategory": "VFR",
    "windDir": 40,
    "windSpeed": 5,
    "windGust": null,
    "visibility": 10,
    "ceiling": null,
    "temp": 25.6,
    "dewpoint": -10.6,
    "altimeter": 29.95,
    "conditions": "",
    "observationTime": "2026-05-02T05:00:00.000Z"
  },
  "LAX": {
    "raw": "METAR KLAX 020453Z 23008KT 10SM OVC010 15/13 A2995 RMK AO2 SLP138 T01500128",
    "icao": "KLAX",
    "flightCategory": "MVFR",
    "windDir": 230,
    "windSpeed": 8,
    "windGust": null,
    "visibility": 10,
    "ceiling": 1000,
    "temp": 15,
    "dewpoint": 12.8,
    "altimeter": 29.95,
    "conditions": "",
    "observationTime": "2026-05-02T05:00:00.000Z"
  },
  "ORD": {
    "raw": "METAR KORD 020451Z 23003KT 10SM CLR 02/M02 A3011 RMK AO2 SLP198 T00221022 $",
    "icao": "KORD",
    "flightCategory": "VFR",
    "windDir": 230,
    "windSpeed": 3,
    "windGust": null,
    "visibility": 10,
    "ceiling": null,
    "temp": 2.2,
    "dewpoint": -2.2,
    "altimeter": 30.11,
    "conditions": "",
    "observationTime": "2026-05-02T05:00:00.000Z"
  }
}