{
  "LAX": {
    "raw": "METAR KLAX 180853Z 16004KT 10SM SCT016 SCT150 22/18 A2998 RMK AO2 SLP149 T02170183 53002 $",
    "icao": "KLAX",
    "flightCategory": "VFR",
    "windDir": 160,
    "windSpeed": 4,
    "windGust": null,
    "visibility": 10,
    "ceiling": null,
    "temp": 21.7,
    "dewpoint": 18.3,
    "altimeter": 29.98,
    "conditions": "",
    "observationTime": "2026-07-18T09:00:00.000Z"
  },
  "ORD": {
    "raw": "METAR KORD 180851Z 25009KT 10SM FEW250 26/22 A2988 RMK AO2 SLP111 T02610222 55009 $",
    "icao": "KORD",
    "flightCategory": "VFR",
    "windDir": 250,
    "windSpeed": 9,
    "windGust": null,
    "visibility": 10,
    "ceiling": null,
    "temp": 26.1,
    "dewpoint": 22.2,
    "altimeter": 29.88,
    "conditions": "",
    "observationTime": "2026-07-18T09:00:00.000Z"
  },
  "LHR": {
    "raw": "METAR EGLL 180820Z AUTO 36007KT 310V050 9999 BKN025 17/11 Q1020",
    "icao": "EGLL",
    "flightCategory": "MVFR",
    "windDir": 360,
    "windSpeed": 7,
    "windGust": null,
    "visibility": 6,
    "ceiling": 2500,
    "temp": 17,
    "dewpoint": 11,
    "altimeter": 30.12,
    "conditions": "",
    "observationTime": "2026-07-18T08:20:00.000Z"
  },
  "SYD": {
    "raw": "METAR YSSY 180800Z AUTO 15009KT 9999 // OVC041 17/10 Q1031",
    "icao": "YSSY",
    "flightCategory": "VFR",
    "windDir": 150,
    "windSpeed": 9,
    "windGust": null,
    "visibility": 6,
    "ceiling": 4100,
    "temp": 17,
    "dewpoint": 10,
    "altimeter": 30.45,
    "conditions": "",
    "observationTime": "2026-07-18T08:00:00.000Z"
  }
}