{
  "SYD": {
    "raw": "METAR YSSY 271600Z AUTO 36004KT 9999 // SCT045 16/13 Q1025",
    "icao": "YSSY",
    "flightCategory": "VFR",
    "windDir": 360,
    "windSpeed": 4,
    "windGust": null,
    "visibility": 6,
    "ceiling": null,
    "temp": 16,
    "dewpoint": 13,
    "altimeter": 30.27,
    "conditions": "",
    "observationTime": "2026-04-27T16:00:00.000Z"
  },
  "LHR": {
    "raw": "METAR EGLL 271620Z COR AUTO 35007KT 310V030 9999 NCD 20/03 Q1022 NOSIG",
    "icao": "EGLL",
    "flightCategory": "VFR",
    "windDir": 350,
    "windSpeed": 7,
    "windGust": null,
    "visibility": 6,
    "ceiling": null,
    "temp": 20,
    "dewpoint": 3,
    "altimeter": 30.18,
    "conditions": "",
    "observationTime": "2026-04-27T16:20:00.000Z"
  },
  "LAS": {
    "raw": "METAR KLAS 271556Z 20012G19KT 10SM FEW065 FEW250 15/01 A2989 RMK AO2 SLP111 T01500006",
    "icao": "KLAS",
    "flightCategory": "VFR",
    "windDir": 200,
    "windSpeed": 12,
    "windGust": 19,
    "visibility": 10,
    "ceiling": null,
    "temp": 15,
    "dewpoint": 0.6,
    "altimeter": 29.89,
    "conditions": "",
    "observationTime": "2026-04-27T16:00:00.000Z"
  },
  "LAX": {
    "raw": "METAR KLAX 271553Z 28010KT 10SM FEW010 SCT035 SCT070 16/08 A3001 RMK AO2 SLP160 T01610083",
    "icao": "KLAX",
    "flightCategory": "VFR",
    "windDir": 280,
    "windSpeed": 10,
    "windGust": null,
    "visibility": 10,
    "ceiling": null,
    "temp": 16.1,
    "dewpoint": 8.3,
    "altimeter": 30.01,
    "conditions": "",
    "observationTime": "2026-04-27T16:00:00.000Z"
  },
  "ORD": {
    "raw": "METAR KORD 271551Z 14011KT 10SM FEW047 FEW075 OVC100 14/12 A2979 RMK AO2 RAE27 SLP089 P0003 T01390117 $",
    "icao": "KORD",
    "flightCategory": "VFR",
    "windDir": 140,
    "windSpeed": 11,
    "windGust": null,
    "visibility": 10,
    "ceiling": 10000,
    "temp": 13.9,
    "dewpoint": 11.7,
    "altimeter": 29.79,
    "conditions": "",
    "observationTime": "2026-04-27T16:00:00.000Z"
  }
}