{
  "SYD": {
    "raw": "METAR YSSY 121200Z AUTO 32010KT 9999 // NCD 12/02 Q1016",
    "icao": "YSSY",
    "flightCategory": "VFR",
    "windDir": 320,
    "windSpeed": 10,
    "windGust": null,
    "visibility": 6,
    "ceiling": null,
    "temp": 12,
    "dewpoint": 2,
    "altimeter": 30,
    "conditions": "",
    "observationTime": "2026-07-12T12:00:00.000Z"
  },
  "LHR": {
    "raw": "METAR EGLL 121150Z AUTO 06011KT 030V090 9999 NCD 29/15 Q1024",
    "icao": "EGLL",
    "flightCategory": "VFR",
    "windDir": 60,
    "windSpeed": 11,
    "windGust": null,
    "visibility": 6,
    "ceiling": null,
    "temp": 29,
    "dewpoint": 15,
    "altimeter": 30.24,
    "conditions": "",
    "observationTime": "2026-07-12T12:00:00.000Z"
  },
  "LAS": {
    "raw": "METAR KLAS 121156Z 17006KT 10SM CLR 33/09 A2991 RMK AO2 SLP094 T03330094 10372 20333 51013 $",
    "icao": "KLAS",
    "flightCategory": "VFR",
    "windDir": 170,
    "windSpeed": 6,
    "windGust": null,
    "visibility": 10,
    "ceiling": null,
    "temp": 33.3,
    "dewpoint": 9.4,
    "altimeter": 29.91,
    "conditions": "",
    "observationTime": "2026-07-12T12:00:00.000Z"
  },
  "LAX": {
    "raw": "METAR KLAX 121153Z 00000KT 10SM FEW011 FEW016 SCT150 BKN250 19/17 A2993 RMK AO2 SLP132 T01940172 10200 20194 53005 $",
    "icao": "KLAX",
    "flightCategory": "VFR",
    "windDir": 0,
    "windSpeed": 0,
    "windGust": null,
    "visibility": 10,
    "ceiling": 25000,
    "temp": 19.4,
    "dewpoint": 17.2,
    "altimeter": 29.93,
    "conditions": "",
    "observationTime": "2026-07-12T12:00:00.000Z"
  },
  "ORD": {
    "raw": "METAR KORD 121151Z 35004KT 10SM CLR 21/18 A3018 RMK AO2 SLP215 T02110183 10211 20194 53014 $",
    "icao": "KORD",
    "flightCategory": "VFR",
    "windDir": 350,
    "windSpeed": 4,
    "windGust": null,
    "visibility": 10,
    "ceiling": null,
    "temp": 21.1,
    "dewpoint": 18.3,
    "altimeter": 30.18,
    "conditions": "",
    "observationTime": "2026-07-12T12:00:00.000Z"
  }
}