{
  "SYD": {
    "raw": "METAR YSSY 070700Z AUTO 27021KT 9999 // NCD 14/M02 Q1016",
    "icao": "YSSY",
    "flightCategory": "VFR",
    "windDir": 270,
    "windSpeed": 21,
    "windGust": null,
    "visibility": 6,
    "ceiling": null,
    "temp": 14,
    "dewpoint": -2,
    "altimeter": 30,
    "conditions": "",
    "observationTime": "2026-05-07T07:00:00.000Z"
  },
  "LHR": {
    "raw": "METAR EGLL 070650Z AUTO 10003KT 070V140 9999 SCT015 BKN020 BKN024 10/07 Q1016 TEMPO BKN014",
    "icao": "EGLL",
    "flightCategory": "MVFR",
    "windDir": 100,
    "windSpeed": 3,
    "windGust": null,
    "visibility": 6,
    "ceiling": 2000,
    "temp": 10,
    "dewpoint": 7,
    "altimeter": 30,
    "conditions": "",
    "observationTime": "2026-05-07T07:00:00.000Z"
  },
  "LAS": {
    "raw": "METAR KLAS 070656Z 23004KT 10SM CLR 24/01 A2999 RMK AO2 SLP137 T02390006",
    "icao": "KLAS",
    "flightCategory": "VFR",
    "windDir": 230,
    "windSpeed": 4,
    "windGust": null,
    "visibility": 10,
    "ceiling": null,
    "temp": 23.9,
    "dewpoint": 0.6,
    "altimeter": 29.99,
    "conditions": "",
    "observationTime": "2026-05-07T07:00:00.000Z"
  },
  "LAX": {
    "raw": "METAR KLAX 070653Z 26005KT 10SM FEW008 FEW011 15/13 A3004 RMK AO2 SLP172 T01500133",
    "icao": "KLAX",
    "flightCategory": "VFR",
    "windDir": 260,
    "windSpeed": 5,
    "windGust": null,
    "visibility": 10,
    "ceiling": null,
    "temp": 15,
    "dewpoint": 13.3,
    "altimeter": 30.04,
    "conditions": "",
    "observationTime": "2026-05-07T07:00:00.000Z"
  },
  "ORD": {
    "raw": "METAR KORD 070651Z 27005KT 10SM FEW250 04/M03 A2998 RMK AO2 SLP154 T00441033",
    "icao": "KORD",
    "flightCategory": "VFR",
    "windDir": 270,
    "windSpeed": 5,
    "windGust": null,
    "visibility": 10,
    "ceiling": null,
    "temp": 4.4,
    "dewpoint": -3.3,
    "altimeter": 29.98,
    "conditions": "",
    "observationTime": "2026-05-07T07:00:00.000Z"
  }
}