{
  "SYD": {
    "raw": "METAR YSSY 161430Z AUTO 31005KT 9999 // NCD 18/14 Q1014",
    "icao": "YSSY",
    "flightCategory": "VFR",
    "windDir": 310,
    "windSpeed": 5,
    "windGust": null,
    "visibility": 6,
    "ceiling": null,
    "temp": 18,
    "dewpoint": 14,
    "altimeter": 29.94,
    "conditions": "",
    "observationTime": "2026-04-16T14:30:00.000Z"
  },
  "LAS": {
    "raw": "METAR KLAS 161456Z 19010G21KT 10SM SCT180 OVC250 19/M01 A2983 RMK AO2 SLP083 ACSL DSNT NW T01941006 51007",
    "icao": "KLAS",
    "flightCategory": "VFR",
    "windDir": 190,
    "windSpeed": 10,
    "windGust": 21,
    "visibility": 10,
    "ceiling": 25000,
    "temp": 19.4,
    "dewpoint": -0.6,
    "altimeter": 29.83,
    "conditions": "",
    "observationTime": "2026-04-16T15:00:00.000Z"
  },
  "LAX": {
    "raw": "SPECI KLAX 161434Z 00000KT 10SM FEW009 SCT012 BKN140 BKN180 16/13 A2993 RMK AO2 T01560128",
    "icao": "KLAX",
    "flightCategory": "VFR",
    "windDir": 0,
    "windSpeed": 0,
    "windGust": null,
    "visibility": 10,
    "ceiling": 14000,
    "temp": 15.6,
    "dewpoint": 12.8,
    "altimeter": 29.93,
    "conditions": "",
    "observationTime": "2026-04-16T14:34:00.000Z"
  },
  "ORD": {
    "raw": "SPECI KORD 161448Z 23013G23KT 10SM SCT016 BKN043 19/16 A2974 RMK AO2 $",
    "icao": "KORD",
    "flightCategory": "VFR",
    "windDir": 230,
    "windSpeed": 13,
    "windGust": 23,
    "visibility": 10,
    "ceiling": 4300,
    "temp": 19,
    "dewpoint": 16,
    "altimeter": 29.74,
    "conditions": "",
    "observationTime": "2026-04-16T14:48:00.000Z"
  },
  "LHR": {
    "raw": "METAR EGLL 161420Z COR AUTO 23014KT 200V260 9999 SCT036 SCT042 17/08 Q1019 NOSIG",
    "icao": "EGLL",
    "flightCategory": "VFR",
    "windDir": 230,
    "windSpeed": 14,
    "windGust": null,
    "visibility": 6,
    "ceiling": null,
    "temp": 17,
    "dewpoint": 8,
    "altimeter": 30.09,
    "conditions": "",
    "observationTime": "2026-04-16T14:20:00.000Z"
  }
}