{
  "SYD": {
    "raw": "SPECI YSSY 252200Z 31007KT 6000 +DZ VCSH FEW004 SCT022 BKN035 13/12 Q1033",
    "icao": "YSSY",
    "flightCategory": "MVFR",
    "windDir": 310,
    "windSpeed": 7,
    "windGust": null,
    "visibility": 3.73,
    "ceiling": 3500,
    "temp": 13,
    "dewpoint": 12,
    "altimeter": 30.5,
    "conditions": "+DZ VCSH",
    "observationTime": "2026-06-25T22:00:00.000Z"
  },
  "LHR": {
    "raw": "METAR EGLL 252150Z AUTO 08008KT 040V110 9999 NCD 24/19 Q1015",
    "icao": "EGLL",
    "flightCategory": "VFR",
    "windDir": 80,
    "windSpeed": 8,
    "windGust": null,
    "visibility": 6,
    "ceiling": null,
    "temp": 24,
    "dewpoint": 19,
    "altimeter": 29.97,
    "conditions": "",
    "observationTime": "2026-06-25T22:00:00.000Z"
  },
  "LAS": {
    "raw": "METAR KLAS 252156Z 24011G26KT 10SM FEW120 41/03 A2972 RMK AO2 PK WND 21028/2143 SLP030 T04110033",
    "icao": "KLAS",
    "flightCategory": "VFR",
    "windDir": 240,
    "windSpeed": 11,
    "windGust": 26,
    "visibility": 10,
    "ceiling": null,
    "temp": 41.1,
    "dewpoint": 3.3,
    "altimeter": 29.72,
    "conditions": "",
    "observationTime": "2026-06-25T22:00:00.000Z"
  },
  "LAX": {
    "raw": "METAR KLAX 252153Z 26012KT 10SM FEW010 22/14 A2991 RMK AO2 SLP128 T02170139",
    "icao": "KLAX",
    "flightCategory": "VFR",
    "windDir": 260,
    "windSpeed": 12,
    "windGust": null,
    "visibility": 10,
    "ceiling": null,
    "temp": 21.7,
    "dewpoint": 13.9,
    "altimeter": 29.91,
    "conditions": "",
    "observationTime": "2026-06-25T22:00:00.000Z"
  },
  "ORD": {
    "raw": "METAR KORD 252151Z 27013G19KT 10SM SCT065 BKN250 26/13 A2994 RMK AO2 SLP135 T02610128",
    "icao": "KORD",
    "flightCategory": "VFR",
    "windDir": 270,
    "windSpeed": 13,
    "windGust": 19,
    "visibility": 10,
    "ceiling": 25000,
    "temp": 26.1,
    "dewpoint": 12.8,
    "altimeter": 29.94,
    "conditions": "",
    "observationTime": "2026-06-25T22:00:00.000Z"
  }
}