{
  "SYD": {
    "raw": "METAR YSSY 241900Z AUTO 26004KT 9999 -SHRA FEW023 BKN029 OVC034 17/16 Q1021",
    "icao": "YSSY",
    "flightCategory": "MVFR",
    "windDir": 260,
    "windSpeed": 4,
    "windGust": null,
    "visibility": 6,
    "ceiling": 2900,
    "temp": 17,
    "dewpoint": 16,
    "altimeter": 30.15,
    "conditions": "-SHRA",
    "observationTime": "2026-05-24T19:00:00.000Z"
  },
  "LHR": {
    "raw": "METAR EGLL 241850Z AUTO 36004KT 330V030 9999 NCD 30/13 Q1029",
    "icao": "EGLL",
    "flightCategory": "VFR",
    "windDir": 360,
    "windSpeed": 4,
    "windGust": null,
    "visibility": 6,
    "ceiling": null,
    "temp": 30,
    "dewpoint": 13,
    "altimeter": 30.39,
    "conditions": "",
    "observationTime": "2026-05-24T19:00:00.000Z"
  },
  "LAS": {
    "raw": "METAR KLAS 241856Z 16010G18KT 10SM FEW130 FEW250 32/02 A2996 RMK AO2 SLP120 T03170022",
    "icao": "KLAS",
    "flightCategory": "VFR",
    "windDir": 160,
    "windSpeed": 10,
    "windGust": 18,
    "visibility": 10,
    "ceiling": null,
    "temp": 31.7,
    "dewpoint": 2.2,
    "altimeter": 29.96,
    "conditions": "",
    "observationTime": "2026-05-24T19:00:00.000Z"
  },
  "LAX": {
    "raw": "METAR KLAX 241853Z 25009KT 10SM SCT018 OVC022 18/12 A3004 RMK AO2 SLP170 T01780122 $",
    "icao": "KLAX",
    "flightCategory": "MVFR",
    "windDir": 250,
    "windSpeed": 9,
    "windGust": null,
    "visibility": 10,
    "ceiling": 2200,
    "temp": 17.8,
    "dewpoint": 12.2,
    "altimeter": 30.04,
    "conditions": "",
    "observationTime": "2026-05-24T19:00:00.000Z"
  },
  "ORD": {
    "raw": "METAR KORD 241851Z 34004KT 10SM FEW038 FEW110 22/12 A3003 RMK AO2 SLP167 T02220122 $",
    "icao": "KORD",
    "flightCategory": "VFR",
    "windDir": 340,
    "windSpeed": 4,
    "windGust": null,
    "visibility": 10,
    "ceiling": null,
    "temp": 22.2,
    "dewpoint": 12.2,
    "altimeter": 30.03,
    "conditions": "",
    "observationTime": "2026-05-24T19:00:00.000Z"
  }
}