{
  "SYD": {
    "raw": "METAR YSSY 050530Z 13009KT CAVOK 22/10 Q1017",
    "icao": "YSSY",
    "flightCategory": "VFR",
    "windDir": 130,
    "windSpeed": 9,
    "windGust": null,
    "visibility": 6,
    "ceiling": null,
    "temp": 22,
    "dewpoint": 10,
    "altimeter": 30.03,
    "conditions": "",
    "observationTime": "2026-05-05T05:30:00.000Z"
  },
  "LAS": {
    "raw": "METAR KLAS 050556Z 23015KT 10SM CLR 18/01 A2982 RMK AO2 SLP081 T01830006 10244 20183 51019",
    "icao": "KLAS",
    "flightCategory": "VFR",
    "windDir": 230,
    "windSpeed": 15,
    "windGust": null,
    "visibility": 10,
    "ceiling": null,
    "temp": 18.3,
    "dewpoint": 0.6,
    "altimeter": 29.82,
    "conditions": "",
    "observationTime": "2026-05-05T06:00:00.000Z"
  },
  "LAX": {
    "raw": "METAR KLAX 050553Z 27008KT 10SM SCT018 BKN075 BKN090 16/12 A2997 RMK AO2 SLP148 T01560117 10178 20150 50002",
    "icao": "KLAX",
    "flightCategory": "VFR",
    "windDir": 270,
    "windSpeed": 8,
    "windGust": null,
    "visibility": 10,
    "ceiling": 7500,
    "temp": 15.6,
    "dewpoint": 11.7,
    "altimeter": 29.97,
    "conditions": "",
    "observationTime": "2026-05-05T06:00:00.000Z"
  },
  "ORD": {
    "raw": "METAR KORD 050551Z 30009KT 10SM OVC100 16/M01 A2959 RMK AO2 SLP016 T01611011 10183 20161 402670106 53016",
    "icao": "KORD",
    "flightCategory": "VFR",
    "windDir": 300,
    "windSpeed": 9,
    "windGust": null,
    "visibility": 10,
    "ceiling": 10000,
    "temp": 16.1,
    "dewpoint": -1.1,
    "altimeter": 29.59,
    "conditions": "",
    "observationTime": "2026-05-05T06:00:00.000Z"
  },
  "LHR": {
    "raw": "METAR EGLL 050550Z COR AUTO 36005KT 320V030 9999 OVC036 11/08 Q1013 NOSIG",
    "icao": "EGLL",
    "flightCategory": "VFR",
    "windDir": 360,
    "windSpeed": 5,
    "windGust": null,
    "visibility": 6,
    "ceiling": 3600,
    "temp": 11,
    "dewpoint": 8,
    "altimeter": 29.91,
    "conditions": "",
    "observationTime": "2026-05-05T06:00:00.000Z"
  }
}