{
  "SYD": {
    "raw": "METAR YSSY 091230Z AUTO 28007KT 9999 // NCD 15/10 Q1026",
    "icao": "YSSY",
    "flightCategory": "VFR",
    "windDir": 280,
    "windSpeed": 7,
    "windGust": null,
    "visibility": 6,
    "ceiling": null,
    "temp": 15,
    "dewpoint": 10,
    "altimeter": 30.3,
    "conditions": "",
    "observationTime": "2026-05-09T12:30:00.000Z"
  },
  "LAS": {
    "raw": "METAR KLAS 091256Z 01003KT 10SM CLR 24/M01 A2986 RMK AO2 SLP084 T02391006",
    "icao": "KLAS",
    "flightCategory": "VFR",
    "windDir": 10,
    "windSpeed": 3,
    "windGust": null,
    "visibility": 10,
    "ceiling": null,
    "temp": 23.9,
    "dewpoint": -0.6,
    "altimeter": 29.86,
    "conditions": "",
    "observationTime": "2026-05-09T13:00:00.000Z"
  },
  "LAX": {
    "raw": "SPECI KLAX 091242Z 16005KT 5SM BR OVC009 16/14 A2992 RMK AO2 T01610139",
    "icao": "KLAX",
    "flightCategory": "IFR",
    "windDir": 160,
    "windSpeed": 5,
    "windGust": null,
    "visibility": 5,
    "ceiling": 900,
    "temp": 16.1,
    "dewpoint": 13.9,
    "altimeter": 29.92,
    "conditions": "BR",
    "observationTime": "2026-05-09T12:42:00.000Z"
  },
  "ORD": {
    "raw": "METAR KORD 091251Z 24010KT 10SM FEW110 SCT250 13/09 A2964 RMK AO2 SLP035 T01330094",
    "icao": "KORD",
    "flightCategory": "VFR",
    "windDir": 240,
    "windSpeed": 10,
    "windGust": null,
    "visibility": 10,
    "ceiling": null,
    "temp": 13.3,
    "dewpoint": 9.4,
    "altimeter": 29.64,
    "conditions": "",
    "observationTime": "2026-05-09T13:00:00.000Z"
  },
  "LHR": {
    "raw": "METAR EGLL 091220Z COR AUTO 09008KT 050V130 9999 NCD 20/05 Q1017 NOSIG",
    "icao": "EGLL",
    "flightCategory": "VFR",
    "windDir": 90,
    "windSpeed": 8,
    "windGust": null,
    "visibility": 6,
    "ceiling": null,
    "temp": 20,
    "dewpoint": 5,
    "altimeter": 30.03,
    "conditions": "",
    "observationTime": "2026-05-09T12:20:00.000Z"
  }
}