{
  "LHR": {
    "raw": "METAR EGLL 092350Z COR AUTO 27011KT 9999 NCD 08/M01 Q1022 NOSIG",
    "icao": "EGLL",
    "flightCategory": "VFR",
    "windDir": 270,
    "windSpeed": 11,
    "windGust": null,
    "visibility": 6,
    "ceiling": null,
    "temp": 8,
    "dewpoint": -1,
    "altimeter": 30.18,
    "conditions": "",
    "observationTime": "2026-04-10T00:00:00.000Z"
  },
  "SYD": {
    "raw": "METAR YSSY 092330Z 32008KT CAVOK 27/14 Q1013",
    "icao": "YSSY",
    "flightCategory": "VFR",
    "windDir": 320,
    "windSpeed": 8,
    "windGust": null,
    "visibility": 6,
    "ceiling": null,
    "temp": 27,
    "dewpoint": 14,
    "altimeter": 29.91,
    "conditions": "",
    "observationTime": "2026-04-09T23:30:00.000Z"
  },
  "LAS": {
    "raw": "METAR KLAS 092356Z 24014G28KT 10SM FEW200 BKN250 29/M04 A2980 RMK AO2 PK WND 26028/2352 SLP069 T02941039 10317 20272 56010",
    "icao": "KLAS",
    "flightCategory": "VFR",
    "windDir": 240,
    "windSpeed": 14,
    "windGust": 28,
    "visibility": 10,
    "ceiling": 25000,
    "temp": 29.4,
    "dewpoint": -3.9,
    "altimeter": 29.8,
    "conditions": "",
    "observationTime": "2026-04-10T00:00:00.000Z"
  },
  "LAX": {
    "raw": "METAR KLAX 092353Z 26008KT 10SM FEW015 FEW060 SCT200 BKN250 19/16 A2993 RMK AO2 SLP133 T01940156 10222 20194 57008 $",
    "icao": "KLAX",
    "flightCategory": "VFR",
    "windDir": 260,
    "windSpeed": 8,
    "windGust": null,
    "visibility": 10,
    "ceiling": 25000,
    "temp": 19.4,
    "dewpoint": 15.6,
    "altimeter": 29.93,
    "conditions": "",
    "observationTime": "2026-04-10T00:00:00.000Z"
  },
  "ORD": {
    "raw": "METAR KORD 092351Z 30010KT 10SM -RA BKN075 OVC250 18/06 A3013 RMK AO2 RAB2252E06B48 PRESRR SLP204 P0001 60001 T01830061 10211 20183 53010",
    "icao": "KORD",
    "flightCategory": "VFR",
    "windDir": 300,
    "windSpeed": 10,
    "windGust": null,
    "visibility": 10,
    "ceiling": 7500,
    "temp": 18.3,
    "dewpoint": 6.1,
    "altimeter": 30.13,
    "conditions": "-RA",
    "observationTime": "2026-04-10T00:00:00.000Z"
  }
}