{
  "SYD": {
    "raw": "METAR YSSY 090600Z 04012KT CAVOK 28/18 Q1013",
    "icao": "YSSY",
    "flightCategory": "VFR",
    "windDir": 40,
    "windSpeed": 12,
    "windGust": null,
    "visibility": 6,
    "ceiling": null,
    "temp": 28,
    "dewpoint": 18,
    "altimeter": 29.91,
    "conditions": "",
    "observationTime": "2026-04-09T06:00:00.000Z"
  },
  "LHR": {
    "raw": "METAR EGLL 090550Z COR AUTO 22004KT 200V270 9999 NCD 12/10 Q1018 NOSIG",
    "icao": "EGLL",
    "flightCategory": "VFR",
    "windDir": 220,
    "windSpeed": 4,
    "windGust": null,
    "visibility": 6,
    "ceiling": null,
    "temp": 12,
    "dewpoint": 10,
    "altimeter": 30.06,
    "conditions": "",
    "observationTime": "2026-04-09T06:00:00.000Z"
  },
  "ORD": {
    "raw": "METAR KORD 090551Z 20015G24KT 10SM OVC095 18/04 A2999 RMK AO2 PK WND 19032/0521 SLP154 T01780039 10211 20172 402170017 58003",
    "icao": "KORD",
    "flightCategory": "VFR",
    "windDir": 200,
    "windSpeed": 15,
    "windGust": 24,
    "visibility": 10,
    "ceiling": 9500,
    "temp": 17.8,
    "dewpoint": 3.9,
    "altimeter": 29.99,
    "conditions": "",
    "observationTime": "2026-04-09T06:00:00.000Z"
  },
  "LAS": {
    "raw": "METAR KLAS 090556Z 18007KT 10SM FEW250 26/M07 A2982 RMK AO2 SLP076 T02561067 10328 20256 51014",
    "icao": "KLAS",
    "flightCategory": "VFR",
    "windDir": 180,
    "windSpeed": 7,
    "windGust": null,
    "visibility": 10,
    "ceiling": null,
    "temp": 25.6,
    "dewpoint": -6.7,
    "altimeter": 29.82,
    "conditions": "",
    "observationTime": "2026-04-09T06:00:00.000Z"
  },
  "LAX": {
    "raw": "METAR KLAX 090553Z 22003KT 10SM FEW010 FEW250 17/15 A2992 RMK AO2 SLP128 T01720150 10200 20172 51012 $",
    "icao": "KLAX",
    "flightCategory": "VFR",
    "windDir": 220,
    "windSpeed": 3,
    "windGust": null,
    "visibility": 10,
    "ceiling": null,
    "temp": 17.2,
    "dewpoint": 15,
    "altimeter": 29.92,
    "conditions": "",
    "observationTime": "2026-04-09T06:00:00.000Z"
  }
}