{
  "LAX": {
    "raw": "METAR KLAX 062053Z 26015G24KT 10SM FEW011 FEW030 SCT180 22/14 A3001 RMK AO2 SLP163 T02170139 56006 $",
    "icao": "KLAX",
    "flightCategory": "VFR",
    "windDir": 260,
    "windSpeed": 15,
    "windGust": 24,
    "visibility": 10,
    "ceiling": null,
    "temp": 21.7,
    "dewpoint": 13.9,
    "altimeter": 30.01,
    "conditions": "",
    "observationTime": "2026-04-06T21:00:00.000Z"
  },
  "ORD": {
    "raw": "METAR KORD 062051Z 28014G20KT 10SM BKN055 10/M02 A3019 RMK AO2 SLP226 T01001022 58012 $",
    "icao": "KORD",
    "flightCategory": "VFR",
    "windDir": 280,
    "windSpeed": 14,
    "windGust": 20,
    "visibility": 10,
    "ceiling": 5500,
    "temp": 10,
    "dewpoint": -2.2,
    "altimeter": 30.19,
    "conditions": "",
    "observationTime": "2026-04-06T21:00:00.000Z"
  },
  "LHR": {
    "raw": "METAR EGLL 062020Z COR AUTO 13007KT 9999 NCD 09/M02 Q1024 NOSIG",
    "icao": "EGLL",
    "flightCategory": "VFR",
    "windDir": 130,
    "windSpeed": 7,
    "windGust": null,
    "visibility": 6,
    "ceiling": null,
    "temp": 9,
    "dewpoint": -2,
    "altimeter": 30.24,
    "conditions": "",
    "observationTime": "2026-04-06T20:20:00.000Z"
  },
  "SYD": {
    "raw": "METAR YSSY 062000Z 29006KT CAVOK 15/14 Q1012",
    "icao": "YSSY",
    "flightCategory": "VFR",
    "windDir": 290,
    "windSpeed": 6,
    "windGust": null,
    "visibility": 6,
    "ceiling": null,
    "temp": 15,
    "dewpoint": 14,
    "altimeter": 29.88,
    "conditions": "",
    "observationTime": "2026-04-06T20:00:00.000Z"
  }
}