{
  "LHR": {
    "raw": "METAR EGLL 032350Z COR AUTO 25013KT 9999 NCD 10/06 Q1016 NOSIG",
    "icao": "EGLL",
    "flightCategory": "VFR",
    "windDir": 250,
    "windSpeed": 13,
    "windGust": null,
    "visibility": 6,
    "ceiling": null,
    "temp": 10,
    "dewpoint": 6,
    "altimeter": 30,
    "conditions": "",
    "observationTime": "2026-04-04T00:00:00.000Z"
  },
  "ORD": {
    "raw": "METAR KORD 032351Z 06014G20KT 10SM FEW017 OVC025 06/02 A3010 RMK AO2 SLP197 T00610022 10144 20061 50004",
    "icao": "KORD",
    "flightCategory": "MVFR",
    "windDir": 60,
    "windSpeed": 14,
    "windGust": 20,
    "visibility": 10,
    "ceiling": 2500,
    "temp": 6.1,
    "dewpoint": 2.2,
    "altimeter": 30.1,
    "conditions": "",
    "observationTime": "2026-04-04T00:00:00.000Z"
  },
  "SYD": {
    "raw": "METAR YSSY 032330Z 16015KT 9999 -DZ FEW012 SCT020 BKN030 19/16 Q1026",
    "icao": "YSSY",
    "flightCategory": "MVFR",
    "windDir": 160,
    "windSpeed": 15,
    "windGust": null,
    "visibility": 6,
    "ceiling": 3000,
    "temp": 19,
    "dewpoint": 16,
    "altimeter": 30.3,
    "conditions": "-DZ",
    "observationTime": "2026-04-03T23:30:00.000Z"
  },
  "LAS": {
    "raw": "METAR KLAS 032356Z 03012G22KT 10SM FEW250 22/M14 A3017 RMK AO2 PK WND 04026/2310 SLP204 T02171139 10217 20167 56016",
    "icao": "KLAS",
    "flightCategory": "VFR",
    "windDir": 30,
    "windSpeed": 12,
    "windGust": 22,
    "visibility": 10,
    "ceiling": null,
    "temp": 21.7,
    "dewpoint": -13.9,
    "altimeter": 30.17,
    "conditions": "",
    "observationTime": "2026-04-04T00:00:00.000Z"
  },
  "LAX": {
    "raw": "METAR KLAX 032353Z 27012KT 10SM FEW240 BKN280 21/13 A2996 RMK AO2 SLP144 T02060133 10256 20200 58014 $",
    "icao": "KLAX",
    "flightCategory": "VFR",
    "windDir": 270,
    "windSpeed": 12,
    "windGust": null,
    "visibility": 10,
    "ceiling": 28000,
    "temp": 20.6,
    "dewpoint": 13.3,
    "altimeter": 29.96,
    "conditions": "",
    "observationTime": "2026-04-04T00:00:00.000Z"
  }
}