{
  "LHR": {
    "raw": "METAR EGLL 260750Z COR AUTO 09008KT 9999 NCD 12/07 Q1026 NOSIG",
    "icao": "EGLL",
    "flightCategory": "VFR",
    "windDir": 90,
    "windSpeed": 8,
    "windGust": null,
    "visibility": 6,
    "ceiling": null,
    "temp": 12,
    "dewpoint": 7,
    "altimeter": 30.3,
    "conditions": "",
    "observationTime": "2026-04-26T08:00:00.000Z"
  },
  "SYD": {
    "raw": "METAR YSSY 260730Z AUTO 03010KT 9999 // NCD 22/11 Q1022",
    "icao": "YSSY",
    "flightCategory": "VFR",
    "windDir": 30,
    "windSpeed": 10,
    "windGust": null,
    "visibility": 6,
    "ceiling": null,
    "temp": 22,
    "dewpoint": 11,
    "altimeter": 30.18,
    "conditions": "",
    "observationTime": "2026-04-26T07:30:00.000Z"
  },
  "LAS": {
    "raw": "METAR KLAS 260756Z 21012G20KT 10SM FEW090 SCT150 BKN200 14/04 A2969 RMK AO2 SLP038 T01390039 402500139",
    "icao": "KLAS",
    "flightCategory": "VFR",
    "windDir": 210,
    "windSpeed": 12,
    "windGust": 20,
    "visibility": 10,
    "ceiling": 20000,
    "temp": 13.9,
    "dewpoint": 3.9,
    "altimeter": 29.69,
    "conditions": "",
    "observationTime": "2026-04-26T08:00:00.000Z"
  },
  "LAX": {
    "raw": "SPECI KLAX 260751Z 21005KT 10SM -RA SCT027 BKN033 OVC055 13/12 A2989 RMK AO2 P0009",
    "icao": "KLAX",
    "flightCategory": "VFR",
    "windDir": 210,
    "windSpeed": 5,
    "windGust": null,
    "visibility": 10,
    "ceiling": 3300,
    "temp": 13,
    "dewpoint": 12,
    "altimeter": 29.89,
    "conditions": "-RA",
    "observationTime": "2026-04-26T07:51:00.000Z"
  },
  "ORD": {
    "raw": "METAR KORD 260751Z 09005KT 10SM CLR 06/04 A3000 RMK AO2 SLP162 T00560039",
    "icao": "KORD",
    "flightCategory": "VFR",
    "windDir": 90,
    "windSpeed": 5,
    "windGust": null,
    "visibility": 10,
    "ceiling": null,
    "temp": 5.6,
    "dewpoint": 3.9,
    "altimeter": 30,
    "conditions": "",
    "observationTime": "2026-04-26T08:00:00.000Z"
  }
}