{
  "LHR": {
    "raw": "METAR EGLL 160550Z AUTO 28007KT 9999 NCD 07/02 Q1008",
    "icao": "EGLL",
    "flightCategory": "VFR",
    "windDir": 280,
    "windSpeed": 7,
    "windGust": null,
    "visibility": 6,
    "ceiling": null,
    "temp": 7,
    "dewpoint": 2,
    "altimeter": 29.77,
    "conditions": "",
    "observationTime": "2026-05-16T06:00:00.000Z"
  },
  "SYD": {
    "raw": "METAR YSSY 160600Z 10009KT 9999 VCSH FEW015 SCT025 BKN250 20/16 Q1023",
    "icao": "YSSY",
    "flightCategory": "VFR",
    "windDir": 100,
    "windSpeed": 9,
    "windGust": null,
    "visibility": 6,
    "ceiling": 25000,
    "temp": 20,
    "dewpoint": 16,
    "altimeter": 30.21,
    "conditions": "VCSH",
    "observationTime": "2026-05-16T06:00:00.000Z"
  },
  "LAS": {
    "raw": "METAR KLAS 160556Z 21013G20KT 10SM CLR 31/M03 A2972 RMK AO2 SLP032 T03061028 10372 20306 51010",
    "icao": "KLAS",
    "flightCategory": "VFR",
    "windDir": 210,
    "windSpeed": 13,
    "windGust": 20,
    "visibility": 10,
    "ceiling": null,
    "temp": 30.6,
    "dewpoint": -2.8,
    "altimeter": 29.72,
    "conditions": "",
    "observationTime": "2026-05-16T06:00:00.000Z"
  },
  "LAX": {
    "raw": "METAR KLAX 160553Z 25007KT 10SM FEW013 SCT150 16/14 A2995 RMK AO2 SLP141 T01560139 10194 20156 52008",
    "icao": "KLAX",
    "flightCategory": "VFR",
    "windDir": 250,
    "windSpeed": 7,
    "windGust": null,
    "visibility": 10,
    "ceiling": null,
    "temp": 15.6,
    "dewpoint": 13.9,
    "altimeter": 29.95,
    "conditions": "",
    "observationTime": "2026-05-16T06:00:00.000Z"
  },
  "ORD": {
    "raw": "METAR KORD 160551Z 18011G19KT 10SM FEW180 BKN250 19/11 A2977 RMK AO2 SLP077 T01940106 10228 20189 402390117 58016",
    "icao": "KORD",
    "flightCategory": "VFR",
    "windDir": 180,
    "windSpeed": 11,
    "windGust": 19,
    "visibility": 10,
    "ceiling": 25000,
    "temp": 19.4,
    "dewpoint": 10.6,
    "altimeter": 29.77,
    "conditions": "",
    "observationTime": "2026-05-16T06:00:00.000Z"
  }
}