{
  "SYD": {
    "raw": "METAR YSSY 140530Z 09009KT CAVOK 22/10 Q1018",
    "icao": "YSSY",
    "flightCategory": "VFR",
    "windDir": 90,
    "windSpeed": 9,
    "windGust": null,
    "visibility": 6,
    "ceiling": null,
    "temp": 22,
    "dewpoint": 10,
    "altimeter": 30.06,
    "conditions": "",
    "observationTime": "2026-04-14T05:30:00.000Z"
  },
  "LAS": {
    "raw": "METAR KLAS 140556Z 19007KT 10SM OVC100 15/01 A2993 RMK AO2 RAE02 SLP122 P0000 60000 T01500006 10200 20139 51020",
    "icao": "KLAS",
    "flightCategory": "VFR",
    "windDir": 190,
    "windSpeed": 7,
    "windGust": null,
    "visibility": 10,
    "ceiling": 10000,
    "temp": 15,
    "dewpoint": 0.6,
    "altimeter": 29.93,
    "conditions": "",
    "observationTime": "2026-04-14T06:00:00.000Z"
  },
  "LAX": {
    "raw": "METAR KLAX 140553Z 25012KT 10SM CLR 15/11 A3007 RMK AO2 SLP179 T01500111 10189 20150 51014 $",
    "icao": "KLAX",
    "flightCategory": "VFR",
    "windDir": 250,
    "windSpeed": 12,
    "windGust": null,
    "visibility": 10,
    "ceiling": null,
    "temp": 15,
    "dewpoint": 11.1,
    "altimeter": 30.07,
    "conditions": "",
    "observationTime": "2026-04-14T06:00:00.000Z"
  },
  "ORD": {
    "raw": "METAR KORD 140551Z 21015G28KT 10SM FEW048 BKN250 22/17 A2975 RMK AO2 PK WND 21029/0510 SLP071 60000 T02220167 10233 20222 402610167 50001",
    "icao": "KORD",
    "flightCategory": "VFR",
    "windDir": 210,
    "windSpeed": 15,
    "windGust": 28,
    "visibility": 10,
    "ceiling": 25000,
    "temp": 22.2,
    "dewpoint": 16.7,
    "altimeter": 29.75,
    "conditions": "",
    "observationTime": "2026-04-14T06:00:00.000Z"
  },
  "LHR": {
    "raw": "METAR EGLL 140520Z COR AUTO 15004KT 120V230 9999 NCD 03/02 Q1017 NOSIG",
    "icao": "EGLL",
    "flightCategory": "VFR",
    "windDir": 150,
    "windSpeed": 4,
    "windGust": null,
    "visibility": 6,
    "ceiling": null,
    "temp": 3,
    "dewpoint": 2,
    "altimeter": 30.03,
    "conditions": "",
    "observationTime": "2026-04-14T05:20:00.000Z"
  }
}