{
  "SYD": {
    "raw": "METAR YSSY 292100Z 32005KT 9999 FEW035 18/16 Q1030",
    "icao": "YSSY",
    "flightCategory": "VFR",
    "windDir": 320,
    "windSpeed": 5,
    "windGust": null,
    "visibility": 6,
    "ceiling": null,
    "temp": 18,
    "dewpoint": 16,
    "altimeter": 30.42,
    "conditions": "",
    "observationTime": "2026-04-29T21:00:00.000Z"
  },
  "LHR": {
    "raw": "METAR EGLL 292120Z COR AUTO 07011KT 9999 NCD 12/01 Q1023 NOSIG",
    "icao": "EGLL",
    "flightCategory": "VFR",
    "windDir": 70,
    "windSpeed": 11,
    "windGust": null,
    "visibility": 6,
    "ceiling": null,
    "temp": 12,
    "dewpoint": 1,
    "altimeter": 30.21,
    "conditions": "",
    "observationTime": "2026-04-29T21:20:00.000Z"
  },
  "LAS": {
    "raw": "METAR KLAS 292056Z 06004KT 10SM FEW120 25/M05 A2997 RMK AO2 SLP129 T02501050 58022",
    "icao": "KLAS",
    "flightCategory": "VFR",
    "windDir": 60,
    "windSpeed": 4,
    "windGust": null,
    "visibility": 10,
    "ceiling": null,
    "temp": 25,
    "dewpoint": -5,
    "altimeter": 29.97,
    "conditions": "",
    "observationTime": "2026-04-29T21:00:00.000Z"
  },
  "LAX": {
    "raw": "METAR KLAX 292053Z 24014KT 10SM FEW140 20/12 A2999 RMK AO2 PK WND 20026/2016 SLP156 T02000117 56012",
    "icao": "KLAX",
    "flightCategory": "VFR",
    "windDir": 240,
    "windSpeed": 14,
    "windGust": null,
    "visibility": 10,
    "ceiling": null,
    "temp": 20,
    "dewpoint": 11.7,
    "altimeter": 29.99,
    "conditions": "",
    "observationTime": "2026-04-29T21:00:00.000Z"
  },
  "ORD": {
    "raw": "METAR KORD 292051Z 01013KT 10SM -RA SCT022 BKN037 OVC070 09/04 A2995 RMK AO2 RAB12E26B47 SLP144 P0000 60000 T00890044 51009",
    "icao": "KORD",
    "flightCategory": "VFR",
    "windDir": 10,
    "windSpeed": 13,
    "windGust": null,
    "visibility": 10,
    "ceiling": 3700,
    "temp": 8.9,
    "dewpoint": 4.4,
    "altimeter": 29.95,
    "conditions": "-RA",
    "observationTime": "2026-04-29T21:00:00.000Z"
  }
}