{
  "LHR": {
    "raw": "METAR EGLL 272050Z 23012KT CAVOK 24/16 Q1015",
    "icao": "EGLL",
    "flightCategory": "VFR",
    "windDir": 230,
    "windSpeed": 12,
    "windGust": null,
    "visibility": 6,
    "ceiling": null,
    "temp": 24,
    "dewpoint": 16,
    "altimeter": 29.97,
    "conditions": "",
    "observationTime": "2026-06-27T21:00:00.000Z"
  },
  "SYD": {
    "raw": "SPECI YSSY 272030Z 21012KT 6000 SHRA VCSH FEW008 SCT028 BKN045 13/13 Q1030",
    "icao": "YSSY",
    "flightCategory": "MVFR",
    "windDir": 210,
    "windSpeed": 12,
    "windGust": null,
    "visibility": 3.73,
    "ceiling": 4500,
    "temp": 13,
    "dewpoint": 13,
    "altimeter": 30.42,
    "conditions": "SHRA VCSH",
    "observationTime": "2026-06-27T20:30:00.000Z"
  },
  "LAS": {
    "raw": "METAR KLAS 272056Z 22019G26KT 10SM FEW230 34/05 A2972 RMK AO2 PK WND 23031/2025 SLP034 T03390050 56012",
    "icao": "KLAS",
    "flightCategory": "VFR",
    "windDir": 220,
    "windSpeed": 19,
    "windGust": 26,
    "visibility": 10,
    "ceiling": null,
    "temp": 33.9,
    "dewpoint": 5,
    "altimeter": 29.72,
    "conditions": "",
    "observationTime": "2026-06-27T21:00:00.000Z"
  },
  "LAX": {
    "raw": "METAR KLAX 272053Z 24013KT 10SM FEW016 SCT024 22/14 A2996 RMK AO2 SLP144 T02220139 56006",
    "icao": "KLAX",
    "flightCategory": "VFR",
    "windDir": 240,
    "windSpeed": 13,
    "windGust": null,
    "visibility": 10,
    "ceiling": null,
    "temp": 22.2,
    "dewpoint": 13.9,
    "altimeter": 29.96,
    "conditions": "",
    "observationTime": "2026-06-27T21:00:00.000Z"
  },
  "ORD": {
    "raw": "METAR KORD 272051Z 06010KT 10SM FEW025 FEW070 BKN250 24/17 A2996 RMK AO2 SLP141 T02390167 56012 $",
    "icao": "KORD",
    "flightCategory": "VFR",
    "windDir": 60,
    "windSpeed": 10,
    "windGust": null,
    "visibility": 10,
    "ceiling": 25000,
    "temp": 23.9,
    "dewpoint": 16.7,
    "altimeter": 29.96,
    "conditions": "",
    "observationTime": "2026-06-27T21:00:00.000Z"
  }
}