{
  "LAX": {
    "raw": "METAR KLAX 100953Z 27006KT 10SM BKN008 BKN012 16/13 A2995 RMK AO2 SLP138 T01560133 $",
    "icao": "KLAX",
    "flightCategory": "IFR",
    "windDir": 270,
    "windSpeed": 6,
    "windGust": null,
    "visibility": 10,
    "ceiling": 800,
    "temp": 15.6,
    "dewpoint": 13.3,
    "altimeter": 29.95,
    "conditions": "",
    "observationTime": "2026-04-10T10:00:00.000Z"
  },
  "ORD": {
    "raw": "SPECI KORD 100901Z 09006KT 5SM -RA BR SCT005 BKN039 OVC050 07/06 A3008 RMK AO2 P0000 T00670056",
    "icao": "KORD",
    "flightCategory": "MVFR",
    "windDir": 90,
    "windSpeed": 6,
    "windGust": null,
    "visibility": 5,
    "ceiling": 3900,
    "temp": 6.7,
    "dewpoint": 5.6,
    "altimeter": 30.08,
    "conditions": "-RA BR",
    "observationTime": "2026-04-10T09:01:00.000Z"
  },
  "LHR": {
    "raw": "METAR EGLL 100920Z COR AUTO 24005KT 200V300 9999 NCD 09/01 Q1021 NOSIG",
    "icao": "EGLL",
    "flightCategory": "VFR",
    "windDir": 240,
    "windSpeed": 5,
    "windGust": null,
    "visibility": 6,
    "ceiling": null,
    "temp": 9,
    "dewpoint": 1,
    "altimeter": 30.15,
    "conditions": "",
    "observationTime": "2026-04-10T09:20:00.000Z"
  },
  "SYD": {
    "raw": "METAR YSSY 100900Z AUTO 02014KT 9999 // NCD 27/16 Q1008",
    "icao": "YSSY",
    "flightCategory": "VFR",
    "windDir": 20,
    "windSpeed": 14,
    "windGust": null,
    "visibility": 6,
    "ceiling": null,
    "temp": 27,
    "dewpoint": 16,
    "altimeter": 29.77,
    "conditions": "",
    "observationTime": "2026-04-10T09:00:00.000Z"
  }
}