{
  "LAX": {
    "raw": "METAR KLAX 251853Z 27007KT 10SM FEW009 BKN025 21/14 A2996 RMK AO2 SLP143 T02110139",
    "icao": "KLAX",
    "flightCategory": "MVFR",
    "windDir": 270,
    "windSpeed": 7,
    "windGust": null,
    "visibility": 10,
    "ceiling": 2500,
    "temp": 21.1,
    "dewpoint": 13.9,
    "altimeter": 29.96,
    "conditions": "",
    "observationTime": "2026-06-25T19:00:00.000Z"
  },
  "SYD": {
    "raw": "METAR YSSY 251830Z AUTO 25008KT 9999 // OVC053 12/11 Q1032",
    "icao": "YSSY",
    "flightCategory": "VFR",
    "windDir": 250,
    "windSpeed": 8,
    "windGust": null,
    "visibility": 6,
    "ceiling": 5300,
    "temp": 12,
    "dewpoint": 11,
    "altimeter": 30.47,
    "conditions": "",
    "observationTime": "2026-06-25T18:30:00.000Z"
  },
  "LAS": {
    "raw": "METAR KLAS 251856Z 10006KT 10SM FEW120 37/07 A2983 RMK AO2 SLP067 T03670072",
    "icao": "KLAS",
    "flightCategory": "VFR",
    "windDir": 100,
    "windSpeed": 6,
    "windGust": null,
    "visibility": 10,
    "ceiling": null,
    "temp": 36.7,
    "dewpoint": 7.2,
    "altimeter": 29.83,
    "conditions": "",
    "observationTime": "2026-06-25T19:00:00.000Z"
  },
  "ORD": {
    "raw": "METAR KORD 251851Z 30010KT 10SM BKN055 BKN250 25/13 A2994 RMK AO2 SLP134 T02500128",
    "icao": "KORD",
    "flightCategory": "VFR",
    "windDir": 300,
    "windSpeed": 10,
    "windGust": null,
    "visibility": 10,
    "ceiling": 5500,
    "temp": 25,
    "dewpoint": 12.8,
    "altimeter": 29.94,
    "conditions": "",
    "observationTime": "2026-06-25T19:00:00.000Z"
  },
  "LHR": {
    "raw": "METAR EGLL 251820Z AUTO 10014KT 9999 NCD 28/20 Q1014",
    "icao": "EGLL",
    "flightCategory": "VFR",
    "windDir": 100,
    "windSpeed": 14,
    "windGust": null,
    "visibility": 6,
    "ceiling": null,
    "temp": 28,
    "dewpoint": 20,
    "altimeter": 29.94,
    "conditions": "",
    "observationTime": "2026-06-25T18:20:00.000Z"
  }
}