{
  "SYD": {
    "raw": "METAR YSSY 231930Z 23005KT CAVOK 16/10 Q1031",
    "icao": "YSSY",
    "flightCategory": "VFR",
    "windDir": 230,
    "windSpeed": 5,
    "windGust": null,
    "visibility": 6,
    "ceiling": null,
    "temp": 16,
    "dewpoint": 10,
    "altimeter": 30.45,
    "conditions": "",
    "observationTime": "2026-04-23T19:30:00.000Z"
  },
  "LAS": {
    "raw": "METAR KLAS 231956Z 24003KT 10SM FEW250 22/M09 A2997 RMK AO2 SLP131 T02171094",
    "icao": "KLAS",
    "flightCategory": "VFR",
    "windDir": 240,
    "windSpeed": 3,
    "windGust": null,
    "visibility": 10,
    "ceiling": null,
    "temp": 21.7,
    "dewpoint": -9.4,
    "altimeter": 29.97,
    "conditions": "",
    "observationTime": "2026-04-23T20:00:00.000Z"
  },
  "LAX": {
    "raw": "METAR KLAX 231953Z 25010KT 10SM FEW220 FEW280 22/11 A2997 RMK AO2 SLP148 T02170106 $",
    "icao": "KLAX",
    "flightCategory": "VFR",
    "windDir": 250,
    "windSpeed": 10,
    "windGust": null,
    "visibility": 10,
    "ceiling": null,
    "temp": 21.7,
    "dewpoint": 10.6,
    "altimeter": 29.97,
    "conditions": "",
    "observationTime": "2026-04-23T20:00:00.000Z"
  },
  "ORD": {
    "raw": "METAR KORD 231951Z 19017G26KT 10SM SCT060 OVC300 27/11 A2979 RMK AO2 PK WND 18026/1947 SLP085 T02670111",
    "icao": "KORD",
    "flightCategory": "VFR",
    "windDir": 190,
    "windSpeed": 17,
    "windGust": 26,
    "visibility": 10,
    "ceiling": 30000,
    "temp": 26.7,
    "dewpoint": 11.1,
    "altimeter": 29.79,
    "conditions": "",
    "observationTime": "2026-04-23T20:00:00.000Z"
  },
  "LHR": {
    "raw": "METAR EGLL 231920Z COR AUTO 08007KT 9999 NCD 12/03 Q1027 NOSIG",
    "icao": "EGLL",
    "flightCategory": "VFR",
    "windDir": 80,
    "windSpeed": 7,
    "windGust": null,
    "visibility": 6,
    "ceiling": null,
    "temp": 12,
    "dewpoint": 3,
    "altimeter": 30.33,
    "conditions": "",
    "observationTime": "2026-04-23T19:20:00.000Z"
  }
}