{
  "SYD": {
    "raw": "METAR YSSY 040030Z 01005KT 9999 FEW020 BKN100 20/15 Q1017",
    "icao": "YSSY",
    "flightCategory": "VFR",
    "windDir": 10,
    "windSpeed": 5,
    "windGust": null,
    "visibility": 6,
    "ceiling": 10000,
    "temp": 20,
    "dewpoint": 15,
    "altimeter": 30.03,
    "conditions": "",
    "observationTime": "2026-05-04T00:30:00.000Z"
  },
  "LAS": {
    "raw": "METAR KLAS 040056Z 19014G25KT 10SM SCT080 BKN200 30/M06 A2967 RMK AO2 PK WND 18027/2358 SLP025 T03001056",
    "icao": "KLAS",
    "flightCategory": "VFR",
    "windDir": 190,
    "windSpeed": 14,
    "windGust": 25,
    "visibility": 10,
    "ceiling": 20000,
    "temp": 30,
    "dewpoint": -5.6,
    "altimeter": 29.67,
    "conditions": "",
    "observationTime": "2026-05-04T01:00:00.000Z"
  },
  "LAX": {
    "raw": "METAR KLAX 040053Z 26012KT 10SM FEW018 BKN050 17/11 A2993 RMK AO2 SLP132 T01670106",
    "icao": "KLAX",
    "flightCategory": "VFR",
    "windDir": 260,
    "windSpeed": 12,
    "windGust": null,
    "visibility": 10,
    "ceiling": 5000,
    "temp": 16.7,
    "dewpoint": 10.6,
    "altimeter": 29.93,
    "conditions": "",
    "observationTime": "2026-05-04T01:00:00.000Z"
  },
  "ORD": {
    "raw": "METAR KORD 040051Z 21010G15KT 10SM FEW070 FEW250 18/05 A2968 RMK AO2 SLP051 T01830050 $",
    "icao": "KORD",
    "flightCategory": "VFR",
    "windDir": 210,
    "windSpeed": 10,
    "windGust": 15,
    "visibility": 10,
    "ceiling": null,
    "temp": 18.3,
    "dewpoint": 5,
    "altimeter": 29.68,
    "conditions": "",
    "observationTime": "2026-05-04T01:00:00.000Z"
  },
  "LHR": {
    "raw": "METAR EGLL 040020Z COR AUTO 27006KT 9999 BKN034 BKN042 14/11 Q1011 NOSIG",
    "icao": "EGLL",
    "flightCategory": "VFR",
    "windDir": 270,
    "windSpeed": 6,
    "windGust": null,
    "visibility": 6,
    "ceiling": 3400,
    "temp": 14,
    "dewpoint": 11,
    "altimeter": 29.85,
    "conditions": "",
    "observationTime": "2026-05-04T00:20:00.000Z"
  }
}