{
  "SYD": {
    "raw": "METAR YSSY 011400Z AUTO 31006KT 9999 // OVC060 19/15 Q1026",
    "icao": "YSSY",
    "flightCategory": "VFR",
    "windDir": 310,
    "windSpeed": 6,
    "windGust": null,
    "visibility": 6,
    "ceiling": 6000,
    "temp": 19,
    "dewpoint": 15,
    "altimeter": 30.3,
    "conditions": "",
    "observationTime": "2026-05-01T14:00:00.000Z"
  },
  "LHR": {
    "raw": "METAR EGLL 011350Z COR AUTO 22011KT 9999 NCD 24/10 Q1019 NOSIG",
    "icao": "EGLL",
    "flightCategory": "VFR",
    "windDir": 220,
    "windSpeed": 11,
    "windGust": null,
    "visibility": 6,
    "ceiling": null,
    "temp": 24,
    "dewpoint": 10,
    "altimeter": 30.09,
    "conditions": "",
    "observationTime": "2026-05-01T14:00:00.000Z"
  },
  "LAS": {
    "raw": "METAR KLAS 011356Z 21005KT 10SM FEW120 19/M03 A2996 RMK AO2 SLP124 T01941033",
    "icao": "KLAS",
    "flightCategory": "VFR",
    "windDir": 210,
    "windSpeed": 5,
    "windGust": null,
    "visibility": 10,
    "ceiling": null,
    "temp": 19.4,
    "dewpoint": -3.3,
    "altimeter": 29.96,
    "conditions": "",
    "observationTime": "2026-05-01T14:00:00.000Z"
  },
  "LAX": {
    "raw": "METAR KLAX 011353Z VRB05KT 10SM FEW011 OVC018 17/12 A2995 RMK AO2 SLP141 T01670122",
    "icao": "KLAX",
    "flightCategory": "MVFR",
    "windDir": null,
    "windSpeed": 5,
    "windGust": null,
    "visibility": 10,
    "ceiling": 1800,
    "temp": 16.7,
    "dewpoint": 12.2,
    "altimeter": 29.95,
    "conditions": "",
    "observationTime": "2026-05-01T14:00:00.000Z"
  },
  "ORD": {
    "raw": "SPECI KORD 011344Z 29006KT 10SM SCT019 SCT070 06/02 A3001 RMK AO2 T00610017 $",
    "icao": "KORD",
    "flightCategory": "VFR",
    "windDir": 290,
    "windSpeed": 6,
    "windGust": null,
    "visibility": 10,
    "ceiling": null,
    "temp": 6.1,
    "dewpoint": 1.7,
    "altimeter": 30.01,
    "conditions": "",
    "observationTime": "2026-05-01T13:44:00.000Z"
  }
}