{
  "SYD": {
    "raw": "METAR YSSY 200700Z AUTO 24006KT 9999 // SCT062 BKN074 18/09 Q1021",
    "icao": "YSSY",
    "flightCategory": "VFR",
    "windDir": 240,
    "windSpeed": 6,
    "windGust": null,
    "visibility": 6,
    "ceiling": 7400,
    "temp": 18,
    "dewpoint": 9,
    "altimeter": 30.15,
    "conditions": "",
    "observationTime": "2026-06-20T07:00:00.000Z"
  },
  "LHR": {
    "raw": "METAR EGLL 200650Z AUTO 20008KT 170V230 9999 SCT011 SCT016 BKN023 19/16 Q1017",
    "icao": "EGLL",
    "flightCategory": "MVFR",
    "windDir": 200,
    "windSpeed": 8,
    "windGust": null,
    "visibility": 6,
    "ceiling": 2300,
    "temp": 19,
    "dewpoint": 16,
    "altimeter": 30.03,
    "conditions": "",
    "observationTime": "2026-06-20T07:00:00.000Z"
  },
  "LAS": {
    "raw": "METAR KLAS 200656Z 20009G18KT 10SM CLR 31/M02 A2982 RMK A02 SLP067 T03111022",
    "icao": "KLAS",
    "flightCategory": "VFR",
    "windDir": 200,
    "windSpeed": 9,
    "windGust": 18,
    "visibility": 10,
    "ceiling": null,
    "temp": 31.1,
    "dewpoint": -2.2,
    "altimeter": 29.82,
    "conditions": "",
    "observationTime": "2026-06-20T07:00:00.000Z"
  },
  "LAX": {
    "raw": "METAR KLAX 200653Z 14003KT 10SM CLR 17/13 A2998 RMK AO2 SLP148 T01670133",
    "icao": "KLAX",
    "flightCategory": "VFR",
    "windDir": 140,
    "windSpeed": 3,
    "windGust": null,
    "visibility": 10,
    "ceiling": null,
    "temp": 16.7,
    "dewpoint": 13.3,
    "altimeter": 29.98,
    "conditions": "",
    "observationTime": "2026-06-20T07:00:00.000Z"
  },
  "ORD": {
    "raw": "METAR KORD 200651Z 27007KT 10SM SCT065 BKN090 18/13 A2993 RMK AO2 SLP131 T01830133 $",
    "icao": "KORD",
    "flightCategory": "VFR",
    "windDir": 270,
    "windSpeed": 7,
    "windGust": null,
    "visibility": 10,
    "ceiling": 9000,
    "temp": 18.3,
    "dewpoint": 13.3,
    "altimeter": 29.93,
    "conditions": "",
    "observationTime": "2026-06-20T07:00:00.000Z"
  }
}