{
  "SYD": {
    "raw": "SPECI YSSY 181205Z AUTO 32001KT 6000 -RA SCT021 SCT084 OVC110 18/16 Q1014",
    "icao": "YSSY",
    "flightCategory": "MVFR",
    "windDir": 320,
    "windSpeed": 1,
    "windGust": null,
    "visibility": 3.73,
    "ceiling": 11000,
    "temp": 18,
    "dewpoint": 16,
    "altimeter": 29.94,
    "conditions": "-RA",
    "observationTime": "2026-05-18T12:05:00.000Z"
  },
  "LHR": {
    "raw": "METAR EGLL 181150Z AUTO 25015KT 9999 -RA FEW035 SCT046 13/06 Q1012",
    "icao": "EGLL",
    "flightCategory": "VFR",
    "windDir": 250,
    "windSpeed": 15,
    "windGust": null,
    "visibility": 6,
    "ceiling": null,
    "temp": 13,
    "dewpoint": 6,
    "altimeter": 29.88,
    "conditions": "-RA",
    "observationTime": "2026-05-18T12:00:00.000Z"
  },
  "LAS": {
    "raw": "METAR KLAS 181156Z 35015G27KT 10SM CLR 14/M06 A2987 RMK AO2 PK WND 35032/1058 SLP094 T01441056 10178 20144 53019",
    "icao": "KLAS",
    "flightCategory": "VFR",
    "windDir": 350,
    "windSpeed": 15,
    "windGust": 27,
    "visibility": 10,
    "ceiling": null,
    "temp": 14.4,
    "dewpoint": -5.6,
    "altimeter": 29.87,
    "conditions": "",
    "observationTime": "2026-05-18T12:00:00.000Z"
  },
  "LAX": {
    "raw": "METAR KLAX 181153Z 06004KT 9SM BKN022 BKN050 16/12 A2983 RMK AO2 SLP099 T01610122 10167 20144 53005",
    "icao": "KLAX",
    "flightCategory": "MVFR",
    "windDir": 60,
    "windSpeed": 4,
    "windGust": null,
    "visibility": 9,
    "ceiling": 2200,
    "temp": 16.1,
    "dewpoint": 12.2,
    "altimeter": 29.83,
    "conditions": "",
    "observationTime": "2026-05-18T12:00:00.000Z"
  },
  "ORD": {
    "raw": "METAR KORD 181151Z 19014G22KT 10SM SCT060 BKN090 OVC250 24/17 A2983 RMK AO2 SLP096 CB DSNT NW-N T02390172 10250 20233 53005",
    "icao": "KORD",
    "flightCategory": "VFR",
    "windDir": 190,
    "windSpeed": 14,
    "windGust": 22,
    "visibility": 10,
    "ceiling": 9000,
    "temp": 23.9,
    "dewpoint": 17.2,
    "altimeter": 29.83,
    "conditions": "",
    "observationTime": "2026-05-18T12:00:00.000Z"
  }
}