{
  "LAX": {
    "raw": "METAR KLAX 211953Z 26011KT 10SM FEW010 21/15 A2989 RMK AO2 SLP121 T02060150 $",
    "icao": "KLAX",
    "flightCategory": "VFR",
    "windDir": 260,
    "windSpeed": 11,
    "windGust": null,
    "visibility": 10,
    "ceiling": null,
    "temp": 20.6,
    "dewpoint": 15,
    "altimeter": 29.89,
    "conditions": "",
    "observationTime": "2026-05-21T20:00:00.000Z"
  },
  "ORD": {
    "raw": "METAR KORD 211951Z 03016G21KT 10SM FEW110 FEW150 BKN250 14/06 A3026 RMK AO2 SLP246 T01390061",
    "icao": "KORD",
    "flightCategory": "VFR",
    "windDir": 30,
    "windSpeed": 16,
    "windGust": 21,
    "visibility": 10,
    "ceiling": 25000,
    "temp": 13.9,
    "dewpoint": 6.1,
    "altimeter": 30.26,
    "conditions": "",
    "observationTime": "2026-05-21T20:00:00.000Z"
  },
  "LHR": {
    "raw": "METAR EGLL 211920Z AUTO 16010KT 140V230 9999 NCD 21/11 Q1025",
    "icao": "EGLL",
    "flightCategory": "VFR",
    "windDir": 160,
    "windSpeed": 10,
    "windGust": null,
    "visibility": 6,
    "ceiling": null,
    "temp": 21,
    "dewpoint": 11,
    "altimeter": 30.27,
    "conditions": "",
    "observationTime": "2026-05-21T19:20:00.000Z"
  },
  "SYD": {
    "raw": "METAR YSSY 211900Z AUTO 23014KT 9999 // BKN056 15/13 Q1026",
    "icao": "YSSY",
    "flightCategory": "VFR",
    "windDir": 230,
    "windSpeed": 14,
    "windGust": null,
    "visibility": 6,
    "ceiling": 5600,
    "temp": 15,
    "dewpoint": 13,
    "altimeter": 30.3,
    "conditions": "",
    "observationTime": "2026-05-21T19:00:00.000Z"
  }
}