{
  "SYD": {
    "raw": "METAR YSSY 262030Z 29007KT 5000 2000N R34L/P2000N R34R/P2000N BR BCFG BKN002 17/16 Q1018",
    "icao": "YSSY",
    "flightCategory": "LIFR",
    "windDir": 290,
    "windSpeed": 7,
    "windGust": null,
    "visibility": 3.11,
    "ceiling": 200,
    "temp": 17,
    "dewpoint": 16,
    "altimeter": 30.06,
    "conditions": "BCFG BR",
    "observationTime": "2026-05-26T20:30:00.000Z"
  },
  "LAS": {
    "raw": "METAR KLAS 262056Z 21022G33KT 10SM FEW180 BKN250 32/M07 A2955 RMK AO2 PK WND 20036/2040 SLP980 ACSL DSNT NW T03221072 58028",
    "icao": "KLAS",
    "flightCategory": "VFR",
    "windDir": 210,
    "windSpeed": 22,
    "windGust": 33,
    "visibility": 10,
    "ceiling": 25000,
    "temp": 32.2,
    "dewpoint": -7.2,
    "altimeter": 29.55,
    "conditions": "",
    "observationTime": "2026-05-26T21:00:00.000Z"
  },
  "LAX": {
    "raw": "METAR KLAX 262053Z 24011G20KT 10SM FEW025 BKN041 BKN140 20/11 A2984 RMK AO2 SLP105 T02000106 58014 $",
    "icao": "KLAX",
    "flightCategory": "VFR",
    "windDir": 240,
    "windSpeed": 11,
    "windGust": 20,
    "visibility": 10,
    "ceiling": 4100,
    "temp": 20,
    "dewpoint": 10.6,
    "altimeter": 29.84,
    "conditions": "",
    "observationTime": "2026-05-26T21:00:00.000Z"
  },
  "ORD": {
    "raw": "METAR KORD 262051Z 10010KT 10SM BKN250 28/08 A2998 RMK AO2 SLP149 T02780083 56017",
    "icao": "KORD",
    "flightCategory": "VFR",
    "windDir": 100,
    "windSpeed": 10,
    "windGust": null,
    "visibility": 10,
    "ceiling": 25000,
    "temp": 27.8,
    "dewpoint": 8.3,
    "altimeter": 29.98,
    "conditions": "",
    "observationTime": "2026-05-26T21:00:00.000Z"
  },
  "LHR": {
    "raw": "METAR EGLL 262050Z AUTO 19009KT 170V240 9999 NCD 27/12 Q1024",
    "icao": "EGLL",
    "flightCategory": "VFR",
    "windDir": 190,
    "windSpeed": 9,
    "windGust": null,
    "visibility": 6,
    "ceiling": null,
    "temp": 27,
    "dewpoint": 12,
    "altimeter": 30.24,
    "conditions": "",
    "observationTime": "2026-05-26T21:00:00.000Z"
  }
}