{
  "LHR": {
    "raw": "METAR EGLL 131650Z COR AUTO 26009KT 9999 NCD 12/04 Q1013 NOSIG",
    "icao": "EGLL",
    "flightCategory": "VFR",
    "windDir": 260,
    "windSpeed": 9,
    "windGust": null,
    "visibility": 6,
    "ceiling": null,
    "temp": 12,
    "dewpoint": 4,
    "altimeter": 29.91,
    "conditions": "",
    "observationTime": "2026-04-13T17:00:00.000Z"
  },
  "SYD": {
    "raw": "METAR YSSY 131630Z AUTO 31006KT 9999 // NCD 15/08 Q1019",
    "icao": "YSSY",
    "flightCategory": "VFR",
    "windDir": 310,
    "windSpeed": 6,
    "windGust": null,
    "visibility": 6,
    "ceiling": null,
    "temp": 15,
    "dewpoint": 8,
    "altimeter": 30.09,
    "conditions": "",
    "observationTime": "2026-04-13T16:30:00.000Z"
  },
  "LAS": {
    "raw": "METAR KLAS 131656Z 20008G15KT 10SM FEW065 FEW100 17/M01 A2996 RMK AO2 SLP132 T01671011",
    "icao": "KLAS",
    "flightCategory": "VFR",
    "windDir": 200,
    "windSpeed": 8,
    "windGust": 15,
    "visibility": 10,
    "ceiling": null,
    "temp": 16.7,
    "dewpoint": -1.1,
    "altimeter": 29.96,
    "conditions": "",
    "observationTime": "2026-04-13T17:00:00.000Z"
  },
  "LAX": {
    "raw": "METAR KLAX 131653Z 25008KT 10SM FEW019 FEW050 SCT080 BKN150 17/09 A3006 RMK AO2 SLP179 T01670094 $",
    "icao": "KLAX",
    "flightCategory": "VFR",
    "windDir": 250,
    "windSpeed": 8,
    "windGust": null,
    "visibility": 10,
    "ceiling": 15000,
    "temp": 16.7,
    "dewpoint": 9.4,
    "altimeter": 30.06,
    "conditions": "",
    "observationTime": "2026-04-13T17:00:00.000Z"
  },
  "ORD": {
    "raw": "SPECI KORD 131626Z 21010KT 10SM BKN015 OVC028 21/18 A2992 RMK AO2 T02110178",
    "icao": "KORD",
    "flightCategory": "MVFR",
    "windDir": 210,
    "windSpeed": 10,
    "windGust": null,
    "visibility": 10,
    "ceiling": 1500,
    "temp": 21.1,
    "dewpoint": 17.8,
    "altimeter": 29.92,
    "conditions": "",
    "observationTime": "2026-04-13T16:26:00.000Z"
  }
}