{
  "LAX": {
    "raw": "METAR KLAX 060553Z 24008KT 10SM FEW011 18/16 A2994 RMK AO2 SLP135 T01830161 10228 20183 51005",
    "icao": "KLAX",
    "flightCategory": "VFR",
    "windDir": 240,
    "windSpeed": 8,
    "windGust": null,
    "visibility": 10,
    "ceiling": null,
    "temp": 18.3,
    "dewpoint": 16.1,
    "altimeter": 29.94,
    "conditions": "",
    "observationTime": "2026-07-06T06:00:00.000Z"
  },
  "ORD": {
    "raw": "METAR KORD 060551Z 02009KT 10SM SCT110 BKN250 20/18 A3000 RMK AO2 SLP156 T02000183 10228 20194 402440189 50003 $",
    "icao": "KORD",
    "flightCategory": "VFR",
    "windDir": 20,
    "windSpeed": 9,
    "windGust": null,
    "visibility": 10,
    "ceiling": 25000,
    "temp": 20,
    "dewpoint": 18.3,
    "altimeter": 30,
    "conditions": "",
    "observationTime": "2026-07-06T06:00:00.000Z"
  },
  "LHR": {
    "raw": "METAR EGLL 060520Z AUTO 24008KT 9999 NCD 17/13 Q1020",
    "icao": "EGLL",
    "flightCategory": "VFR",
    "windDir": 240,
    "windSpeed": 8,
    "windGust": null,
    "visibility": 6,
    "ceiling": null,
    "temp": 17,
    "dewpoint": 13,
    "altimeter": 30.12,
    "conditions": "",
    "observationTime": "2026-07-06T05:20:00.000Z"
  },
  "SYD": {
    "raw": "SPECI YSSY 060500Z 20013KT 5000 SHRA VCSH SCT012 BKN024 BKN035 14/12 Q1034",
    "icao": "YSSY",
    "flightCategory": "MVFR",
    "windDir": 200,
    "windSpeed": 13,
    "windGust": null,
    "visibility": 3.11,
    "ceiling": 2400,
    "temp": 14,
    "dewpoint": 12,
    "altimeter": 30.53,
    "conditions": "SHRA VCSH",
    "observationTime": "2026-07-06T05:00:00.000Z"
  },
  "LAS": {
    "raw": "METAR KLAS 060456Z 19004KT 10SM SCT150 BKN220 34/07 A2985 RMK AO2 SLP074 T03440072 $",
    "icao": "KLAS",
    "flightCategory": "VFR",
    "windDir": 190,
    "windSpeed": 4,
    "windGust": null,
    "visibility": 10,
    "ceiling": 22000,
    "temp": 34.4,
    "dewpoint": 7.2,
    "altimeter": 29.85,
    "conditions": "",
    "observationTime": "2026-07-06T05:00:00.000Z"
  }
}