{
  "LHR": {
    "raw": "METAR EGLL 310850Z AUTO 27016KT 9999 SCT027 18/11 Q1016",
    "icao": "EGLL",
    "flightCategory": "VFR",
    "windDir": 270,
    "windSpeed": 16,
    "windGust": null,
    "visibility": 6,
    "ceiling": null,
    "temp": 18,
    "dewpoint": 11,
    "altimeter": 30,
    "conditions": "",
    "observationTime": "2026-05-31T09:00:00.000Z"
  },
  "SYD": {
    "raw": "METAR YSSY 310900Z AUTO 28012KT 9999 // NCD 15/06 Q1011",
    "icao": "YSSY",
    "flightCategory": "VFR",
    "windDir": 280,
    "windSpeed": 12,
    "windGust": null,
    "visibility": 6,
    "ceiling": null,
    "temp": 15,
    "dewpoint": 6,
    "altimeter": 29.85,
    "conditions": "",
    "observationTime": "2026-05-31T09:00:00.000Z"
  },
  "LAS": {
    "raw": "METAR KLAS 310856Z 22005KT 10SM CLR 24/M01 A2989 RMK AO2 SLP098 T02391006 58001",
    "icao": "KLAS",
    "flightCategory": "VFR",
    "windDir": 220,
    "windSpeed": 5,
    "windGust": null,
    "visibility": 10,
    "ceiling": null,
    "temp": 23.9,
    "dewpoint": -0.6,
    "altimeter": 29.89,
    "conditions": "",
    "observationTime": "2026-05-31T09:00:00.000Z"
  },
  "LAX": {
    "raw": "METAR KLAX 310853Z VRB04KT 9SM FEW010 17/14 A2992 RMK AO2 SLP128 T01670144 58010 $",
    "icao": "KLAX",
    "flightCategory": "VFR",
    "windDir": null,
    "windSpeed": 4,
    "windGust": null,
    "visibility": 9,
    "ceiling": null,
    "temp": 16.7,
    "dewpoint": 14.4,
    "altimeter": 29.92,
    "conditions": "",
    "observationTime": "2026-05-31T09:00:00.000Z"
  },
  "ORD": {
    "raw": "METAR KORD 310851Z 11007KT 10SM BKN250 13/04 A3011 RMK AO2 SLP194 T01280044 58012 $",
    "icao": "KORD",
    "flightCategory": "VFR",
    "windDir": 110,
    "windSpeed": 7,
    "windGust": null,
    "visibility": 10,
    "ceiling": 25000,
    "temp": 12.8,
    "dewpoint": 4.4,
    "altimeter": 30.11,
    "conditions": "",
    "observationTime": "2026-05-31T09:00:00.000Z"
  }
}