{
  "SYD": {
    "raw": "METAR YSSY 191600Z AUTO 31008KT 9999 // NCD 12/08 Q1022",
    "icao": "YSSY",
    "flightCategory": "VFR",
    "windDir": 310,
    "windSpeed": 8,
    "windGust": null,
    "visibility": 6,
    "ceiling": null,
    "temp": 12,
    "dewpoint": 8,
    "altimeter": 30.18,
    "conditions": "",
    "observationTime": "2026-04-19T16:00:00.000Z"
  },
  "LHR": {
    "raw": "METAR EGLL 191550Z COR AUTO 33006KT 270V050 9999 NCD 15/M01 Q1024 NOSIG",
    "icao": "EGLL",
    "flightCategory": "VFR",
    "windDir": 330,
    "windSpeed": 6,
    "windGust": null,
    "visibility": 6,
    "ceiling": null,
    "temp": 15,
    "dewpoint": -1,
    "altimeter": 30.24,
    "conditions": "",
    "observationTime": "2026-04-19T16:00:00.000Z"
  },
  "LAS": {
    "raw": "METAR KLAS 191556Z 00000KT 10SM FEW200 BKN250 19/M16 A2998 RMK AO2 SLP137 T01941161",
    "icao": "KLAS",
    "flightCategory": "VFR",
    "windDir": 0,
    "windSpeed": 0,
    "windGust": null,
    "visibility": 10,
    "ceiling": 25000,
    "temp": 19.4,
    "dewpoint": -16.1,
    "altimeter": 29.98,
    "conditions": "",
    "observationTime": "2026-04-19T16:00:00.000Z"
  },
  "LAX": {
    "raw": "METAR KLAX 191553Z 27005KT 10SM FEW006 FEW190 SCT240 SCT300 19/13 A2991 RMK AO2 SLP127 T01940128 $",
    "icao": "KLAX",
    "flightCategory": "VFR",
    "windDir": 270,
    "windSpeed": 5,
    "windGust": null,
    "visibility": 10,
    "ceiling": null,
    "temp": 19.4,
    "dewpoint": 12.8,
    "altimeter": 29.91,
    "conditions": "",
    "observationTime": "2026-04-19T16:00:00.000Z"
  },
  "ORD": {
    "raw": "METAR KORD 191551Z 29012G24KT 10SM FEW075 SCT100 BKN250 09/M05 A3010 RMK AO2 PK WND 28027/1537 SLP196 T00891050 $",
    "icao": "KORD",
    "flightCategory": "VFR",
    "windDir": 290,
    "windSpeed": 12,
    "windGust": 24,
    "visibility": 10,
    "ceiling": 25000,
    "temp": 8.9,
    "dewpoint": -5,
    "altimeter": 30.1,
    "conditions": "",
    "observationTime": "2026-04-19T16:00:00.000Z"
  }
}