{
  "LHR": {
    "raw": "METAR EGLL 152150Z AUTO 06009KT 030V090 9999 NCD 22/13 Q1023",
    "icao": "EGLL",
    "flightCategory": "VFR",
    "windDir": 60,
    "windSpeed": 9,
    "windGust": null,
    "visibility": 6,
    "ceiling": null,
    "temp": 22,
    "dewpoint": 13,
    "altimeter": 30.21,
    "conditions": "",
    "observationTime": "2026-07-15T22:00:00.000Z"
  },
  "SYD": {
    "raw": "METAR YSSY 152200Z AUTO 21017KT 9999 // BKN028 OVC046 13/08 Q1035",
    "icao": "YSSY",
    "flightCategory": "MVFR",
    "windDir": 210,
    "windSpeed": 17,
    "windGust": null,
    "visibility": 6,
    "ceiling": 2800,
    "temp": 13,
    "dewpoint": 8,
    "altimeter": 30.56,
    "conditions": "",
    "observationTime": "2026-07-15T22:00:00.000Z"
  },
  "LAS": {
    "raw": "SPECI KLAS 152134Z 14006G21KT 10SM FEW130 FEW200 42/09 A2982 RMK AO2 CB DSNT E T04220094",
    "icao": "KLAS",
    "flightCategory": "VFR",
    "windDir": 140,
    "windSpeed": 6,
    "windGust": 21,
    "visibility": 10,
    "ceiling": null,
    "temp": 42.2,
    "dewpoint": 9.4,
    "altimeter": 29.82,
    "conditions": "",
    "observationTime": "2026-07-15T21:34:00.000Z"
  },
  "LAX": {
    "raw": "METAR KLAX 152153Z 24011KT 10SM FEW100 FEW200 SCT250 26/18 A2983 RMK AO2 SLP098 T02610178 $",
    "icao": "KLAX",
    "flightCategory": "VFR",
    "windDir": 240,
    "windSpeed": 11,
    "windGust": null,
    "visibility": 10,
    "ceiling": null,
    "temp": 26.1,
    "dewpoint": 17.8,
    "altimeter": 29.83,
    "conditions": "",
    "observationTime": "2026-07-15T22:00:00.000Z"
  },
  "ORD": {
    "raw": "METAR KORD 152151Z 23007KT 10SM FEW050 BKN300 34/21 A3001 RMK AO2 SLP156 T03440206",
    "icao": "KORD",
    "flightCategory": "VFR",
    "windDir": 230,
    "windSpeed": 7,
    "windGust": null,
    "visibility": 10,
    "ceiling": 30000,
    "temp": 34.4,
    "dewpoint": 20.6,
    "altimeter": 30.01,
    "conditions": "",
    "observationTime": "2026-07-15T22:00:00.000Z"
  }
}