{
  "SYD": {
    "raw": "METAR YSSY 291530Z AUTO 34003KT 9999 -RA SCT040 BKN046 OVC057 18/14 Q1023",
    "icao": "YSSY",
    "flightCategory": "VFR",
    "windDir": 340,
    "windSpeed": 3,
    "windGust": null,
    "visibility": 6,
    "ceiling": 4600,
    "temp": 18,
    "dewpoint": 14,
    "altimeter": 30.21,
    "conditions": "-RA",
    "observationTime": "2026-03-29T15:30:00.000Z"
  },
  "LAS": {
    "raw": "METAR KLAS 291556Z 00000KT 10SM FEW160 BKN200 BKN250 23/M04 A2998 RMK AO2 SLP130 T02331039 $",
    "icao": "KLAS",
    "flightCategory": "VFR",
    "windDir": 0,
    "windSpeed": 0,
    "windGust": null,
    "visibility": 10,
    "ceiling": 20000,
    "temp": 23.3,
    "dewpoint": -3.9,
    "altimeter": 29.98,
    "conditions": "",
    "observationTime": "2026-03-29T16:00:00.000Z"
  },
  "LAX": {
    "raw": "SPECI KLAX 291524Z VRB05KT 2SM BR BKN004 BKN220 BKN280 15/14 A2992 RMK AO2 VIS SW-W 1 T01500144",
    "icao": "KLAX",
    "flightCategory": "LIFR",
    "windDir": null,
    "windSpeed": 5,
    "windGust": null,
    "visibility": 2,
    "ceiling": 400,
    "temp": 15,
    "dewpoint": 14.4,
    "altimeter": 29.92,
    "conditions": "BR",
    "observationTime": "2026-03-29T15:24:00.000Z"
  },
  "ORD": {
    "raw": "METAR KORD 291551Z 22013KT 10SM BKN100 BKN250 12/M04 A3019 RMK AO2 SLP225 T01221039 $",
    "icao": "KORD",
    "flightCategory": "VFR",
    "windDir": 220,
    "windSpeed": 13,
    "windGust": null,
    "visibility": 10,
    "ceiling": 10000,
    "temp": 12.2,
    "dewpoint": -3.9,
    "altimeter": 30.19,
    "conditions": "",
    "observationTime": "2026-03-29T16:00:00.000Z"
  },
  "LHR": {
    "raw": "METAR EGLL 291520Z COR AUTO 23018KT 9999 BKN036 09/05 Q1024 NOSIG",
    "icao": "EGLL",
    "flightCategory": "VFR",
    "windDir": 230,
    "windSpeed": 18,
    "windGust": null,
    "visibility": 6,
    "ceiling": 3600,
    "temp": 9,
    "dewpoint": 5,
    "altimeter": 30.24,
    "conditions": "",
    "observationTime": "2026-03-29T15:20:00.000Z"
  }
}