{
  "SYD": {
    "raw": "METAR YSSY 170600Z 30005KT CAVOK 20/13 Q1024",
    "icao": "YSSY",
    "flightCategory": "VFR",
    "windDir": 300,
    "windSpeed": 5,
    "windGust": null,
    "visibility": 6,
    "ceiling": null,
    "temp": 20,
    "dewpoint": 13,
    "altimeter": 30.24,
    "conditions": "",
    "observationTime": "2026-06-17T06:00:00.000Z"
  },
  "LHR": {
    "raw": "METAR EGLL 170550Z AUTO 21011KT 9999 OVC007 18/16 Q1016",
    "icao": "EGLL",
    "flightCategory": "IFR",
    "windDir": 210,
    "windSpeed": 11,
    "windGust": null,
    "visibility": 6,
    "ceiling": 700,
    "temp": 18,
    "dewpoint": 16,
    "altimeter": 30,
    "conditions": "",
    "observationTime": "2026-06-17T06:00:00.000Z"
  },
  "LAS": {
    "raw": "METAR KLAS 170556Z 21010KT 9SM FEW200 37/M01 A2976 RMK AO2 SLP041 T03671006 10422 20367 50001",
    "icao": "KLAS",
    "flightCategory": "VFR",
    "windDir": 210,
    "windSpeed": 10,
    "windGust": null,
    "visibility": 9,
    "ceiling": null,
    "temp": 36.7,
    "dewpoint": -0.6,
    "altimeter": 29.76,
    "conditions": "",
    "observationTime": "2026-06-17T06:00:00.000Z"
  },
  "LAX": {
    "raw": "METAR KLAX 170553Z 22009KT 10SM OVC007 17/14 A2993 RMK AO2 SLP134 T01670144 10194 20167 50006 $",
    "icao": "KLAX",
    "flightCategory": "IFR",
    "windDir": 220,
    "windSpeed": 9,
    "windGust": null,
    "visibility": 10,
    "ceiling": 700,
    "temp": 16.7,
    "dewpoint": 14.4,
    "altimeter": 29.93,
    "conditions": "",
    "observationTime": "2026-06-17T06:00:00.000Z"
  },
  "ORD": {
    "raw": "METAR KORD 170551Z 24004KT 10SM FEW250 16/10 A2965 RMK AO2 SLP038 T01610100 10200 20161 402440161 50001 $",
    "icao": "KORD",
    "flightCategory": "VFR",
    "windDir": 240,
    "windSpeed": 4,
    "windGust": null,
    "visibility": 10,
    "ceiling": null,
    "temp": 16.1,
    "dewpoint": 10,
    "altimeter": 29.65,
    "conditions": "",
    "observationTime": "2026-06-17T06:00:00.000Z"
  }
}