{
  "SYD": {
    "raw": "METAR YSSY 220300Z 27009KT CAVOK 20/05 Q1021",
    "icao": "YSSY",
    "flightCategory": "VFR",
    "windDir": 270,
    "windSpeed": 9,
    "windGust": null,
    "visibility": 6,
    "ceiling": null,
    "temp": 20,
    "dewpoint": 5,
    "altimeter": 30.15,
    "conditions": "",
    "observationTime": "2026-07-22T03:00:00.000Z"
  },
  "LHR": {
    "raw": "METAR EGLL 220250Z AUTO 10004KT 9999 NCD 15/12 Q1026",
    "icao": "EGLL",
    "flightCategory": "VFR",
    "windDir": 100,
    "windSpeed": 4,
    "windGust": null,
    "visibility": 6,
    "ceiling": null,
    "temp": 15,
    "dewpoint": 12,
    "altimeter": 30.3,
    "conditions": "",
    "observationTime": "2026-07-22T03:00:00.000Z"
  },
  "LAS": {
    "raw": "METAR KLAS 220256Z 09011KT 10SM FEW120 SCT190 36/14 A2987 RMK AO2 SLP080 T03610139 55000 $",
    "icao": "KLAS",
    "flightCategory": "VFR",
    "windDir": 90,
    "windSpeed": 11,
    "windGust": null,
    "visibility": 10,
    "ceiling": null,
    "temp": 36.1,
    "dewpoint": 13.9,
    "altimeter": 29.87,
    "conditions": "",
    "observationTime": "2026-07-22T03:00:00.000Z"
  },
  "LAX": {
    "raw": "METAR KLAX 220253Z 27013KT 10SM FEW015 FEW150 23/17 A2997 RMK AO2 SLP145 T02330172 53005",
    "icao": "KLAX",
    "flightCategory": "VFR",
    "windDir": 270,
    "windSpeed": 13,
    "windGust": null,
    "visibility": 10,
    "ceiling": null,
    "temp": 23.3,
    "dewpoint": 17.2,
    "altimeter": 29.97,
    "conditions": "",
    "observationTime": "2026-07-22T03:00:00.000Z"
  },
  "ORD": {
    "raw": "METAR KORD 220251Z 03017G22KT 10SM BKN021 BKN080 21/16 A2991 RMK AO2 SLP125 T02110161 53043 $",
    "icao": "KORD",
    "flightCategory": "MVFR",
    "windDir": 30,
    "windSpeed": 17,
    "windGust": 22,
    "visibility": 10,
    "ceiling": 2100,
    "temp": 21.1,
    "dewpoint": 16.1,
    "altimeter": 29.91,
    "conditions": "",
    "observationTime": "2026-07-22T03:00:00.000Z"
  }
}