{
  "SYD": {
    "raw": "METAR YSSY 111330Z AUTO 25017KT 9999 // NCD 16/01 Q1011",
    "icao": "YSSY",
    "flightCategory": "VFR",
    "windDir": 250,
    "windSpeed": 17,
    "windGust": null,
    "visibility": 6,
    "ceiling": null,
    "temp": 16,
    "dewpoint": 1,
    "altimeter": 29.85,
    "conditions": "",
    "observationTime": "2026-04-11T13:30:00.000Z"
  },
  "LAS": {
    "raw": "METAR KLAS 111356Z 25009G17KT 10SM CLR 17/03 A2988 RMK AO2 PK WND 20026/1302 SLP101 T01670033",
    "icao": "KLAS",
    "flightCategory": "VFR",
    "windDir": 250,
    "windSpeed": 9,
    "windGust": 17,
    "visibility": 10,
    "ceiling": null,
    "temp": 16.7,
    "dewpoint": 3.3,
    "altimeter": 29.88,
    "conditions": "",
    "observationTime": "2026-04-11T14:00:00.000Z"
  },
  "LAX": {
    "raw": "METAR KLAX 111353Z 32003KT 10SM FEW012 FEW017 SCT050 SCT200 15/13 A2999 RMK AO2 SLP153 T01500133 $",
    "icao": "KLAX",
    "flightCategory": "VFR",
    "windDir": 320,
    "windSpeed": 3,
    "windGust": null,
    "visibility": 10,
    "ceiling": null,
    "temp": 15,
    "dewpoint": 13.3,
    "altimeter": 29.99,
    "conditions": "",
    "observationTime": "2026-04-11T14:00:00.000Z"
  },
  "ORD": {
    "raw": "METAR KORD 111351Z 10007KT 10SM FEW100 FEW250 08/M01 A3042 RMK AO2 SLP307 T00831006 $",
    "icao": "KORD",
    "flightCategory": "VFR",
    "windDir": 100,
    "windSpeed": 7,
    "windGust": null,
    "visibility": 10,
    "ceiling": null,
    "temp": 8.3,
    "dewpoint": -0.6,
    "altimeter": 30.42,
    "conditions": "",
    "observationTime": "2026-04-11T14:00:00.000Z"
  },
  "LHR": {
    "raw": "METAR EGLL 111320Z COR AUTO 28015KT 9999 NCD 12/M02 Q1006 NOSIG",
    "icao": "EGLL",
    "flightCategory": "VFR",
    "windDir": 280,
    "windSpeed": 15,
    "windGust": null,
    "visibility": 6,
    "ceiling": null,
    "temp": 12,
    "dewpoint": -2,
    "altimeter": 29.71,
    "conditions": "",
    "observationTime": "2026-04-11T13:20:00.000Z"
  }
}