{
  "SYD": {
    "raw": "METAR YSSY 191130Z AUTO 23011KT 9999 // NCD 16/10 Q1022",
    "icao": "YSSY",
    "flightCategory": "VFR",
    "windDir": 230,
    "windSpeed": 11,
    "windGust": null,
    "visibility": 6,
    "ceiling": null,
    "temp": 16,
    "dewpoint": 10,
    "altimeter": 30.18,
    "conditions": "",
    "observationTime": "2026-04-19T11:30:00.000Z"
  },
  "LAS": {
    "raw": "METAR KLAS 191156Z 23003KT 10SM FEW250 14/M12 A2996 RMK AO2 SLP130 T01391122 10183 20133 58005",
    "icao": "KLAS",
    "flightCategory": "VFR",
    "windDir": 230,
    "windSpeed": 3,
    "windGust": null,
    "visibility": 10,
    "ceiling": null,
    "temp": 13.9,
    "dewpoint": -12.2,
    "altimeter": 29.96,
    "conditions": "",
    "observationTime": "2026-04-19T12:00:00.000Z"
  },
  "LAX": {
    "raw": "METAR KLAX 191153Z 00000KT 10SM BKN220 17/13 A2988 RMK AO2 SLP114 T01720133 10183 20161 56014 $",
    "icao": "KLAX",
    "flightCategory": "VFR",
    "windDir": 0,
    "windSpeed": 0,
    "windGust": null,
    "visibility": 10,
    "ceiling": 22000,
    "temp": 17.2,
    "dewpoint": 13.3,
    "altimeter": 29.88,
    "conditions": "",
    "observationTime": "2026-04-19T12:00:00.000Z"
  },
  "ORD": {
    "raw": "METAR KORD 191151Z 23006KT 10SM FEW100 03/M03 A3009 RMK AO2 SLP193 T00281028 10044 20022 53002 $",
    "icao": "KORD",
    "flightCategory": "VFR",
    "windDir": 230,
    "windSpeed": 6,
    "windGust": null,
    "visibility": 10,
    "ceiling": null,
    "temp": 2.8,
    "dewpoint": -2.8,
    "altimeter": 30.09,
    "conditions": "",
    "observationTime": "2026-04-19T12:00:00.000Z"
  },
  "LHR": {
    "raw": "METAR EGLL 191120Z COR AUTO 36007KT 300V050 9999 NCD 14/M01 Q1026 NOSIG",
    "icao": "EGLL",
    "flightCategory": "VFR",
    "windDir": 360,
    "windSpeed": 7,
    "windGust": null,
    "visibility": 6,
    "ceiling": null,
    "temp": 14,
    "dewpoint": -1,
    "altimeter": 30.3,
    "conditions": "",
    "observationTime": "2026-04-19T11:20:00.000Z"
  }
}