{
  "SYD": {
    "raw": "METAR YSSY 302330Z 36010KT CAVOK 18/12 Q1018",
    "icao": "YSSY",
    "flightCategory": "VFR",
    "windDir": 360,
    "windSpeed": 10,
    "windGust": null,
    "visibility": 6,
    "ceiling": null,
    "temp": 18,
    "dewpoint": 12,
    "altimeter": 30.06,
    "conditions": "",
    "observationTime": "2026-06-30T23:30:00.000Z"
  },
  "LAS": {
    "raw": "METAR KLAS 302356Z 08006G16KT 10SM FEW140 34/M04 A2976 RMK AO2 SLP050 T03441039 10350 20300 56017",
    "icao": "KLAS",
    "flightCategory": "VFR",
    "windDir": 80,
    "windSpeed": 6,
    "windGust": 16,
    "visibility": 10,
    "ceiling": null,
    "temp": 34.4,
    "dewpoint": -3.9,
    "altimeter": 29.76,
    "conditions": "",
    "observationTime": "2026-07-01T00:00:00.000Z"
  },
  "LAX": {
    "raw": "METAR KLAX 302353Z 26015G21KT 10SM FEW018 20/14 A2993 RMK AO2 SLP134 T02000139 10217 20200 56008 $",
    "icao": "KLAX",
    "flightCategory": "VFR",
    "windDir": 260,
    "windSpeed": 15,
    "windGust": 21,
    "visibility": 10,
    "ceiling": null,
    "temp": 20,
    "dewpoint": 13.9,
    "altimeter": 29.93,
    "conditions": "",
    "observationTime": "2026-07-01T00:00:00.000Z"
  },
  "ORD": {
    "raw": "METAR KORD 302351Z 21014G26KT 10SM FEW037 FEW300 33/24 A2987 RMK AO2 PK WND 21031/2305 SLP109 T03280239 10344 20322 55006 $",
    "icao": "KORD",
    "flightCategory": "VFR",
    "windDir": 210,
    "windSpeed": 14,
    "windGust": 26,
    "visibility": 10,
    "ceiling": null,
    "temp": 32.8,
    "dewpoint": 23.9,
    "altimeter": 29.87,
    "conditions": "",
    "observationTime": "2026-07-01T00:00:00.000Z"
  },
  "LHR": {
    "raw": "METAR EGLL 302320Z AUTO 27010KT 9999 -RA NCD 17/13 Q1022",
    "icao": "EGLL",
    "flightCategory": "VFR",
    "windDir": 270,
    "windSpeed": 10,
    "windGust": null,
    "visibility": 6,
    "ceiling": null,
    "temp": 17,
    "dewpoint": 13,
    "altimeter": 30.18,
    "conditions": "-RA",
    "observationTime": "2026-06-30T23:20:00.000Z"
  }
}