{
  "SYD": {
    "raw": "SPECI YSSY 031859Z 19012KT 3000 1000W +RA SCT006 BKN010 BKN012 19/18 Q1024",
    "icao": "YSSY",
    "flightCategory": "IFR",
    "windDir": 190,
    "windSpeed": 12,
    "windGust": null,
    "visibility": 1.86,
    "ceiling": 1000,
    "temp": 19,
    "dewpoint": 18,
    "altimeter": 30.24,
    "conditions": "+RA",
    "observationTime": "2026-04-03T18:59:00.000Z"
  },
  "LHR": {
    "raw": "METAR EGLL 031850Z COR AUTO 25018KT 9999 -RADZ SCT026 BKN035 15/10 Q1011 NOSIG",
    "icao": "EGLL",
    "flightCategory": "VFR",
    "windDir": 250,
    "windSpeed": 18,
    "windGust": null,
    "visibility": 6,
    "ceiling": 3500,
    "temp": 15,
    "dewpoint": 10,
    "altimeter": 29.85,
    "conditions": "-RA -DZ",
    "observationTime": "2026-04-03T19:00:00.000Z"
  },
  "LAS": {
    "raw": "METAR KLAS 031856Z 04020G29KT 10SM CLR 17/M13 A3026 RMK AO2 PK WND 04034/1822 SLP233 T01721133",
    "icao": "KLAS",
    "flightCategory": "VFR",
    "windDir": 40,
    "windSpeed": 20,
    "windGust": 29,
    "visibility": 10,
    "ceiling": null,
    "temp": 17.2,
    "dewpoint": -13.3,
    "altimeter": 30.26,
    "conditions": "",
    "observationTime": "2026-04-03T19:00:00.000Z"
  },
  "LAX": {
    "raw": "METAR KLAX 031853Z 12003KT 10SM FEW060 SCT100 BKN160 BKN250 22/09 A3000 RMK AO2 SLP159 T02220094 $",
    "icao": "KLAX",
    "flightCategory": "VFR",
    "windDir": 120,
    "windSpeed": 3,
    "windGust": null,
    "visibility": 10,
    "ceiling": 16000,
    "temp": 22.2,
    "dewpoint": 9.4,
    "altimeter": 30,
    "conditions": "",
    "observationTime": "2026-04-03T19:00:00.000Z"
  },
  "ORD": {
    "raw": "METAR KORD 031851Z VRB03KT 10SM FEW020 FEW200 BKN250 13/06 A3007 RMK AO2 SLP182 T01330056",
    "icao": "KORD",
    "flightCategory": "VFR",
    "windDir": null,
    "windSpeed": 3,
    "windGust": null,
    "visibility": 10,
    "ceiling": 25000,
    "temp": 13.3,
    "dewpoint": 5.6,
    "altimeter": 30.07,
    "conditions": "",
    "observationTime": "2026-04-03T19:00:00.000Z"
  }
}