{
  "LHR": {
    "raw": "METAR EGLL 090550Z AUTO 23005KT 190V270 9999 NCD 21/14 Q1018",
    "icao": "EGLL",
    "flightCategory": "VFR",
    "windDir": 230,
    "windSpeed": 5,
    "windGust": null,
    "visibility": 6,
    "ceiling": null,
    "temp": 21,
    "dewpoint": 14,
    "altimeter": 30.06,
    "conditions": "",
    "observationTime": "2026-07-09T06:00:00.000Z"
  },
  "SYD": {
    "raw": "METAR YSSY 090530Z 17007KT 9999 FEW016 15/10 Q1027",
    "icao": "YSSY",
    "flightCategory": "VFR",
    "windDir": 170,
    "windSpeed": 7,
    "windGust": null,
    "visibility": 6,
    "ceiling": null,
    "temp": 15,
    "dewpoint": 10,
    "altimeter": 30.33,
    "conditions": "",
    "observationTime": "2026-07-09T05:30:00.000Z"
  },
  "LAS": {
    "raw": "METAR KLAS 090556Z 21006KT 10SM CLR 36/M08 A2983 RMK AO2 SLP065 T03561078 10422 20356 51008",
    "icao": "KLAS",
    "flightCategory": "VFR",
    "windDir": 210,
    "windSpeed": 6,
    "windGust": null,
    "visibility": 10,
    "ceiling": null,
    "temp": 35.6,
    "dewpoint": -7.8,
    "altimeter": 29.83,
    "conditions": "",
    "observationTime": "2026-07-09T06:00:00.000Z"
  },
  "LAX": {
    "raw": "METAR KLAX 090553Z 23005KT 10SM CLR 19/16 A2988 RMK AO2 SLP116 T01940161 10228 20194 51004",
    "icao": "KLAX",
    "flightCategory": "VFR",
    "windDir": 230,
    "windSpeed": 5,
    "windGust": null,
    "visibility": 10,
    "ceiling": null,
    "temp": 19.4,
    "dewpoint": 16.1,
    "altimeter": 29.88,
    "conditions": "",
    "observationTime": "2026-07-09T06:00:00.000Z"
  },
  "ORD": {
    "raw": "METAR KORD 090551Z 20004KT 10SM BKN250 25/19 A2992 RMK AO2 SLP126 T02500194 10300 20250 403170200 58007",
    "icao": "KORD",
    "flightCategory": "VFR",
    "windDir": 200,
    "windSpeed": 4,
    "windGust": null,
    "visibility": 10,
    "ceiling": 25000,
    "temp": 25,
    "dewpoint": 19.4,
    "altimeter": 29.92,
    "conditions": "",
    "observationTime": "2026-07-09T06:00:00.000Z"
  }
}