{
  "SYD": {
    "raw": "SPECI YSSY 260030Z 30006KT 3000 SHRA FEW008 SCT015 BKN030 19/18 Q1020",
    "icao": "YSSY",
    "flightCategory": "IFR",
    "windDir": 300,
    "windSpeed": 6,
    "windGust": null,
    "visibility": 1.86,
    "ceiling": 3000,
    "temp": 19,
    "dewpoint": 18,
    "altimeter": 30.12,
    "conditions": "SHRA",
    "observationTime": "2026-05-26T00:30:00.000Z"
  },
  "LAS": {
    "raw": "METAR KLAS 260056Z 21014G25KT 10SM FEW120 FEW250 34/M03 A2967 RMK AO2 WSHFT 2355 SLP019 T03391028",
    "icao": "KLAS",
    "flightCategory": "VFR",
    "windDir": 210,
    "windSpeed": 14,
    "windGust": 25,
    "visibility": 10,
    "ceiling": null,
    "temp": 33.9,
    "dewpoint": -2.8,
    "altimeter": 29.67,
    "conditions": "",
    "observationTime": "2026-05-26T01:00:00.000Z"
  },
  "LAX": {
    "raw": "METAR KLAX 260053Z 24015KT 10SM FEW019 18/11 A2989 RMK AO2 SLP121 T01830111 $",
    "icao": "KLAX",
    "flightCategory": "VFR",
    "windDir": 240,
    "windSpeed": 15,
    "windGust": null,
    "visibility": 10,
    "ceiling": null,
    "temp": 18.3,
    "dewpoint": 11.1,
    "altimeter": 29.89,
    "conditions": "",
    "observationTime": "2026-05-26T01:00:00.000Z"
  },
  "ORD": {
    "raw": "METAR KORD 260051Z 17007KT 10SM SCT250 26/10 A3004 RMK AO2 SLP168 T02560100 $",
    "icao": "KORD",
    "flightCategory": "VFR",
    "windDir": 170,
    "windSpeed": 7,
    "windGust": null,
    "visibility": 10,
    "ceiling": null,
    "temp": 25.6,
    "dewpoint": 10,
    "altimeter": 30.04,
    "conditions": "",
    "observationTime": "2026-05-26T01:00:00.000Z"
  },
  "LHR": {
    "raw": "METAR EGLL 260020Z AUTO 07004KT 9999 NCD 21/15 Q1029",
    "icao": "EGLL",
    "flightCategory": "VFR",
    "windDir": 70,
    "windSpeed": 4,
    "windGust": null,
    "visibility": 6,
    "ceiling": null,
    "temp": 21,
    "dewpoint": 15,
    "altimeter": 30.39,
    "conditions": "",
    "observationTime": "2026-05-26T00:20:00.000Z"
  }
}