{
  "SYD": {
    "raw": "METAR YSSY 021530Z AUTO 36006KT 9999 // FEW036 21/15 Q1022",
    "icao": "YSSY",
    "flightCategory": "VFR",
    "windDir": 360,
    "windSpeed": 6,
    "windGust": null,
    "visibility": 6,
    "ceiling": null,
    "temp": 21,
    "dewpoint": 15,
    "altimeter": 30.18,
    "conditions": "",
    "observationTime": "2026-05-02T15:30:00.000Z"
  },
  "LAS": {
    "raw": "METAR KLAS 021556Z 01006KT 10SM BKN250 23/M09 A3004 RMK AO2 SLP153 T02331089",
    "icao": "KLAS",
    "flightCategory": "VFR",
    "windDir": 10,
    "windSpeed": 6,
    "windGust": null,
    "visibility": 10,
    "ceiling": 25000,
    "temp": 23.3,
    "dewpoint": -8.9,
    "altimeter": 30.04,
    "conditions": "",
    "observationTime": "2026-05-02T16:00:00.000Z"
  },
  "LAX": {
    "raw": "SPECI KLAX 021538Z 08004KT 6SM HZ OVC010 16/13 A2998 RMK AO2 T01610133",
    "icao": "KLAX",
    "flightCategory": "MVFR",
    "windDir": 80,
    "windSpeed": 4,
    "windGust": null,
    "visibility": 6,
    "ceiling": 1000,
    "temp": 16.1,
    "dewpoint": 13.3,
    "altimeter": 29.98,
    "conditions": "HZ",
    "observationTime": "2026-05-02T15:38:00.000Z"
  },
  "ORD": {
    "raw": "METAR KORD 021551Z VRB05KT 10SM SCT060 10/M04 A3012 RMK AO2 SLP202 T01001044 $",
    "icao": "KORD",
    "flightCategory": "VFR",
    "windDir": null,
    "windSpeed": 5,
    "windGust": null,
    "visibility": 10,
    "ceiling": null,
    "temp": 10,
    "dewpoint": -4.4,
    "altimeter": 30.12,
    "conditions": "",
    "observationTime": "2026-05-02T16:00:00.000Z"
  },
  "LHR": {
    "raw": "METAR EGLL 021520Z COR AUTO 15007KT 130V200 9999 NCD 21/09 Q1013 NOSIG",
    "icao": "EGLL",
    "flightCategory": "VFR",
    "windDir": 150,
    "windSpeed": 7,
    "windGust": null,
    "visibility": 6,
    "ceiling": null,
    "temp": 21,
    "dewpoint": 9,
    "altimeter": 29.91,
    "conditions": "",
    "observationTime": "2026-05-02T15:20:00.000Z"
  }
}