{
  "SYD": {
    "raw": "METAR YSSY 031530Z AUTO 35011KT 9999 // BKN064 14/07 Q1004",
    "icao": "YSSY",
    "flightCategory": "VFR",
    "windDir": 350,
    "windSpeed": 11,
    "windGust": null,
    "visibility": 6,
    "ceiling": 6400,
    "temp": 14,
    "dewpoint": 7,
    "altimeter": 29.65,
    "conditions": "",
    "observationTime": "2026-06-03T15:30:00.000Z"
  },
  "LAS": {
    "raw": "METAR KLAS 031556Z 00000KT 10SM SCT200 BKN250 31/M02 A2996 RMK AO2 SLP116 T03061017",
    "icao": "KLAS",
    "flightCategory": "VFR",
    "windDir": 0,
    "windSpeed": 0,
    "windGust": null,
    "visibility": 10,
    "ceiling": 25000,
    "temp": 30.6,
    "dewpoint": -1.7,
    "altimeter": 29.96,
    "conditions": "",
    "observationTime": "2026-06-03T16:00:00.000Z"
  },
  "LAX": {
    "raw": "METAR KLAX 031553Z 24004KT 8SM BKN017 17/13 A3000 RMK AO2 SLP158 T01720128 $",
    "icao": "KLAX",
    "flightCategory": "MVFR",
    "windDir": 240,
    "windSpeed": 4,
    "windGust": null,
    "visibility": 8,
    "ceiling": 1700,
    "temp": 17.2,
    "dewpoint": 12.8,
    "altimeter": 30,
    "conditions": "",
    "observationTime": "2026-06-03T16:00:00.000Z"
  },
  "ORD": {
    "raw": "METAR KORD 031551Z 13007KT 10SM BKN250 26/05 A3032 RMK AO2 SLP266 T02560050",
    "icao": "KORD",
    "flightCategory": "VFR",
    "windDir": 130,
    "windSpeed": 7,
    "windGust": null,
    "visibility": 10,
    "ceiling": 25000,
    "temp": 25.6,
    "dewpoint": 5,
    "altimeter": 30.32,
    "conditions": "",
    "observationTime": "2026-06-03T16:00:00.000Z"
  },
  "LHR": {
    "raw": "METAR EGLL 031520Z AUTO 23022G32KT 9999 FEW027 BKN032 BKN038 19/13 Q0998",
    "icao": "EGLL",
    "flightCategory": "VFR",
    "windDir": 230,
    "windSpeed": 22,
    "windGust": 32,
    "visibility": 6,
    "ceiling": 3200,
    "temp": 19,
    "dewpoint": 13,
    "altimeter": 29.47,
    "conditions": "",
    "observationTime": "2026-06-03T15:20:00.000Z"
  }
}