{
  "SYD": {
    "raw": "METAR YSSY 160530Z 01007KT CAVOK 22/12 Q1027",
    "icao": "YSSY",
    "flightCategory": "VFR",
    "windDir": 10,
    "windSpeed": 7,
    "windGust": null,
    "visibility": 6,
    "ceiling": null,
    "temp": 22,
    "dewpoint": 12,
    "altimeter": 30.33,
    "conditions": "",
    "observationTime": "2026-06-16T05:30:00.000Z"
  },
  "LAS": {
    "raw": "METAR KLAS 160556Z 19006KT 10SM CLR 35/M01 A2989 RMK AO2 SLP088 T03501006 10417 20350 51009",
    "icao": "KLAS",
    "flightCategory": "VFR",
    "windDir": 190,
    "windSpeed": 6,
    "windGust": null,
    "visibility": 10,
    "ceiling": null,
    "temp": 35,
    "dewpoint": -0.6,
    "altimeter": 29.89,
    "conditions": "",
    "observationTime": "2026-06-16T06:00:00.000Z"
  },
  "LAX": {
    "raw": "METAR KLAX 160553Z 22008KT 10SM SCT011 18/15 A3000 RMK AO2 SLP158 T01780150 10206 20178 53010 $",
    "icao": "KLAX",
    "flightCategory": "VFR",
    "windDir": 220,
    "windSpeed": 8,
    "windGust": null,
    "visibility": 10,
    "ceiling": null,
    "temp": 17.8,
    "dewpoint": 15,
    "altimeter": 30,
    "conditions": "",
    "observationTime": "2026-06-16T06:00:00.000Z"
  },
  "ORD": {
    "raw": "METAR KORD 160551Z 21008KT 10SM FEW180 SCT250 18/09 A2980 RMK AO2 SLP089 T01830094 10239 20183 402500117 58012",
    "icao": "KORD",
    "flightCategory": "VFR",
    "windDir": 210,
    "windSpeed": 8,
    "windGust": null,
    "visibility": 10,
    "ceiling": null,
    "temp": 18.3,
    "dewpoint": 9.4,
    "altimeter": 29.8,
    "conditions": "",
    "observationTime": "2026-06-16T06:00:00.000Z"
  },
  "LHR": {
    "raw": "METAR EGLL 160520Z AUTO 27006KT 9999 OVC012 16/13 Q1013",
    "icao": "EGLL",
    "flightCategory": "MVFR",
    "windDir": 270,
    "windSpeed": 6,
    "windGust": null,
    "visibility": 6,
    "ceiling": 1200,
    "temp": 16,
    "dewpoint": 13,
    "altimeter": 29.91,
    "conditions": "",
    "observationTime": "2026-06-16T05:20:00.000Z"
  }
}