{
  "LAX": {
    "raw": "METAR KLAX 172053Z 25012KT 10SM FEW010 SCT015 20/15 A2994 RMK AO2 SLP137 SCT V BKN T02000150 58003 $",
    "icao": "KLAX",
    "flightCategory": "VFR",
    "windDir": 250,
    "windSpeed": 12,
    "windGust": null,
    "visibility": 10,
    "ceiling": null,
    "temp": 20,
    "dewpoint": 15,
    "altimeter": 29.94,
    "conditions": "",
    "observationTime": "2026-06-17T21:00:00.000Z"
  },
  "SYD": {
    "raw": "METAR YSSY 172030Z 31007KT CAVOK 13/12 Q1020",
    "icao": "YSSY",
    "flightCategory": "VFR",
    "windDir": 310,
    "windSpeed": 7,
    "windGust": null,
    "visibility": 6,
    "ceiling": null,
    "temp": 13,
    "dewpoint": 12,
    "altimeter": 30.12,
    "conditions": "",
    "observationTime": "2026-06-17T20:30:00.000Z"
  },
  "LAS": {
    "raw": "METAR KLAS 172056Z 20011G23KT 10SM FEW130 SCT200 41/02 A2975 RMK AO2 SLP037 FU SCT200 T04110022 58012",
    "icao": "KLAS",
    "flightCategory": "VFR",
    "windDir": 200,
    "windSpeed": 11,
    "windGust": 23,
    "visibility": 10,
    "ceiling": null,
    "temp": 41.1,
    "dewpoint": 2.2,
    "altimeter": 29.75,
    "conditions": "",
    "observationTime": "2026-06-17T21:00:00.000Z"
  },
  "ORD": {
    "raw": "METAR KORD 172051Z 16013G23KT 10SM SCT009 BKN120 BKN250 18/16 A2940 RMK AO2 RAE1956 PRESFR SLP952 P0000 60020 T01780161 58031",
    "icao": "KORD",
    "flightCategory": "VFR",
    "windDir": 160,
    "windSpeed": 13,
    "windGust": 23,
    "visibility": 10,
    "ceiling": 12000,
    "temp": 17.8,
    "dewpoint": 16.1,
    "altimeter": 29.4,
    "conditions": "",
    "observationTime": "2026-06-17T21:00:00.000Z"
  },
  "LHR": {
    "raw": "METAR EGLL 172020Z AUTO 22009KT 180V250 9999 OVC020 20/16 Q1018",
    "icao": "EGLL",
    "flightCategory": "MVFR",
    "windDir": 220,
    "windSpeed": 9,
    "windGust": null,
    "visibility": 6,
    "ceiling": 2000,
    "temp": 20,
    "dewpoint": 16,
    "altimeter": 30.06,
    "conditions": "",
    "observationTime": "2026-06-17T20:20:00.000Z"
  }
}