{
  "SYD": {
    "raw": "METAR YSSY 060930Z AUTO 21013KT 9999 // FEW018 BKN031 BKN036 13/12 Q1034",
    "icao": "YSSY",
    "flightCategory": "VFR",
    "windDir": 210,
    "windSpeed": 13,
    "windGust": null,
    "visibility": 6,
    "ceiling": 3100,
    "temp": 13,
    "dewpoint": 12,
    "altimeter": 30.53,
    "conditions": "",
    "observationTime": "2026-07-06T09:30:00.000Z"
  },
  "LAS": {
    "raw": "METAR KLAS 060956Z 18007KT 10SM CLR 31/08 A2985 RMK AO2 SLP077 T03060078 $",
    "icao": "KLAS",
    "flightCategory": "VFR",
    "windDir": 180,
    "windSpeed": 7,
    "windGust": null,
    "visibility": 10,
    "ceiling": null,
    "temp": 30.6,
    "dewpoint": 7.8,
    "altimeter": 29.85,
    "conditions": "",
    "observationTime": "2026-07-06T10:00:00.000Z"
  },
  "LAX": {
    "raw": "METAR KLAX 060953Z 18004KT 10SM FEW011 18/16 A2992 RMK AO2 SLP129 T01830161",
    "icao": "KLAX",
    "flightCategory": "VFR",
    "windDir": 180,
    "windSpeed": 4,
    "windGust": null,
    "visibility": 10,
    "ceiling": null,
    "temp": 18.3,
    "dewpoint": 16.1,
    "altimeter": 29.92,
    "conditions": "",
    "observationTime": "2026-07-06T10:00:00.000Z"
  },
  "ORD": {
    "raw": "METAR KORD 060951Z 03009KT 10SM BKN014 21/16 A3002 RMK AO2 SLP162 T02060161 $",
    "icao": "KORD",
    "flightCategory": "MVFR",
    "windDir": 30,
    "windSpeed": 9,
    "windGust": null,
    "visibility": 10,
    "ceiling": 1400,
    "temp": 20.6,
    "dewpoint": 16.1,
    "altimeter": 30.02,
    "conditions": "",
    "observationTime": "2026-07-06T10:00:00.000Z"
  },
  "LHR": {
    "raw": "METAR EGLL 060920Z AUTO 25011KT 9999 NCD 26/11 Q1019",
    "icao": "EGLL",
    "flightCategory": "VFR",
    "windDir": 250,
    "windSpeed": 11,
    "windGust": null,
    "visibility": 6,
    "ceiling": null,
    "temp": 26,
    "dewpoint": 11,
    "altimeter": 30.09,
    "conditions": "",
    "observationTime": "2026-07-06T09:20:00.000Z"
  }
}