{
  "LHR": {
    "raw": "METAR EGLL 312150Z COR AUTO 27006KT 9999 NCD 13/08 Q1028 NOSIG",
    "icao": "EGLL",
    "flightCategory": "VFR",
    "windDir": 270,
    "windSpeed": 6,
    "windGust": null,
    "visibility": 6,
    "ceiling": null,
    "temp": 13,
    "dewpoint": 8,
    "altimeter": 30.36,
    "conditions": "",
    "observationTime": "2026-03-31T22:00:00.000Z"
  },
  "LAS": {
    "raw": "METAR KLAS 312156Z 24017G40KT 10SM FEW100 BKN120 OVC200 26/M01 A2984 RMK AO2 PK WND 24040/2151 SLP084 ACSL DSNT S AND W-NW T02611006",
    "icao": "KLAS",
    "flightCategory": "VFR",
    "windDir": 240,
    "windSpeed": 17,
    "windGust": 40,
    "visibility": 10,
    "ceiling": 12000,
    "temp": 26.1,
    "dewpoint": -0.6,
    "altimeter": 29.84,
    "conditions": "",
    "observationTime": "2026-03-31T22:00:00.000Z"
  },
  "SYD": {
    "raw": "METAR YSSY 312130Z 33005KT 9999 FEW030 20/16 Q1024",
    "icao": "YSSY",
    "flightCategory": "VFR",
    "windDir": 330,
    "windSpeed": 5,
    "windGust": null,
    "visibility": 6,
    "ceiling": null,
    "temp": 20,
    "dewpoint": 16,
    "altimeter": 30.24,
    "conditions": "",
    "observationTime": "2026-03-31T21:30:00.000Z"
  },
  "LAX": {
    "raw": "METAR KLAX 312153Z 13004G15KT 10SM FEW026 FEW040 OVC150 21/14 A2995 RMK AO2 SLP142 T02060139 $",
    "icao": "KLAX",
    "flightCategory": "VFR",
    "windDir": 130,
    "windSpeed": 4,
    "windGust": 15,
    "visibility": 10,
    "ceiling": 15000,
    "temp": 20.6,
    "dewpoint": 13.9,
    "altimeter": 29.95,
    "conditions": "",
    "observationTime": "2026-03-31T22:00:00.000Z"
  },
  "ORD": {
    "raw": "METAR KORD 312151Z 03007KT 10SM FEW015 OVC020 09/06 A2983 RMK AO2 PK WND 01028/2056 WSHFT 2052 SLP102 T00940056 $",
    "icao": "KORD",
    "flightCategory": "MVFR",
    "windDir": 30,
    "windSpeed": 7,
    "windGust": null,
    "visibility": 10,
    "ceiling": 2000,
    "temp": 9.4,
    "dewpoint": 5.6,
    "altimeter": 29.83,
    "conditions": "",
    "observationTime": "2026-03-31T22:00:00.000Z"
  }
}