{
  "SYD": {
    "raw": "METAR YSSY 180130Z 29007KT 9999 -RA FEW026 BKN100 OVC120 18/16 Q1018",
    "icao": "YSSY",
    "flightCategory": "VFR",
    "windDir": 290,
    "windSpeed": 7,
    "windGust": null,
    "visibility": 6,
    "ceiling": 10000,
    "temp": 18,
    "dewpoint": 16,
    "altimeter": 30.06,
    "conditions": "-RA",
    "observationTime": "2026-05-18T01:30:00.000Z"
  },
  "LAS": {
    "raw": "METAR KLAS 180156Z 23020G28KT 10SM FEW130 FEW200 28/M07 A2942 RMK AO2 PK WND 26040/0120 SLP939 T02831067",
    "icao": "KLAS",
    "flightCategory": "VFR",
    "windDir": 230,
    "windSpeed": 20,
    "windGust": 28,
    "visibility": 10,
    "ceiling": null,
    "temp": 28.3,
    "dewpoint": -6.7,
    "altimeter": 29.42,
    "conditions": "",
    "observationTime": "2026-05-18T02:00:00.000Z"
  },
  "LAX": {
    "raw": "METAR KLAX 180153Z 27010KT 9SM SCT050 17/13 A2974 RMK AO2 SLP068 T01720128",
    "icao": "KLAX",
    "flightCategory": "VFR",
    "windDir": 270,
    "windSpeed": 10,
    "windGust": null,
    "visibility": 9,
    "ceiling": null,
    "temp": 17.2,
    "dewpoint": 12.8,
    "altimeter": 29.74,
    "conditions": "",
    "observationTime": "2026-05-18T02:00:00.000Z"
  },
  "ORD": {
    "raw": "METAR KORD 180151Z 19014G22KT 10SM FEW055 SCT130 BKN170 BKN250 27/16 A2980 RMK AO2 PK WND 19029/0105 SLP085 T02670161 $",
    "icao": "KORD",
    "flightCategory": "VFR",
    "windDir": 190,
    "windSpeed": 14,
    "windGust": 22,
    "visibility": 10,
    "ceiling": 17000,
    "temp": 26.7,
    "dewpoint": 16.1,
    "altimeter": 29.8,
    "conditions": "",
    "observationTime": "2026-05-18T02:00:00.000Z"
  },
  "LHR": {
    "raw": "METAR EGLL 180150Z AUTO 21007KT 9999 NCD 08/06 Q1011",
    "icao": "EGLL",
    "flightCategory": "VFR",
    "windDir": 210,
    "windSpeed": 7,
    "windGust": null,
    "visibility": 6,
    "ceiling": null,
    "temp": 8,
    "dewpoint": 6,
    "altimeter": 29.85,
    "conditions": "",
    "observationTime": "2026-05-18T02:00:00.000Z"
  }
}