{
  "LHR": {
    "raw": "METAR EGLL 041750Z AUTO 27022KT 9999 FEW045/// //////CB 19/08 Q1000",
    "icao": "EGLL",
    "flightCategory": "VFR",
    "windDir": 270,
    "windSpeed": 22,
    "windGust": null,
    "visibility": 6,
    "ceiling": null,
    "temp": 19,
    "dewpoint": 8,
    "altimeter": 29.53,
    "conditions": "",
    "observationTime": "2026-06-04T18:00:00.000Z"
  },
  "SYD": {
    "raw": "METAR YSSY 041800Z AUTO 26011KT 9999 // SCT065 BKN086 BKN115 13/05 Q1005",
    "icao": "YSSY",
    "flightCategory": "VFR",
    "windDir": 260,
    "windSpeed": 11,
    "windGust": null,
    "visibility": 6,
    "ceiling": 8600,
    "temp": 13,
    "dewpoint": 5,
    "altimeter": 29.68,
    "conditions": "",
    "observationTime": "2026-06-04T18:00:00.000Z"
  },
  "LAX": {
    "raw": "METAR KLAX 041753Z 27008KT 7SM FEW009 OVC014 19/15 A2991 RMK AO2 SLP127 T01890150 10194 20167 51007 $",
    "icao": "KLAX",
    "flightCategory": "MVFR",
    "windDir": 270,
    "windSpeed": 8,
    "windGust": null,
    "visibility": 7,
    "ceiling": 1400,
    "temp": 18.9,
    "dewpoint": 15,
    "altimeter": 29.91,
    "conditions": "",
    "observationTime": "2026-06-04T18:00:00.000Z"
  },
  "LAS": {
    "raw": "METAR KLAS 041756Z 13003KT 10SM CLR 35/00 A2986 RMK AO2 SLP081 T03500000 10350 20261 58001",
    "icao": "KLAS",
    "flightCategory": "VFR",
    "windDir": 130,
    "windSpeed": 3,
    "windGust": null,
    "visibility": 10,
    "ceiling": null,
    "temp": 35,
    "dewpoint": 0,
    "altimeter": 29.86,
    "conditions": "",
    "observationTime": "2026-06-04T18:00:00.000Z"
  },
  "ORD": {
    "raw": "METAR KORD 041751Z 21014G23KT 10SM BKN300 29/08 A3008 RMK AO2 SLP181 T02890083 10289 20194 58021",
    "icao": "KORD",
    "flightCategory": "VFR",
    "windDir": 210,
    "windSpeed": 14,
    "windGust": 23,
    "visibility": 10,
    "ceiling": 30000,
    "temp": 28.9,
    "dewpoint": 8.3,
    "altimeter": 30.08,
    "conditions": "",
    "observationTime": "2026-06-04T18:00:00.000Z"
  }
}