{
  "SYD": {
    "raw": "METAR YSSY 281030Z AUTO 18019KT 9999 // FEW019 OVC034 20/18 Q1007",
    "icao": "YSSY",
    "flightCategory": "VFR",
    "windDir": 180,
    "windSpeed": 19,
    "windGust": null,
    "visibility": 6,
    "ceiling": 3400,
    "temp": 20,
    "dewpoint": 18,
    "altimeter": 29.74,
    "conditions": "",
    "observationTime": "2026-05-28T10:30:00.000Z"
  },
  "LAS": {
    "raw": "METAR KLAS 281056Z 22014KT 10SM FEW140 FEW250 15/01 A2981 RMK AO2 SLP077 ACC DSNT NE T01500006",
    "icao": "KLAS",
    "flightCategory": "VFR",
    "windDir": 220,
    "windSpeed": 14,
    "windGust": null,
    "visibility": 10,
    "ceiling": null,
    "temp": 15,
    "dewpoint": 0.6,
    "altimeter": 29.81,
    "conditions": "",
    "observationTime": "2026-05-28T11:00:00.000Z"
  },
  "LAX": {
    "raw": "METAR KLAX 281053Z 00000KT 10SM FEW018 FEW022 SCT055 SCT150 14/08 A2992 RMK AO2 SLP131 T01440078 $",
    "icao": "KLAX",
    "flightCategory": "VFR",
    "windDir": 0,
    "windSpeed": 0,
    "windGust": null,
    "visibility": 10,
    "ceiling": null,
    "temp": 14.4,
    "dewpoint": 7.8,
    "altimeter": 29.92,
    "conditions": "",
    "observationTime": "2026-05-28T11:00:00.000Z"
  },
  "ORD": {
    "raw": "METAR KORD 281051Z 02010KT 10SM FEW080 SCT250 14/08 A3015 RMK AO2 SLP206 T01390078 $",
    "icao": "KORD",
    "flightCategory": "VFR",
    "windDir": 20,
    "windSpeed": 10,
    "windGust": null,
    "visibility": 10,
    "ceiling": null,
    "temp": 13.9,
    "dewpoint": 7.8,
    "altimeter": 30.15,
    "conditions": "",
    "observationTime": "2026-05-28T11:00:00.000Z"
  },
  "LHR": {
    "raw": "METAR EGLL 281020Z AUTO 15012KT 9999 NCD 28/15 Q1021",
    "icao": "EGLL",
    "flightCategory": "VFR",
    "windDir": 150,
    "windSpeed": 12,
    "windGust": null,
    "visibility": 6,
    "ceiling": null,
    "temp": 28,
    "dewpoint": 15,
    "altimeter": 30.15,
    "conditions": "",
    "observationTime": "2026-05-28T10:20:00.000Z"
  }
}