{
  "LHR": {
    "raw": "METAR EGLL 160350Z AUTO 29003KT 9999 NCD 05/01 Q1008",
    "icao": "EGLL",
    "flightCategory": "VFR",
    "windDir": 290,
    "windSpeed": 3,
    "windGust": null,
    "visibility": 6,
    "ceiling": null,
    "temp": 5,
    "dewpoint": 1,
    "altimeter": 29.77,
    "conditions": "",
    "observationTime": "2026-05-16T04:00:00.000Z"
  },
  "SYD": {
    "raw": "METAR YSSY 160330Z 15009KT 9999 FEW018 SCT028 BKN280 20/17 Q1023",
    "icao": "YSSY",
    "flightCategory": "VFR",
    "windDir": 150,
    "windSpeed": 9,
    "windGust": null,
    "visibility": 6,
    "ceiling": 28000,
    "temp": 20,
    "dewpoint": 17,
    "altimeter": 30.21,
    "conditions": "",
    "observationTime": "2026-05-16T03:30:00.000Z"
  },
  "LAS": {
    "raw": "METAR KLAS 160356Z 20006KT 10SM FEW120 33/M04 A2970 RMK AO2 SLP027 T03281044",
    "icao": "KLAS",
    "flightCategory": "VFR",
    "windDir": 200,
    "windSpeed": 6,
    "windGust": null,
    "visibility": 10,
    "ceiling": null,
    "temp": 32.8,
    "dewpoint": -4.4,
    "altimeter": 29.7,
    "conditions": "",
    "observationTime": "2026-05-16T04:00:00.000Z"
  },
  "LAX": {
    "raw": "METAR KLAX 160353Z 24007KT 9SM FEW012 17/14 A2993 RMK AO2 SLP135 T01670139",
    "icao": "KLAX",
    "flightCategory": "VFR",
    "windDir": 240,
    "windSpeed": 7,
    "windGust": null,
    "visibility": 9,
    "ceiling": null,
    "temp": 16.7,
    "dewpoint": 13.9,
    "altimeter": 29.93,
    "conditions": "",
    "observationTime": "2026-05-16T04:00:00.000Z"
  },
  "ORD": {
    "raw": "METAR KORD 160351Z 17011G18KT 10SM FEW100 19/12 A2981 RMK AO2 SLP092 T01940117",
    "icao": "KORD",
    "flightCategory": "VFR",
    "windDir": 170,
    "windSpeed": 11,
    "windGust": 18,
    "visibility": 10,
    "ceiling": null,
    "temp": 19.4,
    "dewpoint": 11.7,
    "altimeter": 29.81,
    "conditions": "",
    "observationTime": "2026-05-16T04:00:00.000Z"
  }
}