{
  "LAS": {
    "raw": "METAR KLAS 252056Z 22017G26KT 10SM BKN100 OVC200 23/01 A2969 RMK AO2 PK WND 24028/2028 SLP036 T02280006 56010",
    "icao": "KLAS",
    "flightCategory": "VFR",
    "windDir": 220,
    "windSpeed": 17,
    "windGust": 26,
    "visibility": 10,
    "ceiling": 10000,
    "temp": 22.8,
    "dewpoint": 0.6,
    "altimeter": 29.69,
    "conditions": "",
    "observationTime": "2026-04-25T21:00:00.000Z"
  },
  "LAX": {
    "raw": "METAR KLAX 252053Z 22012G19KT 10SM FEW022 SCT040 BKN110 BKN200 17/09 A2989 RMK AO2 PK WND 24026/1958 SLP121 T01720094 56009",
    "icao": "KLAX",
    "flightCategory": "VFR",
    "windDir": 220,
    "windSpeed": 12,
    "windGust": 19,
    "visibility": 10,
    "ceiling": 11000,
    "temp": 17.2,
    "dewpoint": 9.4,
    "altimeter": 29.89,
    "conditions": "",
    "observationTime": "2026-04-25T21:00:00.000Z"
  },
  "ORD": {
    "raw": "METAR KORD 252051Z 02011KT 10SM FEW008 SCT250 13/06 A2999 RMK AO2 SLP155 T01280061 50000",
    "icao": "KORD",
    "flightCategory": "VFR",
    "windDir": 20,
    "windSpeed": 11,
    "windGust": null,
    "visibility": 10,
    "ceiling": null,
    "temp": 12.8,
    "dewpoint": 6.1,
    "altimeter": 29.99,
    "conditions": "",
    "observationTime": "2026-04-25T21:00:00.000Z"
  },
  "LHR": {
    "raw": "METAR EGLL 252020Z COR AUTO 13009KT 9999 NCD 15/M02 Q1022 NOSIG",
    "icao": "EGLL",
    "flightCategory": "VFR",
    "windDir": 130,
    "windSpeed": 9,
    "windGust": null,
    "visibility": 6,
    "ceiling": null,
    "temp": 15,
    "dewpoint": -2,
    "altimeter": 30.18,
    "conditions": "",
    "observationTime": "2026-04-25T20:20:00.000Z"
  },
  "SYD": {
    "raw": "METAR YSSY 252000Z 31006KT 9999 FEW027 15/13 Q1026",
    "icao": "YSSY",
    "flightCategory": "VFR",
    "windDir": 310,
    "windSpeed": 6,
    "windGust": null,
    "visibility": 6,
    "ceiling": null,
    "temp": 15,
    "dewpoint": 13,
    "altimeter": 30.3,
    "conditions": "",
    "observationTime": "2026-04-25T20:00:00.000Z"
  }
}