{
  "SYD": {
    "raw": "METAR YSSY 170030Z 30004KT 260V330 CAVOK 25/09 Q1013",
    "icao": "YSSY",
    "flightCategory": "VFR",
    "windDir": 300,
    "windSpeed": 4,
    "windGust": null,
    "visibility": 6,
    "ceiling": null,
    "temp": 25,
    "dewpoint": 9,
    "altimeter": 29.91,
    "conditions": "",
    "observationTime": "2026-04-17T00:30:00.000Z"
  },
  "LAS": {
    "raw": "METAR KLAS 170056Z 20020G29KT 10SM FEW120 FEW170 BKN250 26/M02 A2970 RMK AO2 SLP039 T02561022 $",
    "icao": "KLAS",
    "flightCategory": "VFR",
    "windDir": 200,
    "windSpeed": 20,
    "windGust": 29,
    "visibility": 10,
    "ceiling": 25000,
    "temp": 25.6,
    "dewpoint": -2.2,
    "altimeter": 29.7,
    "conditions": "",
    "observationTime": "2026-04-17T01:00:00.000Z"
  },
  "LAX": {
    "raw": "METAR KLAX 170053Z 23009KT 10SM FEW015 FEW250 18/13 A2988 RMK AO2 SLP116 T01830128",
    "icao": "KLAX",
    "flightCategory": "VFR",
    "windDir": 230,
    "windSpeed": 9,
    "windGust": null,
    "visibility": 10,
    "ceiling": null,
    "temp": 18.3,
    "dewpoint": 12.8,
    "altimeter": 29.88,
    "conditions": "",
    "observationTime": "2026-04-17T01:00:00.000Z"
  },
  "ORD": {
    "raw": "METAR KORD 170051Z 04006KT 10SM FEW005 FEW045 12/11 A2989 RMK AO2 SLP121 T01220106 $",
    "icao": "KORD",
    "flightCategory": "VFR",
    "windDir": 40,
    "windSpeed": 6,
    "windGust": null,
    "visibility": 10,
    "ceiling": null,
    "temp": 12.2,
    "dewpoint": 10.6,
    "altimeter": 29.89,
    "conditions": "",
    "observationTime": "2026-04-17T01:00:00.000Z"
  },
  "LHR": {
    "raw": "METAR EGLL 170020Z COR AUTO 19009KT 9999 NCD 11/09 Q1020 NOSIG",
    "icao": "EGLL",
    "flightCategory": "VFR",
    "windDir": 190,
    "windSpeed": 9,
    "windGust": null,
    "visibility": 6,
    "ceiling": null,
    "temp": 11,
    "dewpoint": 9,
    "altimeter": 30.12,
    "conditions": "",
    "observationTime": "2026-04-17T00:20:00.000Z"
  }
}