{
  "SYD": {
    "raw": "SPECI YSSY 252330Z 21005KT 6000 +DZ FEW006 SCT015 BKN030 13/12 Q1033",
    "icao": "YSSY",
    "flightCategory": "MVFR",
    "windDir": 210,
    "windSpeed": 5,
    "windGust": null,
    "visibility": 3.73,
    "ceiling": 3000,
    "temp": 13,
    "dewpoint": 12,
    "altimeter": 30.5,
    "conditions": "+DZ",
    "observationTime": "2026-06-25T23:30:00.000Z"
  },
  "LAS": {
    "raw": "METAR KLAS 252356Z 24019G26KT 10SM FEW120 41/M07 A2969 RMK AO2 PK WND 26029/2339 SLP021 T04111072 10417 20350 56019",
    "icao": "KLAS",
    "flightCategory": "VFR",
    "windDir": 240,
    "windSpeed": 19,
    "windGust": 26,
    "visibility": 10,
    "ceiling": null,
    "temp": 41.1,
    "dewpoint": -7.2,
    "altimeter": 29.69,
    "conditions": "",
    "observationTime": "2026-06-26T00:00:00.000Z"
  },
  "LAX": {
    "raw": "METAR KLAX 252353Z 26016G22KT 10SM FEW011 21/15 A2989 RMK AO2 SLP120 T02060150 10222 20200 56013",
    "icao": "KLAX",
    "flightCategory": "VFR",
    "windDir": 260,
    "windSpeed": 16,
    "windGust": 22,
    "visibility": 10,
    "ceiling": null,
    "temp": 20.6,
    "dewpoint": 15,
    "altimeter": 29.89,
    "conditions": "",
    "observationTime": "2026-06-26T00:00:00.000Z"
  },
  "ORD": {
    "raw": "METAR KORD 252351Z 31006G15KT 10SM SCT055 BKN250 26/13 A2994 RMK AO2 SLP134 T02560133 10261 20239 53001",
    "icao": "KORD",
    "flightCategory": "VFR",
    "windDir": 310,
    "windSpeed": 6,
    "windGust": 15,
    "visibility": 10,
    "ceiling": 25000,
    "temp": 25.6,
    "dewpoint": 13.3,
    "altimeter": 29.94,
    "conditions": "",
    "observationTime": "2026-06-26T00:00:00.000Z"
  },
  "LHR": {
    "raw": "METAR EGLL 252320Z AUTO 09010KT 9999 NCD 23/19 Q1014",
    "icao": "EGLL",
    "flightCategory": "VFR",
    "windDir": 90,
    "windSpeed": 10,
    "windGust": null,
    "visibility": 6,
    "ceiling": null,
    "temp": 23,
    "dewpoint": 19,
    "altimeter": 29.94,
    "conditions": "",
    "observationTime": "2026-06-25T23:20:00.000Z"
  }
}