{
  "SYD": {
    "raw": "METAR YSSY 262200Z 32007KT 9999 FEW036 15/11 Q1024",
    "icao": "YSSY",
    "flightCategory": "VFR",
    "windDir": 320,
    "windSpeed": 7,
    "windGust": null,
    "visibility": 6,
    "ceiling": null,
    "temp": 15,
    "dewpoint": 11,
    "altimeter": 30.24,
    "conditions": "",
    "observationTime": "2026-04-26T22:00:00.000Z"
  },
  "LHR": {
    "raw": "METAR EGLL 262220Z COR AUTO 11006KT 9999 NCD 10/06 Q1025 NOSIG",
    "icao": "EGLL",
    "flightCategory": "VFR",
    "windDir": 110,
    "windSpeed": 6,
    "windGust": null,
    "visibility": 6,
    "ceiling": null,
    "temp": 10,
    "dewpoint": 6,
    "altimeter": 30.27,
    "conditions": "",
    "observationTime": "2026-04-26T22:20:00.000Z"
  },
  "LAS": {
    "raw": "METAR KLAS 262156Z 23009KT 10SM FEW060 BKN085 BKN120 18/01 A2978 RMK AO2 SLP074 T01780011",
    "icao": "KLAS",
    "flightCategory": "VFR",
    "windDir": 230,
    "windSpeed": 9,
    "windGust": null,
    "visibility": 10,
    "ceiling": 8500,
    "temp": 17.8,
    "dewpoint": 1.1,
    "altimeter": 29.78,
    "conditions": "",
    "observationTime": "2026-04-26T22:00:00.000Z"
  },
  "LAX": {
    "raw": "METAR KLAX 262153Z 23020KT 10SM FEW024 FEW060 19/08 A2997 RMK AO2 PK WND 26028/2110 SLP146 T01890078 $",
    "icao": "KLAX",
    "flightCategory": "VFR",
    "windDir": 230,
    "windSpeed": 20,
    "windGust": null,
    "visibility": 10,
    "ceiling": null,
    "temp": 18.9,
    "dewpoint": 7.8,
    "altimeter": 29.97,
    "conditions": "",
    "observationTime": "2026-04-26T22:00:00.000Z"
  }
}