{
  "SYD": {
    "raw": "METAR YSSY 091930Z 34005KT CAVOK 14/12 Q1027",
    "icao": "YSSY",
    "flightCategory": "VFR",
    "windDir": 340,
    "windSpeed": 5,
    "windGust": null,
    "visibility": 6,
    "ceiling": null,
    "temp": 14,
    "dewpoint": 12,
    "altimeter": 30.33,
    "conditions": "",
    "observationTime": "2026-06-09T19:30:00.000Z"
  },
  "LAS": {
    "raw": "METAR KLAS 091956Z 18008G19KT 130V210 10SM CLR 33/02 A2981 RMK AO2 SLP066 T03330022",
    "icao": "KLAS",
    "flightCategory": "VFR",
    "windDir": 180,
    "windSpeed": 8,
    "windGust": 19,
    "visibility": 10,
    "ceiling": null,
    "temp": 33.3,
    "dewpoint": 2.2,
    "altimeter": 29.81,
    "conditions": "",
    "observationTime": "2026-06-09T20:00:00.000Z"
  },
  "LAX": {
    "raw": "METAR KLAX 091953Z 25011KT 10SM FEW019 22/14 A2991 RMK AO2 SLP127 T02170144",
    "icao": "KLAX",
    "flightCategory": "VFR",
    "windDir": 250,
    "windSpeed": 11,
    "windGust": null,
    "visibility": 10,
    "ceiling": null,
    "temp": 21.7,
    "dewpoint": 14.4,
    "altimeter": 29.91,
    "conditions": "",
    "observationTime": "2026-06-09T20:00:00.000Z"
  },
  "ORD": {
    "raw": "METAR KORD 091951Z 27011G15KT 10SM BKN038 BKN075 BKN250 30/22 A2986 RMK AO2 SLP105 T03000217",
    "icao": "KORD",
    "flightCategory": "VFR",
    "windDir": 270,
    "windSpeed": 11,
    "windGust": 15,
    "visibility": 10,
    "ceiling": 3800,
    "temp": 30,
    "dewpoint": 21.7,
    "altimeter": 29.86,
    "conditions": "",
    "observationTime": "2026-06-09T20:00:00.000Z"
  },
  "LHR": {
    "raw": "METAR EGLL 091920Z AUTO 27016KT 9999 NCD 16/04 Q1014",
    "icao": "EGLL",
    "flightCategory": "VFR",
    "windDir": 270,
    "windSpeed": 16,
    "windGust": null,
    "visibility": 6,
    "ceiling": null,
    "temp": 16,
    "dewpoint": 4,
    "altimeter": 29.94,
    "conditions": "",
    "observationTime": "2026-06-09T19:20:00.000Z"
  }
}