{
  "LHR": {
    "raw": "METAR EGLL 011850Z AUTO 21012KT 180V240 9999 OVC014/// //////TCU 18/14 Q1010",
    "icao": "EGLL",
    "flightCategory": "MVFR",
    "windDir": 210,
    "windSpeed": 12,
    "windGust": null,
    "visibility": 6,
    "ceiling": 1400,
    "temp": 18,
    "dewpoint": 14,
    "altimeter": 29.83,
    "conditions": "",
    "observationTime": "2026-06-01T19:00:00.000Z"
  },
  "SYD": {
    "raw": "METAR YSSY 011830Z AUTO 33008KT 9999 -SHRA BKN100 12/09 Q1009",
    "icao": "YSSY",
    "flightCategory": "VFR",
    "windDir": 330,
    "windSpeed": 8,
    "windGust": null,
    "visibility": 6,
    "ceiling": 10000,
    "temp": 12,
    "dewpoint": 9,
    "altimeter": 29.8,
    "conditions": "-SHRA",
    "observationTime": "2026-06-01T18:30:00.000Z"
  },
  "LAS": {
    "raw": "METAR KLAS 011856Z 05006KT 10SM FEW120 FEW250 33/M03 A2991 RMK AO2 SLP099 T03331028",
    "icao": "KLAS",
    "flightCategory": "VFR",
    "windDir": 50,
    "windSpeed": 6,
    "windGust": null,
    "visibility": 10,
    "ceiling": null,
    "temp": 33.3,
    "dewpoint": -2.8,
    "altimeter": 29.91,
    "conditions": "",
    "observationTime": "2026-06-01T19:00:00.000Z"
  },
  "LAX": {
    "raw": "METAR KLAX 011853Z 25011KT 10SM FEW020 22/14 A2996 RMK AO2 SLP144 T02170139 $",
    "icao": "KLAX",
    "flightCategory": "VFR",
    "windDir": 250,
    "windSpeed": 11,
    "windGust": null,
    "visibility": 10,
    "ceiling": null,
    "temp": 21.7,
    "dewpoint": 13.9,
    "altimeter": 29.96,
    "conditions": "",
    "observationTime": "2026-06-01T19:00:00.000Z"
  },
  "ORD": {
    "raw": "METAR KORD 011851Z 04007KT 10SM FEW070 BKN090 BKN250 20/06 A3009 RMK AO2 SLP187 T02000056",
    "icao": "KORD",
    "flightCategory": "VFR",
    "windDir": 40,
    "windSpeed": 7,
    "windGust": null,
    "visibility": 10,
    "ceiling": 9000,
    "temp": 20,
    "dewpoint": 5.6,
    "altimeter": 30.09,
    "conditions": "",
    "observationTime": "2026-06-01T19:00:00.000Z"
  }
}