{
  "SYD": {
    "raw": "METAR YSSY 070700Z AUTO 04008KT 9999 // BKN120 27/15 Q1009",
    "icao": "YSSY",
    "flightCategory": "VFR",
    "windDir": 40,
    "windSpeed": 8,
    "windGust": null,
    "visibility": 6,
    "ceiling": 12000,
    "temp": 27,
    "dewpoint": 15,
    "altimeter": 29.8,
    "conditions": "",
    "observationTime": "2026-04-07T07:00:00.000Z"
  },
  "LHR": {
    "raw": "METAR EGLL 070650Z COR AUTO 07006KT 9999 NCD 09/04 Q1023 NOSIG",
    "icao": "EGLL",
    "flightCategory": "VFR",
    "windDir": 70,
    "windSpeed": 6,
    "windGust": null,
    "visibility": 6,
    "ceiling": null,
    "temp": 9,
    "dewpoint": 4,
    "altimeter": 30.21,
    "conditions": "",
    "observationTime": "2026-04-07T07:00:00.000Z"
  },
  "ORD": {
    "raw": "METAR KORD 070651Z 03014KT 10SM BKN029 00/M06 A3040 RMK AO2 SLP301 T00001056 $",
    "icao": "KORD",
    "flightCategory": "MVFR",
    "windDir": 30,
    "windSpeed": 14,
    "windGust": null,
    "visibility": 10,
    "ceiling": 2900,
    "temp": 0,
    "dewpoint": -5.6,
    "altimeter": 30.4,
    "conditions": "",
    "observationTime": "2026-04-07T07:00:00.000Z"
  },
  "LAS": {
    "raw": "METAR KLAS 070656Z 20004KT 10SM FEW250 22/M12 A2990 RMK AO2 SLP105 T02221122",
    "icao": "KLAS",
    "flightCategory": "VFR",
    "windDir": 200,
    "windSpeed": 4,
    "windGust": null,
    "visibility": 10,
    "ceiling": null,
    "temp": 22.2,
    "dewpoint": -12.2,
    "altimeter": 29.9,
    "conditions": "",
    "observationTime": "2026-04-07T07:00:00.000Z"
  },
  "LAX": {
    "raw": "METAR KLAX 070653Z 24007KT 10SM FEW011 16/13 A3003 RMK AO2 SLP164 T01610128 $",
    "icao": "KLAX",
    "flightCategory": "VFR",
    "windDir": 240,
    "windSpeed": 7,
    "windGust": null,
    "visibility": 10,
    "ceiling": null,
    "temp": 16.1,
    "dewpoint": 12.8,
    "altimeter": 30.03,
    "conditions": "",
    "observationTime": "2026-04-07T07:00:00.000Z"
  }
}