{
  "LAS": {
    "raw": "METAR KLAS 042056Z 06012G20KT 10SM SCT250 24/M11 A3018 RMK AO2 SLP204 T02391106 58024",
    "icao": "KLAS",
    "flightCategory": "VFR",
    "windDir": 60,
    "windSpeed": 12,
    "windGust": 20,
    "visibility": 10,
    "ceiling": null,
    "temp": 23.9,
    "dewpoint": -10.6,
    "altimeter": 30.18,
    "conditions": "",
    "observationTime": "2026-04-04T21:00:00.000Z"
  },
  "LAX": {
    "raw": "METAR KLAX 042053Z 26012KT 10SM FEW260 SCT300 28/01 A2999 RMK AO2 SLP153 T02780011 58016 $",
    "icao": "KLAX",
    "flightCategory": "VFR",
    "windDir": 260,
    "windSpeed": 12,
    "windGust": null,
    "visibility": 10,
    "ceiling": null,
    "temp": 27.8,
    "dewpoint": 1.1,
    "altimeter": 29.99,
    "conditions": "",
    "observationTime": "2026-04-04T21:00:00.000Z"
  },
  "ORD": {
    "raw": "METAR KORD 042051Z 26015G23KT 10SM OVC022 08/03 A2987 RMK AO2 PK WND 25028/2019 SLP117 T00830033 53006 $",
    "icao": "KORD",
    "flightCategory": "MVFR",
    "windDir": 260,
    "windSpeed": 15,
    "windGust": 23,
    "visibility": 10,
    "ceiling": 2200,
    "temp": 8.3,
    "dewpoint": 3.3,
    "altimeter": 29.87,
    "conditions": "",
    "observationTime": "2026-04-04T21:00:00.000Z"
  },
  "LHR": {
    "raw": "METAR EGLL 042020Z COR AUTO 23020KT 9999 BKN027 BKN031 12/06 Q1008 NOSIG",
    "icao": "EGLL",
    "flightCategory": "MVFR",
    "windDir": 230,
    "windSpeed": 20,
    "windGust": null,
    "visibility": 6,
    "ceiling": 2700,
    "temp": 12,
    "dewpoint": 6,
    "altimeter": 29.77,
    "conditions": "",
    "observationTime": "2026-04-04T20:20:00.000Z"
  },
  "SYD": {
    "raw": "METAR YSSY 042000Z 12006KT 9999 VCSH FEW012 SCT030 BKN055 16/15 Q1025",
    "icao": "YSSY",
    "flightCategory": "VFR",
    "windDir": 120,
    "windSpeed": 6,
    "windGust": null,
    "visibility": 6,
    "ceiling": 5500,
    "temp": 16,
    "dewpoint": 15,
    "altimeter": 30.27,
    "conditions": "VCSH",
    "observationTime": "2026-04-04T20:00:00.000Z"
  }
}