{
  "LAX": {
    "raw": "METAR KLAX 071053Z VRB03KT 10SM FEW011 17/15 A2992 RMK AO2 SLP130 T01720150 $",
    "icao": "KLAX",
    "flightCategory": "VFR",
    "windDir": null,
    "windSpeed": 3,
    "windGust": null,
    "visibility": 10,
    "ceiling": null,
    "temp": 17.2,
    "dewpoint": 15,
    "altimeter": 29.92,
    "conditions": "",
    "observationTime": "2026-07-07T11:00:00.000Z"
  },
  "SYD": {
    "raw": "METAR YSSY 071100Z AUTO 23013KT 9999 // OVC058 14/11 Q1033",
    "icao": "YSSY",
    "flightCategory": "VFR",
    "windDir": 230,
    "windSpeed": 13,
    "windGust": null,
    "visibility": 6,
    "ceiling": 5800,
    "temp": 14,
    "dewpoint": 11,
    "altimeter": 30.5,
    "conditions": "",
    "observationTime": "2026-07-07T11:00:00.000Z"
  },
  "LHR": {
    "raw": "METAR EGLL 071050Z AUTO 27013KT 9999 NCD 27/12 Q1016",
    "icao": "EGLL",
    "flightCategory": "VFR",
    "windDir": 270,
    "windSpeed": 13,
    "windGust": null,
    "visibility": 6,
    "ceiling": null,
    "temp": 27,
    "dewpoint": 12,
    "altimeter": 30,
    "conditions": "",
    "observationTime": "2026-07-07T11:00:00.000Z"
  },
  "LAS": {
    "raw": "METAR KLAS 071056Z 19007KT 10SM CLR 31/03 A2987 RMK AO2 SLP082 T03060028 $",
    "icao": "KLAS",
    "flightCategory": "VFR",
    "windDir": 190,
    "windSpeed": 7,
    "windGust": null,
    "visibility": 10,
    "ceiling": null,
    "temp": 30.6,
    "dewpoint": 2.8,
    "altimeter": 29.87,
    "conditions": "",
    "observationTime": "2026-07-07T11:00:00.000Z"
  },
  "ORD": {
    "raw": "METAR KORD 071051Z 00000KT 10SM FEW035 FEW250 FEW300 19/14 A3009 RMK AO2 SLP187 T01890144 $",
    "icao": "KORD",
    "flightCategory": "VFR",
    "windDir": 0,
    "windSpeed": 0,
    "windGust": null,
    "visibility": 10,
    "ceiling": null,
    "temp": 18.9,
    "dewpoint": 14.4,
    "altimeter": 30.09,
    "conditions": "",
    "observationTime": "2026-07-07T11:00:00.000Z"
  }
}