{
  "LHR": {
    "raw": "METAR EGLL 300950Z COR AUTO 31010KT 260V360 9999 BKN039 10/02 Q1024 NOSIG",
    "icao": "EGLL",
    "flightCategory": "VFR",
    "windDir": 310,
    "windSpeed": 10,
    "windGust": null,
    "visibility": 6,
    "ceiling": 3900,
    "temp": 10,
    "dewpoint": 2,
    "altimeter": 30.24,
    "conditions": "",
    "observationTime": "2026-03-30T10:00:00.000Z"
  },
  "SYD": {
    "raw": "METAR YSSY 301000Z AUTO 06007KT 9999 // NCD 20/12 Q1024",
    "icao": "YSSY",
    "flightCategory": "VFR",
    "windDir": 60,
    "windSpeed": 7,
    "windGust": null,
    "visibility": 6,
    "ceiling": null,
    "temp": 20,
    "dewpoint": 12,
    "altimeter": 30.24,
    "conditions": "",
    "observationTime": "2026-03-30T10:00:00.000Z"
  },
  "LAS": {
    "raw": "METAR KLAS 300956Z 21014KT 10SM SCT180 24/M12 A2988 RMK AO2 SLP093 T02391117 $",
    "icao": "KLAS",
    "flightCategory": "VFR",
    "windDir": 210,
    "windSpeed": 14,
    "windGust": null,
    "visibility": 10,
    "ceiling": null,
    "temp": 23.9,
    "dewpoint": -11.7,
    "altimeter": 29.88,
    "conditions": "",
    "observationTime": "2026-03-30T10:00:00.000Z"
  },
  "LAX": {
    "raw": "SPECI KLAX 300936Z 00000KT 1/4SM R25L/P6000FT FG VV002 14/13 A2994 RMK AO2 VIS SE 1 T01390133 $",
    "icao": "KLAX",
    "flightCategory": "LIFR",
    "windDir": 0,
    "windSpeed": 0,
    "windGust": null,
    "visibility": 0.25,
    "ceiling": 200,
    "temp": 13.9,
    "dewpoint": 13.3,
    "altimeter": 29.94,
    "conditions": "FG",
    "observationTime": "2026-03-30T09:36:00.000Z"
  },
  "ORD": {
    "raw": "METAR KORD 300951Z 21006KT 10SM FEW150 12/03 A2994 RMK AO2 SLP138 T01170028 $",
    "icao": "KORD",
    "flightCategory": "VFR",
    "windDir": 210,
    "windSpeed": 6,
    "windGust": null,
    "visibility": 10,
    "ceiling": null,
    "temp": 11.7,
    "dewpoint": 2.8,
    "altimeter": 29.94,
    "conditions": "",
    "observationTime": "2026-03-30T10:00:00.000Z"
  }
}