{
  "LAS": {
    "raw": "METAR KLAS 280356Z 23006KT 10SM FEW250 27/M03 A2994 RMK AO2 SLP115 T02721033",
    "icao": "KLAS",
    "flightCategory": "VFR",
    "windDir": 230,
    "windSpeed": 6,
    "windGust": null,
    "visibility": 10,
    "ceiling": null,
    "temp": 27.2,
    "dewpoint": -3.3,
    "altimeter": 29.94,
    "conditions": "",
    "observationTime": "2026-03-28T04:00:00.000Z"
  },
  "LAX": {
    "raw": "SPECI KLAX 280331Z 24008KT 10SM BKN009 OVC270 16/13 A2997 RMK AO2 T01560133 $",
    "icao": "KLAX",
    "flightCategory": "IFR",
    "windDir": 240,
    "windSpeed": 8,
    "windGust": null,
    "visibility": 10,
    "ceiling": 900,
    "temp": 15.6,
    "dewpoint": 13.3,
    "altimeter": 29.97,
    "conditions": "",
    "observationTime": "2026-03-28T03:31:00.000Z"
  },
  "ORD": {
    "raw": "METAR KORD 280351Z 02007KT 10SM SCT070 01/M04 A3052 RMK AO2 SLP343 T00111039",
    "icao": "KORD",
    "flightCategory": "VFR",
    "windDir": 20,
    "windSpeed": 7,
    "windGust": null,
    "visibility": 10,
    "ceiling": null,
    "temp": 1.1,
    "dewpoint": -3.9,
    "altimeter": 30.52,
    "conditions": "",
    "observationTime": "2026-03-28T04:00:00.000Z"
  },
  "LHR": {
    "raw": "METAR EGLL 280320Z COR AUTO 32006KT 9999 NCD 05/00 Q1022 NOSIG",
    "icao": "EGLL",
    "flightCategory": "VFR",
    "windDir": 320,
    "windSpeed": 6,
    "windGust": null,
    "visibility": 6,
    "ceiling": null,
    "temp": 5,
    "dewpoint": 0,
    "altimeter": 30.18,
    "conditions": "",
    "observationTime": "2026-03-28T03:20:00.000Z"
  }
}