{
  "LHR": {
    "raw": "METAR EGLL 161550Z COR AUTO 23014KT 200V260 9999 FEW039 16/07 Q1019 NOSIG",
    "icao": "EGLL",
    "flightCategory": "VFR",
    "windDir": 230,
    "windSpeed": 14,
    "windGust": null,
    "visibility": 6,
    "ceiling": null,
    "temp": 16,
    "dewpoint": 7,
    "altimeter": 30.09,
    "conditions": "",
    "observationTime": "2026-04-16T16:00:00.000Z"
  },
  "ORD": {
    "raw": "SPECI KORD 161539Z 23011G18KT 8SM SCT019 BKN042 18/16 A2976 RMK AO2 RAB20E39 P0007 T01830156 $",
    "icao": "KORD",
    "flightCategory": "VFR",
    "windDir": 230,
    "windSpeed": 11,
    "windGust": 18,
    "visibility": 8,
    "ceiling": 4200,
    "temp": 18.3,
    "dewpoint": 15.6,
    "altimeter": 29.76,
    "conditions": "",
    "observationTime": "2026-04-16T15:39:00.000Z"
  },
  "SYD": {
    "raw": "METAR YSSY 161600Z AUTO 29006KT 9999 // NCD 17/12 Q1013",
    "icao": "YSSY",
    "flightCategory": "VFR",
    "windDir": 290,
    "windSpeed": 6,
    "windGust": null,
    "visibility": 6,
    "ceiling": null,
    "temp": 17,
    "dewpoint": 12,
    "altimeter": 29.91,
    "conditions": "",
    "observationTime": "2026-04-16T16:00:00.000Z"
  },
  "LAS": {
    "raw": "METAR KLAS 161556Z 19011G21KT 10SM FEW120 BKN180 BKN250 20/M02 A2982 RMK AO2 SLP081 ACSL DSNT NW T02001017",
    "icao": "KLAS",
    "flightCategory": "VFR",
    "windDir": 190,
    "windSpeed": 11,
    "windGust": 21,
    "visibility": 10,
    "ceiling": 18000,
    "temp": 20,
    "dewpoint": -1.7,
    "altimeter": 29.82,
    "conditions": "",
    "observationTime": "2026-04-16T16:00:00.000Z"
  },
  "LAX": {
    "raw": "METAR KLAX 161553Z 11004KT 10SM FEW009 SCT014 BKN140 BKN200 17/13 A2995 RMK AO2 SLP140 SCT V BKN T01720128",
    "icao": "KLAX",
    "flightCategory": "VFR",
    "windDir": 110,
    "windSpeed": 4,
    "windGust": null,
    "visibility": 10,
    "ceiling": 14000,
    "temp": 17.2,
    "dewpoint": 12.8,
    "altimeter": 29.95,
    "conditions": "",
    "observationTime": "2026-04-16T16:00:00.000Z"
  }
}