{
  "LHR": {
    "raw": "METAR EGLL 050750Z AUTO 28009KT 9999 FEW019 14/09 Q1011",
    "icao": "EGLL",
    "flightCategory": "VFR",
    "windDir": 280,
    "windSpeed": 9,
    "windGust": null,
    "visibility": 6,
    "ceiling": null,
    "temp": 14,
    "dewpoint": 9,
    "altimeter": 29.85,
    "conditions": "",
    "observationTime": "2026-06-05T08:00:00.000Z"
  },
  "SYD": {
    "raw": "METAR YSSY 050800Z AUTO 23009KT 9999 // OVC066 16/08 Q1016",
    "icao": "YSSY",
    "flightCategory": "VFR",
    "windDir": 230,
    "windSpeed": 9,
    "windGust": null,
    "visibility": 6,
    "ceiling": 6600,
    "temp": 16,
    "dewpoint": 8,
    "altimeter": 30,
    "conditions": "",
    "observationTime": "2026-06-05T08:00:00.000Z"
  },
  "LAS": {
    "raw": "METAR KLAS 050756Z 19008KT 10SM CLR 32/M04 A2978 RMK AO2 SLP051 T03171039 404060261",
    "icao": "KLAS",
    "flightCategory": "VFR",
    "windDir": 190,
    "windSpeed": 8,
    "windGust": null,
    "visibility": 10,
    "ceiling": null,
    "temp": 31.7,
    "dewpoint": -3.9,
    "altimeter": 29.78,
    "conditions": "",
    "observationTime": "2026-06-05T08:00:00.000Z"
  },
  "LAX": {
    "raw": "METAR KLAX 050753Z 00000KT 9SM FEW009 OVC012 18/15 A2988 RMK AO2 SLP117 T01780150 402220167 $",
    "icao": "KLAX",
    "flightCategory": "MVFR",
    "windDir": 0,
    "windSpeed": 0,
    "windGust": null,
    "visibility": 9,
    "ceiling": 1200,
    "temp": 17.8,
    "dewpoint": 15,
    "altimeter": 29.88,
    "conditions": "",
    "observationTime": "2026-06-05T08:00:00.000Z"
  },
  "ORD": {
    "raw": "METAR KORD 050751Z 20009KT 10SM SCT060 BKN250 23/14 A2993 RMK AO2 SLP130 T02280139 $",
    "icao": "KORD",
    "flightCategory": "VFR",
    "windDir": 200,
    "windSpeed": 9,
    "windGust": null,
    "visibility": 10,
    "ceiling": 25000,
    "temp": 22.8,
    "dewpoint": 13.9,
    "altimeter": 29.93,
    "conditions": "",
    "observationTime": "2026-06-05T08:00:00.000Z"
  }
}