{
  "SYD": {
    "raw": "METAR YSSY 011400Z AUTO 28005KT 9999 // NCD 20/17 Q1023",
    "icao": "YSSY",
    "flightCategory": "VFR",
    "windDir": 280,
    "windSpeed": 5,
    "windGust": null,
    "visibility": 6,
    "ceiling": null,
    "temp": 20,
    "dewpoint": 17,
    "altimeter": 30.21,
    "conditions": "",
    "observationTime": "2026-04-01T14:00:00.000Z"
  },
  "LAS": {
    "raw": "METAR KLAS 011356Z 21009KT 10SM FEW070 FEW110 16/04 A2981 RMK AO2 SLP079 T01560044",
    "icao": "KLAS",
    "flightCategory": "VFR",
    "windDir": 210,
    "windSpeed": 9,
    "windGust": null,
    "visibility": 10,
    "ceiling": null,
    "temp": 15.6,
    "dewpoint": 4.4,
    "altimeter": 29.81,
    "conditions": "",
    "observationTime": "2026-04-01T14:00:00.000Z"
  },
  "LAX": {
    "raw": "METAR KLAX 011353Z 24006KT 10SM FEW007 FEW025 SCT060 BKN140 16/13 A2995 RMK AO2 SLP141 T01560133 $",
    "icao": "KLAX",
    "flightCategory": "VFR",
    "windDir": 240,
    "windSpeed": 6,
    "windGust": null,
    "visibility": 10,
    "ceiling": 14000,
    "temp": 15.6,
    "dewpoint": 13.3,
    "altimeter": 29.95,
    "conditions": "",
    "observationTime": "2026-04-01T14:00:00.000Z"
  },
  "ORD": {
    "raw": "METAR KORD 011351Z 03021G26KT 10SM BKN012 OVC020 02/M01 A3021 RMK AO2 PK WND 04028/1321 SLP236 T00221006",
    "icao": "KORD",
    "flightCategory": "MVFR",
    "windDir": 30,
    "windSpeed": 21,
    "windGust": 26,
    "visibility": 10,
    "ceiling": 1200,
    "temp": 2.2,
    "dewpoint": -0.6,
    "altimeter": 30.21,
    "conditions": "",
    "observationTime": "2026-04-01T14:00:00.000Z"
  },
  "LHR": {
    "raw": "METAR EGLL 011350Z COR AUTO 26003KT 170V330 9999 OVC047 13/05 Q1023 NOSIG",
    "icao": "EGLL",
    "flightCategory": "VFR",
    "windDir": 260,
    "windSpeed": 3,
    "windGust": null,
    "visibility": 6,
    "ceiling": 4700,
    "temp": 13,
    "dewpoint": 5,
    "altimeter": 30.21,
    "conditions": "",
    "observationTime": "2026-04-01T14:00:00.000Z"
  }
}