{
  "SYD": {
    "raw": "METAR YSSY 290300Z 20020KT 9999 FEW020 SCT025 BKN200 19/15 Q1003",
    "icao": "YSSY",
    "flightCategory": "VFR",
    "windDir": 200,
    "windSpeed": 20,
    "windGust": null,
    "visibility": 6,
    "ceiling": 20000,
    "temp": 19,
    "dewpoint": 15,
    "altimeter": 29.62,
    "conditions": "",
    "observationTime": "2026-05-29T03:00:00.000Z"
  },
  "LHR": {
    "raw": "METAR EGLL 290250Z AUTO 27006KT 9999 NCD 17/13 Q1020",
    "icao": "EGLL",
    "flightCategory": "VFR",
    "windDir": 270,
    "windSpeed": 6,
    "windGust": null,
    "visibility": 6,
    "ceiling": null,
    "temp": 17,
    "dewpoint": 13,
    "altimeter": 30.12,
    "conditions": "",
    "observationTime": "2026-05-29T03:00:00.000Z"
  },
  "LAS": {
    "raw": "METAR KLAS 290256Z 21012G20KT 10SM FEW200 25/M11 A2975 RMK AO2 SLP055 T02501106 53004",
    "icao": "KLAS",
    "flightCategory": "VFR",
    "windDir": 210,
    "windSpeed": 12,
    "windGust": 20,
    "visibility": 10,
    "ceiling": null,
    "temp": 25,
    "dewpoint": -10.6,
    "altimeter": 29.75,
    "conditions": "",
    "observationTime": "2026-05-29T03:00:00.000Z"
  },
  "LAX": {
    "raw": "METAR KLAX 290253Z 26013KT 10SM SCT065 BKN095 BKN130 16/11 A2995 RMK AO2 SLP142 T01610111 53005 $",
    "icao": "KLAX",
    "flightCategory": "VFR",
    "windDir": 260,
    "windSpeed": 13,
    "windGust": null,
    "visibility": 10,
    "ceiling": 9500,
    "temp": 16.1,
    "dewpoint": 11.1,
    "altimeter": 29.95,
    "conditions": "",
    "observationTime": "2026-05-29T03:00:00.000Z"
  },
  "ORD": {
    "raw": "METAR KORD 290251Z 03009KT 10SM BKN300 13/06 A3015 RMK AO2 SLP211 T01330061 53002",
    "icao": "KORD",
    "flightCategory": "VFR",
    "windDir": 30,
    "windSpeed": 9,
    "windGust": null,
    "visibility": 10,
    "ceiling": 30000,
    "temp": 13.3,
    "dewpoint": 6.1,
    "altimeter": 30.15,
    "conditions": "",
    "observationTime": "2026-05-29T03:00:00.000Z"
  }
}