{
  "LAX": {
    "raw": "METAR KLAX 050753Z 30007KT 10SM BKN027 BKN034 OVC065 16/12 A2996 RMK AO2 SLP144 T01560117 402000144",
    "icao": "KLAX",
    "flightCategory": "MVFR",
    "windDir": 300,
    "windSpeed": 7,
    "windGust": null,
    "visibility": 10,
    "ceiling": 2700,
    "temp": 15.6,
    "dewpoint": 11.7,
    "altimeter": 29.96,
    "conditions": "",
    "observationTime": "2026-05-05T08:00:00.000Z"
  },
  "SYD": {
    "raw": "METAR YSSY 050730Z AUTO 15007KT 9999 // NCD 19/10 Q1018",
    "icao": "YSSY",
    "flightCategory": "VFR",
    "windDir": 150,
    "windSpeed": 7,
    "windGust": null,
    "visibility": 6,
    "ceiling": null,
    "temp": 19,
    "dewpoint": 10,
    "altimeter": 30.06,
    "conditions": "",
    "observationTime": "2026-05-05T07:30:00.000Z"
  },
  "LAS": {
    "raw": "METAR KLAS 050756Z 18005KT 10SM CLR 17/02 A2982 RMK AO2 SLP080 T01670017 402560167",
    "icao": "KLAS",
    "flightCategory": "VFR",
    "windDir": 180,
    "windSpeed": 5,
    "windGust": null,
    "visibility": 10,
    "ceiling": null,
    "temp": 16.7,
    "dewpoint": 1.7,
    "altimeter": 29.82,
    "conditions": "",
    "observationTime": "2026-05-05T08:00:00.000Z"
  },
  "ORD": {
    "raw": "METAR KORD 050751Z 33011G20KT 10SM BKN110 OVC150 14/00 A2962 RMK AO2 SLP026 T01390000",
    "icao": "KORD",
    "flightCategory": "VFR",
    "windDir": 330,
    "windSpeed": 11,
    "windGust": 20,
    "visibility": 10,
    "ceiling": 11000,
    "temp": 13.9,
    "dewpoint": 0,
    "altimeter": 29.62,
    "conditions": "",
    "observationTime": "2026-05-05T08:00:00.000Z"
  },
  "LHR": {
    "raw": "METAR EGLL 050720Z COR AUTO 36005KT 310V040 9999 OVC036 11/08 Q1013 NOSIG",
    "icao": "EGLL",
    "flightCategory": "VFR",
    "windDir": 360,
    "windSpeed": 5,
    "windGust": null,
    "visibility": 6,
    "ceiling": 3600,
    "temp": 11,
    "dewpoint": 8,
    "altimeter": 29.91,
    "conditions": "",
    "observationTime": "2026-05-05T07:20:00.000Z"
  }
}