{
  "SYD": {
    "raw": "METAR YSSY 280900Z AUTO 17015KT 9999 // SCT020 BKN073 OVC105 20/18 Q1007",
    "icao": "YSSY",
    "flightCategory": "VFR",
    "windDir": 170,
    "windSpeed": 15,
    "windGust": null,
    "visibility": 6,
    "ceiling": 7300,
    "temp": 20,
    "dewpoint": 18,
    "altimeter": 29.74,
    "conditions": "",
    "observationTime": "2026-05-28T09:00:00.000Z"
  },
  "LHR": {
    "raw": "METAR EGLL 280850Z AUTO 12010KT 9999 NCD 24/14 Q1021",
    "icao": "EGLL",
    "flightCategory": "VFR",
    "windDir": 120,
    "windSpeed": 10,
    "windGust": null,
    "visibility": 6,
    "ceiling": null,
    "temp": 24,
    "dewpoint": 14,
    "altimeter": 30.15,
    "conditions": "",
    "observationTime": "2026-05-28T09:00:00.000Z"
  },
  "LAS": {
    "raw": "METAR KLAS 280856Z 20011KT 10SM FEW200 17/01 A2977 RMK AO2 SLP064 T01670006 51021",
    "icao": "KLAS",
    "flightCategory": "VFR",
    "windDir": 200,
    "windSpeed": 11,
    "windGust": null,
    "visibility": 10,
    "ceiling": null,
    "temp": 16.7,
    "dewpoint": 0.6,
    "altimeter": 29.77,
    "conditions": "",
    "observationTime": "2026-05-28T09:00:00.000Z"
  },
  "LAX": {
    "raw": "METAR KLAX 280853Z 01003KT 10SM FEW018 FEW022 SCT055 14/08 A2991 RMK AO2 SLP126 T01440083 58010 $",
    "icao": "KLAX",
    "flightCategory": "VFR",
    "windDir": 10,
    "windSpeed": 3,
    "windGust": null,
    "visibility": 10,
    "ceiling": null,
    "temp": 14.4,
    "dewpoint": 8.3,
    "altimeter": 29.91,
    "conditions": "",
    "observationTime": "2026-05-28T09:00:00.000Z"
  },
  "ORD": {
    "raw": "METAR KORD 280851Z 01009KT 10SM FEW250 15/08 A3011 RMK AO2 SLP193 T01500078 53014 $",
    "icao": "KORD",
    "flightCategory": "VFR",
    "windDir": 10,
    "windSpeed": 9,
    "windGust": null,
    "visibility": 10,
    "ceiling": null,
    "temp": 15,
    "dewpoint": 7.8,
    "altimeter": 30.11,
    "conditions": "",
    "observationTime": "2026-05-28T09:00:00.000Z"
  }
}