{
  "LAS": {
    "raw": "METAR KLAS 161956Z VRB03KT 10SM FEW120 SCT170 BKN250 39/11 A2983 RMK AO2 SLP066 CB DSNT N TCU DSNT NE-E T03940111 $",
    "icao": "KLAS",
    "flightCategory": "VFR",
    "windDir": null,
    "windSpeed": 3,
    "windGust": null,
    "visibility": 10,
    "ceiling": 25000,
    "temp": 39.4,
    "dewpoint": 11.1,
    "altimeter": 29.83,
    "conditions": "",
    "observationTime": "2026-07-16T20:00:00.000Z"
  },
  "LAX": {
    "raw": "SPECI KLAX 161921Z 26012KT 10SM FEW014 FEW050 27/19 A2984 RMK AO2 WSHFT 1906 T02720189 $",
    "icao": "KLAX",
    "flightCategory": "VFR",
    "windDir": 260,
    "windSpeed": 12,
    "windGust": null,
    "visibility": 10,
    "ceiling": null,
    "temp": 27.2,
    "dewpoint": 18.9,
    "altimeter": 29.84,
    "conditions": "",
    "observationTime": "2026-07-16T19:21:00.000Z"
  },
  "ORD": {
    "raw": "METAR KORD 161951Z 04006KT 1SM R10L/P6000FT FU VV020 32/21 A3004 RMK AO2 SLP165 T03220206",
    "icao": "KORD",
    "flightCategory": "IFR",
    "windDir": 40,
    "windSpeed": 6,
    "windGust": null,
    "visibility": 1,
    "ceiling": 2000,
    "temp": 32.2,
    "dewpoint": 20.6,
    "altimeter": 30.04,
    "conditions": "FU",
    "observationTime": "2026-07-16T20:00:00.000Z"
  },
  "LHR": {
    "raw": "METAR EGLL 161920Z AUTO 11011KT 9999 NCD 24/11 Q1017",
    "icao": "EGLL",
    "flightCategory": "VFR",
    "windDir": 110,
    "windSpeed": 11,
    "windGust": null,
    "visibility": 6,
    "ceiling": null,
    "temp": 24,
    "dewpoint": 11,
    "altimeter": 30.03,
    "conditions": "",
    "observationTime": "2026-07-16T19:20:00.000Z"
  },
  "SYD": {
    "raw": "SPECI YSSY 161930Z AUTO 28010KT 9999 // SCT009 OVC028 OVC033 13/12 Q1033",
    "icao": "YSSY",
    "flightCategory": "MVFR",
    "windDir": 280,
    "windSpeed": 10,
    "windGust": null,
    "visibility": 6,
    "ceiling": 2800,
    "temp": 13,
    "dewpoint": 12,
    "altimeter": 30.5,
    "conditions": "",
    "observationTime": "2026-07-16T19:30:00.000Z"
  }
}