{
  "SYD": {
    "raw": "SPECI YSSY 121751Z AUTO 35006KT 9999 // FEW006 BKN031 15/14 Q1030",
    "icao": "YSSY",
    "flightCategory": "VFR",
    "windDir": 350,
    "windSpeed": 6,
    "windGust": null,
    "visibility": 6,
    "ceiling": 3100,
    "temp": 15,
    "dewpoint": 14,
    "altimeter": 30.42,
    "conditions": "",
    "observationTime": "2026-06-12T17:51:00.000Z"
  },
  "LHR": {
    "raw": "METAR EGLL 121820Z AUTO 27019KT 9999 NCD 20/11 Q1020",
    "icao": "EGLL",
    "flightCategory": "VFR",
    "windDir": 270,
    "windSpeed": 19,
    "windGust": null,
    "visibility": 6,
    "ceiling": null,
    "temp": 20,
    "dewpoint": 11,
    "altimeter": 30.12,
    "conditions": "",
    "observationTime": "2026-06-12T18:20:00.000Z"
  },
  "LAS": {
    "raw": "METAR KLAS 121756Z VRB05KT 10SM FEW120 FEW200 SCT250 37/04 A2986 RMK AO2 SLP080 T03670039 10367 20272 58003",
    "icao": "KLAS",
    "flightCategory": "VFR",
    "windDir": null,
    "windSpeed": 5,
    "windGust": null,
    "visibility": 10,
    "ceiling": null,
    "temp": 36.7,
    "dewpoint": 3.9,
    "altimeter": 29.86,
    "conditions": "",
    "observationTime": "2026-06-12T18:00:00.000Z"
  },
  "LAX": {
    "raw": "METAR KLAX 121753Z 27008KT 10SM FEW010 FEW045 23/17 A2988 RMK AO2 SLP117 T02280167 10233 20183 58005",
    "icao": "KLAX",
    "flightCategory": "VFR",
    "windDir": 270,
    "windSpeed": 8,
    "windGust": null,
    "visibility": 10,
    "ceiling": null,
    "temp": 22.8,
    "dewpoint": 16.7,
    "altimeter": 29.88,
    "conditions": "",
    "observationTime": "2026-06-12T18:00:00.000Z"
  },
  "ORD": {
    "raw": "METAR KORD 121751Z 27013G19KT 10SM FEW050 26/13 A2991 RMK AO2 SLP125 T02560128 10256 20167 58003",
    "icao": "KORD",
    "flightCategory": "VFR",
    "windDir": 270,
    "windSpeed": 13,
    "windGust": 19,
    "visibility": 10,
    "ceiling": null,
    "temp": 25.6,
    "dewpoint": 12.8,
    "altimeter": 29.91,
    "conditions": "",
    "observationTime": "2026-06-12T18:00:00.000Z"
  }
}