{
  "ORD": {
    "raw": "METAR KORD 201651Z 23008KT 7SM BKN200 OVC250 26/17 A2990 RMK AO2 SLP122 T02560172",
    "icao": "KORD",
    "flightCategory": "VFR",
    "windDir": 230,
    "windSpeed": 8,
    "windGust": null,
    "visibility": 7,
    "ceiling": 20000,
    "temp": 25.6,
    "dewpoint": 17.2,
    "altimeter": 29.9,
    "conditions": "",
    "observationTime": "2026-07-20T17:00:00.000Z"
  },
  "SYD": {
    "raw": "METAR YSSY 201600Z AUTO 35006KT 9999 // NCD 11/08 Q1030",
    "icao": "YSSY",
    "flightCategory": "VFR",
    "windDir": 350,
    "windSpeed": 6,
    "windGust": null,
    "visibility": 6,
    "ceiling": null,
    "temp": 11,
    "dewpoint": 8,
    "altimeter": 30.42,
    "conditions": "",
    "observationTime": "2026-07-20T16:00:00.000Z"
  },
  "LHR": {
    "raw": "METAR EGLL 201620Z AUTO 35005KT 280V050 9999 NCD 25/05 Q1025",
    "icao": "EGLL",
    "flightCategory": "VFR",
    "windDir": 350,
    "windSpeed": 5,
    "windGust": null,
    "visibility": 6,
    "ceiling": null,
    "temp": 25,
    "dewpoint": 5,
    "altimeter": 30.27,
    "conditions": "",
    "observationTime": "2026-07-20T16:20:00.000Z"
  },
  "LAS": {
    "raw": "METAR KLAS 201556Z VRB04KT 10SM FEW110 BKN150 BKN220 36/11 A2994 RMK AO2 SLP103 T03610111 $",
    "icao": "KLAS",
    "flightCategory": "VFR",
    "windDir": null,
    "windSpeed": 4,
    "windGust": null,
    "visibility": 10,
    "ceiling": 15000,
    "temp": 36.1,
    "dewpoint": 11.1,
    "altimeter": 29.94,
    "conditions": "",
    "observationTime": "2026-07-20T16:00:00.000Z"
  }
}