{
  "ORD": {
    "raw": "METAR KORD 221351Z 28010KT 10SM SCT022 SCT090 SCT250 19/14 A2993 RMK AO2 SLP131 T01940144",
    "icao": "KORD",
    "flightCategory": "VFR",
    "windDir": 280,
    "windSpeed": 10,
    "windGust": null,
    "visibility": 10,
    "ceiling": null,
    "temp": 19.4,
    "dewpoint": 14.4,
    "altimeter": 29.93,
    "conditions": "",
    "observationTime": "2026-04-22T14:00:00.000Z"
  },
  "LHR": {
    "raw": "METAR EGLL 221320Z COR AUTO 10018KT 060V120 9999 NCD 16/00 Q1025 NOSIG",
    "icao": "EGLL",
    "flightCategory": "VFR",
    "windDir": 100,
    "windSpeed": 18,
    "windGust": null,
    "visibility": 6,
    "ceiling": null,
    "temp": 16,
    "dewpoint": 0,
    "altimeter": 30.27,
    "conditions": "",
    "observationTime": "2026-04-22T13:20:00.000Z"
  },
  "SYD": {
    "raw": "SPECI YSSY 221302Z AUTO 16008KT 9999 // NCD 18/10 Q1027",
    "icao": "YSSY",
    "flightCategory": "VFR",
    "windDir": 160,
    "windSpeed": 8,
    "windGust": null,
    "visibility": 6,
    "ceiling": null,
    "temp": 18,
    "dewpoint": 10,
    "altimeter": 30.33,
    "conditions": "",
    "observationTime": "2026-04-22T13:02:00.000Z"
  },
  "LAS": {
    "raw": "METAR KLAS 221256Z 21013KT 10SM CLR 13/01 A2998 RMK AO2 SLP135 T01330011",
    "icao": "KLAS",
    "flightCategory": "VFR",
    "windDir": 210,
    "windSpeed": 13,
    "windGust": null,
    "visibility": 10,
    "ceiling": null,
    "temp": 13.3,
    "dewpoint": 1.1,
    "altimeter": 29.98,
    "conditions": "",
    "observationTime": "2026-04-22T13:00:00.000Z"
  }
}