{
  "LAX": {
    "raw": "SPECI KLAX 211944Z 17006KT 8SM FEW011 OVC029 18/11 A3005 RMK AO2 T01830111 $",
    "icao": "KLAX",
    "flightCategory": "MVFR",
    "windDir": 170,
    "windSpeed": 6,
    "windGust": null,
    "visibility": 8,
    "ceiling": 2900,
    "temp": 18.3,
    "dewpoint": 11.1,
    "altimeter": 30.05,
    "conditions": "",
    "observationTime": "2026-04-21T19:44:00.000Z"
  },
  "ORD": {
    "raw": "SPECI KORD 211945Z 26009G17KT 10SM TS SCT055CB BKN095 BKN120 OVC250 22/09 A2985 RMK AO2 TSB45 OCNL LTGICCG N TS N MOV SE $",
    "icao": "KORD",
    "flightCategory": "VFR",
    "windDir": 260,
    "windSpeed": 9,
    "windGust": 17,
    "visibility": 10,
    "ceiling": 9500,
    "temp": 22,
    "dewpoint": 9,
    "altimeter": 29.85,
    "conditions": "TS",
    "observationTime": "2026-04-21T19:45:00.000Z"
  },
  "LHR": {
    "raw": "METAR EGLL 211920Z COR AUTO 07010KT 9999 NCD 10/M01 Q1025 NOSIG",
    "icao": "EGLL",
    "flightCategory": "VFR",
    "windDir": 70,
    "windSpeed": 10,
    "windGust": null,
    "visibility": 6,
    "ceiling": null,
    "temp": 10,
    "dewpoint": -1,
    "altimeter": 30.27,
    "conditions": "",
    "observationTime": "2026-04-21T19:20:00.000Z"
  },
  "SYD": {
    "raw": "METAR YSSY 211900Z AUTO 14012KT 9999 // SCT047 OVC058 19/10 Q1025",
    "icao": "YSSY",
    "flightCategory": "VFR",
    "windDir": 140,
    "windSpeed": 12,
    "windGust": null,
    "visibility": 6,
    "ceiling": 5800,
    "temp": 19,
    "dewpoint": 10,
    "altimeter": 30.27,
    "conditions": "",
    "observationTime": "2026-04-21T19:00:00.000Z"
  }
}