{
  "LHR": {
    "raw": "METAR EGLL 242150Z AUTO 10006KT 9999 NCD 25/19 Q1019",
    "icao": "EGLL",
    "flightCategory": "VFR",
    "windDir": 100,
    "windSpeed": 6,
    "windGust": null,
    "visibility": 6,
    "ceiling": null,
    "temp": 25,
    "dewpoint": 19,
    "altimeter": 30.09,
    "conditions": "",
    "observationTime": "2026-06-24T22:00:00.000Z"
  },
  "ORD": {
    "raw": "METAR KORD 242151Z 11009KT 10SM BKN060 BKN130 BKN250 21/17 A2996 RMK AO2 SLP142 T02110167 $",
    "icao": "KORD",
    "flightCategory": "VFR",
    "windDir": 110,
    "windSpeed": 9,
    "windGust": null,
    "visibility": 10,
    "ceiling": 6000,
    "temp": 21.1,
    "dewpoint": 16.7,
    "altimeter": 29.96,
    "conditions": "",
    "observationTime": "2026-06-24T22:00:00.000Z"
  },
  "SYD": {
    "raw": "METAR YSSY 242130Z AUTO 21013KT 9999 // SCT021 BKN026 BKN034 14/11 Q1033",
    "icao": "YSSY",
    "flightCategory": "MVFR",
    "windDir": 210,
    "windSpeed": 13,
    "windGust": null,
    "visibility": 6,
    "ceiling": 2600,
    "temp": 14,
    "dewpoint": 11,
    "altimeter": 30.5,
    "conditions": "",
    "observationTime": "2026-06-24T21:30:00.000Z"
  },
  "LAS": {
    "raw": "METAR KLAS 242156Z 05009KT 10SM SCT085 SCT120 BKN200 35/12 A2995 RMK AO2 SLP110 VIRGA DSNT E-S T03500122",
    "icao": "KLAS",
    "flightCategory": "VFR",
    "windDir": 50,
    "windSpeed": 9,
    "windGust": null,
    "visibility": 10,
    "ceiling": 20000,
    "temp": 35,
    "dewpoint": 12.2,
    "altimeter": 29.95,
    "conditions": "",
    "observationTime": "2026-06-24T22:00:00.000Z"
  },
  "LAX": {
    "raw": "METAR KLAX 242153Z 26013G20KT 10SM FEW013 FEW026 SCT065 21/14 A2999 RMK AO2 SLP152 T02110144 $",
    "icao": "KLAX",
    "flightCategory": "VFR",
    "windDir": 260,
    "windSpeed": 13,
    "windGust": 20,
    "visibility": 10,
    "ceiling": null,
    "temp": 21.1,
    "dewpoint": 14.4,
    "altimeter": 29.99,
    "conditions": "",
    "observationTime": "2026-06-24T22:00:00.000Z"
  }
}