{
  "LAX": {
    "raw": "METAR KLAX 231253Z 00000KT 8SM FEW009 OVC012 18/14 A3000 RMK AO2 SLP156 T01780144 $",
    "icao": "KLAX",
    "flightCategory": "MVFR",
    "windDir": 0,
    "windSpeed": 0,
    "windGust": null,
    "visibility": 8,
    "ceiling": 1200,
    "temp": 17.8,
    "dewpoint": 14.4,
    "altimeter": 30,
    "conditions": "",
    "observationTime": "2026-06-23T13:00:00.000Z"
  },
  "ORD": {
    "raw": "METAR KORD 231251Z 01010KT 10SM FEW080 FEW180 FEW250 17/10 A3021 RMK AO2 SLP230 T01670100",
    "icao": "KORD",
    "flightCategory": "VFR",
    "windDir": 10,
    "windSpeed": 10,
    "windGust": null,
    "visibility": 10,
    "ceiling": null,
    "temp": 16.7,
    "dewpoint": 10,
    "altimeter": 30.21,
    "conditions": "",
    "observationTime": "2026-06-23T13:00:00.000Z"
  },
  "LHR": {
    "raw": "METAR EGLL 231220Z AUTO 16012KT 9999 NCD 31/18 Q1019",
    "icao": "EGLL",
    "flightCategory": "VFR",
    "windDir": 160,
    "windSpeed": 12,
    "windGust": null,
    "visibility": 6,
    "ceiling": null,
    "temp": 31,
    "dewpoint": 18,
    "altimeter": 30.09,
    "conditions": "",
    "observationTime": "2026-06-23T12:20:00.000Z"
  },
  "SYD": {
    "raw": "METAR YSSY 231200Z AUTO 26006KT 9999 // NCD 12/06 Q1027",
    "icao": "YSSY",
    "flightCategory": "VFR",
    "windDir": 260,
    "windSpeed": 6,
    "windGust": null,
    "visibility": 6,
    "ceiling": null,
    "temp": 12,
    "dewpoint": 6,
    "altimeter": 30.33,
    "conditions": "",
    "observationTime": "2026-06-23T12:00:00.000Z"
  }
}