{
  "SYD": {
    "raw": "METAR YSSY 081000Z AUTO 17004KT 9999 // NCD 22/20 Q1016",
    "icao": "YSSY",
    "flightCategory": "VFR",
    "windDir": 170,
    "windSpeed": 4,
    "windGust": null,
    "visibility": 6,
    "ceiling": null,
    "temp": 22,
    "dewpoint": 20,
    "altimeter": 30,
    "conditions": "",
    "observationTime": "2026-04-08T10:00:00.000Z"
  },
  "LHR": {
    "raw": "METAR EGLL 080950Z COR AUTO VRB01KT 9999 NCD 18/07 Q1023 NOSIG",
    "icao": "EGLL",
    "flightCategory": "VFR",
    "windDir": null,
    "windSpeed": 1,
    "windGust": null,
    "visibility": 6,
    "ceiling": null,
    "temp": 18,
    "dewpoint": 7,
    "altimeter": 30.21,
    "conditions": "",
    "observationTime": "2026-04-08T10:00:00.000Z"
  },
  "LAS": {
    "raw": "METAR KLAS 080956Z 21006KT 10SM CLR 21/M07 A2986 RMK AO2 SLP089 T02111067",
    "icao": "KLAS",
    "flightCategory": "VFR",
    "windDir": 210,
    "windSpeed": 6,
    "windGust": null,
    "visibility": 10,
    "ceiling": null,
    "temp": 21.1,
    "dewpoint": -6.7,
    "altimeter": 29.86,
    "conditions": "",
    "observationTime": "2026-04-08T10:00:00.000Z"
  },
  "LAX": {
    "raw": "METAR KLAX 080953Z 00000KT 10SM FEW007 FEW014 16/14 A2991 RMK AO2 SLP126 T01560144 $",
    "icao": "KLAX",
    "flightCategory": "VFR",
    "windDir": 0,
    "windSpeed": 0,
    "windGust": null,
    "visibility": 10,
    "ceiling": null,
    "temp": 15.6,
    "dewpoint": 14.4,
    "altimeter": 29.91,
    "conditions": "",
    "observationTime": "2026-04-08T10:00:00.000Z"
  },
  "ORD": {
    "raw": "METAR KORD 080951Z 14009KT 10SM FEW060 BKN080 OVC120 02/M03 A3029 RMK AO2 RAE22 SLP262 P0000 T00221033 $",
    "icao": "KORD",
    "flightCategory": "VFR",
    "windDir": 140,
    "windSpeed": 9,
    "windGust": null,
    "visibility": 10,
    "ceiling": 8000,
    "temp": 2.2,
    "dewpoint": -3.3,
    "altimeter": 30.29,
    "conditions": "",
    "observationTime": "2026-04-08T10:00:00.000Z"
  }
}