{
  "SYD": {
    "raw": "METAR YSSY 010800Z AUTO 05011KT 9999 // NCD 23/17 Q1022",
    "icao": "YSSY",
    "flightCategory": "VFR",
    "windDir": 50,
    "windSpeed": 11,
    "windGust": null,
    "visibility": 6,
    "ceiling": null,
    "temp": 23,
    "dewpoint": 17,
    "altimeter": 30.18,
    "conditions": "",
    "observationTime": "2026-04-01T08:00:00.000Z"
  },
  "LAX": {
    "raw": "SPECI KLAX 010747Z 27013KT 8SM -RA FEW009 BKN016 OVC065 17/16 A2997 RMK AO2 P0002 T01670156 $",
    "icao": "KLAX",
    "flightCategory": "MVFR",
    "windDir": 270,
    "windSpeed": 13,
    "windGust": null,
    "visibility": 8,
    "ceiling": 1600,
    "temp": 16.7,
    "dewpoint": 15.6,
    "altimeter": 29.97,
    "conditions": "-RA",
    "observationTime": "2026-04-01T07:47:00.000Z"
  },
  "LHR": {
    "raw": "METAR EGLL 010750Z AUTO 31004KT 9999 OVC046 10/07 Q1026",
    "icao": "EGLL",
    "flightCategory": "VFR",
    "windDir": 310,
    "windSpeed": 4,
    "windGust": null,
    "visibility": 6,
    "ceiling": 4600,
    "temp": 10,
    "dewpoint": 7,
    "altimeter": 30.3,
    "conditions": "",
    "observationTime": "2026-04-01T08:00:00.000Z"
  },
  "LAS": {
    "raw": "METAR KLAS 010756Z 18007KT 140V230 10SM FEW046 BKN055 OVC100 16/06 A2981 RMK AO2 PK WND 22026/0658 SLP077 TOPS OF MTNS OBSCURED DSNT W T01610061 402670161",
    "icao": "KLAS",
    "flightCategory": "VFR",
    "windDir": 180,
    "windSpeed": 7,
    "windGust": null,
    "visibility": 10,
    "ceiling": 5500,
    "temp": 16.1,
    "dewpoint": 6.1,
    "altimeter": 29.81,
    "conditions": "",
    "observationTime": "2026-04-01T08:00:00.000Z"
  },
  "ORD": {
    "raw": "METAR KORD 010751Z 03019KT 10SM SCT015 BKN250 03/M01 A3012 RMK AO2 PK WND 04027/0655 SLP201 T00331006 $",
    "icao": "KORD",
    "flightCategory": "VFR",
    "windDir": 30,
    "windSpeed": 19,
    "windGust": null,
    "visibility": 10,
    "ceiling": 25000,
    "temp": 3.3,
    "dewpoint": -0.6,
    "altimeter": 30.12,
    "conditions": "",
    "observationTime": "2026-04-01T08:00:00.000Z"
  }
}