{
  "SYD": {
    "raw": "METAR YSSY 041200Z AUTO 30006KT 9999 // FEW055 20/15 Q1016",
    "icao": "YSSY",
    "flightCategory": "VFR",
    "windDir": 300,
    "windSpeed": 6,
    "windGust": null,
    "visibility": 6,
    "ceiling": null,
    "temp": 20,
    "dewpoint": 15,
    "altimeter": 30,
    "conditions": "",
    "observationTime": "2026-05-04T12:00:00.000Z"
  },
  "LHR": {
    "raw": "METAR EGLL 041220Z COR AUTO VRB03KT 9999 OVC020 15/10 Q1014 NOSIG",
    "icao": "EGLL",
    "flightCategory": "MVFR",
    "windDir": null,
    "windSpeed": 3,
    "windGust": null,
    "visibility": 6,
    "ceiling": 2000,
    "temp": 15,
    "dewpoint": 10,
    "altimeter": 29.94,
    "conditions": "",
    "observationTime": "2026-05-04T12:20:00.000Z"
  },
  "LAS": {
    "raw": "METAR KLAS 041156Z 18012G23KT 10SM FEW150 BKN200 18/03 A2975 RMK AO2 SLP051 T01830028 10250 20183 58004",
    "icao": "KLAS",
    "flightCategory": "VFR",
    "windDir": 180,
    "windSpeed": 12,
    "windGust": 23,
    "visibility": 10,
    "ceiling": 20000,
    "temp": 18.3,
    "dewpoint": 2.8,
    "altimeter": 29.75,
    "conditions": "",
    "observationTime": "2026-05-04T12:00:00.000Z"
  },
  "LAX": {
    "raw": "METAR KLAX 041153Z 26013KT 10SM FEW015 FEW022 BKN055 15/09 A2996 RMK AO2 SLP143 T01500094 10156 20144 55005",
    "icao": "KLAX",
    "flightCategory": "VFR",
    "windDir": 260,
    "windSpeed": 13,
    "windGust": null,
    "visibility": 10,
    "ceiling": 5500,
    "temp": 15,
    "dewpoint": 9.4,
    "altimeter": 29.96,
    "conditions": "",
    "observationTime": "2026-05-04T12:00:00.000Z"
  }
}