{
  "SYD": {
    "raw": "METAR YSSY 210830Z AUTO 17014KT 9999 // SCT036 BKN047 OVC058 19/13 Q1026",
    "icao": "YSSY",
    "flightCategory": "VFR",
    "windDir": 170,
    "windSpeed": 14,
    "windGust": null,
    "visibility": 6,
    "ceiling": 4700,
    "temp": 19,
    "dewpoint": 13,
    "altimeter": 30.3,
    "conditions": "",
    "observationTime": "2026-04-21T08:30:00.000Z"
  },
  "LAS": {
    "raw": "METAR KLAS 210856Z 21007KT 10SM BKN250 23/M02 A2989 RMK AO2 SLP097 T02281022 50002",
    "icao": "KLAS",
    "flightCategory": "VFR",
    "windDir": 210,
    "windSpeed": 7,
    "windGust": null,
    "visibility": 10,
    "ceiling": 25000,
    "temp": 22.8,
    "dewpoint": -2.2,
    "altimeter": 29.89,
    "conditions": "",
    "observationTime": "2026-04-21T09:00:00.000Z"
  },
  "LAX": {
    "raw": "METAR KLAX 210853Z 26004KT 10SM FEW016 SCT020 BKN250 15/12 A3002 RMK AO2 SLP165 T01500117 50001 $",
    "icao": "KLAX",
    "flightCategory": "VFR",
    "windDir": 260,
    "windSpeed": 4,
    "windGust": null,
    "visibility": 10,
    "ceiling": 25000,
    "temp": 15,
    "dewpoint": 11.7,
    "altimeter": 30.02,
    "conditions": "",
    "observationTime": "2026-04-21T09:00:00.000Z"
  },
  "ORD": {
    "raw": "METAR KORD 210851Z 19010KT 10SM BKN220 11/M01 A3002 RMK AO2 SLP169 T01061011 56022 $",
    "icao": "KORD",
    "flightCategory": "VFR",
    "windDir": 190,
    "windSpeed": 10,
    "windGust": null,
    "visibility": 10,
    "ceiling": 22000,
    "temp": 10.6,
    "dewpoint": -1.1,
    "altimeter": 30.02,
    "conditions": "",
    "observationTime": "2026-04-21T09:00:00.000Z"
  },
  "LHR": {
    "raw": "METAR EGLL 210820Z COR AUTO 06010KT 9999 BKN023 BKN027 09/04 Q1025 NOSIG",
    "icao": "EGLL",
    "flightCategory": "MVFR",
    "windDir": 60,
    "windSpeed": 10,
    "windGust": null,
    "visibility": 6,
    "ceiling": 2300,
    "temp": 9,
    "dewpoint": 4,
    "altimeter": 30.27,
    "conditions": "",
    "observationTime": "2026-04-21T08:20:00.000Z"
  }
}