{
  "LHR": {
    "raw": "METAR EGLL 140550Z AUTO 33006KT 290V020 9999 BKN017/// //////TCU 08/04 Q1002",
    "icao": "EGLL",
    "flightCategory": "MVFR",
    "windDir": 330,
    "windSpeed": 6,
    "windGust": null,
    "visibility": 6,
    "ceiling": 1700,
    "temp": 8,
    "dewpoint": 4,
    "altimeter": 29.59,
    "conditions": "",
    "observationTime": "2026-05-14T06:00:00.000Z"
  },
  "SYD": {
    "raw": "METAR YSSY 140600Z 18012KT 9999 -SHRA FEW015 BKN022 17/15 Q1030",
    "icao": "YSSY",
    "flightCategory": "MVFR",
    "windDir": 180,
    "windSpeed": 12,
    "windGust": null,
    "visibility": 6,
    "ceiling": 2200,
    "temp": 17,
    "dewpoint": 15,
    "altimeter": 30.42,
    "conditions": "-SHRA",
    "observationTime": "2026-05-14T06:00:00.000Z"
  },
  "LAS": {
    "raw": "METAR KLAS 140556Z 21009KT 10SM FEW250 29/M02 A2985 RMK AO2 SLP079 T02891022 10344 20289 50007",
    "icao": "KLAS",
    "flightCategory": "VFR",
    "windDir": 210,
    "windSpeed": 9,
    "windGust": null,
    "visibility": 10,
    "ceiling": null,
    "temp": 28.9,
    "dewpoint": -2.2,
    "altimeter": 29.85,
    "conditions": "",
    "observationTime": "2026-05-14T06:00:00.000Z"
  },
  "LAX": {
    "raw": "METAR KLAX 140553Z 24006KT 10SM FEW250 16/12 A3002 RMK AO2 SLP164 T01610122 10194 20156 50001",
    "icao": "KLAX",
    "flightCategory": "VFR",
    "windDir": 240,
    "windSpeed": 6,
    "windGust": null,
    "visibility": 10,
    "ceiling": null,
    "temp": 16.1,
    "dewpoint": 12.2,
    "altimeter": 30.02,
    "conditions": "",
    "observationTime": "2026-05-14T06:00:00.000Z"
  },
  "ORD": {
    "raw": "METAR KORD 140551Z 00000KT 10SM CLR 07/02 A3007 RMK AO2 SLP185 T00720022 10111 20072 401500072 55001 $",
    "icao": "KORD",
    "flightCategory": "VFR",
    "windDir": 0,
    "windSpeed": 0,
    "windGust": null,
    "visibility": 10,
    "ceiling": null,
    "temp": 7.2,
    "dewpoint": 2.2,
    "altimeter": 30.07,
    "conditions": "",
    "observationTime": "2026-05-14T06:00:00.000Z"
  }
}