{
  "LAS": {
    "raw": "METAR KLAS 281556Z 00000KT 10SM FEW200 FEW250 24/M03 A2998 RMK AO2 SLP130 T02441028",
    "icao": "KLAS",
    "flightCategory": "VFR",
    "windDir": 0,
    "windSpeed": 0,
    "windGust": null,
    "visibility": 10,
    "ceiling": null,
    "temp": 24.4,
    "dewpoint": -2.8,
    "altimeter": 29.98,
    "conditions": "",
    "observationTime": "2026-03-28T16:00:00.000Z"
  },
  "LAX": {
    "raw": "METAR KLAX 281553Z 29006KT 5SM BR FEW004 BKN007 BKN220 16/14 A3002 RMK AO2 SLP165 T01560139 $",
    "icao": "KLAX",
    "flightCategory": "IFR",
    "windDir": 290,
    "windSpeed": 6,
    "windGust": null,
    "visibility": 5,
    "ceiling": 700,
    "temp": 15.6,
    "dewpoint": 13.9,
    "altimeter": 30.02,
    "conditions": "BR",
    "observationTime": "2026-03-28T16:00:00.000Z"
  },
  "ORD": {
    "raw": "METAR KORD 281551Z 22005KT 10SM FEW250 02/M11 A3062 RMK AO2 SLP375 T00171111",
    "icao": "KORD",
    "flightCategory": "VFR",
    "windDir": 220,
    "windSpeed": 5,
    "windGust": null,
    "visibility": 10,
    "ceiling": null,
    "temp": 1.7,
    "dewpoint": -11.1,
    "altimeter": 30.62,
    "conditions": "",
    "observationTime": "2026-03-28T16:00:00.000Z"
  },
  "LHR": {
    "raw": "METAR EGLL 281520Z AUTO 30014G25KT 270V340 9999 //////CB 10/M02 Q1025 TEMPO SHRA",
    "icao": "EGLL",
    "flightCategory": "UNKNOWN",
    "windDir": 300,
    "windSpeed": 14,
    "windGust": 25,
    "visibility": 6,
    "ceiling": null,
    "temp": 10,
    "dewpoint": -2,
    "altimeter": 30.27,
    "conditions": "",
    "observationTime": "2026-03-28T15:20:00.000Z"
  }
}