{
  "LAX": {
    "raw": "METAR KLAX 291153Z 30003KT 5SM BR CLR 14/13 A2988 RMK AO2 SLP115 T01440128 10156 20139 56017",
    "icao": "KLAX",
    "flightCategory": "MVFR",
    "windDir": 300,
    "windSpeed": 3,
    "windGust": null,
    "visibility": 5,
    "ceiling": null,
    "temp": 14.4,
    "dewpoint": 12.8,
    "altimeter": 29.88,
    "conditions": "BR",
    "observationTime": "2026-03-29T12:00:00.000Z"
  },
  "LHR": {
    "raw": "METAR EGLL 291150Z COR AUTO 24015KT 210V270 9999 NCD 10/02 Q1029 NOSIG",
    "icao": "EGLL",
    "flightCategory": "VFR",
    "windDir": 240,
    "windSpeed": 15,
    "windGust": null,
    "visibility": 6,
    "ceiling": null,
    "temp": 10,
    "dewpoint": 2,
    "altimeter": 30.39,
    "conditions": "",
    "observationTime": "2026-03-29T12:00:00.000Z"
  },
  "SYD": {
    "raw": "METAR YSSY 291130Z AUTO 15006KT 9999 // BKN034 BKN051 20/14 Q1024",
    "icao": "YSSY",
    "flightCategory": "VFR",
    "windDir": 150,
    "windSpeed": 6,
    "windGust": null,
    "visibility": 6,
    "ceiling": 3400,
    "temp": 20,
    "dewpoint": 14,
    "altimeter": 30.24,
    "conditions": "",
    "observationTime": "2026-03-29T11:30:00.000Z"
  },
  "LAS": {
    "raw": "METAR KLAS 291156Z 28003KT 10SM FEW200 21/M04 A2992 RMK AO2 SLP107 T02061039 10256 20194 55000 $",
    "icao": "KLAS",
    "flightCategory": "VFR",
    "windDir": 280,
    "windSpeed": 3,
    "windGust": null,
    "visibility": 10,
    "ceiling": null,
    "temp": 20.6,
    "dewpoint": -3.9,
    "altimeter": 29.92,
    "conditions": "",
    "observationTime": "2026-03-29T12:00:00.000Z"
  },
  "ORD": {
    "raw": "METAR KORD 291151Z 19008KT 10SM BKN110 BKN200 BKN250 06/M02 A3023 RMK AO2 SLP239 T00561022 10067 20050 56010 $",
    "icao": "KORD",
    "flightCategory": "VFR",
    "windDir": 190,
    "windSpeed": 8,
    "windGust": null,
    "visibility": 10,
    "ceiling": 11000,
    "temp": 5.6,
    "dewpoint": -2.2,
    "altimeter": 30.23,
    "conditions": "",
    "observationTime": "2026-03-29T12:00:00.000Z"
  }
}