{
  "SYD": {
    "raw": "METAR YSSY 102000Z 28005KT 9999 FEW045 SCT080 BKN130 16/15 Q1029",
    "icao": "YSSY",
    "flightCategory": "VFR",
    "windDir": 280,
    "windSpeed": 5,
    "windGust": null,
    "visibility": 6,
    "ceiling": 13000,
    "temp": 16,
    "dewpoint": 15,
    "altimeter": 30.39,
    "conditions": "",
    "observationTime": "2026-06-10T20:00:00.000Z"
  },
  "LHR": {
    "raw": "METAR EGLL 101950Z AUTO 06004KT 030V090 9999 //////TCU 13/08 Q1018",
    "icao": "EGLL",
    "flightCategory": "UNKNOWN",
    "windDir": 60,
    "windSpeed": 4,
    "windGust": null,
    "visibility": 6,
    "ceiling": null,
    "temp": 13,
    "dewpoint": 8,
    "altimeter": 30.06,
    "conditions": "",
    "observationTime": "2026-06-10T20:00:00.000Z"
  },
  "LAS": {
    "raw": "METAR KLAS 101956Z VRB03KT 10SM CLR 37/03 A2982 RMK AO2 SLP065 T03720028",
    "icao": "KLAS",
    "flightCategory": "VFR",
    "windDir": null,
    "windSpeed": 3,
    "windGust": null,
    "visibility": 10,
    "ceiling": null,
    "temp": 37.2,
    "dewpoint": 2.8,
    "altimeter": 29.82,
    "conditions": "",
    "observationTime": "2026-06-10T20:00:00.000Z"
  },
  "LAX": {
    "raw": "METAR KLAX 101953Z 25010KT 10SM CLR 23/16 A2984 RMK AO2 SLP102 T02280161",
    "icao": "KLAX",
    "flightCategory": "VFR",
    "windDir": 250,
    "windSpeed": 10,
    "windGust": null,
    "visibility": 10,
    "ceiling": null,
    "temp": 22.8,
    "dewpoint": 16.1,
    "altimeter": 29.84,
    "conditions": "",
    "observationTime": "2026-06-10T20:00:00.000Z"
  },
  "ORD": {
    "raw": "METAR KORD 101951Z 21015G29KT 10SM BKN037 BKN060 OVC350 32/22 A2969 RMK AO2 PK WND 21029/1946 SLP047 T03220222",
    "icao": "KORD",
    "flightCategory": "VFR",
    "windDir": 210,
    "windSpeed": 15,
    "windGust": 29,
    "visibility": 10,
    "ceiling": 3700,
    "temp": 32.2,
    "dewpoint": 22.2,
    "altimeter": 29.69,
    "conditions": "",
    "observationTime": "2026-06-10T20:00:00.000Z"
  }
}