{
  "LHR": {
    "raw": "METAR EGLL 262150Z COR AUTO 12006KT 080V140 9999 NCD 11/06 Q1025 NOSIG",
    "icao": "EGLL",
    "flightCategory": "VFR",
    "windDir": 120,
    "windSpeed": 6,
    "windGust": null,
    "visibility": 6,
    "ceiling": null,
    "temp": 11,
    "dewpoint": 6,
    "altimeter": 30.27,
    "conditions": "",
    "observationTime": "2026-04-26T22:00:00.000Z"
  },
  "SYD": {
    "raw": "METAR YSSY 262130Z 33007KT 9999 FEW030 14/11 Q1024",
    "icao": "YSSY",
    "flightCategory": "VFR",
    "windDir": 330,
    "windSpeed": 7,
    "windGust": null,
    "visibility": 6,
    "ceiling": null,
    "temp": 14,
    "dewpoint": 11,
    "altimeter": 30.24,
    "conditions": "",
    "observationTime": "2026-04-26T21:30:00.000Z"
  },
  "LAS": {
    "raw": "METAR KLAS 262156Z 23009KT 10SM FEW060 BKN085 BKN120 18/01 A2978 RMK AO2 SLP074 T01780011",
    "icao": "KLAS",
    "flightCategory": "VFR",
    "windDir": 230,
    "windSpeed": 9,
    "windGust": null,
    "visibility": 10,
    "ceiling": 8500,
    "temp": 17.8,
    "dewpoint": 1.1,
    "altimeter": 29.78,
    "conditions": "",
    "observationTime": "2026-04-26T22:00:00.000Z"
  },
  "LAX": {
    "raw": "METAR KLAX 262153Z 23020KT 10SM FEW024 FEW060 19/08 A2997 RMK AO2 PK WND 26028/2110 SLP146 T01890078 $",
    "icao": "KLAX",
    "flightCategory": "VFR",
    "windDir": 230,
    "windSpeed": 20,
    "windGust": null,
    "visibility": 10,
    "ceiling": null,
    "temp": 18.9,
    "dewpoint": 7.8,
    "altimeter": 29.97,
    "conditions": "",
    "observationTime": "2026-04-26T22:00:00.000Z"
  },
  "ORD": {
    "raw": "METAR KORD 262151Z 08011KT 10SM BKN250 14/08 A2999 RMK AO2 SLP157 T01440078 $",
    "icao": "KORD",
    "flightCategory": "VFR",
    "windDir": 80,
    "windSpeed": 11,
    "windGust": null,
    "visibility": 10,
    "ceiling": 25000,
    "temp": 14.4,
    "dewpoint": 7.8,
    "altimeter": 29.99,
    "conditions": "",
    "observationTime": "2026-04-26T22:00:00.000Z"
  }
}