{
  "LHR": {
    "raw": "METAR EGLL 282150Z COR AUTO 30008KT 9999 NCD 06/M01 Q1030 NOSIG",
    "icao": "EGLL",
    "flightCategory": "VFR",
    "windDir": 300,
    "windSpeed": 8,
    "windGust": null,
    "visibility": 6,
    "ceiling": null,
    "temp": 6,
    "dewpoint": -1,
    "altimeter": 30.42,
    "conditions": "",
    "observationTime": "2026-03-28T22:00:00.000Z"
  },
  "SYD": {
    "raw": "METAR YSSY 282130Z 26011KT 9999 FEW045 17/10 Q1021",
    "icao": "YSSY",
    "flightCategory": "VFR",
    "windDir": 260,
    "windSpeed": 11,
    "windGust": null,
    "visibility": 6,
    "ceiling": null,
    "temp": 17,
    "dewpoint": 10,
    "altimeter": 30.15,
    "conditions": "",
    "observationTime": "2026-03-28T21:30:00.000Z"
  },
  "LAS": {
    "raw": "METAR KLAS 282156Z COR 21016G22KT 10SM SCT200 33/M14 A2991 RMK AO2 SLP103 T03281144",
    "icao": "KLAS",
    "flightCategory": "VFR",
    "windDir": 210,
    "windSpeed": 16,
    "windGust": 22,
    "visibility": 10,
    "ceiling": null,
    "temp": 32.8,
    "dewpoint": -14.4,
    "altimeter": 29.91,
    "conditions": "",
    "observationTime": "2026-03-28T22:00:00.000Z"
  },
  "LAX": {
    "raw": "METAR KLAX 282153Z 28012KT 10SM FEW007 SCT250 BKN300 19/14 A2996 RMK AO2 SLP144 T01890139",
    "icao": "KLAX",
    "flightCategory": "VFR",
    "windDir": 280,
    "windSpeed": 12,
    "windGust": null,
    "visibility": 10,
    "ceiling": 30000,
    "temp": 18.9,
    "dewpoint": 13.9,
    "altimeter": 29.96,
    "conditions": "",
    "observationTime": "2026-03-28T22:00:00.000Z"
  },
  "ORD": {
    "raw": "METAR KORD 282151Z 22014G20KT 10SM BKN120 BKN250 08/M07 A3040 RMK AO2 SLP301 T00831072",
    "icao": "KORD",
    "flightCategory": "VFR",
    "windDir": 220,
    "windSpeed": 14,
    "windGust": 20,
    "visibility": 10,
    "ceiling": 12000,
    "temp": 8.3,
    "dewpoint": -7.2,
    "altimeter": 30.4,
    "conditions": "",
    "observationTime": "2026-03-28T22:00:00.000Z"
  }
}