{
  "SYD": {
    "raw": "METAR YSSY 040700Z AUTO 26013KT 9999 // FEW049 BKN058 16/06 Q1001",
    "icao": "YSSY",
    "flightCategory": "VFR",
    "windDir": 260,
    "windSpeed": 13,
    "windGust": null,
    "visibility": 6,
    "ceiling": 5800,
    "temp": 16,
    "dewpoint": 6,
    "altimeter": 29.56,
    "conditions": "",
    "observationTime": "2026-06-04T07:00:00.000Z"
  },
  "LAX": {
    "raw": "SPECI KLAX 040650Z 22004KT 9SM FEW005 FEW009 BKN015 16/14 A2991 RMK AO2 $",
    "icao": "KLAX",
    "flightCategory": "MVFR",
    "windDir": 220,
    "windSpeed": 4,
    "windGust": null,
    "visibility": 9,
    "ceiling": 1500,
    "temp": 16,
    "dewpoint": 14,
    "altimeter": 29.91,
    "conditions": "",
    "observationTime": "2026-06-04T06:50:00.000Z"
  },
  "LHR": {
    "raw": "METAR EGLL 040650Z AUTO 22014KT 200V260 9999 BKN023/// BKN027/// OVC035/// //////TCU 15/10 Q0995",
    "icao": "EGLL",
    "flightCategory": "MVFR",
    "windDir": 220,
    "windSpeed": 14,
    "windGust": null,
    "visibility": 6,
    "ceiling": 2300,
    "temp": 15,
    "dewpoint": 10,
    "altimeter": 29.38,
    "conditions": "",
    "observationTime": "2026-06-04T07:00:00.000Z"
  },
  "LAS": {
    "raw": "METAR KLAS 040656Z 20006KT 10SM CLR 31/M07 A2984 RMK AO2 SLP071 T03111067 $",
    "icao": "KLAS",
    "flightCategory": "VFR",
    "windDir": 200,
    "windSpeed": 6,
    "windGust": null,
    "visibility": 10,
    "ceiling": null,
    "temp": 31.1,
    "dewpoint": -6.7,
    "altimeter": 29.84,
    "conditions": "",
    "observationTime": "2026-06-04T07:00:00.000Z"
  },
  "ORD": {
    "raw": "METAR KORD 040651Z 18004KT 10SM BKN250 17/08 A3015 RMK AO2 SLP207 T01720083 $",
    "icao": "KORD",
    "flightCategory": "VFR",
    "windDir": 180,
    "windSpeed": 4,
    "windGust": null,
    "visibility": 10,
    "ceiling": 25000,
    "temp": 17.2,
    "dewpoint": 8.3,
    "altimeter": 30.15,
    "conditions": "",
    "observationTime": "2026-06-04T07:00:00.000Z"
  }
}