{
  "SYD": {
    "raw": "METAR YSSY 031500Z AUTO 02005KT 9999 // NCD 19/15 Q1017",
    "icao": "YSSY",
    "flightCategory": "VFR",
    "windDir": 20,
    "windSpeed": 5,
    "windGust": null,
    "visibility": 6,
    "ceiling": null,
    "temp": 19,
    "dewpoint": 15,
    "altimeter": 30.03,
    "conditions": "",
    "observationTime": "2026-05-03T15:00:00.000Z"
  },
  "LHR": {
    "raw": "METAR EGLL 031450Z AUTO 23008KT 210V270 9999 OVC041 18/10 Q1009",
    "icao": "EGLL",
    "flightCategory": "VFR",
    "windDir": 230,
    "windSpeed": 8,
    "windGust": null,
    "visibility": 6,
    "ceiling": 4100,
    "temp": 18,
    "dewpoint": 10,
    "altimeter": 29.8,
    "conditions": "",
    "observationTime": "2026-05-03T15:00:00.000Z"
  },
  "LAS": {
    "raw": "METAR KLAS 031456Z 00000KT 10SM FEW150 FEW250 22/M10 A2989 RMK AO2 SLP099 T02171100 51011",
    "icao": "KLAS",
    "flightCategory": "VFR",
    "windDir": 0,
    "windSpeed": 0,
    "windGust": null,
    "visibility": 10,
    "ceiling": null,
    "temp": 21.7,
    "dewpoint": -10,
    "altimeter": 29.89,
    "conditions": "",
    "observationTime": "2026-05-03T15:00:00.000Z"
  },
  "LAX": {
    "raw": "METAR KLAX 031453Z 00000KT 10SM FEW013 SCT020 OVC025 16/11 A2994 RMK AO2 SLP137 T01560106 53012",
    "icao": "KLAX",
    "flightCategory": "MVFR",
    "windDir": 0,
    "windSpeed": 0,
    "windGust": null,
    "visibility": 10,
    "ceiling": 2500,
    "temp": 15.6,
    "dewpoint": 10.6,
    "altimeter": 29.94,
    "conditions": "",
    "observationTime": "2026-05-03T15:00:00.000Z"
  },
  "ORD": {
    "raw": "METAR KORD 031451Z 22011G20KT 10SM SCT100 SCT200 OVC250 12/02 A2991 RMK AO2 PK WND 21027/1438 SLP130 T01170017 58006 $",
    "icao": "KORD",
    "flightCategory": "VFR",
    "windDir": 220,
    "windSpeed": 11,
    "windGust": 20,
    "visibility": 10,
    "ceiling": 25000,
    "temp": 11.7,
    "dewpoint": 1.7,
    "altimeter": 29.91,
    "conditions": "",
    "observationTime": "2026-05-03T15:00:00.000Z"
  }
}