{
  "LHR": {
    "raw": "METAR EGLL 242050Z COR AUTO 09010KT 9999 NCD 10/M04 Q1023 NOSIG",
    "icao": "EGLL",
    "flightCategory": "VFR",
    "windDir": 90,
    "windSpeed": 10,
    "windGust": null,
    "visibility": 6,
    "ceiling": null,
    "temp": 10,
    "dewpoint": -4,
    "altimeter": 30.21,
    "conditions": "",
    "observationTime": "2026-04-24T21:00:00.000Z"
  },
  "SYD": {
    "raw": "METAR YSSY 242100Z 32006KT 9999 FEW027 BKN035 15/13 Q1031",
    "icao": "YSSY",
    "flightCategory": "VFR",
    "windDir": 320,
    "windSpeed": 6,
    "windGust": null,
    "visibility": 6,
    "ceiling": 3500,
    "temp": 15,
    "dewpoint": 13,
    "altimeter": 30.45,
    "conditions": "",
    "observationTime": "2026-04-24T21:00:00.000Z"
  },
  "LAS": {
    "raw": "METAR KLAS 242056Z 21015G28KT 10SM SCT140 SCT200 27/M11 A2976 RMK AO2 PK WND 21028/2052 SLP058 T02721106 56026",
    "icao": "KLAS",
    "flightCategory": "VFR",
    "windDir": 210,
    "windSpeed": 15,
    "windGust": 28,
    "visibility": 10,
    "ceiling": null,
    "temp": 27.2,
    "dewpoint": -10.6,
    "altimeter": 29.76,
    "conditions": "",
    "observationTime": "2026-04-24T21:00:00.000Z"
  },
  "LAX": {
    "raw": "METAR KLAX 242053Z 23007G17KT 10SM FEW010 FEW035 SCT120 SCT160 BKN250 22/12 A2989 RMK AO2 SLP119 T02220122 56014 $",
    "icao": "KLAX",
    "flightCategory": "VFR",
    "windDir": 230,
    "windSpeed": 7,
    "windGust": 17,
    "visibility": 10,
    "ceiling": null,
    "temp": 22.2,
    "dewpoint": 12.2,
    "altimeter": 29.89,
    "conditions": "",
    "observationTime": "2026-04-24T21:00:00.000Z"
  },
  "ORD": {
    "raw": "METAR KORD 242051Z 26009KT 10SM BKN032 BKN041 BKN250 20/12 A2972 RMK AO2 SLP062 T02000122 50006",
    "icao": "KORD",
    "flightCategory": "VFR",
    "windDir": 260,
    "windSpeed": 9,
    "windGust": null,
    "visibility": 10,
    "ceiling": 3200,
    "temp": 20,
    "dewpoint": 12.2,
    "altimeter": 29.72,
    "conditions": "",
    "observationTime": "2026-04-24T21:00:00.000Z"
  }
}