{
  "SYD": {
    "raw": "METAR YSSY 181030Z AUTO 31005KT 7000 RA OVC100 18/17 Q1015",
    "icao": "YSSY",
    "flightCategory": "MVFR",
    "windDir": 310,
    "windSpeed": 5,
    "windGust": null,
    "visibility": 4.35,
    "ceiling": 10000,
    "temp": 18,
    "dewpoint": 17,
    "altimeter": 29.97,
    "conditions": "RA",
    "observationTime": "2026-05-18T10:30:00.000Z"
  },
  "LAS": {
    "raw": "METAR KLAS 181056Z 34019G31KT 10SM CLR 15/M05 A2985 RMK AO2 PK WND 32032/0959 SLP087 T01501050",
    "icao": "KLAS",
    "flightCategory": "VFR",
    "windDir": 340,
    "windSpeed": 19,
    "windGust": 31,
    "visibility": 10,
    "ceiling": null,
    "temp": 15,
    "dewpoint": -5,
    "altimeter": 29.85,
    "conditions": "",
    "observationTime": "2026-05-18T11:00:00.000Z"
  },
  "LAX": {
    "raw": "METAR KLAX 181053Z 09004KT 9SM FEW018 SCT050 15/12 A2982 RMK AO2 SLP094 T01500117",
    "icao": "KLAX",
    "flightCategory": "VFR",
    "windDir": 90,
    "windSpeed": 4,
    "windGust": null,
    "visibility": 9,
    "ceiling": null,
    "temp": 15,
    "dewpoint": 11.7,
    "altimeter": 29.82,
    "conditions": "",
    "observationTime": "2026-05-18T11:00:00.000Z"
  },
  "ORD": {
    "raw": "METAR KORD 181051Z 19016G24KT 10SM SCT055 BKN095 BKN200 OVC250 24/16 A2983 RMK AO2 PK WND 18026/1004 SLP095 T02390161 $",
    "icao": "KORD",
    "flightCategory": "VFR",
    "windDir": 190,
    "windSpeed": 16,
    "windGust": 24,
    "visibility": 10,
    "ceiling": 9500,
    "temp": 23.9,
    "dewpoint": 16.1,
    "altimeter": 29.83,
    "conditions": "",
    "observationTime": "2026-05-18T11:00:00.000Z"
  },
  "LHR": {
    "raw": "METAR EGLL 181050Z AUTO 25013KT 9999 OVC047 13/05 Q1012",
    "icao": "EGLL",
    "flightCategory": "VFR",
    "windDir": 250,
    "windSpeed": 13,
    "windGust": null,
    "visibility": 6,
    "ceiling": 4700,
    "temp": 13,
    "dewpoint": 5,
    "altimeter": 29.88,
    "conditions": "",
    "observationTime": "2026-05-18T11:00:00.000Z"
  }
}