{
  "LAS": {
    "raw": "METAR KLAS 010156Z 08010G15KT 10SM FEW120 FEW150 28/M06 A2978 RMK AO2 SLP066 T02781056",
    "icao": "KLAS",
    "flightCategory": "VFR",
    "windDir": 80,
    "windSpeed": 10,
    "windGust": 15,
    "visibility": 10,
    "ceiling": null,
    "temp": 27.8,
    "dewpoint": -5.6,
    "altimeter": 29.78,
    "conditions": "",
    "observationTime": "2026-05-01T02:00:00.000Z"
  },
  "LAX": {
    "raw": "METAR KLAX 010153Z 24010KT 10SM FEW013 17/13 A2986 RMK AO2 SLP111 T01720133",
    "icao": "KLAX",
    "flightCategory": "VFR",
    "windDir": 240,
    "windSpeed": 10,
    "windGust": null,
    "visibility": 10,
    "ceiling": null,
    "temp": 17.2,
    "dewpoint": 13.3,
    "altimeter": 29.86,
    "conditions": "",
    "observationTime": "2026-05-01T02:00:00.000Z"
  },
  "ORD": {
    "raw": "METAR KORD 010151Z 07008KT 10SM -RA BKN034 OVC041 06/00 A2996 RMK AO2 RAB42 SLP150 P0001 T00560000",
    "icao": "KORD",
    "flightCategory": "VFR",
    "windDir": 70,
    "windSpeed": 8,
    "windGust": null,
    "visibility": 10,
    "ceiling": 3400,
    "temp": 5.6,
    "dewpoint": 0,
    "altimeter": 29.96,
    "conditions": "-RA",
    "observationTime": "2026-05-01T02:00:00.000Z"
  },
  "LHR": {
    "raw": "METAR EGLL 010120Z COR AUTO 07003KT 9999 NCD 11/04 Q1021 NOSIG",
    "icao": "EGLL",
    "flightCategory": "VFR",
    "windDir": 70,
    "windSpeed": 3,
    "windGust": null,
    "visibility": 6,
    "ceiling": null,
    "temp": 11,
    "dewpoint": 4,
    "altimeter": 30.15,
    "conditions": "",
    "observationTime": "2026-05-01T01:20:00.000Z"
  },
  "SYD": {
    "raw": "METAR YSSY 010130Z AUTO 11005KT 9999 // SCT033 BKN046 OVC074 22/14 Q1029",
    "icao": "YSSY",
    "flightCategory": "VFR",
    "windDir": 110,
    "windSpeed": 5,
    "windGust": null,
    "visibility": 6,
    "ceiling": 4600,
    "temp": 22,
    "dewpoint": 14,
    "altimeter": 30.39,
    "conditions": "",
    "observationTime": "2026-05-01T01:30:00.000Z"
  }
}