{
  "SYD": {
    "raw": "METAR YSSY 021900Z AUTO 36011KT 9999 // BKN076 15/10 Q1001",
    "icao": "YSSY",
    "flightCategory": "VFR",
    "windDir": 360,
    "windSpeed": 11,
    "windGust": null,
    "visibility": 6,
    "ceiling": 7600,
    "temp": 15,
    "dewpoint": 10,
    "altimeter": 29.56,
    "conditions": "",
    "observationTime": "2026-06-02T19:00:00.000Z"
  },
  "LHR": {
    "raw": "METAR EGLL 021850Z AUTO 27011KT 9999 NCD 17/13 Q1005",
    "icao": "EGLL",
    "flightCategory": "VFR",
    "windDir": 270,
    "windSpeed": 11,
    "windGust": null,
    "visibility": 6,
    "ceiling": null,
    "temp": 17,
    "dewpoint": 13,
    "altimeter": 29.68,
    "conditions": "",
    "observationTime": "2026-06-02T19:00:00.000Z"
  },
  "LAX": {
    "raw": "METAR KLAX 021853Z 26008KT 10SM BKN020 BKN230 19/13 A3005 RMK AO2 SLP176 T01940128 $",
    "icao": "KLAX",
    "flightCategory": "MVFR",
    "windDir": 260,
    "windSpeed": 8,
    "windGust": null,
    "visibility": 10,
    "ceiling": 2000,
    "temp": 19.4,
    "dewpoint": 12.8,
    "altimeter": 30.05,
    "conditions": "",
    "observationTime": "2026-06-02T19:00:00.000Z"
  },
  "LAS": {
    "raw": "METAR KLAS 021856Z 08009KT 10SM FEW250 35/M01 A2995 RMK AO2 SLP113 T03501006",
    "icao": "KLAS",
    "flightCategory": "VFR",
    "windDir": 80,
    "windSpeed": 9,
    "windGust": null,
    "visibility": 10,
    "ceiling": null,
    "temp": 35,
    "dewpoint": -0.6,
    "altimeter": 29.95,
    "conditions": "",
    "observationTime": "2026-06-02T19:00:00.000Z"
  },
  "ORD": {
    "raw": "METAR KORD 021851Z 05013G18KT 10SM FEW300 23/04 A3035 RMK AO2 SLP276 T02280044",
    "icao": "KORD",
    "flightCategory": "VFR",
    "windDir": 50,
    "windSpeed": 13,
    "windGust": 18,
    "visibility": 10,
    "ceiling": null,
    "temp": 22.8,
    "dewpoint": 4.4,
    "altimeter": 30.35,
    "conditions": "",
    "observationTime": "2026-06-02T19:00:00.000Z"
  }
}