{
  "LAX": {
    "raw": "SPECI KLAX 200748Z 24004KT 10SM FEW008 BKN010 21/18 A2993 RMK AO2 $",
    "icao": "KLAX",
    "flightCategory": "MVFR",
    "windDir": 240,
    "windSpeed": 4,
    "windGust": null,
    "visibility": 10,
    "ceiling": 1000,
    "temp": 21,
    "dewpoint": 18,
    "altimeter": 29.93,
    "conditions": "",
    "observationTime": "2026-07-20T07:48:00.000Z"
  },
  "ORD": {
    "raw": "METAR KORD 200751Z 00000KT 5SM HZ FEW200 19/16 A2997 RMK AO2 SLP143 T01890156 $",
    "icao": "KORD",
    "flightCategory": "MVFR",
    "windDir": 0,
    "windSpeed": 0,
    "windGust": null,
    "visibility": 5,
    "ceiling": null,
    "temp": 18.9,
    "dewpoint": 15.6,
    "altimeter": 29.97,
    "conditions": "HZ",
    "observationTime": "2026-07-20T08:00:00.000Z"
  },
  "LHR": {
    "raw": "METAR EGLL 200720Z AUTO 04006KT 9999 NCD 16/08 Q1027",
    "icao": "EGLL",
    "flightCategory": "VFR",
    "windDir": 40,
    "windSpeed": 6,
    "windGust": null,
    "visibility": 6,
    "ceiling": null,
    "temp": 16,
    "dewpoint": 8,
    "altimeter": 30.33,
    "conditions": "",
    "observationTime": "2026-07-20T07:20:00.000Z"
  },
  "SYD": {
    "raw": "METAR YSSY 200700Z AUTO 04011KT 9999 // NCD 17/10 Q1029",
    "icao": "YSSY",
    "flightCategory": "VFR",
    "windDir": 40,
    "windSpeed": 11,
    "windGust": null,
    "visibility": 6,
    "ceiling": null,
    "temp": 17,
    "dewpoint": 10,
    "altimeter": 30.39,
    "conditions": "",
    "observationTime": "2026-07-20T07:00:00.000Z"
  },
  "LAS": {
    "raw": "METAR KLAS 200656Z 18006KT 10SM FEW120 FEW180 BKN220 36/12 A2985 RMK AO2 SLP075 T03610122 $",
    "icao": "KLAS",
    "flightCategory": "VFR",
    "windDir": 180,
    "windSpeed": 6,
    "windGust": null,
    "visibility": 10,
    "ceiling": 22000,
    "temp": 36.1,
    "dewpoint": 12.2,
    "altimeter": 29.85,
    "conditions": "",
    "observationTime": "2026-07-20T07:00:00.000Z"
  }
}