{
  "SYD": {
    "raw": "METAR YSSY 130700Z AUTO 03009KT 9999 // NCD 19/16 Q1025",
    "icao": "YSSY",
    "flightCategory": "VFR",
    "windDir": 30,
    "windSpeed": 9,
    "windGust": null,
    "visibility": 6,
    "ceiling": null,
    "temp": 19,
    "dewpoint": 16,
    "altimeter": 30.27,
    "conditions": "",
    "observationTime": "2026-06-13T07:00:00.000Z"
  },
  "LHR": {
    "raw": "METAR EGLL 130650Z AUTO 28013KT 9999 FEW025 15/09 Q1022",
    "icao": "EGLL",
    "flightCategory": "VFR",
    "windDir": 280,
    "windSpeed": 13,
    "windGust": null,
    "visibility": 6,
    "ceiling": null,
    "temp": 15,
    "dewpoint": 9,
    "altimeter": 30.18,
    "conditions": "",
    "observationTime": "2026-06-13T07:00:00.000Z"
  },
  "LAS": {
    "raw": "METAR KLAS 130656Z 18003KT 10SM CLR 34/M01 A2977 RMK AO2 SLP046 T03391011",
    "icao": "KLAS",
    "flightCategory": "VFR",
    "windDir": 180,
    "windSpeed": 3,
    "windGust": null,
    "visibility": 10,
    "ceiling": null,
    "temp": 33.9,
    "dewpoint": -1.1,
    "altimeter": 29.77,
    "conditions": "",
    "observationTime": "2026-06-13T07:00:00.000Z"
  },
  "LAX": {
    "raw": "METAR KLAX 130653Z 26008KT 10SM OVC007 18/16 A2991 RMK AO2 SLP126 T01780156 $",
    "icao": "KLAX",
    "flightCategory": "IFR",
    "windDir": 260,
    "windSpeed": 8,
    "windGust": null,
    "visibility": 10,
    "ceiling": 700,
    "temp": 17.8,
    "dewpoint": 15.6,
    "altimeter": 29.91,
    "conditions": "",
    "observationTime": "2026-06-13T07:00:00.000Z"
  },
  "ORD": {
    "raw": "METAR KORD 130651Z 20005KT 10SM CLR 19/14 A2993 RMK AO2 SLP132 T01890144 $",
    "icao": "KORD",
    "flightCategory": "VFR",
    "windDir": 200,
    "windSpeed": 5,
    "windGust": null,
    "visibility": 10,
    "ceiling": null,
    "temp": 18.9,
    "dewpoint": 14.4,
    "altimeter": 29.93,
    "conditions": "",
    "observationTime": "2026-06-13T07:00:00.000Z"
  }
}