{
  "LAX": {
    "raw": "METAR KLAX 041653Z 25013KT 10SM FEW027 FEW050 SCT075 BKN160 BKN250 18/09 A3000 RMK AO2 SLP158 T01780094",
    "icao": "KLAX",
    "flightCategory": "VFR",
    "windDir": 250,
    "windSpeed": 13,
    "windGust": null,
    "visibility": 10,
    "ceiling": 16000,
    "temp": 17.8,
    "dewpoint": 9.4,
    "altimeter": 30,
    "conditions": "",
    "observationTime": "2026-05-04T17:00:00.000Z"
  },
  "ORD": {
    "raw": "METAR KORD 041651Z 22012G20KT 10SM FEW300 23/07 A2955 RMK AO2 SLP003 T02330067",
    "icao": "KORD",
    "flightCategory": "VFR",
    "windDir": 220,
    "windSpeed": 12,
    "windGust": 20,
    "visibility": 10,
    "ceiling": null,
    "temp": 23.3,
    "dewpoint": 6.7,
    "altimeter": 29.55,
    "conditions": "",
    "observationTime": "2026-05-04T17:00:00.000Z"
  },
  "LHR": {
    "raw": "METAR EGLL 041620Z COR AUTO 01007KT 330V050 9999 BKN020 BKN024 BKN030 15/10 Q1014 NOSIG",
    "icao": "EGLL",
    "flightCategory": "MVFR",
    "windDir": 10,
    "windSpeed": 7,
    "windGust": null,
    "visibility": 6,
    "ceiling": 2000,
    "temp": 15,
    "dewpoint": 10,
    "altimeter": 29.94,
    "conditions": "",
    "observationTime": "2026-05-04T16:20:00.000Z"
  },
  "SYD": {
    "raw": "METAR YSSY 041600Z AUTO 24008KT 9999 // SCT039 BKN066 18/11 Q1016",
    "icao": "YSSY",
    "flightCategory": "VFR",
    "windDir": 240,
    "windSpeed": 8,
    "windGust": null,
    "visibility": 6,
    "ceiling": 6600,
    "temp": 18,
    "dewpoint": 11,
    "altimeter": 30,
    "conditions": "",
    "observationTime": "2026-05-04T16:00:00.000Z"
  }
}