{
  "LAS": {
    "raw": "METAR KLAS 011656Z 03012G18KT 10SM FEW140 24/M06 A3000 RMK AO2 SLP138 T02441061",
    "icao": "KLAS",
    "flightCategory": "VFR",
    "windDir": 30,
    "windSpeed": 12,
    "windGust": 18,
    "visibility": 10,
    "ceiling": null,
    "temp": 24.4,
    "dewpoint": -6.1,
    "altimeter": 30,
    "conditions": "",
    "observationTime": "2026-05-01T17:00:00.000Z"
  },
  "SYD": {
    "raw": "METAR YSSY 011700Z AUTO 34005KT 9999 // FEW017 SCT027 BKN038 18/15 Q1025",
    "icao": "YSSY",
    "flightCategory": "VFR",
    "windDir": 340,
    "windSpeed": 5,
    "windGust": null,
    "visibility": 6,
    "ceiling": 3800,
    "temp": 18,
    "dewpoint": 15,
    "altimeter": 30.27,
    "conditions": "",
    "observationTime": "2026-05-01T17:00:00.000Z"
  },
  "LHR": {
    "raw": "METAR EGLL 011650Z COR AUTO 22014KT 9999 SCT042 22/12 Q1018 NOSIG",
    "icao": "EGLL",
    "flightCategory": "VFR",
    "windDir": 220,
    "windSpeed": 14,
    "windGust": null,
    "visibility": 6,
    "ceiling": null,
    "temp": 22,
    "dewpoint": 12,
    "altimeter": 30.06,
    "conditions": "",
    "observationTime": "2026-05-01T17:00:00.000Z"
  },
  "LAX": {
    "raw": "METAR KLAX 011653Z 06006KT 10SM OVC023 18/12 A2998 RMK AO2 SLP152 T01830122",
    "icao": "KLAX",
    "flightCategory": "MVFR",
    "windDir": 60,
    "windSpeed": 6,
    "windGust": null,
    "visibility": 10,
    "ceiling": 2300,
    "temp": 18.3,
    "dewpoint": 12.2,
    "altimeter": 29.98,
    "conditions": "",
    "observationTime": "2026-05-01T17:00:00.000Z"
  },
  "ORD": {
    "raw": "METAR KORD 011651Z 36015KT 10SM FEW037 BKN055 BKN080 09/M03 A3001 RMK AO2 SLP165 T00941028 $",
    "icao": "KORD",
    "flightCategory": "VFR",
    "windDir": 360,
    "windSpeed": 15,
    "windGust": null,
    "visibility": 10,
    "ceiling": 5500,
    "temp": 9.4,
    "dewpoint": -2.8,
    "altimeter": 30.01,
    "conditions": "",
    "observationTime": "2026-05-01T17:00:00.000Z"
  }
}