{
  "ORD": {
    "raw": "METAR KORD 061551Z VRB03KT 10SM BKN024 BKN060 BKN250 28/21 A2986 RMK AO2 SLP107 T02780211 $",
    "icao": "KORD",
    "flightCategory": "MVFR",
    "windDir": null,
    "windSpeed": 3,
    "windGust": null,
    "visibility": 10,
    "ceiling": 2400,
    "temp": 27.8,
    "dewpoint": 21.1,
    "altimeter": 29.86,
    "conditions": "",
    "observationTime": "2026-06-06T16:00:00.000Z"
  },
  "SYD": {
    "raw": "METAR YSSY 061530Z AUTO 32007KT 9999 // BKN056 11/07 Q1029",
    "icao": "YSSY",
    "flightCategory": "VFR",
    "windDir": 320,
    "windSpeed": 7,
    "windGust": null,
    "visibility": 6,
    "ceiling": 5600,
    "temp": 11,
    "dewpoint": 7,
    "altimeter": 30.39,
    "conditions": "",
    "observationTime": "2026-06-06T15:30:00.000Z"
  },
  "LAS": {
    "raw": "METAR KLAS 061556Z 18014G24KT 10SM CLR 32/03 A2975 RMK AO2 PK WND 20032/1500 SLP043 T03170028",
    "icao": "KLAS",
    "flightCategory": "VFR",
    "windDir": 180,
    "windSpeed": 14,
    "windGust": 24,
    "visibility": 10,
    "ceiling": null,
    "temp": 31.7,
    "dewpoint": 2.8,
    "altimeter": 29.75,
    "conditions": "",
    "observationTime": "2026-06-06T16:00:00.000Z"
  },
  "LAX": {
    "raw": "METAR KLAX 061553Z VRB04KT 10SM FEW013 OVC019 19/14 A2987 RMK AO2 SLP114 T01890139 $",
    "icao": "KLAX",
    "flightCategory": "MVFR",
    "windDir": null,
    "windSpeed": 4,
    "windGust": null,
    "visibility": 10,
    "ceiling": 1900,
    "temp": 18.9,
    "dewpoint": 13.9,
    "altimeter": 29.87,
    "conditions": "",
    "observationTime": "2026-06-06T16:00:00.000Z"
  },
  "LHR": {
    "raw": "METAR EGLL 061520Z AUTO 21019KT 9999 -RA BKN013/// OVC017/// //////TCU 15/14 Q1005",
    "icao": "EGLL",
    "flightCategory": "MVFR",
    "windDir": 210,
    "windSpeed": 19,
    "windGust": null,
    "visibility": 6,
    "ceiling": 1300,
    "temp": 15,
    "dewpoint": 14,
    "altimeter": 29.68,
    "conditions": "-RA",
    "observationTime": "2026-06-06T15:20:00.000Z"
  }
}