{
  "LAX": {
    "raw": "METAR KLAX 241253Z 25005KT 7SM FEW008 FEW012 SCT250 20/18 A2988 RMK AO2 SLP114 T02000178 $",
    "icao": "KLAX",
    "flightCategory": "VFR",
    "windDir": 250,
    "windSpeed": 5,
    "windGust": null,
    "visibility": 7,
    "ceiling": null,
    "temp": 20,
    "dewpoint": 17.8,
    "altimeter": 29.88,
    "conditions": "",
    "observationTime": "2026-07-24T13:00:00.000Z"
  },
  "ORD": {
    "raw": "METAR KORD 241251Z 26003KT 10SM SCT065 BKN210 OVC250 20/12 A3017 RMK AO2 SLP212 T02000117 $",
    "icao": "KORD",
    "flightCategory": "VFR",
    "windDir": 260,
    "windSpeed": 3,
    "windGust": null,
    "visibility": 10,
    "ceiling": 21000,
    "temp": 20,
    "dewpoint": 11.7,
    "altimeter": 30.17,
    "conditions": "",
    "observationTime": "2026-07-24T13:00:00.000Z"
  },
  "LHR": {
    "raw": "METAR EGLL 241220Z AUTO 27010KT 230V290 9999 NCD 26/12 Q1017",
    "icao": "EGLL",
    "flightCategory": "VFR",
    "windDir": 270,
    "windSpeed": 10,
    "windGust": null,
    "visibility": 6,
    "ceiling": null,
    "temp": 26,
    "dewpoint": 12,
    "altimeter": 30.03,
    "conditions": "",
    "observationTime": "2026-07-24T12:20:00.000Z"
  },
  "SYD": {
    "raw": "METAR YSSY 241200Z AUTO 26012KT 9999 // NCD 10/02 Q1026",
    "icao": "YSSY",
    "flightCategory": "VFR",
    "windDir": 260,
    "windSpeed": 12,
    "windGust": null,
    "visibility": 6,
    "ceiling": null,
    "temp": 10,
    "dewpoint": 2,
    "altimeter": 30.3,
    "conditions": "",
    "observationTime": "2026-07-24T12:00:00.000Z"
  }
}