{
  "LAX": {
    "raw": "METAR KLAX 170153Z 25009KT 10SM FEW250 17/13 A2987 RMK AO2 SLP115 T01720133",
    "icao": "KLAX",
    "flightCategory": "VFR",
    "windDir": 250,
    "windSpeed": 9,
    "windGust": null,
    "visibility": 10,
    "ceiling": null,
    "temp": 17.2,
    "dewpoint": 13.3,
    "altimeter": 29.87,
    "conditions": "",
    "observationTime": "2026-04-17T02:00:00.000Z"
  },
  "ORD": {
    "raw": "METAR KORD 170151Z 08006KT 10SM FEW005 12/09 A2991 RMK AO2 SLP127 T01170094 $",
    "icao": "KORD",
    "flightCategory": "VFR",
    "windDir": 80,
    "windSpeed": 6,
    "windGust": null,
    "visibility": 10,
    "ceiling": null,
    "temp": 11.7,
    "dewpoint": 9.4,
    "altimeter": 29.91,
    "conditions": "",
    "observationTime": "2026-04-17T02:00:00.000Z"
  },
  "LHR": {
    "raw": "METAR EGLL 170120Z COR AUTO 18006KT 9999 FEW039 11/09 Q1020 NOSIG",
    "icao": "EGLL",
    "flightCategory": "VFR",
    "windDir": 180,
    "windSpeed": 6,
    "windGust": null,
    "visibility": 6,
    "ceiling": null,
    "temp": 11,
    "dewpoint": 9,
    "altimeter": 30.12,
    "conditions": "",
    "observationTime": "2026-04-17T01:20:00.000Z"
  },
  "SYD": {
    "raw": "METAR YSSY 170100Z 30008KT CAVOK 26/07 Q1012",
    "icao": "YSSY",
    "flightCategory": "VFR",
    "windDir": 300,
    "windSpeed": 8,
    "windGust": null,
    "visibility": 6,
    "ceiling": null,
    "temp": 26,
    "dewpoint": 7,
    "altimeter": 29.88,
    "conditions": "",
    "observationTime": "2026-04-17T01:00:00.000Z"
  }
}