{
  "LAS": {
    "raw": "METAR KLAS 142256Z COR VRB04KT 10SM FEW090 SCT150 BKN200 38/13 A2991 RMK AO2 SLP095 CB DSNT NE-SE T03830128",
    "icao": "KLAS",
    "flightCategory": "VFR",
    "windDir": null,
    "windSpeed": 4,
    "windGust": null,
    "visibility": 10,
    "ceiling": 20000,
    "temp": 38.3,
    "dewpoint": 12.8,
    "altimeter": 29.91,
    "conditions": "",
    "observationTime": "2026-07-14T23:00:00.000Z"
  },
  "LAX": {
    "raw": "METAR KLAX 142253Z 25012KT 10SM FEW080 24/17 A2990 RMK AO2 SLP125 T02440172 $",
    "icao": "KLAX",
    "flightCategory": "VFR",
    "windDir": 250,
    "windSpeed": 12,
    "windGust": null,
    "visibility": 10,
    "ceiling": null,
    "temp": 24.4,
    "dewpoint": 17.2,
    "altimeter": 29.9,
    "conditions": "",
    "observationTime": "2026-07-14T23:00:00.000Z"
  },
  "ORD": {
    "raw": "METAR KORD 142251Z 26006KT 10SM FEW060 FEW300 35/19 A3009 RMK AO2 SLP184 T03500194 $",
    "icao": "KORD",
    "flightCategory": "VFR",
    "windDir": 260,
    "windSpeed": 6,
    "windGust": null,
    "visibility": 10,
    "ceiling": null,
    "temp": 35,
    "dewpoint": 19.4,
    "altimeter": 30.09,
    "conditions": "",
    "observationTime": "2026-07-14T23:00:00.000Z"
  },
  "LHR": {
    "raw": "METAR EGLL 142220Z AUTO 03006KT 340V060 9999 NCD 21/16 Q1022",
    "icao": "EGLL",
    "flightCategory": "VFR",
    "windDir": 30,
    "windSpeed": 6,
    "windGust": null,
    "visibility": 6,
    "ceiling": null,
    "temp": 21,
    "dewpoint": 16,
    "altimeter": 30.18,
    "conditions": "",
    "observationTime": "2026-07-14T22:20:00.000Z"
  },
  "SYD": {
    "raw": "METAR YSSY 142230Z 25011KT 9999 FEW045 13/06 Q1032",
    "icao": "YSSY",
    "flightCategory": "VFR",
    "windDir": 250,
    "windSpeed": 11,
    "windGust": null,
    "visibility": 6,
    "ceiling": null,
    "temp": 13,
    "dewpoint": 6,
    "altimeter": 30.47,
    "conditions": "",
    "observationTime": "2026-07-14T22:30:00.000Z"
  }
}