{
  "SYD": {
    "raw": "METAR YSSY 020600Z AUTO 06013KT 9999 // NCD 26/16 Q1021",
    "icao": "YSSY",
    "flightCategory": "VFR",
    "windDir": 60,
    "windSpeed": 13,
    "windGust": null,
    "visibility": 6,
    "ceiling": null,
    "temp": 26,
    "dewpoint": 16,
    "altimeter": 30.15,
    "conditions": "",
    "observationTime": "2026-04-02T06:00:00.000Z"
  },
  "ORD": {
    "raw": "METAR KORD 020551Z 08013KT 7SM -RA OVC016 03/02 A3005 RMK AO2 SLP182 P0007 60009 T00330017 10044 20028 400440022 58021",
    "icao": "KORD",
    "flightCategory": "MVFR",
    "windDir": 80,
    "windSpeed": 13,
    "windGust": null,
    "visibility": 7,
    "ceiling": 1600,
    "temp": 3.3,
    "dewpoint": 1.7,
    "altimeter": 30.05,
    "conditions": "-RA",
    "observationTime": "2026-04-02T06:00:00.000Z"
  },
  "LHR": {
    "raw": "METAR EGLL 020550Z COR AUTO 32006KT 290V350 9999 NCD 06/01 Q1020 NOSIG",
    "icao": "EGLL",
    "flightCategory": "VFR",
    "windDir": 320,
    "windSpeed": 6,
    "windGust": null,
    "visibility": 6,
    "ceiling": null,
    "temp": 6,
    "dewpoint": 1,
    "altimeter": 30.12,
    "conditions": "",
    "observationTime": "2026-04-02T06:00:00.000Z"
  },
  "LAS": {
    "raw": "METAR KLAS 020556Z 23024G34KT 10SM CLR 19/03 A2977 RMK AO2 PK WND 23034/0555 SLP065 T01890033 10244 20189 50003",
    "icao": "KLAS",
    "flightCategory": "VFR",
    "windDir": 230,
    "windSpeed": 24,
    "windGust": 34,
    "visibility": 10,
    "ceiling": null,
    "temp": 18.9,
    "dewpoint": 3.3,
    "altimeter": 29.77,
    "conditions": "",
    "observationTime": "2026-04-02T06:00:00.000Z"
  },
  "LAX": {
    "raw": "METAR KLAX 020553Z 27013KT 10SM FEW015 FEW040 SCT150 SCT250 16/12 A3000 RMK AO2 SLP158 T01610122 10189 20161 51009 $",
    "icao": "KLAX",
    "flightCategory": "VFR",
    "windDir": 270,
    "windSpeed": 13,
    "windGust": null,
    "visibility": 10,
    "ceiling": null,
    "temp": 16.1,
    "dewpoint": 12.2,
    "altimeter": 30,
    "conditions": "",
    "observationTime": "2026-04-02T06:00:00.000Z"
  }
}