{
  "SYD": {
    "raw": "METAR YSSY 022100Z 22009KT 9999 FEW007 19/17 Q1022",
    "icao": "YSSY",
    "flightCategory": "VFR",
    "windDir": 220,
    "windSpeed": 9,
    "windGust": null,
    "visibility": 6,
    "ceiling": null,
    "temp": 19,
    "dewpoint": 17,
    "altimeter": 30.18,
    "conditions": "",
    "observationTime": "2026-04-02T21:00:00.000Z"
  },
  "LHR": {
    "raw": "METAR EGLL 022120Z COR AUTO 21011KT 9999 -RA NCD 09/04 Q1019 NOSIG",
    "icao": "EGLL",
    "flightCategory": "VFR",
    "windDir": 210,
    "windSpeed": 11,
    "windGust": null,
    "visibility": 6,
    "ceiling": null,
    "temp": 9,
    "dewpoint": 4,
    "altimeter": 30.09,
    "conditions": "-RA",
    "observationTime": "2026-04-02T21:20:00.000Z"
  },
  "LAS": {
    "raw": "METAR KLAS 022056Z 19007G15KT 10SM FEW140 BKN200 21/03 A2979 RMK AO2 SLP074 T02110033 58011",
    "icao": "KLAS",
    "flightCategory": "VFR",
    "windDir": 190,
    "windSpeed": 7,
    "windGust": 15,
    "visibility": 10,
    "ceiling": 20000,
    "temp": 21.1,
    "dewpoint": 3.3,
    "altimeter": 29.79,
    "conditions": "",
    "observationTime": "2026-04-02T21:00:00.000Z"
  },
  "LAX": {
    "raw": "METAR KLAX 022053Z 24012G19KT 10SM FEW010 SCT160 SCT250 20/12 A2997 RMK AO2 SLP147 T02000117 58014 $",
    "icao": "KLAX",
    "flightCategory": "VFR",
    "windDir": 240,
    "windSpeed": 12,
    "windGust": 19,
    "visibility": 10,
    "ceiling": null,
    "temp": 20,
    "dewpoint": 11.7,
    "altimeter": 29.97,
    "conditions": "",
    "observationTime": "2026-04-02T21:00:00.000Z"
  },
  "ORD": {
    "raw": "METAR KORD 022051Z 18027G40KT 10SM BKN031 BKN043 OVC055 21/16 A2964 RMK AO2 PK WND 18040/2049 SLP035 CB DSNT W-NW MOV NE 60002 T02110161 56030",
    "icao": "KORD",
    "flightCategory": "VFR",
    "windDir": 180,
    "windSpeed": 27,
    "windGust": 40,
    "visibility": 10,
    "ceiling": 3100,
    "temp": 21.1,
    "dewpoint": 16.1,
    "altimeter": 29.64,
    "conditions": "",
    "observationTime": "2026-04-02T21:00:00.000Z"
  }
}