{
  "LAS": {
    "raw": "METAR KLAS 251856Z 10008G15KT 10SM FEW120 FEW250 32/00 A2984 RMK AO2 SLP077 T03220000",
    "icao": "KLAS",
    "flightCategory": "VFR",
    "windDir": 100,
    "windSpeed": 8,
    "windGust": 15,
    "visibility": 10,
    "ceiling": null,
    "temp": 32.2,
    "dewpoint": 0,
    "altimeter": 29.84,
    "conditions": "",
    "observationTime": "2026-05-25T19:00:00.000Z"
  },
  "SYD": {
    "raw": "SPECI YSSY 251828Z AUTO 16007KT 8000 -SHRA FEW047 SCT060 BKN070 17/17 Q1018",
    "icao": "YSSY",
    "flightCategory": "MVFR",
    "windDir": 160,
    "windSpeed": 7,
    "windGust": null,
    "visibility": 4.97,
    "ceiling": 7000,
    "temp": 17,
    "dewpoint": 17,
    "altimeter": 30.06,
    "conditions": "-SHRA",
    "observationTime": "2026-05-25T18:28:00.000Z"
  },
  "LAX": {
    "raw": "METAR KLAX 251853Z 23008G15KT 10SM FEW010 SCT029 20/12 A2997 RMK AO2 SLP148 T02000117 $",
    "icao": "KLAX",
    "flightCategory": "VFR",
    "windDir": 230,
    "windSpeed": 8,
    "windGust": 15,
    "visibility": 10,
    "ceiling": null,
    "temp": 20,
    "dewpoint": 11.7,
    "altimeter": 29.97,
    "conditions": "",
    "observationTime": "2026-05-25T19:00:00.000Z"
  },
  "ORD": {
    "raw": "METAR KORD 251851Z 20005KT 10SM FEW070 FEW120 FEW250 27/10 A3009 RMK AO2 SLP186 T02720100 $",
    "icao": "KORD",
    "flightCategory": "VFR",
    "windDir": 200,
    "windSpeed": 5,
    "windGust": null,
    "visibility": 10,
    "ceiling": null,
    "temp": 27.2,
    "dewpoint": 10,
    "altimeter": 30.09,
    "conditions": "",
    "observationTime": "2026-05-25T19:00:00.000Z"
  },
  "LHR": {
    "raw": "METAR EGLL 251820Z AUTO 15009KT 9999 NCD 31/12 Q1029",
    "icao": "EGLL",
    "flightCategory": "VFR",
    "windDir": 150,
    "windSpeed": 9,
    "windGust": null,
    "visibility": 6,
    "ceiling": null,
    "temp": 31,
    "dewpoint": 12,
    "altimeter": 30.39,
    "conditions": "",
    "observationTime": "2026-05-25T18:20:00.000Z"
  }
}