{
  "LHR": {
    "raw": "METAR EGLL 090250Z COR AUTO 03004KT 9999 NCD 10/07 Q1018 NOSIG",
    "icao": "EGLL",
    "flightCategory": "VFR",
    "windDir": 30,
    "windSpeed": 4,
    "windGust": null,
    "visibility": 6,
    "ceiling": null,
    "temp": 10,
    "dewpoint": 7,
    "altimeter": 30.06,
    "conditions": "",
    "observationTime": "2026-05-09T03:00:00.000Z"
  },
  "SYD": {
    "raw": "METAR YSSY 090300Z 17012KT CAVOK 19/11 Q1023",
    "icao": "YSSY",
    "flightCategory": "VFR",
    "windDir": 170,
    "windSpeed": 12,
    "windGust": null,
    "visibility": 6,
    "ceiling": null,
    "temp": 19,
    "dewpoint": 11,
    "altimeter": 30.21,
    "conditions": "",
    "observationTime": "2026-05-09T03:00:00.000Z"
  },
  "LAS": {
    "raw": "METAR KLAS 090256Z 25007KT 10SM FEW250 34/M06 A2979 RMK AO2 SLP058 T03441056 53001",
    "icao": "KLAS",
    "flightCategory": "VFR",
    "windDir": 250,
    "windSpeed": 7,
    "windGust": null,
    "visibility": 10,
    "ceiling": null,
    "temp": 34.4,
    "dewpoint": -5.6,
    "altimeter": 29.79,
    "conditions": "",
    "observationTime": "2026-05-09T03:00:00.000Z"
  },
  "LAX": {
    "raw": "METAR KLAX 090253Z 27008KT 10SM SCT008 OVC010 16/13 A2994 RMK AO2 SLP137 T01560133 53002",
    "icao": "KLAX",
    "flightCategory": "MVFR",
    "windDir": 270,
    "windSpeed": 8,
    "windGust": null,
    "visibility": 10,
    "ceiling": 1000,
    "temp": 15.6,
    "dewpoint": 13.3,
    "altimeter": 29.94,
    "conditions": "",
    "observationTime": "2026-05-09T03:00:00.000Z"
  },
  "ORD": {
    "raw": "METAR KORD 090251Z 16007KT 10SM BKN250 13/06 A2969 RMK AO2 SLP055 T01330061 56000",
    "icao": "KORD",
    "flightCategory": "VFR",
    "windDir": 160,
    "windSpeed": 7,
    "windGust": null,
    "visibility": 10,
    "ceiling": 25000,
    "temp": 13.3,
    "dewpoint": 6.1,
    "altimeter": 29.69,
    "conditions": "",
    "observationTime": "2026-05-09T03:00:00.000Z"
  }
}