{
  "SYD": {
    "raw": "METAR YSSY 050330Z 26009KT CAVOK 22/07 Q1017",
    "icao": "YSSY",
    "flightCategory": "VFR",
    "windDir": 260,
    "windSpeed": 9,
    "windGust": null,
    "visibility": 6,
    "ceiling": null,
    "temp": 22,
    "dewpoint": 7,
    "altimeter": 30.03,
    "conditions": "",
    "observationTime": "2026-05-05T03:30:00.000Z"
  },
  "LAS": {
    "raw": "METAR KLAS 050356Z 23012G19KT 10SM FEW200 FEW250 21/M01 A2978 RMK AO2 SLP069 T02061011",
    "icao": "KLAS",
    "flightCategory": "VFR",
    "windDir": 230,
    "windSpeed": 12,
    "windGust": 19,
    "visibility": 10,
    "ceiling": null,
    "temp": 20.6,
    "dewpoint": -1.1,
    "altimeter": 29.78,
    "conditions": "",
    "observationTime": "2026-05-05T04:00:00.000Z"
  },
  "LAX": {
    "raw": "METAR KLAX 050353Z COR 24009KT 10SM FEW015 SCT024 BKN065 16/12 A2998 RMK AO2 SLP150 T01560117",
    "icao": "KLAX",
    "flightCategory": "VFR",
    "windDir": 240,
    "windSpeed": 9,
    "windGust": null,
    "visibility": 10,
    "ceiling": 6500,
    "temp": 15.6,
    "dewpoint": 11.7,
    "altimeter": 29.98,
    "conditions": "",
    "observationTime": "2026-05-05T04:00:00.000Z"
  },
  "ORD": {
    "raw": "METAR KORD 050351Z 22010KT 10SM FEW100 BKN250 18/09 A2956 RMK AO2 SLP005 T01780094",
    "icao": "KORD",
    "flightCategory": "VFR",
    "windDir": 220,
    "windSpeed": 10,
    "windGust": null,
    "visibility": 10,
    "ceiling": 25000,
    "temp": 17.8,
    "dewpoint": 9.4,
    "altimeter": 29.56,
    "conditions": "",
    "observationTime": "2026-05-05T04:00:00.000Z"
  },
  "LHR": {
    "raw": "METAR EGLL 050350Z AUTO 01004KT 330V070 9999 SCT011 OVC038 12/09 Q1013 TEMPO BKN011",
    "icao": "EGLL",
    "flightCategory": "VFR",
    "windDir": 10,
    "windSpeed": 4,
    "windGust": null,
    "visibility": 6,
    "ceiling": 3800,
    "temp": 12,
    "dewpoint": 9,
    "altimeter": 29.91,
    "conditions": "",
    "observationTime": "2026-05-05T04:00:00.000Z"
  }
}