{
  "SYD": {
    "raw": "METAR YSSY 041300Z AUTO 12010KT 9999 // FEW027 SCT039 BKN047 18/16 Q1026",
    "icao": "YSSY",
    "flightCategory": "VFR",
    "windDir": 120,
    "windSpeed": 10,
    "windGust": null,
    "visibility": 6,
    "ceiling": 4700,
    "temp": 18,
    "dewpoint": 16,
    "altimeter": 30.3,
    "conditions": "",
    "observationTime": "2026-04-04T13:00:00.000Z"
  },
  "LHR": {
    "raw": "METAR EGLL 041250Z COR AUTO 22016KT 200V260 9999 BKN019 BKN025 13/08 Q1015 NOSIG",
    "icao": "EGLL",
    "flightCategory": "MVFR",
    "windDir": 220,
    "windSpeed": 16,
    "windGust": null,
    "visibility": 6,
    "ceiling": 1900,
    "temp": 13,
    "dewpoint": 8,
    "altimeter": 29.97,
    "conditions": "",
    "observationTime": "2026-04-04T13:00:00.000Z"
  },
  "ORD": {
    "raw": "METAR KORD 041251Z 19007KT 4SM BR BKN003 OVC070 09/08 A2981 RMK AO2 RAE30 SLP097 P0001 T00890083 $",
    "icao": "KORD",
    "flightCategory": "LIFR",
    "windDir": 190,
    "windSpeed": 7,
    "windGust": null,
    "visibility": 4,
    "ceiling": 300,
    "temp": 8.9,
    "dewpoint": 8.3,
    "altimeter": 29.81,
    "conditions": "BR",
    "observationTime": "2026-04-04T13:00:00.000Z"
  },
  "LAS": {
    "raw": "METAR KLAS 041256Z 06007KT 10SM FEW250 13/M09 A3024 RMK AO2 SLP229 T01281094",
    "icao": "KLAS",
    "flightCategory": "VFR",
    "windDir": 60,
    "windSpeed": 7,
    "windGust": null,
    "visibility": 10,
    "ceiling": null,
    "temp": 12.8,
    "dewpoint": -9.4,
    "altimeter": 30.24,
    "conditions": "",
    "observationTime": "2026-04-04T13:00:00.000Z"
  },
  "LAX": {
    "raw": "METAR KLAX 041253Z VRB03KT 10SM FEW240 FEW290 16/08 A2998 RMK AO2 SLP151 T01560083 $",
    "icao": "KLAX",
    "flightCategory": "VFR",
    "windDir": null,
    "windSpeed": 3,
    "windGust": null,
    "visibility": 10,
    "ceiling": null,
    "temp": 15.6,
    "dewpoint": 8.3,
    "altimeter": 29.98,
    "conditions": "",
    "observationTime": "2026-04-04T13:00:00.000Z"
  }
}