{
  "SYD": {
    "raw": "METAR YSSY 041630Z AUTO 29007KT 9999 // NCD 09/04 Q1029",
    "icao": "YSSY",
    "flightCategory": "VFR",
    "windDir": 290,
    "windSpeed": 7,
    "windGust": null,
    "visibility": 6,
    "ceiling": null,
    "temp": 9,
    "dewpoint": 4,
    "altimeter": 30.39,
    "conditions": "",
    "observationTime": "2026-07-04T16:30:00.000Z"
  },
  "LAS": {
    "raw": "METAR KLAS 041656Z 01005KT 10SM FEW250 33/M05 A3003 RMK AO2 SLP138 T03281050 $",
    "icao": "KLAS",
    "flightCategory": "VFR",
    "windDir": 10,
    "windSpeed": 5,
    "windGust": null,
    "visibility": 10,
    "ceiling": null,
    "temp": 32.8,
    "dewpoint": -5,
    "altimeter": 30.03,
    "conditions": "",
    "observationTime": "2026-07-04T17:00:00.000Z"
  },
  "LAX": {
    "raw": "METAR KLAX 041653Z VRB03KT 10SM FEW010 SCT150 BKN230 BKN300 21/16 A3003 RMK AO2 SLP167 ACSL DSNT NE T02060156 $",
    "icao": "KLAX",
    "flightCategory": "VFR",
    "windDir": null,
    "windSpeed": 3,
    "windGust": null,
    "visibility": 10,
    "ceiling": 23000,
    "temp": 20.6,
    "dewpoint": 15.6,
    "altimeter": 30.03,
    "conditions": "",
    "observationTime": "2026-07-04T17:00:00.000Z"
  },
  "ORD": {
    "raw": "METAR KORD 041651Z 22004KT 10SM FEW030 BKN130 BKN250 28/21 A2999 RMK AO2 SLP149 T02830211 $",
    "icao": "KORD",
    "flightCategory": "VFR",
    "windDir": 220,
    "windSpeed": 4,
    "windGust": null,
    "visibility": 10,
    "ceiling": 13000,
    "temp": 28.3,
    "dewpoint": 21.1,
    "altimeter": 29.99,
    "conditions": "",
    "observationTime": "2026-07-04T17:00:00.000Z"
  },
  "LHR": {
    "raw": "METAR EGLL 041620Z AUTO 27018KT 9999 NCD 28/14 Q1024",
    "icao": "EGLL",
    "flightCategory": "VFR",
    "windDir": 270,
    "windSpeed": 18,
    "windGust": null,
    "visibility": 6,
    "ceiling": null,
    "temp": 28,
    "dewpoint": 14,
    "altimeter": 30.24,
    "conditions": "",
    "observationTime": "2026-07-04T16:20:00.000Z"
  }
}