{
  "SYD": {
    "raw": "SPECI YSSY 281800Z AUTO 36006KT 5000 -SHRA SCT033 BKN039 OVC049 13/12 Q1029",
    "icao": "YSSY",
    "flightCategory": "MVFR",
    "windDir": 360,
    "windSpeed": 6,
    "windGust": null,
    "visibility": 3.11,
    "ceiling": 3900,
    "temp": 13,
    "dewpoint": 12,
    "altimeter": 30.39,
    "conditions": "-SHRA",
    "observationTime": "2026-06-28T18:00:00.000Z"
  },
  "LHR": {
    "raw": "METAR EGLL 281750Z AUTO 28009KT 240V300 9999 NCD 22/11 Q1020",
    "icao": "EGLL",
    "flightCategory": "VFR",
    "windDir": 280,
    "windSpeed": 9,
    "windGust": null,
    "visibility": 6,
    "ceiling": null,
    "temp": 22,
    "dewpoint": 11,
    "altimeter": 30.12,
    "conditions": "",
    "observationTime": "2026-06-28T18:00:00.000Z"
  },
  "LAS": {
    "raw": "METAR KLAS 281756Z 18004KT 10SM CLR 29/02 A2975 RMK AO2 SLP049 T02890022 10294 20228 58001",
    "icao": "KLAS",
    "flightCategory": "VFR",
    "windDir": 180,
    "windSpeed": 4,
    "windGust": null,
    "visibility": 10,
    "ceiling": null,
    "temp": 28.9,
    "dewpoint": 2.2,
    "altimeter": 29.75,
    "conditions": "",
    "observationTime": "2026-06-28T18:00:00.000Z"
  },
  "LAX": {
    "raw": "METAR KLAX 281753Z 26013KT 10SM BKN027 OVC033 19/13 A2994 RMK AO2 SLP138 T01940133 10200 20172 51006",
    "icao": "KLAX",
    "flightCategory": "MVFR",
    "windDir": 260,
    "windSpeed": 13,
    "windGust": null,
    "visibility": 10,
    "ceiling": 2700,
    "temp": 19.4,
    "dewpoint": 13.3,
    "altimeter": 29.94,
    "conditions": "",
    "observationTime": "2026-06-28T18:00:00.000Z"
  },
  "ORD": {
    "raw": "METAR KORD 281751Z 10010KT 10SM OVC032 27/20 A2993 RMK AO2 SLP130 T02670200 10272 20200 53003 $",
    "icao": "KORD",
    "flightCategory": "VFR",
    "windDir": 100,
    "windSpeed": 10,
    "windGust": null,
    "visibility": 10,
    "ceiling": 3200,
    "temp": 26.7,
    "dewpoint": 20,
    "altimeter": 29.93,
    "conditions": "",
    "observationTime": "2026-06-28T18:00:00.000Z"
  }
}