{
  "LHR": {
    "raw": "METAR EGLL 012350Z COR AUTO 28008KT 9999 -RA BKN044 10/07 Q1020 NOSIG",
    "icao": "EGLL",
    "flightCategory": "VFR",
    "windDir": 280,
    "windSpeed": 8,
    "windGust": null,
    "visibility": 6,
    "ceiling": 4400,
    "temp": 10,
    "dewpoint": 7,
    "altimeter": 30.12,
    "conditions": "-RA",
    "observationTime": "2026-04-02T00:00:00.000Z"
  },
  "SYD": {
    "raw": "METAR YSSY 012330Z 29007KT 270V330 9999 FEW030 SCT250 24/17 Q1024",
    "icao": "YSSY",
    "flightCategory": "VFR",
    "windDir": 290,
    "windSpeed": 7,
    "windGust": null,
    "visibility": 6,
    "ceiling": null,
    "temp": 24,
    "dewpoint": 17,
    "altimeter": 30.24,
    "conditions": "",
    "observationTime": "2026-04-01T23:30:00.000Z"
  },
  "LAS": {
    "raw": "METAR KLAS 012356Z 21015G20KT 10SM FEW080 24/M01 A2977 RMK AO2 PK WND 24026/2307 SLP063 T02391006 10244 20200 56022",
    "icao": "KLAS",
    "flightCategory": "VFR",
    "windDir": 210,
    "windSpeed": 15,
    "windGust": 20,
    "visibility": 10,
    "ceiling": null,
    "temp": 23.9,
    "dewpoint": -0.6,
    "altimeter": 29.77,
    "conditions": "",
    "observationTime": "2026-04-02T00:00:00.000Z"
  },
  "LAX": {
    "raw": "METAR KLAX 012353Z 26015KT 10SM FEW015 FEW060 SCT250 19/12 A2996 RMK AO2 SLP144 T01890117 10200 20183 56012 $",
    "icao": "KLAX",
    "flightCategory": "VFR",
    "windDir": 260,
    "windSpeed": 15,
    "windGust": null,
    "visibility": 10,
    "ceiling": null,
    "temp": 18.9,
    "dewpoint": 11.7,
    "altimeter": 29.96,
    "conditions": "",
    "observationTime": "2026-04-02T00:00:00.000Z"
  },
  "ORD": {
    "raw": "SPECI KORD 012336Z 05016G24KT 10SM SCT026 BKN065 OVC250 03/M01 A3016 RMK AO2 T00331006",
    "icao": "KORD",
    "flightCategory": "VFR",
    "windDir": 50,
    "windSpeed": 16,
    "windGust": 24,
    "visibility": 10,
    "ceiling": 6500,
    "temp": 3.3,
    "dewpoint": -0.6,
    "altimeter": 30.16,
    "conditions": "",
    "observationTime": "2026-04-01T23:36:00.000Z"
  }
}