{
  "LHR": {
    "raw": "METAR EGLL 211450Z AUTO 05007KT 010V100 9999 OVC045 23/12 Q1028",
    "icao": "EGLL",
    "flightCategory": "VFR",
    "windDir": 50,
    "windSpeed": 7,
    "windGust": null,
    "visibility": 6,
    "ceiling": 4500,
    "temp": 23,
    "dewpoint": 12,
    "altimeter": 30.36,
    "conditions": "",
    "observationTime": "2026-07-21T15:00:00.000Z"
  },
  "SYD": {
    "raw": "METAR YSSY 211430Z AUTO 32007KT 9999 // NCD 13/12 Q1025",
    "icao": "YSSY",
    "flightCategory": "VFR",
    "windDir": 320,
    "windSpeed": 7,
    "windGust": null,
    "visibility": 6,
    "ceiling": null,
    "temp": 13,
    "dewpoint": 12,
    "altimeter": 30.27,
    "conditions": "",
    "observationTime": "2026-07-21T14:30:00.000Z"
  },
  "LAS": {
    "raw": "METAR KLAS 211456Z 00000KT 10SM FEW100 SCT150 BKN190 33/11 A2993 RMK AO2 SLP101 T03330106 53019 $",
    "icao": "KLAS",
    "flightCategory": "VFR",
    "windDir": 0,
    "windSpeed": 0,
    "windGust": null,
    "visibility": 10,
    "ceiling": 19000,
    "temp": 33.3,
    "dewpoint": 10.6,
    "altimeter": 29.93,
    "conditions": "",
    "observationTime": "2026-07-21T15:00:00.000Z"
  },
  "LAX": {
    "raw": "METAR KLAX 211453Z 00000KT 7SM FEW008 FEW014 SCT140 BKN180 23/19 A2999 RMK AO2 SLP152 T02280194 51017 $",
    "icao": "KLAX",
    "flightCategory": "VFR",
    "windDir": 0,
    "windSpeed": 0,
    "windGust": null,
    "visibility": 7,
    "ceiling": 18000,
    "temp": 22.8,
    "dewpoint": 19.4,
    "altimeter": 29.99,
    "conditions": "",
    "observationTime": "2026-07-21T15:00:00.000Z"
  },
  "ORD": {
    "raw": "METAR KORD 211451Z 29009KT 10SM FEW032 27/19 A2969 RMK AO2 SLP047 T02720194 50002",
    "icao": "KORD",
    "flightCategory": "VFR",
    "windDir": 290,
    "windSpeed": 9,
    "windGust": null,
    "visibility": 10,
    "ceiling": null,
    "temp": 27.2,
    "dewpoint": 19.4,
    "altimeter": 29.69,
    "conditions": "",
    "observationTime": "2026-07-21T15:00:00.000Z"
  }
}