{
  "LHR": {
    "raw": "METAR EGLL 080850Z COR AUTO 12009KT 080V150 9999 NCD 15/07 Q1017 NOSIG",
    "icao": "EGLL",
    "flightCategory": "VFR",
    "windDir": 120,
    "windSpeed": 9,
    "windGust": null,
    "visibility": 6,
    "ceiling": null,
    "temp": 15,
    "dewpoint": 7,
    "altimeter": 30.03,
    "conditions": "",
    "observationTime": "2026-05-08T09:00:00.000Z"
  },
  "SYD": {
    "raw": "METAR YSSY 080900Z AUTO 25018KT 9999 // NCD 16/06 Q1020",
    "icao": "YSSY",
    "flightCategory": "VFR",
    "windDir": 250,
    "windSpeed": 18,
    "windGust": null,
    "visibility": 6,
    "ceiling": null,
    "temp": 16,
    "dewpoint": 6,
    "altimeter": 30.12,
    "conditions": "",
    "observationTime": "2026-05-08T09:00:00.000Z"
  },
  "LAS": {
    "raw": "METAR KLAS 080856Z 18005KT 10SM CLR 25/M04 A2986 RMK AO2 SLP085 T02501044 58002",
    "icao": "KLAS",
    "flightCategory": "VFR",
    "windDir": 180,
    "windSpeed": 5,
    "windGust": null,
    "visibility": 10,
    "ceiling": null,
    "temp": 25,
    "dewpoint": -4.4,
    "altimeter": 29.86,
    "conditions": "",
    "observationTime": "2026-05-08T09:00:00.000Z"
  },
  "LAX": {
    "raw": "SPECI KLAX 080850Z VRB04KT 10SM FEW008 BKN010 16/14 A3000 RMK AO2",
    "icao": "KLAX",
    "flightCategory": "MVFR",
    "windDir": null,
    "windSpeed": 4,
    "windGust": null,
    "visibility": 10,
    "ceiling": 1000,
    "temp": 16,
    "dewpoint": 14,
    "altimeter": 30,
    "conditions": "",
    "observationTime": "2026-05-08T08:50:00.000Z"
  },
  "ORD": {
    "raw": "METAR KORD 080851Z 36004KT 7SM FEW110 05/03 A2985 RMK AO2 SLP111 T00500033 58003",
    "icao": "KORD",
    "flightCategory": "VFR",
    "windDir": 360,
    "windSpeed": 4,
    "windGust": null,
    "visibility": 7,
    "ceiling": null,
    "temp": 5,
    "dewpoint": 3.3,
    "altimeter": 29.85,
    "conditions": "",
    "observationTime": "2026-05-08T09:00:00.000Z"
  }
}