{
  "LHR": {
    "raw": "METAR EGLL 080650Z COR AUTO 07003KT 9999 NCD 10/07 Q1023 NOSIG",
    "icao": "EGLL",
    "flightCategory": "VFR",
    "windDir": 70,
    "windSpeed": 3,
    "windGust": null,
    "visibility": 6,
    "ceiling": null,
    "temp": 10,
    "dewpoint": 7,
    "altimeter": 30.21,
    "conditions": "",
    "observationTime": "2026-04-08T07:00:00.000Z"
  },
  "SYD": {
    "raw": "METAR YSSY 080700Z AUTO 14007KT 9999 // NCD 24/19 Q1014",
    "icao": "YSSY",
    "flightCategory": "VFR",
    "windDir": 140,
    "windSpeed": 7,
    "windGust": null,
    "visibility": 6,
    "ceiling": null,
    "temp": 24,
    "dewpoint": 19,
    "altimeter": 29.94,
    "conditions": "",
    "observationTime": "2026-04-08T07:00:00.000Z"
  },
  "LAS": {
    "raw": "METAR KLAS 080656Z 22006KT 10SM CLR 23/M09 A2987 RMK AO2 SLP092 T02331089",
    "icao": "KLAS",
    "flightCategory": "VFR",
    "windDir": 220,
    "windSpeed": 6,
    "windGust": null,
    "visibility": 10,
    "ceiling": null,
    "temp": 23.3,
    "dewpoint": -8.9,
    "altimeter": 29.87,
    "conditions": "",
    "observationTime": "2026-04-08T07:00:00.000Z"
  },
  "LAX": {
    "raw": "METAR KLAX 080653Z VRB03KT 10SM FEW007 FEW015 17/14 A2993 RMK AO2 SLP132 T01720144 $",
    "icao": "KLAX",
    "flightCategory": "VFR",
    "windDir": null,
    "windSpeed": 3,
    "windGust": null,
    "visibility": 10,
    "ceiling": null,
    "temp": 17.2,
    "dewpoint": 14.4,
    "altimeter": 29.93,
    "conditions": "",
    "observationTime": "2026-04-08T07:00:00.000Z"
  },
  "ORD": {
    "raw": "METAR KORD 080651Z 14007KT 10SM BKN120 OVC250 03/M06 A3032 RMK AO2 SLP272 T00281061 $",
    "icao": "KORD",
    "flightCategory": "VFR",
    "windDir": 140,
    "windSpeed": 7,
    "windGust": null,
    "visibility": 10,
    "ceiling": 12000,
    "temp": 2.8,
    "dewpoint": -6.1,
    "altimeter": 30.32,
    "conditions": "",
    "observationTime": "2026-04-08T07:00:00.000Z"
  }
}