{
  "LAS": {
    "raw": "SPECI KLAS 241920Z 20010G16KT 10SM SCT200 BKN250 26/M12 A2979 RMK AO2 T02611122",
    "icao": "KLAS",
    "flightCategory": "VFR",
    "windDir": 200,
    "windSpeed": 10,
    "windGust": 16,
    "visibility": 10,
    "ceiling": 25000,
    "temp": 26.1,
    "dewpoint": -12.2,
    "altimeter": 29.79,
    "conditions": "",
    "observationTime": "2026-04-24T19:20:00.000Z"
  },
  "LAX": {
    "raw": "METAR KLAX 241953Z COR 12003KT 10SM FEW010 FEW160 23/09 A2989 RMK AO2 SLP121 T02280089 $",
    "icao": "KLAX",
    "flightCategory": "VFR",
    "windDir": 120,
    "windSpeed": 3,
    "windGust": null,
    "visibility": 10,
    "ceiling": null,
    "temp": 22.8,
    "dewpoint": 8.9,
    "altimeter": 29.89,
    "conditions": "",
    "observationTime": "2026-04-24T20:00:00.000Z"
  },
  "ORD": {
    "raw": "METAR KORD 241951Z 27010KT 10SM BKN037 OVC250 19/12 A2972 RMK AO2 SLP063 T01940122",
    "icao": "KORD",
    "flightCategory": "VFR",
    "windDir": 270,
    "windSpeed": 10,
    "windGust": null,
    "visibility": 10,
    "ceiling": 3700,
    "temp": 19.4,
    "dewpoint": 12.2,
    "altimeter": 29.72,
    "conditions": "",
    "observationTime": "2026-04-24T20:00:00.000Z"
  },
  "LHR": {
    "raw": "METAR EGLL 241920Z COR AUTO 10009KT 9999 NCD 13/00 Q1023 NOSIG",
    "icao": "EGLL",
    "flightCategory": "VFR",
    "windDir": 100,
    "windSpeed": 9,
    "windGust": null,
    "visibility": 6,
    "ceiling": null,
    "temp": 13,
    "dewpoint": 0,
    "altimeter": 30.21,
    "conditions": "",
    "observationTime": "2026-04-24T19:20:00.000Z"
  },
  "SYD": {
    "raw": "METAR YSSY 241930Z 34006KT 9999 FEW025 15/13 Q1030",
    "icao": "YSSY",
    "flightCategory": "VFR",
    "windDir": 340,
    "windSpeed": 6,
    "windGust": null,
    "visibility": 6,
    "ceiling": null,
    "temp": 15,
    "dewpoint": 13,
    "altimeter": 30.42,
    "conditions": "",
    "observationTime": "2026-04-24T19:30:00.000Z"
  }
}