{
  "SYD": {
    "raw": "METAR YSSY 012100Z 30007KT CAVOK 19/17 Q1023",
    "icao": "YSSY",
    "flightCategory": "VFR",
    "windDir": 300,
    "windSpeed": 7,
    "windGust": null,
    "visibility": 6,
    "ceiling": null,
    "temp": 19,
    "dewpoint": 17,
    "altimeter": 30.21,
    "conditions": "",
    "observationTime": "2026-04-01T21:00:00.000Z"
  },
  "LHR": {
    "raw": "METAR EGLL 012050Z COR AUTO 28007KT 9999 OVC047 11/05 Q1021 NOSIG",
    "icao": "EGLL",
    "flightCategory": "VFR",
    "windDir": 280,
    "windSpeed": 7,
    "windGust": null,
    "visibility": 6,
    "ceiling": 4700,
    "temp": 11,
    "dewpoint": 5,
    "altimeter": 30.15,
    "conditions": "",
    "observationTime": "2026-04-01T21:00:00.000Z"
  },
  "ORD": {
    "raw": "METAR KORD 012051Z 05015KT 10SM BKN015 OVC025 04/M01 A3016 RMK AO2 SLP220 T00391006 58016",
    "icao": "KORD",
    "flightCategory": "MVFR",
    "windDir": 50,
    "windSpeed": 15,
    "windGust": null,
    "visibility": 10,
    "ceiling": 1500,
    "temp": 3.9,
    "dewpoint": -0.6,
    "altimeter": 30.16,
    "conditions": "",
    "observationTime": "2026-04-01T21:00:00.000Z"
  },
  "LAS": {
    "raw": "METAR KLAS 012056Z 19007G16KT 10SM FEW080 SCT200 23/02 A2984 RMK AO2 SLP087 T02330022 58014",
    "icao": "KLAS",
    "flightCategory": "VFR",
    "windDir": 190,
    "windSpeed": 7,
    "windGust": 16,
    "visibility": 10,
    "ceiling": null,
    "temp": 23.3,
    "dewpoint": 2.2,
    "altimeter": 29.84,
    "conditions": "",
    "observationTime": "2026-04-01T21:00:00.000Z"
  },
  "LAX": {
    "raw": "METAR KLAX 012053Z 27011KT 10SM FEW012 FEW029 SCT180 19/11 A2999 RMK AO2 SLP155 T01940111 58005 $",
    "icao": "KLAX",
    "flightCategory": "VFR",
    "windDir": 270,
    "windSpeed": 11,
    "windGust": null,
    "visibility": 10,
    "ceiling": null,
    "temp": 19.4,
    "dewpoint": 11.1,
    "altimeter": 29.99,
    "conditions": "",
    "observationTime": "2026-04-01T21:00:00.000Z"
  }
}