{
  "SYD": {
    "raw": "METAR YSSY 020430Z 06013KT 9999 FEW040 27/16 Q1021",
    "icao": "YSSY",
    "flightCategory": "VFR",
    "windDir": 60,
    "windSpeed": 13,
    "windGust": null,
    "visibility": 6,
    "ceiling": null,
    "temp": 27,
    "dewpoint": 16,
    "altimeter": 30.15,
    "conditions": "",
    "observationTime": "2026-04-02T04:30:00.000Z"
  },
  "LAS": {
    "raw": "METAR KLAS 020456Z 21012G22KT 10SM CLR 20/03 A2977 RMK AO2 SLP066 T02000028",
    "icao": "KLAS",
    "flightCategory": "VFR",
    "windDir": 210,
    "windSpeed": 12,
    "windGust": 22,
    "visibility": 10,
    "ceiling": null,
    "temp": 20,
    "dewpoint": 2.8,
    "altimeter": 29.77,
    "conditions": "",
    "observationTime": "2026-04-02T05:00:00.000Z"
  },
  "LAX": {
    "raw": "METAR KLAX 020453Z 27015KT 10SM FEW015 FEW040 SCT250 17/13 A3000 RMK AO2 SLP157 T01670128 $",
    "icao": "KLAX",
    "flightCategory": "VFR",
    "windDir": 270,
    "windSpeed": 15,
    "windGust": null,
    "visibility": 10,
    "ceiling": null,
    "temp": 16.7,
    "dewpoint": 12.8,
    "altimeter": 30,
    "conditions": "",
    "observationTime": "2026-04-02T05:00:00.000Z"
  },
  "ORD": {
    "raw": "METAR KORD 020451Z 08010G20KT 7SM -RA OVC019 04/01 A3010 RMK AO2 RAB30 SLP199 P0002 T00390011",
    "icao": "KORD",
    "flightCategory": "MVFR",
    "windDir": 80,
    "windSpeed": 10,
    "windGust": 20,
    "visibility": 7,
    "ceiling": 1900,
    "temp": 3.9,
    "dewpoint": 1.1,
    "altimeter": 30.1,
    "conditions": "-RA",
    "observationTime": "2026-04-02T05:00:00.000Z"
  },
  "LHR": {
    "raw": "METAR EGLL 020450Z COR AUTO 31006KT 270V330 9999 NCD 06/01 Q1020 NOSIG",
    "icao": "EGLL",
    "flightCategory": "VFR",
    "windDir": 310,
    "windSpeed": 6,
    "windGust": null,
    "visibility": 6,
    "ceiling": null,
    "temp": 6,
    "dewpoint": 1,
    "altimeter": 30.12,
    "conditions": "",
    "observationTime": "2026-04-02T05:00:00.000Z"
  }
}