{
  "LHR": {
    "raw": "METAR EGLL 281650Z COR AUTO 31015G26KT 9999 NCD 09/M02 Q1026 NOSIG",
    "icao": "EGLL",
    "flightCategory": "VFR",
    "windDir": 310,
    "windSpeed": 15,
    "windGust": 26,
    "visibility": 6,
    "ceiling": null,
    "temp": 9,
    "dewpoint": -2,
    "altimeter": 30.3,
    "conditions": "",
    "observationTime": "2026-03-28T17:00:00.000Z"
  },
  "LAS": {
    "raw": "METAR KLAS 281656Z 03005KT 10SM FEW200 FEW250 27/M04 A2999 RMK AO2 SLP133 T02671039",
    "icao": "KLAS",
    "flightCategory": "VFR",
    "windDir": 30,
    "windSpeed": 5,
    "windGust": null,
    "visibility": 10,
    "ceiling": null,
    "temp": 26.7,
    "dewpoint": -3.9,
    "altimeter": 29.99,
    "conditions": "",
    "observationTime": "2026-03-28T17:00:00.000Z"
  },
  "LAX": {
    "raw": "SPECI KLAX 281640Z 32004KT 6SM HZ FEW005 SCT008 BKN220 17/13 A3002 RMK AO2 T01670133 $",
    "icao": "KLAX",
    "flightCategory": "VFR",
    "windDir": 320,
    "windSpeed": 4,
    "windGust": null,
    "visibility": 6,
    "ceiling": 22000,
    "temp": 16.7,
    "dewpoint": 13.3,
    "altimeter": 30.02,
    "conditions": "HZ",
    "observationTime": "2026-03-28T16:40:00.000Z"
  },
  "ORD": {
    "raw": "METAR KORD 281651Z 24008KT 10SM BKN170 BKN250 03/M11 A3060 RMK AO2 SLP369 T00331111",
    "icao": "KORD",
    "flightCategory": "VFR",
    "windDir": 240,
    "windSpeed": 8,
    "windGust": null,
    "visibility": 10,
    "ceiling": 17000,
    "temp": 3.3,
    "dewpoint": -11.1,
    "altimeter": 30.6,
    "conditions": "",
    "observationTime": "2026-03-28T17:00:00.000Z"
  }
}