{
  "LHR": {
    "raw": "METAR EGLL 132050Z COR AUTO 31010KT 280V340 9999 -RA NCD 09/04 Q1002 NOSIG",
    "icao": "EGLL",
    "flightCategory": "VFR",
    "windDir": 310,
    "windSpeed": 10,
    "windGust": null,
    "visibility": 6,
    "ceiling": null,
    "temp": 9,
    "dewpoint": 4,
    "altimeter": 29.59,
    "conditions": "-RA",
    "observationTime": "2026-05-13T21:00:00.000Z"
  },
  "HND": {
    "raw": "METAR RJTT 132100Z 34006KT 9999 -SHRA FEW015 BKN110 19/14 Q1011 NOSIG",
    "icao": "RJTT",
    "flightCategory": "VFR",
    "windDir": 340,
    "windSpeed": 6,
    "windGust": null,
    "visibility": 6,
    "ceiling": 11000,
    "temp": 19,
    "dewpoint": 14,
    "altimeter": 29.85,
    "conditions": "-SHRA",
    "observationTime": "2026-05-13T21:00:00.000Z"
  },
  "LAS": {
    "raw": "METAR KLAS 132056Z 26008G18KT 10SM FEW250 34/M01 A2988 RMK AO2 SLP087 T03441011 58022",
    "icao": "KLAS",
    "flightCategory": "VFR",
    "windDir": 260,
    "windSpeed": 8,
    "windGust": 18,
    "visibility": 10,
    "ceiling": null,
    "temp": 34.4,
    "dewpoint": -1.1,
    "altimeter": 29.88,
    "conditions": "",
    "observationTime": "2026-05-13T21:00:00.000Z"
  },
  "LAX": {
    "raw": "METAR KLAX 132053Z 24011KT 10SM FEW019 FEW040 SCT220 SCT270 20/11 A3008 RMK AO2 SLP186 T02000106 58012",
    "icao": "KLAX",
    "flightCategory": "VFR",
    "windDir": 240,
    "windSpeed": 11,
    "windGust": null,
    "visibility": 10,
    "ceiling": null,
    "temp": 20,
    "dewpoint": 10.6,
    "altimeter": 30.08,
    "conditions": "",
    "observationTime": "2026-05-13T21:00:00.000Z"
  },
  "ORD": {
    "raw": "METAR KORD 132051Z 06008KT 10SM SCT065 BKN085 11/02 A3003 RMK AO2 SLP171 T01110022 51009 $",
    "icao": "KORD",
    "flightCategory": "VFR",
    "windDir": 60,
    "windSpeed": 8,
    "windGust": null,
    "visibility": 10,
    "ceiling": 8500,
    "temp": 11.1,
    "dewpoint": 2.2,
    "altimeter": 30.03,
    "conditions": "",
    "observationTime": "2026-05-13T21:00:00.000Z"
  }
}