{
  "SYD": {
    "raw": "METAR YSSY 150430Z 13008KT 9999 SCT022 BKN070 19/15 Q1027",
    "icao": "YSSY",
    "flightCategory": "VFR",
    "windDir": 130,
    "windSpeed": 8,
    "windGust": null,
    "visibility": 6,
    "ceiling": 7000,
    "temp": 19,
    "dewpoint": 15,
    "altimeter": 30.33,
    "conditions": "",
    "observationTime": "2026-05-15T04:30:00.000Z"
  },
  "LAS": {
    "raw": "METAR KLAS 150456Z 18007KT 160V220 10SM CLR 31/M02 A2982 RMK AO2 SLP069 T03111022",
    "icao": "KLAS",
    "flightCategory": "VFR",
    "windDir": 180,
    "windSpeed": 7,
    "windGust": null,
    "visibility": 10,
    "ceiling": null,
    "temp": 31.1,
    "dewpoint": -2.2,
    "altimeter": 29.82,
    "conditions": "",
    "observationTime": "2026-05-15T05:00:00.000Z"
  },
  "LAX": {
    "raw": "METAR KLAX 150453Z 26008KT 10SM CLR 16/13 A2999 RMK AO2 SLP154 T01610133",
    "icao": "KLAX",
    "flightCategory": "VFR",
    "windDir": 260,
    "windSpeed": 8,
    "windGust": null,
    "visibility": 10,
    "ceiling": null,
    "temp": 16.1,
    "dewpoint": 13.3,
    "altimeter": 29.99,
    "conditions": "",
    "observationTime": "2026-05-15T05:00:00.000Z"
  },
  "ORD": {
    "raw": "METAR KORD 150451Z 14004KT 10SM SCT150 BKN250 13/01 A2999 RMK AO2 SLP156 T01280006",
    "icao": "KORD",
    "flightCategory": "VFR",
    "windDir": 140,
    "windSpeed": 4,
    "windGust": null,
    "visibility": 10,
    "ceiling": 25000,
    "temp": 12.8,
    "dewpoint": 0.6,
    "altimeter": 29.99,
    "conditions": "",
    "observationTime": "2026-05-15T05:00:00.000Z"
  },
  "LHR": {
    "raw": "METAR EGLL 150450Z COR AUTO 36004KT 310V030 9999 NCD 06/04 Q1006 NOSIG",
    "icao": "EGLL",
    "flightCategory": "VFR",
    "windDir": 360,
    "windSpeed": 4,
    "windGust": null,
    "visibility": 6,
    "ceiling": null,
    "temp": 6,
    "dewpoint": 4,
    "altimeter": 29.71,
    "conditions": "",
    "observationTime": "2026-05-15T05:00:00.000Z"
  }
}