{
  "LAS": {
    "raw": "METAR KLAS 241756Z 06005KT 10SM FEW130 FEW250 31/02 A2998 RMK AO2 SLP124 T03060022 10306 20228 58006",
    "icao": "KLAS",
    "flightCategory": "VFR",
    "windDir": 60,
    "windSpeed": 5,
    "windGust": null,
    "visibility": 10,
    "ceiling": null,
    "temp": 30.6,
    "dewpoint": 2.2,
    "altimeter": 29.98,
    "conditions": "",
    "observationTime": "2026-05-24T18:00:00.000Z"
  },
  "LAX": {
    "raw": "METAR KLAX 241753Z VRB03KT 10SM SCT017 OVC021 18/12 A3004 RMK AO2 SLP172 T01780122 10178 20156 51004 $",
    "icao": "KLAX",
    "flightCategory": "MVFR",
    "windDir": null,
    "windSpeed": 3,
    "windGust": null,
    "visibility": 10,
    "ceiling": 2100,
    "temp": 17.8,
    "dewpoint": 12.2,
    "altimeter": 30.04,
    "conditions": "",
    "observationTime": "2026-05-24T18:00:00.000Z"
  },
  "ORD": {
    "raw": "METAR KORD 241751Z 30006KT 10SM BKN027 BKN110 21/14 A3005 RMK AO2 SLP174 60037 T02110139 10211 20150 50010 $",
    "icao": "KORD",
    "flightCategory": "MVFR",
    "windDir": 300,
    "windSpeed": 6,
    "windGust": null,
    "visibility": 10,
    "ceiling": 2700,
    "temp": 21.1,
    "dewpoint": 13.9,
    "altimeter": 30.05,
    "conditions": "",
    "observationTime": "2026-05-24T18:00:00.000Z"
  },
  "LHR": {
    "raw": "METAR EGLL 241720Z AUTO 28004KT 170V330 9999 NCD 31/12 Q1029",
    "icao": "EGLL",
    "flightCategory": "VFR",
    "windDir": 280,
    "windSpeed": 4,
    "windGust": null,
    "visibility": 6,
    "ceiling": null,
    "temp": 31,
    "dewpoint": 12,
    "altimeter": 30.39,
    "conditions": "",
    "observationTime": "2026-05-24T17:20:00.000Z"
  },
  "SYD": {
    "raw": "METAR YSSY 241730Z AUTO 26005KT 9999 -SHRA ////// 17/17 Q1021",
    "icao": "YSSY",
    "flightCategory": "UNKNOWN",
    "windDir": 260,
    "windSpeed": 5,
    "windGust": null,
    "visibility": 6,
    "ceiling": null,
    "temp": 17,
    "dewpoint": 17,
    "altimeter": 30.15,
    "conditions": "-SHRA",
    "observationTime": "2026-05-24T17:30:00.000Z"
  }
}