{
  "ORD": {
    "raw": "METAR KORD 191851Z 25010G18KT 10SM FEW060 FEW250 23/08 A2997 RMK AO2 SLP145 T02330078 $",
    "icao": "KORD",
    "flightCategory": "VFR",
    "windDir": 250,
    "windSpeed": 10,
    "windGust": 18,
    "visibility": 10,
    "ceiling": null,
    "temp": 23.3,
    "dewpoint": 7.8,
    "altimeter": 29.97,
    "conditions": "",
    "observationTime": "2026-06-19T19:00:00.000Z"
  },
  "SYD": {
    "raw": "METAR YSSY 191800Z AUTO 36005KT 9999 // FEW060 13/08 Q1017",
    "icao": "YSSY",
    "flightCategory": "VFR",
    "windDir": 360,
    "windSpeed": 5,
    "windGust": null,
    "visibility": 6,
    "ceiling": null,
    "temp": 13,
    "dewpoint": 8,
    "altimeter": 30.03,
    "conditions": "",
    "observationTime": "2026-06-19T18:00:00.000Z"
  },
  "LHR": {
    "raw": "METAR EGLL 191820Z AUTO 25015KT 9999 NCD 26/15 Q1012",
    "icao": "EGLL",
    "flightCategory": "VFR",
    "windDir": 250,
    "windSpeed": 15,
    "windGust": null,
    "visibility": 6,
    "ceiling": null,
    "temp": 26,
    "dewpoint": 15,
    "altimeter": 29.88,
    "conditions": "",
    "observationTime": "2026-06-19T18:20:00.000Z"
  }
}