{
  "LHR": {
    "raw": "METAR EGLL 121150Z AUTO 23016G26KT 9999 -RA FEW027/// SCT044/// //////CB 11/06 Q1010 NOSIG",
    "icao": "EGLL",
    "flightCategory": "VFR",
    "windDir": 230,
    "windSpeed": 16,
    "windGust": 26,
    "visibility": 6,
    "ceiling": null,
    "temp": 11,
    "dewpoint": 6,
    "altimeter": 29.83,
    "conditions": "-RA",
    "observationTime": "2026-04-12T12:00:00.000Z"
  },
  "SYD": {
    "raw": "METAR YSSY 121200Z AUTO 28013KT 9999 // NCD 15/03 Q1014",
    "icao": "YSSY",
    "flightCategory": "VFR",
    "windDir": 280,
    "windSpeed": 13,
    "windGust": null,
    "visibility": 6,
    "ceiling": null,
    "temp": 15,
    "dewpoint": 3,
    "altimeter": 29.94,
    "conditions": "",
    "observationTime": "2026-04-12T12:00:00.000Z"
  },
  "LAS": {
    "raw": "METAR KLAS 121156Z 18009G17KT 10SM CLR 16/M01 A2977 RMK AO2 SLP063 T01611006 10206 20161 57008",
    "icao": "KLAS",
    "flightCategory": "VFR",
    "windDir": 180,
    "windSpeed": 9,
    "windGust": 17,
    "visibility": 10,
    "ceiling": null,
    "temp": 16.1,
    "dewpoint": -0.6,
    "altimeter": 29.77,
    "conditions": "",
    "observationTime": "2026-04-12T12:00:00.000Z"
  },
  "LAX": {
    "raw": "METAR KLAX 121153Z 16005KT 10SM FEW020 FEW035 BKN065 16/12 A2992 RMK AO2 SLP130 60000 T01610117 10167 20161 56014 $",
    "icao": "KLAX",
    "flightCategory": "VFR",
    "windDir": 160,
    "windSpeed": 5,
    "windGust": null,
    "visibility": 10,
    "ceiling": 6500,
    "temp": 16.1,
    "dewpoint": 11.7,
    "altimeter": 29.92,
    "conditions": "",
    "observationTime": "2026-04-12T12:00:00.000Z"
  },
  "ORD": {
    "raw": "METAR KORD 121151Z 19013KT 10SM SCT110 BKN250 16/11 A3000 RMK AO2 SLP158 T01560106 10156 20133 55013 $",
    "icao": "KORD",
    "flightCategory": "VFR",
    "windDir": 190,
    "windSpeed": 13,
    "windGust": null,
    "visibility": 10,
    "ceiling": 25000,
    "temp": 15.6,
    "dewpoint": 10.6,
    "altimeter": 30,
    "conditions": "",
    "observationTime": "2026-04-12T12:00:00.000Z"
  }
}