{
  "LAS": {
    "raw": "METAR KLAS 292356Z 25018KT 10SM SCT130 BKN200 BKN250 32/M09 A2986 RMK AO2 PK WND 25027/2343 SLP090 T03221094 10333 20267 56020 $",
    "icao": "KLAS",
    "flightCategory": "VFR",
    "windDir": 250,
    "windSpeed": 18,
    "windGust": null,
    "visibility": 10,
    "ceiling": 20000,
    "temp": 32.2,
    "dewpoint": -9.4,
    "altimeter": 29.86,
    "conditions": "",
    "observationTime": "2026-03-30T00:00:00.000Z"
  },
  "LAX": {
    "raw": "METAR KLAX 292353Z 26011KT 10SM FEW002 FEW200 20/14 A2991 RMK AO2 SLP128 FG BNK W-NW T02000144 10228 20200 55013 $",
    "icao": "KLAX",
    "flightCategory": "VFR",
    "windDir": 260,
    "windSpeed": 11,
    "windGust": null,
    "visibility": 10,
    "ceiling": null,
    "temp": 20,
    "dewpoint": 14.4,
    "altimeter": 29.91,
    "conditions": "",
    "observationTime": "2026-03-30T00:00:00.000Z"
  },
  "ORD": {
    "raw": "METAR KORD 292351Z 21011G17KT 10SM BKN045 BKN060 OVC250 16/M03 A3002 RMK AO2 SLP168 T01611028 10172 20161 55012 $",
    "icao": "KORD",
    "flightCategory": "VFR",
    "windDir": 210,
    "windSpeed": 11,
    "windGust": 17,
    "visibility": 10,
    "ceiling": 4500,
    "temp": 16.1,
    "dewpoint": -2.8,
    "altimeter": 30.02,
    "conditions": "",
    "observationTime": "2026-03-30T00:00:00.000Z"
  },
  "LHR": {
    "raw": "METAR EGLL 292320Z COR AUTO 25009KT 9999 NCD 09/07 Q1021 NOSIG",
    "icao": "EGLL",
    "flightCategory": "VFR",
    "windDir": 250,
    "windSpeed": 9,
    "windGust": null,
    "visibility": 6,
    "ceiling": null,
    "temp": 9,
    "dewpoint": 7,
    "altimeter": 30.15,
    "conditions": "",
    "observationTime": "2026-03-29T23:20:00.000Z"
  },
  "SYD": {
    "raw": "METAR YSSY 292300Z 22007KT 9999 FEW025 BKN047 20/16 Q1025",
    "icao": "YSSY",
    "flightCategory": "VFR",
    "windDir": 220,
    "windSpeed": 7,
    "windGust": null,
    "visibility": 6,
    "ceiling": 4700,
    "temp": 20,
    "dewpoint": 16,
    "altimeter": 30.27,
    "conditions": "",
    "observationTime": "2026-03-29T23:00:00.000Z"
  }
}