{
  "LHR": {
    "raw": "METAR EGLL 081850Z COR AUTO 20008KT 150V230 9999 NCD 21/08 Q1020 NOSIG",
    "icao": "EGLL",
    "flightCategory": "VFR",
    "windDir": 200,
    "windSpeed": 8,
    "windGust": null,
    "visibility": 6,
    "ceiling": null,
    "temp": 21,
    "dewpoint": 8,
    "altimeter": 30.12,
    "conditions": "",
    "observationTime": "2026-04-08T19:00:00.000Z"
  },
  "SYD": {
    "raw": "METAR YSSY 081900Z AUTO 30006KT 9999 // FEW125 19/17 Q1016",
    "icao": "YSSY",
    "flightCategory": "VFR",
    "windDir": 300,
    "windSpeed": 6,
    "windGust": null,
    "visibility": 6,
    "ceiling": null,
    "temp": 19,
    "dewpoint": 17,
    "altimeter": 30,
    "conditions": "",
    "observationTime": "2026-04-08T19:00:00.000Z"
  },
  "LAS": {
    "raw": "METAR KLAS 081856Z 06003KT 10SM FEW250 28/M07 A2991 RMK AO2 SLP107 T02831067",
    "icao": "KLAS",
    "flightCategory": "VFR",
    "windDir": 60,
    "windSpeed": 3,
    "windGust": null,
    "visibility": 10,
    "ceiling": null,
    "temp": 28.3,
    "dewpoint": -6.7,
    "altimeter": 29.91,
    "conditions": "",
    "observationTime": "2026-04-08T19:00:00.000Z"
  },
  "LAX": {
    "raw": "METAR KLAX 081853Z 21006KT 8SM FEW017 SCT180 21/14 A2994 RMK AO2 SLP136 T02060144 $",
    "icao": "KLAX",
    "flightCategory": "VFR",
    "windDir": 210,
    "windSpeed": 6,
    "windGust": null,
    "visibility": 8,
    "ceiling": null,
    "temp": 20.6,
    "dewpoint": 14.4,
    "altimeter": 29.94,
    "conditions": "",
    "observationTime": "2026-04-08T19:00:00.000Z"
  },
  "ORD": {
    "raw": "METAR KORD 081851Z 20018G29KT 10SM FEW190 BKN250 18/02 A3009 RMK AO2 PK WND 17031/1830 SLP191 T01830017",
    "icao": "KORD",
    "flightCategory": "VFR",
    "windDir": 200,
    "windSpeed": 18,
    "windGust": 29,
    "visibility": 10,
    "ceiling": 25000,
    "temp": 18.3,
    "dewpoint": 1.7,
    "altimeter": 30.09,
    "conditions": "",
    "observationTime": "2026-04-08T19:00:00.000Z"
  }
}