{
  "SYD": {
    "raw": "SPECI YSSY 241430Z AUTO 32003KT 3400 +DZ BR FEW012 BKN019 OVC030 17/16 Q1022 RERA",
    "icao": "YSSY",
    "flightCategory": "IFR",
    "windDir": 320,
    "windSpeed": 3,
    "windGust": null,
    "visibility": 2.11,
    "ceiling": 1900,
    "temp": 17,
    "dewpoint": 16,
    "altimeter": 30.18,
    "conditions": "+DZ BR",
    "observationTime": "2026-05-24T14:30:00.000Z"
  },
  "LAS": {
    "raw": "METAR KLAS 241456Z 16007KT 10SM CLR 27/00 A3000 RMK AO2 SLP131 T02670000 51020",
    "icao": "KLAS",
    "flightCategory": "VFR",
    "windDir": 160,
    "windSpeed": 7,
    "windGust": null,
    "visibility": 10,
    "ceiling": null,
    "temp": 26.7,
    "dewpoint": 0,
    "altimeter": 30,
    "conditions": "",
    "observationTime": "2026-05-24T15:00:00.000Z"
  },
  "LAX": {
    "raw": "METAR KLAX 241453Z 26007KT 10SM FEW015 OVC018 16/12 A3003 RMK AO2 SLP167 T01610117 53012 $",
    "icao": "KLAX",
    "flightCategory": "MVFR",
    "windDir": 260,
    "windSpeed": 7,
    "windGust": null,
    "visibility": 10,
    "ceiling": 1800,
    "temp": 16.1,
    "dewpoint": 11.7,
    "altimeter": 30.03,
    "conditions": "",
    "observationTime": "2026-05-24T15:00:00.000Z"
  },
  "ORD": {
    "raw": "SPECI KORD 241411Z 30004KT 6SM -RA BR FEW070 OVC100 16/15 A3001 RMK AO2 P0002 T01610150 $",
    "icao": "KORD",
    "flightCategory": "VFR",
    "windDir": 300,
    "windSpeed": 4,
    "windGust": null,
    "visibility": 6,
    "ceiling": 10000,
    "temp": 16.1,
    "dewpoint": 15,
    "altimeter": 30.01,
    "conditions": "-RA BR",
    "observationTime": "2026-05-24T14:11:00.000Z"
  },
  "LHR": {
    "raw": "METAR EGLL 241420Z AUTO VRB06KT 9999 NCD 30/11 Q1030",
    "icao": "EGLL",
    "flightCategory": "VFR",
    "windDir": null,
    "windSpeed": 6,
    "windGust": null,
    "visibility": 6,
    "ceiling": null,
    "temp": 30,
    "dewpoint": 11,
    "altimeter": 30.42,
    "conditions": "",
    "observationTime": "2026-05-24T14:20:00.000Z"
  }
}