{
  "SYD": {
    "raw": "METAR YSSY 310330Z 07011KT 9999 SCT038 25/15 Q1023",
    "icao": "YSSY",
    "flightCategory": "VFR",
    "windDir": 70,
    "windSpeed": 11,
    "windGust": null,
    "visibility": 6,
    "ceiling": null,
    "temp": 25,
    "dewpoint": 15,
    "altimeter": 30.21,
    "conditions": "",
    "observationTime": "2026-03-31T03:30:00.000Z"
  },
  "LAS": {
    "raw": "METAR KLAS 310356Z 23016G28KT 10SM FEW150 BKN170 OVC220 27/M08 A2986 RMK AO2 PK WND 23028/0350 SLP088 T02721078",
    "icao": "KLAS",
    "flightCategory": "VFR",
    "windDir": 230,
    "windSpeed": 16,
    "windGust": 28,
    "visibility": 10,
    "ceiling": 17000,
    "temp": 27.2,
    "dewpoint": -7.8,
    "altimeter": 29.86,
    "conditions": "",
    "observationTime": "2026-03-31T04:00:00.000Z"
  },
  "LAX": {
    "raw": "METAR KLAX 310353Z 02003KT 10SM FEW015 OVC250 17/14 A2998 RMK AO2 SLP150 T01720139",
    "icao": "KLAX",
    "flightCategory": "VFR",
    "windDir": 20,
    "windSpeed": 3,
    "windGust": null,
    "visibility": 10,
    "ceiling": 25000,
    "temp": 17.2,
    "dewpoint": 13.9,
    "altimeter": 29.98,
    "conditions": "",
    "observationTime": "2026-03-31T04:00:00.000Z"
  },
  "ORD": {
    "raw": "METAR KORD 310351Z 21018G29KT 9SM -TSRA FEW050CB SCT075 BKN140 OVC250 21/16 A2976 RMK AO2 PK WND 19037/0304 RAB43 TSB02 SLP074 CONS LTGICCCCG SW TS SW MOV E P0001 T02110156 $",
    "icao": "KORD",
    "flightCategory": "VFR",
    "windDir": 210,
    "windSpeed": 18,
    "windGust": 29,
    "visibility": 9,
    "ceiling": 14000,
    "temp": 21.1,
    "dewpoint": 15.6,
    "altimeter": 29.76,
    "conditions": "-TSRA",
    "observationTime": "2026-03-31T04:00:00.000Z"
  },
  "LHR": {
    "raw": "METAR EGLL 310320Z COR AUTO 27007KT 9999 BKN046 08/04 Q1029 NOSIG",
    "icao": "EGLL",
    "flightCategory": "VFR",
    "windDir": 270,
    "windSpeed": 7,
    "windGust": null,
    "visibility": 6,
    "ceiling": 4600,
    "temp": 8,
    "dewpoint": 4,
    "altimeter": 30.39,
    "conditions": "",
    "observationTime": "2026-03-31T03:20:00.000Z"
  }
}