{
  "LAX": {
    "raw": "METAR KLAX 011553Z VRB05KT 10SM OVC021 18/12 A2998 RMK AO2 SLP151 T01780122",
    "icao": "KLAX",
    "flightCategory": "MVFR",
    "windDir": null,
    "windSpeed": 5,
    "windGust": null,
    "visibility": 10,
    "ceiling": 2100,
    "temp": 17.8,
    "dewpoint": 12.2,
    "altimeter": 29.98,
    "conditions": "",
    "observationTime": "2026-05-01T16:00:00.000Z"
  },
  "ORD": {
    "raw": "METAR KORD 011551Z 35011KT 10SM FEW032 SCT043 BKN060 09/M02 A3001 RMK AO2 SLP166 T00941017 $",
    "icao": "KORD",
    "flightCategory": "VFR",
    "windDir": 350,
    "windSpeed": 11,
    "windGust": null,
    "visibility": 10,
    "ceiling": 6000,
    "temp": 9.4,
    "dewpoint": -1.7,
    "altimeter": 30.01,
    "conditions": "",
    "observationTime": "2026-05-01T16:00:00.000Z"
  },
  "LHR": {
    "raw": "METAR EGLL 011520Z COR AUTO 20013KT 170V230 9999 FEW046 23/12 Q1019 NOSIG",
    "icao": "EGLL",
    "flightCategory": "VFR",
    "windDir": 200,
    "windSpeed": 13,
    "windGust": null,
    "visibility": 6,
    "ceiling": null,
    "temp": 23,
    "dewpoint": 12,
    "altimeter": 30.09,
    "conditions": "",
    "observationTime": "2026-05-01T15:20:00.000Z"
  },
  "SYD": {
    "raw": "METAR YSSY 011530Z AUTO 35006KT 9999 // FEW023 BKN029 BKN035 18/15 Q1026",
    "icao": "YSSY",
    "flightCategory": "MVFR",
    "windDir": 350,
    "windSpeed": 6,
    "windGust": null,
    "visibility": 6,
    "ceiling": 2900,
    "temp": 18,
    "dewpoint": 15,
    "altimeter": 30.3,
    "conditions": "",
    "observationTime": "2026-05-01T15:30:00.000Z"
  }
}