{
  "SYD": {
    "raw": "METAR YSSY 010630Z AUTO 06008KT 9999 // NCD 23/13 Q1026",
    "icao": "YSSY",
    "flightCategory": "VFR",
    "windDir": 60,
    "windSpeed": 8,
    "windGust": null,
    "visibility": 6,
    "ceiling": null,
    "temp": 23,
    "dewpoint": 13,
    "altimeter": 30.3,
    "conditions": "",
    "observationTime": "2026-05-01T06:30:00.000Z"
  },
  "LAS": {
    "raw": "METAR KLAS 010656Z 01009KT 10SM SCT140 23/M06 A2987 RMK AO2 SLP094 T02331061",
    "icao": "KLAS",
    "flightCategory": "VFR",
    "windDir": 10,
    "windSpeed": 9,
    "windGust": null,
    "visibility": 10,
    "ceiling": null,
    "temp": 23.3,
    "dewpoint": -6.1,
    "altimeter": 29.87,
    "conditions": "",
    "observationTime": "2026-05-01T07:00:00.000Z"
  },
  "LAX": {
    "raw": "METAR KLAX 010653Z 00000KT 10SM FEW012 FEW016 16/13 A2993 RMK AO2 SLP133 T01610128",
    "icao": "KLAX",
    "flightCategory": "VFR",
    "windDir": 0,
    "windSpeed": 0,
    "windGust": null,
    "visibility": 10,
    "ceiling": null,
    "temp": 16.1,
    "dewpoint": 12.8,
    "altimeter": 29.93,
    "conditions": "",
    "observationTime": "2026-05-01T07:00:00.000Z"
  },
  "ORD": {
    "raw": "SPECI KORD 010621Z 04007KT 10SM SCT009 BKN045 OVC065 06/04 A2995 RMK AO2 T00560039",
    "icao": "KORD",
    "flightCategory": "VFR",
    "windDir": 40,
    "windSpeed": 7,
    "windGust": null,
    "visibility": 10,
    "ceiling": 4500,
    "temp": 5.6,
    "dewpoint": 3.9,
    "altimeter": 29.95,
    "conditions": "",
    "observationTime": "2026-05-01T06:21:00.000Z"
  },
  "LHR": {
    "raw": "METAR EGLL 010620Z COR AUTO 09006KT 9999 NCD 13/03 Q1020 NOSIG",
    "icao": "EGLL",
    "flightCategory": "VFR",
    "windDir": 90,
    "windSpeed": 6,
    "windGust": null,
    "visibility": 6,
    "ceiling": null,
    "temp": 13,
    "dewpoint": 3,
    "altimeter": 30.12,
    "conditions": "",
    "observationTime": "2026-05-01T06:20:00.000Z"
  }
}