{
  "LAX": {
    "raw": "METAR KLAX 111253Z VRB03KT 9SM BKN010 OVC018 18/16 A2982 RMK AO2 SLP097 T01830156",
    "icao": "KLAX",
    "flightCategory": "MVFR",
    "windDir": null,
    "windSpeed": 3,
    "windGust": null,
    "visibility": 9,
    "ceiling": 1000,
    "temp": 18.3,
    "dewpoint": 15.6,
    "altimeter": 29.82,
    "conditions": "",
    "observationTime": "2026-06-11T13:00:00.000Z"
  },
  "ORD": {
    "raw": "METAR KORD 111251Z 22010KT 10SM FEW009 FEW250 21/19 A2977 RMK AO2 SLP076 T02110189",
    "icao": "KORD",
    "flightCategory": "VFR",
    "windDir": 220,
    "windSpeed": 10,
    "windGust": null,
    "visibility": 10,
    "ceiling": null,
    "temp": 21.1,
    "dewpoint": 18.9,
    "altimeter": 29.77,
    "conditions": "",
    "observationTime": "2026-06-11T13:00:00.000Z"
  },
  "LHR": {
    "raw": "METAR EGLL 111220Z AUTO 21013KT 170V240 9999 -RADZ BKN013 OVC018 12/11 Q1018",
    "icao": "EGLL",
    "flightCategory": "MVFR",
    "windDir": 210,
    "windSpeed": 13,
    "windGust": null,
    "visibility": 6,
    "ceiling": 1300,
    "temp": 12,
    "dewpoint": 11,
    "altimeter": 30.06,
    "conditions": "-RA -DZ",
    "observationTime": "2026-06-11T12:20:00.000Z"
  },
  "SYD": {
    "raw": "METAR YSSY 111200Z AUTO 25005KT 9999 // FEW013 BKN018 OVC100 17/16 Q1032",
    "icao": "YSSY",
    "flightCategory": "MVFR",
    "windDir": 250,
    "windSpeed": 5,
    "windGust": null,
    "visibility": 6,
    "ceiling": 1800,
    "temp": 17,
    "dewpoint": 16,
    "altimeter": 30.47,
    "conditions": "",
    "observationTime": "2026-06-11T12:00:00.000Z"
  }
}