{
  "LAX": {
    "raw": "METAR KLAX 071453Z 04004KT 5SM HZ SCT010 SCT140 16/13 A3001 RMK AO2 SLP160 T01610133 53008 $",
    "icao": "KLAX",
    "flightCategory": "MVFR",
    "windDir": 40,
    "windSpeed": 4,
    "windGust": null,
    "visibility": 5,
    "ceiling": null,
    "temp": 16.1,
    "dewpoint": 13.3,
    "altimeter": 30.01,
    "conditions": "HZ",
    "observationTime": "2026-04-07T15:00:00.000Z"
  },
  "ORD": {
    "raw": "METAR KORD 071451Z 07010KT 10SM FEW037 01/M09 A3053 RMK AO2 SLP346 T00061094 51017 $",
    "icao": "KORD",
    "flightCategory": "VFR",
    "windDir": 70,
    "windSpeed": 10,
    "windGust": null,
    "visibility": 10,
    "ceiling": null,
    "temp": 0.6,
    "dewpoint": -9.4,
    "altimeter": 30.53,
    "conditions": "",
    "observationTime": "2026-04-07T15:00:00.000Z"
  },
  "LHR": {
    "raw": "METAR EGLL 071420Z COR AUTO 09011KT 9999 NCD 20/07 Q1021 NOSIG",
    "icao": "EGLL",
    "flightCategory": "VFR",
    "windDir": 90,
    "windSpeed": 11,
    "windGust": null,
    "visibility": 6,
    "ceiling": null,
    "temp": 20,
    "dewpoint": 7,
    "altimeter": 30.15,
    "conditions": "",
    "observationTime": "2026-04-07T14:20:00.000Z"
  },
  "SYD": {
    "raw": "METAR YSSY 071400Z AUTO 22008KT 9999 // NCD 21/16 Q1012",
    "icao": "YSSY",
    "flightCategory": "VFR",
    "windDir": 220,
    "windSpeed": 8,
    "windGust": null,
    "visibility": 6,
    "ceiling": null,
    "temp": 21,
    "dewpoint": 16,
    "altimeter": 29.88,
    "conditions": "",
    "observationTime": "2026-04-07T14:00:00.000Z"
  }
}