{
  "SYD": {
    "raw": "METAR YSSY 061000Z AUTO 35007KT 9999 // OVC105 19/14 Q1015",
    "icao": "YSSY",
    "flightCategory": "VFR",
    "windDir": 350,
    "windSpeed": 7,
    "windGust": null,
    "visibility": 6,
    "ceiling": 10500,
    "temp": 19,
    "dewpoint": 14,
    "altimeter": 29.97,
    "conditions": "",
    "observationTime": "2026-04-06T10:00:00.000Z"
  },
  "LAX": {
    "raw": "SPECI KLAX 060947Z 18004KT 10SM FEW004 SCT200 OVC240 17/14 A2997 RMK AO2 T01720144 $",
    "icao": "KLAX",
    "flightCategory": "VFR",
    "windDir": 180,
    "windSpeed": 4,
    "windGust": null,
    "visibility": 10,
    "ceiling": 24000,
    "temp": 17.2,
    "dewpoint": 14.4,
    "altimeter": 29.97,
    "conditions": "",
    "observationTime": "2026-04-06T09:47:00.000Z"
  },
  "LHR": {
    "raw": "METAR EGLL 060950Z COR AUTO 17009KT 130V200 9999 NCD 11/01 Q1027 NOSIG",
    "icao": "EGLL",
    "flightCategory": "VFR",
    "windDir": 170,
    "windSpeed": 9,
    "windGust": null,
    "visibility": 6,
    "ceiling": null,
    "temp": 11,
    "dewpoint": 1,
    "altimeter": 30.33,
    "conditions": "",
    "observationTime": "2026-04-06T10:00:00.000Z"
  },
  "LAS": {
    "raw": "METAR KLAS 060956Z 00000KT 10SM BKN230 19/M07 A2997 RMK AO2 SLP130 T01891072",
    "icao": "KLAS",
    "flightCategory": "VFR",
    "windDir": 0,
    "windSpeed": 0,
    "windGust": null,
    "visibility": 10,
    "ceiling": 23000,
    "temp": 18.9,
    "dewpoint": -7.2,
    "altimeter": 29.97,
    "conditions": "",
    "observationTime": "2026-04-06T10:00:00.000Z"
  },
  "ORD": {
    "raw": "METAR KORD 060951Z 26005KT 10SM FEW033 SCT070 05/04 A3012 RMK AO2 SLP201 T00500039 $",
    "icao": "KORD",
    "flightCategory": "VFR",
    "windDir": 260,
    "windSpeed": 5,
    "windGust": null,
    "visibility": 10,
    "ceiling": null,
    "temp": 5,
    "dewpoint": 3.9,
    "altimeter": 30.12,
    "conditions": "",
    "observationTime": "2026-04-06T10:00:00.000Z"
  }
}