{
  "SYD": {
    "raw": "METAR YSSY 070930Z AUTO 08005KT 9999 // NCD 15/09 Q1031",
    "icao": "YSSY",
    "flightCategory": "VFR",
    "windDir": 80,
    "windSpeed": 5,
    "windGust": null,
    "visibility": 6,
    "ceiling": null,
    "temp": 15,
    "dewpoint": 9,
    "altimeter": 30.45,
    "conditions": "",
    "observationTime": "2026-06-07T09:30:00.000Z"
  },
  "LAS": {
    "raw": "METAR KLAS 070956Z 20010G23KT 10SM SCT150 BKN200 27/02 A2965 RMK AO2 PK WND 18030/0928 SLP007 T02720017",
    "icao": "KLAS",
    "flightCategory": "VFR",
    "windDir": 200,
    "windSpeed": 10,
    "windGust": 23,
    "visibility": 10,
    "ceiling": 20000,
    "temp": 27.2,
    "dewpoint": 1.7,
    "altimeter": 29.65,
    "conditions": "",
    "observationTime": "2026-06-07T10:00:00.000Z"
  },
  "LAX": {
    "raw": "METAR KLAX 070953Z 00000KT 10SM OVC025 18/14 A2983 RMK AO2 SLP098 T01780139 $",
    "icao": "KLAX",
    "flightCategory": "MVFR",
    "windDir": 0,
    "windSpeed": 0,
    "windGust": null,
    "visibility": 10,
    "ceiling": 2500,
    "temp": 17.8,
    "dewpoint": 13.9,
    "altimeter": 29.83,
    "conditions": "",
    "observationTime": "2026-06-07T10:00:00.000Z"
  },
  "ORD": {
    "raw": "METAR KORD 070951Z 04006KT 10SM BKN080 BKN095 BKN250 20/13 A2994 RMK AO2 SLP133 T02000133 $",
    "icao": "KORD",
    "flightCategory": "VFR",
    "windDir": 40,
    "windSpeed": 6,
    "windGust": null,
    "visibility": 10,
    "ceiling": 8000,
    "temp": 20,
    "dewpoint": 13.3,
    "altimeter": 29.94,
    "conditions": "",
    "observationTime": "2026-06-07T10:00:00.000Z"
  },
  "LHR": {
    "raw": "METAR EGLL 070920Z AUTO 23014KT 9999 OVC032 18/09 Q1020",
    "icao": "EGLL",
    "flightCategory": "VFR",
    "windDir": 230,
    "windSpeed": 14,
    "windGust": null,
    "visibility": 6,
    "ceiling": 3200,
    "temp": 18,
    "dewpoint": 9,
    "altimeter": 30.12,
    "conditions": "",
    "observationTime": "2026-06-07T09:20:00.000Z"
  }
}