{
  "SYD": {
    "raw": "SPECI YSSY 171054Z AUTO 18027KT 9999 VCTS -RA FEW029 BKN039 OVC046 18/14 Q1015 RETS",
    "icao": "YSSY",
    "flightCategory": "VFR",
    "windDir": 180,
    "windSpeed": 27,
    "windGust": null,
    "visibility": 6,
    "ceiling": 3900,
    "temp": 18,
    "dewpoint": 14,
    "altimeter": 29.97,
    "conditions": "VCTS -RA",
    "observationTime": "2026-04-17T10:54:00.000Z"
  },
  "LHR": {
    "raw": "METAR EGLL 171050Z COR AUTO 22014KT 190V250 9999 SCT032 16/08 Q1019 NOSIG",
    "icao": "EGLL",
    "flightCategory": "VFR",
    "windDir": 220,
    "windSpeed": 14,
    "windGust": null,
    "visibility": 6,
    "ceiling": null,
    "temp": 16,
    "dewpoint": 8,
    "altimeter": 30.09,
    "conditions": "",
    "observationTime": "2026-04-17T11:00:00.000Z"
  },
  "ORD": {
    "raw": "METAR KORD 171051Z 14004KT 1/2SM R10L/P6000FT FG BKN000 10/09 A2991 RMK AO2 SLP128 FG BKN000 T01000094 $",
    "icao": "KORD",
    "flightCategory": "LIFR",
    "windDir": 140,
    "windSpeed": 4,
    "windGust": null,
    "visibility": 0.5,
    "ceiling": null,
    "temp": 10,
    "dewpoint": 9.4,
    "altimeter": 29.91,
    "conditions": "FG",
    "observationTime": "2026-04-17T11:00:00.000Z"
  },
  "LAS": {
    "raw": "METAR KLAS 171056Z 35026G39KT 10SM FEW250 12/M15 A3003 RMK AO2 SLP154 T01171150 $",
    "icao": "KLAS",
    "flightCategory": "VFR",
    "windDir": 350,
    "windSpeed": 26,
    "windGust": 39,
    "visibility": 10,
    "ceiling": null,
    "temp": 11.7,
    "dewpoint": -15,
    "altimeter": 30.03,
    "conditions": "",
    "observationTime": "2026-04-17T11:00:00.000Z"
  },
  "LAX": {
    "raw": "SPECI KLAX 171049Z 09006KT 10SM FEW012 SCT018 14/12 A2992 RMK AO2",
    "icao": "KLAX",
    "flightCategory": "VFR",
    "windDir": 90,
    "windSpeed": 6,
    "windGust": null,
    "visibility": 10,
    "ceiling": null,
    "temp": 14,
    "dewpoint": 12,
    "altimeter": 29.92,
    "conditions": "",
    "observationTime": "2026-04-17T10:49:00.000Z"
  }
}