{
  "ORD": {
    "raw": "SPECI KORD 150345Z 32022G43KT 1/2SM R10L/1400VP6000FT +TSGRRA SCT019 BKN039CB OVC070 17/17 A2971 RMK AO2 PK WND 29043/0341 RAB09GRB44 WSHFT 04 CONS LTGICCCCG OHD TS OHD MOV E GR 1/2 P0071",
    "icao": "KORD",
    "flightCategory": "LIFR",
    "windDir": 320,
    "windSpeed": 22,
    "windGust": 43,
    "visibility": 0.5,
    "ceiling": 3900,
    "temp": 17,
    "dewpoint": 17,
    "altimeter": 29.71,
    "conditions": "+TSGR +TSRA",
    "observationTime": "2026-04-15T03:45:00.000Z"
  },
  "LHR": {
    "raw": "METAR EGLL 150350Z COR AUTO 19009KT 9999 OVC009 13/11 Q1016 NOSIG",
    "icao": "EGLL",
    "flightCategory": "IFR",
    "windDir": 190,
    "windSpeed": 9,
    "windGust": null,
    "visibility": 6,
    "ceiling": 900,
    "temp": 13,
    "dewpoint": 11,
    "altimeter": 30,
    "conditions": "",
    "observationTime": "2026-04-15T04:00:00.000Z"
  },
  "SYD": {
    "raw": "METAR YSSY 150400Z 13011KT CAVOK 23/11 Q1017",
    "icao": "YSSY",
    "flightCategory": "VFR",
    "windDir": 130,
    "windSpeed": 11,
    "windGust": null,
    "visibility": 6,
    "ceiling": null,
    "temp": 23,
    "dewpoint": 11,
    "altimeter": 30.03,
    "conditions": "",
    "observationTime": "2026-04-15T04:00:00.000Z"
  },
  "LAS": {
    "raw": "METAR KLAS 150356Z 24009KT 10SM CLR 21/M08 A2997 RMK AO2 SLP133 T02111083",
    "icao": "KLAS",
    "flightCategory": "VFR",
    "windDir": 240,
    "windSpeed": 9,
    "windGust": null,
    "visibility": 10,
    "ceiling": null,
    "temp": 21.1,
    "dewpoint": -8.3,
    "altimeter": 29.97,
    "conditions": "",
    "observationTime": "2026-04-15T04:00:00.000Z"
  },
  "LAX": {
    "raw": "METAR KLAX 150353Z 25012KT 10SM CLR 16/13 A3003 RMK AO2 SLP167 T01610128",
    "icao": "KLAX",
    "flightCategory": "VFR",
    "windDir": 250,
    "windSpeed": 12,
    "windGust": null,
    "visibility": 10,
    "ceiling": null,
    "temp": 16.1,
    "dewpoint": 12.8,
    "altimeter": 30.03,
    "conditions": "",
    "observationTime": "2026-04-15T04:00:00.000Z"
  }
}