{
  "LHR": {
    "raw": "METAR EGLL 060350Z COR AUTO 36009KT 330V050 9999 NCD 09/04 Q1013 NOSIG",
    "icao": "EGLL",
    "flightCategory": "VFR",
    "windDir": 360,
    "windSpeed": 9,
    "windGust": null,
    "visibility": 6,
    "ceiling": null,
    "temp": 9,
    "dewpoint": 4,
    "altimeter": 29.91,
    "conditions": "",
    "observationTime": "2026-05-06T04:00:00.000Z"
  },
  "SYD": {
    "raw": "METAR YSSY 060330Z 16006KT 9999 FEW048 SCT065 21/15 Q1017",
    "icao": "YSSY",
    "flightCategory": "VFR",
    "windDir": 160,
    "windSpeed": 6,
    "windGust": null,
    "visibility": 6,
    "ceiling": null,
    "temp": 21,
    "dewpoint": 15,
    "altimeter": 30.03,
    "conditions": "",
    "observationTime": "2026-05-06T03:30:00.000Z"
  },
  "LAS": {
    "raw": "METAR KLAS 060356Z 22008KT 10SM FEW120 FEW250 22/M01 A2983 RMK AO2 SLP087 T02171006",
    "icao": "KLAS",
    "flightCategory": "VFR",
    "windDir": 220,
    "windSpeed": 8,
    "windGust": null,
    "visibility": 10,
    "ceiling": null,
    "temp": 21.7,
    "dewpoint": -0.6,
    "altimeter": 29.83,
    "conditions": "",
    "observationTime": "2026-05-06T04:00:00.000Z"
  },
  "LAX": {
    "raw": "METAR KLAX 060353Z 23006KT 10SM FEW020 FEW070 16/10 A3000 RMK AO2 SLP157 T01610100",
    "icao": "KLAX",
    "flightCategory": "VFR",
    "windDir": 230,
    "windSpeed": 6,
    "windGust": null,
    "visibility": 10,
    "ceiling": null,
    "temp": 16.1,
    "dewpoint": 10,
    "altimeter": 30,
    "conditions": "",
    "observationTime": "2026-05-06T04:00:00.000Z"
  },
  "ORD": {
    "raw": "METAR KORD 060351Z 34010KT 10SM FEW110 BKN140 OVC250 11/M03 A2982 RMK AO2 SLP100 T01111033",
    "icao": "KORD",
    "flightCategory": "VFR",
    "windDir": 340,
    "windSpeed": 10,
    "windGust": null,
    "visibility": 10,
    "ceiling": 14000,
    "temp": 11.1,
    "dewpoint": -3.3,
    "altimeter": 29.82,
    "conditions": "",
    "observationTime": "2026-05-06T04:00:00.000Z"
  }
}