{
  "LHR": {
    "raw": "METAR EGLL 182150Z AUTO 17010KT 140V200 9999 -RA FEW038 12/07 Q1012",
    "icao": "EGLL",
    "flightCategory": "VFR",
    "windDir": 170,
    "windSpeed": 10,
    "windGust": null,
    "visibility": 6,
    "ceiling": null,
    "temp": 12,
    "dewpoint": 7,
    "altimeter": 29.88,
    "conditions": "-RA",
    "observationTime": "2026-05-18T22:00:00.000Z"
  },
  "SYD": {
    "raw": "METAR YSSY 182200Z 28007KT 9999 FEW010 BKN045 BKN180 17/16 Q1008",
    "icao": "YSSY",
    "flightCategory": "VFR",
    "windDir": 280,
    "windSpeed": 7,
    "windGust": null,
    "visibility": 6,
    "ceiling": 4500,
    "temp": 17,
    "dewpoint": 16,
    "altimeter": 29.77,
    "conditions": "",
    "observationTime": "2026-05-18T22:00:00.000Z"
  },
  "LAS": {
    "raw": "METAR KLAS 182156Z VRB03KT 10SM FEW120 23/M08 A2993 RMK AO2 SLP121 T02281083",
    "icao": "KLAS",
    "flightCategory": "VFR",
    "windDir": null,
    "windSpeed": 3,
    "windGust": null,
    "visibility": 10,
    "ceiling": null,
    "temp": 22.8,
    "dewpoint": -8.3,
    "altimeter": 29.93,
    "conditions": "",
    "observationTime": "2026-05-18T22:00:00.000Z"
  },
  "LAX": {
    "raw": "METAR KLAX 182153Z 27014KT 8SM FEW060 21/13 A2989 RMK AO2 SLP118 T02060128",
    "icao": "KLAX",
    "flightCategory": "VFR",
    "windDir": 270,
    "windSpeed": 14,
    "windGust": null,
    "visibility": 8,
    "ceiling": null,
    "temp": 20.6,
    "dewpoint": 12.8,
    "altimeter": 29.89,
    "conditions": "",
    "observationTime": "2026-05-18T22:00:00.000Z"
  },
  "ORD": {
    "raw": "METAR KORD 182151Z 22011G22KT 10SM FEW035 FEW130 OVC250 25/18 A2985 RMK AO2 PK WND 22028/2140 SLP103 T02500178",
    "icao": "KORD",
    "flightCategory": "VFR",
    "windDir": 220,
    "windSpeed": 11,
    "windGust": 22,
    "visibility": 10,
    "ceiling": 25000,
    "temp": 25,
    "dewpoint": 17.8,
    "altimeter": 29.85,
    "conditions": "",
    "observationTime": "2026-05-18T22:00:00.000Z"
  }
}