{
  "LAX": {
    "raw": "METAR KLAX 210153Z 25012KT 10SM FEW015 BKN250 17/12 A2996 RMK AO2 SLP146 T01720122 $",
    "icao": "KLAX",
    "flightCategory": "VFR",
    "windDir": 250,
    "windSpeed": 12,
    "windGust": null,
    "visibility": 10,
    "ceiling": 25000,
    "temp": 17.2,
    "dewpoint": 12.2,
    "altimeter": 29.96,
    "conditions": "",
    "observationTime": "2026-04-21T02:00:00.000Z"
  },
  "ORD": {
    "raw": "METAR KORD 210151Z 18008KT 10SM FEW170 SCT250 12/M03 A3013 RMK AO2 SLP206 T01171033 $",
    "icao": "KORD",
    "flightCategory": "VFR",
    "windDir": 180,
    "windSpeed": 8,
    "windGust": null,
    "visibility": 10,
    "ceiling": null,
    "temp": 11.7,
    "dewpoint": -3.3,
    "altimeter": 30.13,
    "conditions": "",
    "observationTime": "2026-04-21T02:00:00.000Z"
  },
  "LHR": {
    "raw": "METAR EGLL 210120Z COR AUTO 04006KT 010V070 9999 NCD 06/03 Q1025 NOSIG",
    "icao": "EGLL",
    "flightCategory": "VFR",
    "windDir": 40,
    "windSpeed": 6,
    "windGust": null,
    "visibility": 6,
    "ceiling": null,
    "temp": 6,
    "dewpoint": 3,
    "altimeter": 30.27,
    "conditions": "",
    "observationTime": "2026-04-21T01:20:00.000Z"
  },
  "SYD": {
    "raw": "METAR YSSY 210100Z 19016KT 9999 VCSH FEW020 SCT028 BKN048 18/14 Q1027",
    "icao": "YSSY",
    "flightCategory": "VFR",
    "windDir": 190,
    "windSpeed": 16,
    "windGust": null,
    "visibility": 6,
    "ceiling": 4800,
    "temp": 18,
    "dewpoint": 14,
    "altimeter": 30.33,
    "conditions": "VCSH",
    "observationTime": "2026-04-21T01:00:00.000Z"
  }
}