{
  "SYD": {
    "raw": "METAR YSSY 011700Z AUTO 00000KT 9999 // NCD 19/17 Q1022",
    "icao": "YSSY",
    "flightCategory": "VFR",
    "windDir": 0,
    "windSpeed": 0,
    "windGust": null,
    "visibility": 6,
    "ceiling": null,
    "temp": 19,
    "dewpoint": 17,
    "altimeter": 30.18,
    "conditions": "",
    "observationTime": "2026-04-01T17:00:00.000Z"
  },
  "LHR": {
    "raw": "METAR EGLL 011650Z COR AUTO 27008KT 9999 FEW038 OVC048 12/06 Q1022 NOSIG",
    "icao": "EGLL",
    "flightCategory": "VFR",
    "windDir": 270,
    "windSpeed": 8,
    "windGust": null,
    "visibility": 6,
    "ceiling": 4800,
    "temp": 12,
    "dewpoint": 6,
    "altimeter": 30.18,
    "conditions": "",
    "observationTime": "2026-04-01T17:00:00.000Z"
  },
  "LAS": {
    "raw": "METAR KLAS 011656Z 23007KT 10SM FEW070 FEW110 SCT200 19/03 A2987 RMK AO2 SLP101 T01890028",
    "icao": "KLAS",
    "flightCategory": "VFR",
    "windDir": 230,
    "windSpeed": 7,
    "windGust": null,
    "visibility": 10,
    "ceiling": null,
    "temp": 18.9,
    "dewpoint": 2.8,
    "altimeter": 29.87,
    "conditions": "",
    "observationTime": "2026-04-01T17:00:00.000Z"
  },
  "LAX": {
    "raw": "METAR KLAX 011653Z 24008KT 10SM FEW009 FEW019 SCT060 BKN140 18/13 A2999 RMK AO2 SLP154 T01830133 $",
    "icao": "KLAX",
    "flightCategory": "VFR",
    "windDir": 240,
    "windSpeed": 8,
    "windGust": null,
    "visibility": 10,
    "ceiling": 14000,
    "temp": 18.3,
    "dewpoint": 13.3,
    "altimeter": 29.99,
    "conditions": "",
    "observationTime": "2026-04-01T17:00:00.000Z"
  },
  "ORD": {
    "raw": "METAR KORD 011651Z 03022G27KT 10SM OVC014 03/M02 A3021 RMK AO2 PK WND 03030/1607 SLP237 T00281017",
    "icao": "KORD",
    "flightCategory": "MVFR",
    "windDir": 30,
    "windSpeed": 22,
    "windGust": 27,
    "visibility": 10,
    "ceiling": 1400,
    "temp": 2.8,
    "dewpoint": -1.7,
    "altimeter": 30.21,
    "conditions": "",
    "observationTime": "2026-04-01T17:00:00.000Z"
  }
}