{
  "SYD": {
    "raw": "METAR YSSY 200630Z AUTO 20012KT 9999 // NCD 17/09 Q1019",
    "icao": "YSSY",
    "flightCategory": "VFR",
    "windDir": 200,
    "windSpeed": 12,
    "windGust": null,
    "visibility": 6,
    "ceiling": null,
    "temp": 17,
    "dewpoint": 9,
    "altimeter": 30.09,
    "conditions": "",
    "observationTime": "2026-05-20T06:30:00.000Z"
  },
  "LAX": {
    "raw": "METAR KLAX 200653Z 31004KT 10SM FEW032 22/04 A2991 RMK SLP126 FU FEW032 T02220039",
    "icao": "KLAX",
    "flightCategory": "VFR",
    "windDir": 310,
    "windSpeed": 4,
    "windGust": null,
    "visibility": 10,
    "ceiling": null,
    "temp": 22.2,
    "dewpoint": 3.9,
    "altimeter": 29.91,
    "conditions": "",
    "observationTime": "2026-05-20T07:00:00.000Z"
  },
  "ORD": {
    "raw": "SPECI KORD 200630Z 31008KT 10SM BKN029 BKN110 14/09 A3013 RMK AO2 T01440089 $",
    "icao": "KORD",
    "flightCategory": "MVFR",
    "windDir": 310,
    "windSpeed": 8,
    "windGust": null,
    "visibility": 10,
    "ceiling": 2900,
    "temp": 14.4,
    "dewpoint": 8.9,
    "altimeter": 30.13,
    "conditions": "",
    "observationTime": "2026-05-20T06:30:00.000Z"
  },
  "LHR": {
    "raw": "METAR EGLL 200620Z AUTO 24016KT 9999 NCD 13/09 Q1015",
    "icao": "EGLL",
    "flightCategory": "VFR",
    "windDir": 240,
    "windSpeed": 16,
    "windGust": null,
    "visibility": 6,
    "ceiling": null,
    "temp": 13,
    "dewpoint": 9,
    "altimeter": 29.97,
    "conditions": "",
    "observationTime": "2026-05-20T06:20:00.000Z"
  }
}