{
  "SYD": {
    "raw": "METAR YSSY 311030Z AUTO 03006KT 9999 // NCD 22/15 Q1024",
    "icao": "YSSY",
    "flightCategory": "VFR",
    "windDir": 30,
    "windSpeed": 6,
    "windGust": null,
    "visibility": 6,
    "ceiling": null,
    "temp": 22,
    "dewpoint": 15,
    "altimeter": 30.24,
    "conditions": "",
    "observationTime": "2026-03-31T10:30:00.000Z"
  },
  "LAS": {
    "raw": "METAR KLAS 311056Z 21015KT 10SM FEW150 BKN190 22/M03 A2982 RMK AO2 PK WND 21027/0958 SLP077 T02221028 $",
    "icao": "KLAS",
    "flightCategory": "VFR",
    "windDir": 210,
    "windSpeed": 15,
    "windGust": null,
    "visibility": 10,
    "ceiling": 19000,
    "temp": 22.2,
    "dewpoint": -2.8,
    "altimeter": 29.82,
    "conditions": "",
    "observationTime": "2026-03-31T11:00:00.000Z"
  },
  "LAX": {
    "raw": "METAR KLAX 311053Z 00000KT 10SM SCT018 BKN022 OVC250 18/14 A2993 RMK AO2 SLP135 T01830139",
    "icao": "KLAX",
    "flightCategory": "MVFR",
    "windDir": 0,
    "windSpeed": 0,
    "windGust": null,
    "visibility": 10,
    "ceiling": 2200,
    "temp": 18.3,
    "dewpoint": 13.9,
    "altimeter": 29.93,
    "conditions": "",
    "observationTime": "2026-03-31T11:00:00.000Z"
  },
  "ORD": {
    "raw": "METAR KORD 311051Z 19011KT 10SM FEW090 BKN150 OVC250 19/13 A2974 RMK AO2 SLP066 T01890133 $",
    "icao": "KORD",
    "flightCategory": "VFR",
    "windDir": 190,
    "windSpeed": 11,
    "windGust": null,
    "visibility": 10,
    "ceiling": 15000,
    "temp": 18.9,
    "dewpoint": 13.3,
    "altimeter": 29.74,
    "conditions": "",
    "observationTime": "2026-03-31T11:00:00.000Z"
  },
  "LHR": {
    "raw": "METAR EGLL 311050Z COR AUTO 35005KT 290V030 9999 BKN021 13/09 Q1030 NOSIG",
    "icao": "EGLL",
    "flightCategory": "MVFR",
    "windDir": 350,
    "windSpeed": 5,
    "windGust": null,
    "visibility": 6,
    "ceiling": 2100,
    "temp": 13,
    "dewpoint": 9,
    "altimeter": 30.42,
    "conditions": "",
    "observationTime": "2026-03-31T11:00:00.000Z"
  }
}