{
  "ORD": {
    "raw": "METAR KORD 100751Z 07006KT 5SM -RA BR OVC065 06/05 A3009 RMK AO2 SLP191 P0009 T00610050",
    "icao": "KORD",
    "flightCategory": "MVFR",
    "windDir": 70,
    "windSpeed": 6,
    "windGust": null,
    "visibility": 5,
    "ceiling": 6500,
    "temp": 6.1,
    "dewpoint": 5,
    "altimeter": 30.09,
    "conditions": "-RA BR",
    "observationTime": "2026-04-10T08:00:00.000Z"
  },
  "SYD": {
    "raw": "METAR YSSY 100730Z AUTO 35011KT 9999 // NCD 28/16 Q1007",
    "icao": "YSSY",
    "flightCategory": "VFR",
    "windDir": 350,
    "windSpeed": 11,
    "windGust": null,
    "visibility": 6,
    "ceiling": null,
    "temp": 28,
    "dewpoint": 16,
    "altimeter": 29.74,
    "conditions": "",
    "observationTime": "2026-04-10T07:30:00.000Z"
  },
  "LAS": {
    "raw": "METAR KLAS 100756Z 21008KT 10SM BKN180 23/06 A2986 RMK AO2 SLP087 T02330061 403170206",
    "icao": "KLAS",
    "flightCategory": "VFR",
    "windDir": 210,
    "windSpeed": 8,
    "windGust": null,
    "visibility": 10,
    "ceiling": 18000,
    "temp": 23.3,
    "dewpoint": 6.1,
    "altimeter": 29.86,
    "conditions": "",
    "observationTime": "2026-04-10T08:00:00.000Z"
  },
  "LAX": {
    "raw": "SPECI KLAX 100734Z 26010KT 10SM BKN008 BKN012 16/14 A2997 RMK AO2 T01610144 $",
    "icao": "KLAX",
    "flightCategory": "IFR",
    "windDir": 260,
    "windSpeed": 10,
    "windGust": null,
    "visibility": 10,
    "ceiling": 800,
    "temp": 16.1,
    "dewpoint": 14.4,
    "altimeter": 29.97,
    "conditions": "",
    "observationTime": "2026-04-10T07:34:00.000Z"
  },
  "LHR": {
    "raw": "METAR EGLL 100720Z COR AUTO 27004KT 210V330 9999 NCD 07/00 Q1021 NOSIG",
    "icao": "EGLL",
    "flightCategory": "VFR",
    "windDir": 270,
    "windSpeed": 4,
    "windGust": null,
    "visibility": 6,
    "ceiling": null,
    "temp": 7,
    "dewpoint": 0,
    "altimeter": 30.15,
    "conditions": "",
    "observationTime": "2026-04-10T07:20:00.000Z"
  }
}