{
  "LAS": {
    "raw": "METAR KLAS 040756Z 22006KT 10SM CLR 29/M08 A2993 RMK AO2 SLP103 T02891078 403890244 $",
    "icao": "KLAS",
    "flightCategory": "VFR",
    "windDir": 220,
    "windSpeed": 6,
    "windGust": null,
    "visibility": 10,
    "ceiling": null,
    "temp": 28.9,
    "dewpoint": -7.8,
    "altimeter": 29.93,
    "conditions": "",
    "observationTime": "2026-07-04T08:00:00.000Z"
  },
  "LAX": {
    "raw": "METAR KLAX 040753Z 26004KT 10SM BKN010 17/15 A3001 RMK AO2 SLP160 T01720150 402280167 $",
    "icao": "KLAX",
    "flightCategory": "MVFR",
    "windDir": 260,
    "windSpeed": 4,
    "windGust": null,
    "visibility": 10,
    "ceiling": 1000,
    "temp": 17.2,
    "dewpoint": 15,
    "altimeter": 30.01,
    "conditions": "",
    "observationTime": "2026-07-04T08:00:00.000Z"
  },
  "ORD": {
    "raw": "METAR KORD 040751Z 00000KT 10SM BKN250 21/20 A3000 RMK AO2 SLP155 T02060200 $",
    "icao": "KORD",
    "flightCategory": "VFR",
    "windDir": 0,
    "windSpeed": 0,
    "windGust": null,
    "visibility": 10,
    "ceiling": 25000,
    "temp": 20.6,
    "dewpoint": 20,
    "altimeter": 30,
    "conditions": "",
    "observationTime": "2026-07-04T08:00:00.000Z"
  },
  "LHR": {
    "raw": "METAR EGLL 040720Z AUTO 27011KT 230V300 9999 BKN014 18/14 Q1027",
    "icao": "EGLL",
    "flightCategory": "MVFR",
    "windDir": 270,
    "windSpeed": 11,
    "windGust": null,
    "visibility": 6,
    "ceiling": 1400,
    "temp": 18,
    "dewpoint": 14,
    "altimeter": 30.33,
    "conditions": "",
    "observationTime": "2026-07-04T07:20:00.000Z"
  },
  "SYD": {
    "raw": "METAR YSSY 040730Z AUTO 15005KT 9999 // NCD 16/07 Q1025",
    "icao": "YSSY",
    "flightCategory": "VFR",
    "windDir": 150,
    "windSpeed": 5,
    "windGust": null,
    "visibility": 6,
    "ceiling": null,
    "temp": 16,
    "dewpoint": 7,
    "altimeter": 30.27,
    "conditions": "",
    "observationTime": "2026-07-04T07:30:00.000Z"
  }
}