{
  "SYD": {
    "raw": "METAR YSSY 222230Z 17009KT 9999 FEW032 BKN060 18/13 Q1027",
    "icao": "YSSY",
    "flightCategory": "VFR",
    "windDir": 170,
    "windSpeed": 9,
    "windGust": null,
    "visibility": 6,
    "ceiling": 6000,
    "temp": 18,
    "dewpoint": 13,
    "altimeter": 30.33,
    "conditions": "",
    "observationTime": "2026-05-22T22:30:00.000Z"
  },
  "LAS": {
    "raw": "METAR KLAS 222256Z VRB04G16KT 10SM FEW150 FEW250 34/M06 A2972 RMK AO2 SLP037 T03391061",
    "icao": "KLAS",
    "flightCategory": "VFR",
    "windDir": null,
    "windSpeed": 4,
    "windGust": 16,
    "visibility": 10,
    "ceiling": null,
    "temp": 33.9,
    "dewpoint": -6.1,
    "altimeter": 29.72,
    "conditions": "",
    "observationTime": "2026-05-22T23:00:00.000Z"
  },
  "LAX": {
    "raw": "METAR KLAX 222253Z 24009KT 10SM FEW027 FEW070 19/12 A2986 RMK AO2 SLP108 T01940117",
    "icao": "KLAX",
    "flightCategory": "VFR",
    "windDir": 240,
    "windSpeed": 9,
    "windGust": null,
    "visibility": 10,
    "ceiling": null,
    "temp": 19.4,
    "dewpoint": 11.7,
    "altimeter": 29.86,
    "conditions": "",
    "observationTime": "2026-05-22T23:00:00.000Z"
  },
  "ORD": {
    "raw": "METAR KORD 222251Z 04013KT 10SM BKN080 BKN210 OVC250 17/06 A2999 RMK AO2 SLP155 T01720061",
    "icao": "KORD",
    "flightCategory": "VFR",
    "windDir": 40,
    "windSpeed": 13,
    "windGust": null,
    "visibility": 10,
    "ceiling": 8000,
    "temp": 17.2,
    "dewpoint": 6.1,
    "altimeter": 29.99,
    "conditions": "",
    "observationTime": "2026-05-22T23:00:00.000Z"
  },
  "LHR": {
    "raw": "METAR EGLL 222220Z AUTO 17003KT 150V230 9999 NCD 20/13 Q1024",
    "icao": "EGLL",
    "flightCategory": "VFR",
    "windDir": 170,
    "windSpeed": 3,
    "windGust": null,
    "visibility": 6,
    "ceiling": null,
    "temp": 20,
    "dewpoint": 13,
    "altimeter": 30.24,
    "conditions": "",
    "observationTime": "2026-05-22T22:20:00.000Z"
  }
}