{
  "SYD": {
    "raw": "METAR YSSY 300000Z 00000KT 9999 FEW032 22/17 Q1031",
    "icao": "YSSY",
    "flightCategory": "VFR",
    "windDir": 0,
    "windSpeed": 0,
    "windGust": null,
    "visibility": 6,
    "ceiling": null,
    "temp": 22,
    "dewpoint": 17,
    "altimeter": 30.45,
    "conditions": "",
    "observationTime": "2026-04-30T00:00:00.000Z"
  },
  "LHR": {
    "raw": "METAR EGLL 292350Z COR AUTO 06009KT 9999 NCD 11/04 Q1023 NOSIG",
    "icao": "EGLL",
    "flightCategory": "VFR",
    "windDir": 60,
    "windSpeed": 9,
    "windGust": null,
    "visibility": 6,
    "ceiling": null,
    "temp": 11,
    "dewpoint": 4,
    "altimeter": 30.21,
    "conditions": "",
    "observationTime": "2026-04-30T00:00:00.000Z"
  },
  "LAS": {
    "raw": "METAR KLAS 292356Z COR 10SM VRB03 FEW120 27/M06 A2989 RMK AO2 SLP105 T02671056 10272 20222 56023",
    "icao": "KLAS",
    "flightCategory": "VFR",
    "windDir": null,
    "windSpeed": 3,
    "windGust": null,
    "visibility": 10,
    "ceiling": null,
    "temp": 26.7,
    "dewpoint": -5.6,
    "altimeter": 29.89,
    "conditions": "",
    "observationTime": "2026-04-30T00:00:00.000Z"
  },
  "LAX": {
    "raw": "METAR KLAX 292353Z 25012KT 10SM FEW250 19/11 A2996 RMK AO2 SLP144 T01940111 10211 20194 58011",
    "icao": "KLAX",
    "flightCategory": "VFR",
    "windDir": 250,
    "windSpeed": 12,
    "windGust": null,
    "visibility": 10,
    "ceiling": null,
    "temp": 19.4,
    "dewpoint": 11.1,
    "altimeter": 29.96,
    "conditions": "",
    "observationTime": "2026-04-30T00:00:00.000Z"
  },
  "ORD": {
    "raw": "METAR KORD 292351Z 02009KT 10SM FEW018 SCT029 BKN080 08/04 A2998 RMK AO2 SLP154 60000 T00780039 10117 20078 53008",
    "icao": "KORD",
    "flightCategory": "VFR",
    "windDir": 20,
    "windSpeed": 9,
    "windGust": null,
    "visibility": 10,
    "ceiling": 8000,
    "temp": 7.8,
    "dewpoint": 3.9,
    "altimeter": 29.98,
    "conditions": "",
    "observationTime": "2026-04-30T00:00:00.000Z"
  }
}