{
  "LAS": {
    "raw": "METAR KLAS 101456Z 20011G19KT 10SM FEW150 SCT200 21/06 A2989 RMK AO2 SLP102 ACSL DSNT NW T02110056 53014",
    "icao": "KLAS",
    "flightCategory": "VFR",
    "windDir": 200,
    "windSpeed": 11,
    "windGust": 19,
    "visibility": 10,
    "ceiling": null,
    "temp": 21.1,
    "dewpoint": 5.6,
    "altimeter": 29.89,
    "conditions": "",
    "observationTime": "2026-04-10T15:00:00.000Z"
  },
  "LAX": {
    "raw": "METAR KLAX 101453Z 24005KT 9SM FEW009 FEW016 BKN110 BKN250 16/14 A2996 RMK AO2 SLP144 T01610139 53013",
    "icao": "KLAX",
    "flightCategory": "VFR",
    "windDir": 240,
    "windSpeed": 5,
    "windGust": null,
    "visibility": 9,
    "ceiling": 11000,
    "temp": 16.1,
    "dewpoint": 13.9,
    "altimeter": 29.96,
    "conditions": "",
    "observationTime": "2026-04-10T15:00:00.000Z"
  },
  "ORD": {
    "raw": "SPECI KORD 101409Z 03009KT 6SM BR OVC007 07/06 A3019 RMK AO2 RAE1358 P0000 T00720061",
    "icao": "KORD",
    "flightCategory": "IFR",
    "windDir": 30,
    "windSpeed": 9,
    "windGust": null,
    "visibility": 6,
    "ceiling": 700,
    "temp": 7.2,
    "dewpoint": 6.1,
    "altimeter": 30.19,
    "conditions": "BR",
    "observationTime": "2026-04-10T14:09:00.000Z"
  },
  "LHR": {
    "raw": "METAR EGLL 101420Z COR AUTO 18012KT 140V230 9999 NCD 13/M01 Q1017 NOSIG",
    "icao": "EGLL",
    "flightCategory": "VFR",
    "windDir": 180,
    "windSpeed": 12,
    "windGust": null,
    "visibility": 6,
    "ceiling": null,
    "temp": 13,
    "dewpoint": -1,
    "altimeter": 30.03,
    "conditions": "",
    "observationTime": "2026-04-10T14:20:00.000Z"
  },
  "SYD": {
    "raw": "METAR YSSY 101430Z AUTO 21007KT 9999 // NCD 22/18 Q1007",
    "icao": "YSSY",
    "flightCategory": "VFR",
    "windDir": 210,
    "windSpeed": 7,
    "windGust": null,
    "visibility": 6,
    "ceiling": null,
    "temp": 22,
    "dewpoint": 18,
    "altimeter": 29.74,
    "conditions": "",
    "observationTime": "2026-04-10T14:30:00.000Z"
  }
}