{
  "SYD": {
    "raw": "METAR YSSY 071200Z AUTO 25003KT 9999 // NCD 13/09 Q1031",
    "icao": "YSSY",
    "flightCategory": "VFR",
    "windDir": 250,
    "windSpeed": 3,
    "windGust": null,
    "visibility": 6,
    "ceiling": null,
    "temp": 13,
    "dewpoint": 9,
    "altimeter": 30.45,
    "conditions": "",
    "observationTime": "2026-06-07T12:00:00.000Z"
  },
  "LHR": {
    "raw": "METAR EGLL 071150Z AUTO 22015KT 9999 BKN028 OVC033 17/11 Q1020",
    "icao": "EGLL",
    "flightCategory": "MVFR",
    "windDir": 220,
    "windSpeed": 15,
    "windGust": null,
    "visibility": 6,
    "ceiling": 2800,
    "temp": 17,
    "dewpoint": 11,
    "altimeter": 30.12,
    "conditions": "",
    "observationTime": "2026-06-07T12:00:00.000Z"
  },
  "LAS": {
    "raw": "METAR KLAS 071156Z 20013G25KT 10SM FEW150 SCT200 26/00 A2966 RMK AO2 SLP014 T02610000 10311 20261 53004",
    "icao": "KLAS",
    "flightCategory": "VFR",
    "windDir": 200,
    "windSpeed": 13,
    "windGust": 25,
    "visibility": 10,
    "ceiling": null,
    "temp": 26.1,
    "dewpoint": 0,
    "altimeter": 29.66,
    "conditions": "",
    "observationTime": "2026-06-07T12:00:00.000Z"
  },
  "LAX": {
    "raw": "METAR KLAX 071153Z 27004KT 10SM OVC024 18/14 A2982 RMK AO2 SLP097 T01780139 10183 20172 56003 $",
    "icao": "KLAX",
    "flightCategory": "MVFR",
    "windDir": 270,
    "windSpeed": 4,
    "windGust": null,
    "visibility": 10,
    "ceiling": 2400,
    "temp": 17.8,
    "dewpoint": 13.9,
    "altimeter": 29.82,
    "conditions": "",
    "observationTime": "2026-06-07T12:00:00.000Z"
  },
  "ORD": {
    "raw": "METAR KORD 071151Z 07006KT 10SM FEW070 BKN085 BKN250 19/14 A2996 RMK AO2 SLP142 T01940144 10217 20189 51016 $",
    "icao": "KORD",
    "flightCategory": "VFR",
    "windDir": 70,
    "windSpeed": 6,
    "windGust": null,
    "visibility": 10,
    "ceiling": 8500,
    "temp": 19.4,
    "dewpoint": 14.4,
    "altimeter": 29.96,
    "conditions": "",
    "observationTime": "2026-06-07T12:00:00.000Z"
  }
}