{
  "SYD": {
    "raw": "METAR YSSY 180500Z AUTO 17014KT 9999 // NCD 18/07 Q1018",
    "icao": "YSSY",
    "flightCategory": "VFR",
    "windDir": 170,
    "windSpeed": 14,
    "windGust": null,
    "visibility": 6,
    "ceiling": null,
    "temp": 18,
    "dewpoint": 7,
    "altimeter": 30.06,
    "conditions": "",
    "observationTime": "2026-04-18T05:00:00.000Z"
  },
  "LHR": {
    "raw": "METAR EGLL 180450Z COR AUTO 26006KT 9999 NCD 09/07 Q1021 NOSIG",
    "icao": "EGLL",
    "flightCategory": "VFR",
    "windDir": 260,
    "windSpeed": 6,
    "windGust": null,
    "visibility": 6,
    "ceiling": null,
    "temp": 9,
    "dewpoint": 7,
    "altimeter": 30.15,
    "conditions": "",
    "observationTime": "2026-04-18T05:00:00.000Z"
  },
  "LAS": {
    "raw": "METAR KLAS 180456Z 01006KT 10SM CLR 17/M18 A3008 RMK AO2 SLP176 T01721183",
    "icao": "KLAS",
    "flightCategory": "VFR",
    "windDir": 10,
    "windSpeed": 6,
    "windGust": null,
    "visibility": 10,
    "ceiling": null,
    "temp": 17.2,
    "dewpoint": -18.3,
    "altimeter": 30.08,
    "conditions": "",
    "observationTime": "2026-04-18T05:00:00.000Z"
  },
  "LAX": {
    "raw": "METAR KLAX 180453Z 11004KT 10SM CLR 18/12 A2995 RMK AO2 SLP141 T01780122",
    "icao": "KLAX",
    "flightCategory": "VFR",
    "windDir": 110,
    "windSpeed": 4,
    "windGust": null,
    "visibility": 10,
    "ceiling": null,
    "temp": 17.8,
    "dewpoint": 12.2,
    "altimeter": 29.95,
    "conditions": "",
    "observationTime": "2026-04-18T05:00:00.000Z"
  },
  "ORD": {
    "raw": "METAR KORD 180451Z COR 21012G21KT 10SM -RA SCT070 OVC130 17/15 A2959 RMK AO2 TSE47 SLP017 P0012 T01670150 $",
    "icao": "KORD",
    "flightCategory": "VFR",
    "windDir": 210,
    "windSpeed": 12,
    "windGust": 21,
    "visibility": 10,
    "ceiling": 13000,
    "temp": 16.7,
    "dewpoint": 15,
    "altimeter": 29.59,
    "conditions": "-RA",
    "observationTime": "2026-04-18T05:00:00.000Z"
  }
}