{
  "LHR": {
    "raw": "METAR EGLL 302050Z AUTO 30009KT 270V330 9999 NCD 23/06 Q1016",
    "icao": "EGLL",
    "flightCategory": "VFR",
    "windDir": 300,
    "windSpeed": 9,
    "windGust": null,
    "visibility": 6,
    "ceiling": null,
    "temp": 23,
    "dewpoint": 6,
    "altimeter": 30,
    "conditions": "",
    "observationTime": "2026-05-30T21:00:00.000Z"
  },
  "SYD": {
    "raw": "METAR YSSY 302100Z 30006KT CAVOK 12/08 Q1008",
    "icao": "YSSY",
    "flightCategory": "VFR",
    "windDir": 300,
    "windSpeed": 6,
    "windGust": null,
    "visibility": 6,
    "ceiling": null,
    "temp": 12,
    "dewpoint": 8,
    "altimeter": 29.77,
    "conditions": "",
    "observationTime": "2026-05-30T21:00:00.000Z"
  },
  "LAS": {
    "raw": "METAR KLAS 302056Z VRB06KT 10SM FEW100 FEW250 30/01 A2992 RMK AO2 SLP109 T03000006 58019",
    "icao": "KLAS",
    "flightCategory": "VFR",
    "windDir": null,
    "windSpeed": 6,
    "windGust": null,
    "visibility": 10,
    "ceiling": null,
    "temp": 30,
    "dewpoint": 0.6,
    "altimeter": 29.92,
    "conditions": "",
    "observationTime": "2026-05-30T21:00:00.000Z"
  },
  "LAX": {
    "raw": "METAR KLAX 302053Z 25016KT 10SM FEW012 FEW100 21/14 A3000 RMK AO2 SLP156 T02060139 58007 $",
    "icao": "KLAX",
    "flightCategory": "VFR",
    "windDir": 250,
    "windSpeed": 16,
    "windGust": null,
    "visibility": 10,
    "ceiling": null,
    "temp": 20.6,
    "dewpoint": 13.9,
    "altimeter": 30,
    "conditions": "",
    "observationTime": "2026-05-30T21:00:00.000Z"
  },
  "ORD": {
    "raw": "METAR KORD 302051Z 04013KT 10SM FEW200 BKN250 21/03 A3009 RMK AO2 SLP188 T02060033 58003 $",
    "icao": "KORD",
    "flightCategory": "VFR",
    "windDir": 40,
    "windSpeed": 13,
    "windGust": null,
    "visibility": 10,
    "ceiling": 25000,
    "temp": 20.6,
    "dewpoint": 3.3,
    "altimeter": 30.09,
    "conditions": "",
    "observationTime": "2026-05-30T21:00:00.000Z"
  }
}