{
  "SYD": {
    "raw": "METAR YSSY 210030Z 19016KT 9999 -SHRA SCT027 BKN055 19/14 Q1027",
    "icao": "YSSY",
    "flightCategory": "VFR",
    "windDir": 190,
    "windSpeed": 16,
    "windGust": null,
    "visibility": 6,
    "ceiling": 5500,
    "temp": 19,
    "dewpoint": 14,
    "altimeter": 30.33,
    "conditions": "-SHRA",
    "observationTime": "2026-04-21T00:30:00.000Z"
  },
  "LAS": {
    "raw": "METAR KLAS 210056Z 19011G18KT 10SM SCT250 31/M08 A2984 RMK AO2 PK WND 16027/0025 SLP083 T03061078",
    "icao": "KLAS",
    "flightCategory": "VFR",
    "windDir": 190,
    "windSpeed": 11,
    "windGust": 18,
    "visibility": 10,
    "ceiling": null,
    "temp": 30.6,
    "dewpoint": -7.8,
    "altimeter": 29.84,
    "conditions": "",
    "observationTime": "2026-04-21T01:00:00.000Z"
  },
  "LAX": {
    "raw": "METAR KLAX 210053Z 26012KT 10SM FEW015 BKN250 18/12 A2996 RMK AO2 SLP145 T01830122 $",
    "icao": "KLAX",
    "flightCategory": "VFR",
    "windDir": 260,
    "windSpeed": 12,
    "windGust": null,
    "visibility": 10,
    "ceiling": 25000,
    "temp": 18.3,
    "dewpoint": 12.2,
    "altimeter": 29.96,
    "conditions": "",
    "observationTime": "2026-04-21T01:00:00.000Z"
  },
  "ORD": {
    "raw": "METAR KORD 210051Z 17008G16KT 10SM SCT170 BKN250 12/M04 A3013 RMK AO2 SLP206 T01221039 $",
    "icao": "KORD",
    "flightCategory": "VFR",
    "windDir": 170,
    "windSpeed": 8,
    "windGust": 16,
    "visibility": 10,
    "ceiling": 25000,
    "temp": 12.2,
    "dewpoint": -3.9,
    "altimeter": 30.13,
    "conditions": "",
    "observationTime": "2026-04-21T01:00:00.000Z"
  },
  "LHR": {
    "raw": "METAR EGLL 210050Z COR AUTO 03004KT 360V060 9999 NCD 06/03 Q1025 NOSIG",
    "icao": "EGLL",
    "flightCategory": "VFR",
    "windDir": 30,
    "windSpeed": 4,
    "windGust": null,
    "visibility": 6,
    "ceiling": null,
    "temp": 6,
    "dewpoint": 3,
    "altimeter": 30.27,
    "conditions": "",
    "observationTime": "2026-04-21T01:00:00.000Z"
  }
}