{
  "SYD": {
    "raw": "METAR YSSY 272130Z 31005KT 9999 FEW030 15/12 Q1027",
    "icao": "YSSY",
    "flightCategory": "VFR",
    "windDir": 310,
    "windSpeed": 5,
    "windGust": null,
    "visibility": 6,
    "ceiling": null,
    "temp": 15,
    "dewpoint": 12,
    "altimeter": 30.33,
    "conditions": "",
    "observationTime": "2026-04-27T21:30:00.000Z"
  },
  "LAS": {
    "raw": "METAR KLAS 272156Z 22012G22KT 10SM FEW100 FEW150 22/M04 A2985 RMK AO2 SLP096 T02171039",
    "icao": "KLAS",
    "flightCategory": "VFR",
    "windDir": 220,
    "windSpeed": 12,
    "windGust": 22,
    "visibility": 10,
    "ceiling": null,
    "temp": 21.7,
    "dewpoint": -3.9,
    "altimeter": 29.85,
    "conditions": "",
    "observationTime": "2026-04-27T22:00:00.000Z"
  },
  "LAX": {
    "raw": "METAR KLAX 272153Z 26012KT 10SM FEW030 FEW090 18/08 A3002 RMK AO2 SLP163 T01830078",
    "icao": "KLAX",
    "flightCategory": "VFR",
    "windDir": 260,
    "windSpeed": 12,
    "windGust": null,
    "visibility": 10,
    "ceiling": null,
    "temp": 18.3,
    "dewpoint": 7.8,
    "altimeter": 30.02,
    "conditions": "",
    "observationTime": "2026-04-27T22:00:00.000Z"
  },
  "ORD": {
    "raw": "METAR KORD 272151Z 16010G19KT 10SM SCT065 BKN250 19/14 A2959 RMK AO2 PK WND 18029/2128 SLP017 T01940144 $",
    "icao": "KORD",
    "flightCategory": "VFR",
    "windDir": 160,
    "windSpeed": 10,
    "windGust": 19,
    "visibility": 10,
    "ceiling": 25000,
    "temp": 19.4,
    "dewpoint": 14.4,
    "altimeter": 29.59,
    "conditions": "",
    "observationTime": "2026-04-27T22:00:00.000Z"
  },
  "LHR": {
    "raw": "METAR EGLL 272120Z AUTO 01008KT 340V050 9999 //////TCU 14/08 Q1023",
    "icao": "EGLL",
    "flightCategory": "UNKNOWN",
    "windDir": 10,
    "windSpeed": 8,
    "windGust": null,
    "visibility": 6,
    "ceiling": null,
    "temp": 14,
    "dewpoint": 8,
    "altimeter": 30.21,
    "conditions": "",
    "observationTime": "2026-04-27T21:20:00.000Z"
  }
}