{
  "SYD": {
    "raw": "METAR YSSY 221630Z AUTO 35006KT 9999 // SCT045 BKN057 15/10 Q1027",
    "icao": "YSSY",
    "flightCategory": "VFR",
    "windDir": 350,
    "windSpeed": 6,
    "windGust": null,
    "visibility": 6,
    "ceiling": 5700,
    "temp": 15,
    "dewpoint": 10,
    "altimeter": 30.33,
    "conditions": "",
    "observationTime": "2026-04-22T16:30:00.000Z"
  },
  "LAS": {
    "raw": "METAR KLAS 221656Z 17009G15KT 10SM FEW200 BKN250 18/M01 A3002 RMK AO2 SLP151 T01831011",
    "icao": "KLAS",
    "flightCategory": "VFR",
    "windDir": 170,
    "windSpeed": 9,
    "windGust": 15,
    "visibility": 10,
    "ceiling": 25000,
    "temp": 18.3,
    "dewpoint": -1.1,
    "altimeter": 30.02,
    "conditions": "",
    "observationTime": "2026-04-22T17:00:00.000Z"
  },
  "LAX": {
    "raw": "METAR KLAX 221653Z 23007KT 10SM CLR 18/09 A3015 RMK AO2 SLP210 T01780089 $",
    "icao": "KLAX",
    "flightCategory": "VFR",
    "windDir": 230,
    "windSpeed": 7,
    "windGust": null,
    "visibility": 10,
    "ceiling": null,
    "temp": 17.8,
    "dewpoint": 8.9,
    "altimeter": 30.15,
    "conditions": "",
    "observationTime": "2026-04-22T17:00:00.000Z"
  },
  "ORD": {
    "raw": "SPECI KORD 221645Z 08006KT 10SM BKN026 18/11 A2997 RMK AO2",
    "icao": "KORD",
    "flightCategory": "MVFR",
    "windDir": 80,
    "windSpeed": 6,
    "windGust": null,
    "visibility": 10,
    "ceiling": 2600,
    "temp": 18,
    "dewpoint": 11,
    "altimeter": 29.97,
    "conditions": "",
    "observationTime": "2026-04-22T16:45:00.000Z"
  },
  "LHR": {
    "raw": "METAR EGLL 221620Z COR AUTO 10017KT 9999 NCD 15/M01 Q1026 NOSIG",
    "icao": "EGLL",
    "flightCategory": "VFR",
    "windDir": 100,
    "windSpeed": 17,
    "windGust": null,
    "visibility": 6,
    "ceiling": null,
    "temp": 15,
    "dewpoint": -1,
    "altimeter": 30.3,
    "conditions": "",
    "observationTime": "2026-04-22T16:20:00.000Z"
  }
}