{
  "SYD": {
    "raw": "METAR YSSY 020400Z 07013KT 9999 FEW040 27/15 Q1021",
    "icao": "YSSY",
    "flightCategory": "VFR",
    "windDir": 70,
    "windSpeed": 13,
    "windGust": null,
    "visibility": 6,
    "ceiling": null,
    "temp": 27,
    "dewpoint": 15,
    "altimeter": 30.15,
    "conditions": "",
    "observationTime": "2026-04-02T04:00:00.000Z"
  },
  "LHR": {
    "raw": "METAR EGLL 020350Z COR AUTO 33010G20KT 300V360 9999 FEW039 07/00 Q1020 NOSIG",
    "icao": "EGLL",
    "flightCategory": "VFR",
    "windDir": 330,
    "windSpeed": 10,
    "windGust": 20,
    "visibility": 6,
    "ceiling": null,
    "temp": 7,
    "dewpoint": 0,
    "altimeter": 30.12,
    "conditions": "",
    "observationTime": "2026-04-02T04:00:00.000Z"
  },
  "LAS": {
    "raw": "METAR KLAS 020356Z 21009G18KT 10SM CLR 21/01 A2978 RMK AO2 SLP067 T02110011",
    "icao": "KLAS",
    "flightCategory": "VFR",
    "windDir": 210,
    "windSpeed": 9,
    "windGust": 18,
    "visibility": 10,
    "ceiling": null,
    "temp": 21.1,
    "dewpoint": 1.1,
    "altimeter": 29.78,
    "conditions": "",
    "observationTime": "2026-04-02T04:00:00.000Z"
  },
  "LAX": {
    "raw": "METAR KLAX 020353Z 27013KT 10SM FEW015 FEW050 SCT250 17/14 A2998 RMK AO2 SLP150 T01670139 $",
    "icao": "KLAX",
    "flightCategory": "VFR",
    "windDir": 270,
    "windSpeed": 13,
    "windGust": null,
    "visibility": 10,
    "ceiling": null,
    "temp": 16.7,
    "dewpoint": 13.9,
    "altimeter": 29.98,
    "conditions": "",
    "observationTime": "2026-04-02T04:00:00.000Z"
  },
  "ORD": {
    "raw": "METAR KORD 020351Z 08013G21KT 10SM OVC022 04/00 A3009 RMK AO2 SLP194 T00440000",
    "icao": "KORD",
    "flightCategory": "MVFR",
    "windDir": 80,
    "windSpeed": 13,
    "windGust": 21,
    "visibility": 10,
    "ceiling": 2200,
    "temp": 4.4,
    "dewpoint": 0,
    "altimeter": 30.09,
    "conditions": "",
    "observationTime": "2026-04-02T04:00:00.000Z"
  }
}