{
  "SYD": {
    "raw": "METAR YSSY 240730Z AUTO 20013KT 9999 // NCD 16/11 Q1029",
    "icao": "YSSY",
    "flightCategory": "VFR",
    "windDir": 200,
    "windSpeed": 13,
    "windGust": null,
    "visibility": 6,
    "ceiling": null,
    "temp": 16,
    "dewpoint": 11,
    "altimeter": 30.39,
    "conditions": "",
    "observationTime": "2026-06-24T07:30:00.000Z"
  },
  "LAS": {
    "raw": "SPECI KLAS 240734Z 30005KT 10SM VCTS FEW060 SCT095CB BKN130 34/12 A2994 RMK AO2 RAB09E22 FRQ LTGIC VC NE-E TS VC NE-E VCSH P0000 T03440117",
    "icao": "KLAS",
    "flightCategory": "VFR",
    "windDir": 300,
    "windSpeed": 5,
    "windGust": null,
    "visibility": 10,
    "ceiling": 13000,
    "temp": 34.4,
    "dewpoint": 11.7,
    "altimeter": 29.94,
    "conditions": "VCTS",
    "observationTime": "2026-06-24T07:34:00.000Z"
  },
  "LAX": {
    "raw": "METAR KLAX 240753Z 29007KT 10SM BKN008 BKN011 18/16 A3002 RMK AO2 SLP163 T01780156 402220172 $",
    "icao": "KLAX",
    "flightCategory": "IFR",
    "windDir": 290,
    "windSpeed": 7,
    "windGust": null,
    "visibility": 10,
    "ceiling": 800,
    "temp": 17.8,
    "dewpoint": 15.6,
    "altimeter": 30.02,
    "conditions": "",
    "observationTime": "2026-06-24T08:00:00.000Z"
  },
  "ORD": {
    "raw": "METAR KORD 240751Z 19003KT 10SM FEW055 FEW100 FEW250 16/09 A3011 RMK AO2 SLP195 T01560089 $",
    "icao": "KORD",
    "flightCategory": "VFR",
    "windDir": 190,
    "windSpeed": 3,
    "windGust": null,
    "visibility": 10,
    "ceiling": null,
    "temp": 15.6,
    "dewpoint": 8.9,
    "altimeter": 30.11,
    "conditions": "",
    "observationTime": "2026-06-24T08:00:00.000Z"
  },
  "LHR": {
    "raw": "METAR EGLL 240720Z AUTO 04006KT 010V080 9999 NCD 26/21 Q1017",
    "icao": "EGLL",
    "flightCategory": "VFR",
    "windDir": 40,
    "windSpeed": 6,
    "windGust": null,
    "visibility": 6,
    "ceiling": null,
    "temp": 26,
    "dewpoint": 21,
    "altimeter": 30.03,
    "conditions": "",
    "observationTime": "2026-06-24T07:20:00.000Z"
  }
}