{
  "HND": {
    "raw": "METAR RJTT 121730Z 10003KT 9999 FEW015 18/16 Q1009 BECMG FM1900 36005KT",
    "icao": "RJTT",
    "flightCategory": "VFR",
    "windDir": 100,
    "windSpeed": 3,
    "windGust": null,
    "visibility": 6,
    "ceiling": null,
    "temp": 18,
    "dewpoint": 16,
    "altimeter": 29.8,
    "conditions": "",
    "observationTime": "2026-05-12T17:30:00.000Z"
  },
  "LAS": {
    "raw": "METAR KLAS 121756Z 33003KT 10SM FEW120 FEW250 34/M06 A2999 RMK AO2 SLP125 T03441061 10350 20244 50000",
    "icao": "KLAS",
    "flightCategory": "VFR",
    "windDir": 330,
    "windSpeed": 3,
    "windGust": null,
    "visibility": 10,
    "ceiling": null,
    "temp": 34.4,
    "dewpoint": -6.1,
    "altimeter": 29.99,
    "conditions": "",
    "observationTime": "2026-05-12T18:00:00.000Z"
  },
  "LAX": {
    "raw": "SPECI KLAX 121720Z VRB03KT 8SM FEW009 BKN015 OVC018 17/12 A3003 RMK AO2 T01670122",
    "icao": "KLAX",
    "flightCategory": "MVFR",
    "windDir": null,
    "windSpeed": 3,
    "windGust": null,
    "visibility": 8,
    "ceiling": 1500,
    "temp": 16.7,
    "dewpoint": 12.2,
    "altimeter": 30.03,
    "conditions": "",
    "observationTime": "2026-05-12T17:20:00.000Z"
  },
  "ORD": {
    "raw": "METAR KORD 121751Z 20007KT 10SM FEW100 BKN140 OVC250 20/04 A2995 RMK AO2 SLP141 T02000039 10200 20078 56037 $",
    "icao": "KORD",
    "flightCategory": "VFR",
    "windDir": 200,
    "windSpeed": 7,
    "windGust": null,
    "visibility": 10,
    "ceiling": 14000,
    "temp": 20,
    "dewpoint": 3.9,
    "altimeter": 29.95,
    "conditions": "",
    "observationTime": "2026-05-12T18:00:00.000Z"
  },
  "LHR": {
    "raw": "METAR EGLL 121720Z COR AUTO 28012KT 9999 -RA BKN040 BKN047 14/06 Q1011 NOSIG",
    "icao": "EGLL",
    "flightCategory": "VFR",
    "windDir": 280,
    "windSpeed": 12,
    "windGust": null,
    "visibility": 6,
    "ceiling": 4000,
    "temp": 14,
    "dewpoint": 6,
    "altimeter": 29.85,
    "conditions": "-RA",
    "observationTime": "2026-05-12T17:20:00.000Z"
  }
}