{
  "SYD": {
    "raw": "METAR YSSY 191700Z AUTO 23016KT 9999 // NCD 15/09 Q1013",
    "icao": "YSSY",
    "flightCategory": "VFR",
    "windDir": 230,
    "windSpeed": 16,
    "windGust": null,
    "visibility": 6,
    "ceiling": null,
    "temp": 15,
    "dewpoint": 9,
    "altimeter": 29.91,
    "conditions": "",
    "observationTime": "2026-05-19T17:00:00.000Z"
  },
  "LHR": {
    "raw": "METAR EGLL 191650Z AUTO 22018KT 9999 FEW027 BKN034 16/10 Q1008",
    "icao": "EGLL",
    "flightCategory": "VFR",
    "windDir": 220,
    "windSpeed": 18,
    "windGust": null,
    "visibility": 6,
    "ceiling": 3400,
    "temp": 16,
    "dewpoint": 10,
    "altimeter": 29.77,
    "conditions": "",
    "observationTime": "2026-05-19T17:00:00.000Z"
  },
  "LAS": {
    "raw": "METAR KLAS 191656Z 04019G27KT 10SM CLR 23/M13 A3009 RMK AO2 PK WND 05027/1648 SLP170 T02281128",
    "icao": "KLAS",
    "flightCategory": "VFR",
    "windDir": 40,
    "windSpeed": 19,
    "windGust": 27,
    "visibility": 10,
    "ceiling": null,
    "temp": 22.8,
    "dewpoint": -12.8,
    "altimeter": 30.09,
    "conditions": "",
    "observationTime": "2026-05-19T17:00:00.000Z"
  },
  "LAX": {
    "raw": "METAR KLAX 191653Z 27008KT 250V310 6SM HZ FEW230 SCT280 23/12 A2998 RMK AO2 SLP149 T02330122",
    "icao": "KLAX",
    "flightCategory": "VFR",
    "windDir": 270,
    "windSpeed": 8,
    "windGust": null,
    "visibility": 6,
    "ceiling": null,
    "temp": 23.3,
    "dewpoint": 12.2,
    "altimeter": 29.98,
    "conditions": "HZ",
    "observationTime": "2026-05-19T17:00:00.000Z"
  },
  "ORD": {
    "raw": "METAR KORD 191651Z 23008G21KT 10SM BKN033 BKN250 25/17 A2990 RMK AO2 PK WND 22026/1606 SLP121 T02500172",
    "icao": "KORD",
    "flightCategory": "VFR",
    "windDir": 230,
    "windSpeed": 8,
    "windGust": 21,
    "visibility": 10,
    "ceiling": 3300,
    "temp": 25,
    "dewpoint": 17.2,
    "altimeter": 29.9,
    "conditions": "",
    "observationTime": "2026-05-19T17:00:00.000Z"
  }
}