{
  "LAX": {
    "raw": "METAR KLAX 212053Z 25012G18KT 10SM FEW017 SCT026 21/13 A2992 RMK AO2 SLP130 T02110133 58004 $",
    "icao": "KLAX",
    "flightCategory": "VFR",
    "windDir": 250,
    "windSpeed": 12,
    "windGust": 18,
    "visibility": 10,
    "ceiling": null,
    "temp": 21.1,
    "dewpoint": 13.3,
    "altimeter": 29.92,
    "conditions": "",
    "observationTime": "2026-06-21T21:00:00.000Z"
  },
  "ORD": {
    "raw": "METAR KORD 212051Z 13006KT 9SM -RA FEW017 FEW075 OVC095 18/15 A2989 RMK AO2 SLP121 P0003 60010 T01830150 58009 $",
    "icao": "KORD",
    "flightCategory": "VFR",
    "windDir": 130,
    "windSpeed": 6,
    "windGust": null,
    "visibility": 9,
    "ceiling": 9500,
    "temp": 18.3,
    "dewpoint": 15,
    "altimeter": 29.89,
    "conditions": "-RA",
    "observationTime": "2026-06-21T21:00:00.000Z"
  },
  "LHR": {
    "raw": "METAR EGLL 212020Z AUTO 10012KT 9999 NCD 22/16 Q1026",
    "icao": "EGLL",
    "flightCategory": "VFR",
    "windDir": 100,
    "windSpeed": 12,
    "windGust": null,
    "visibility": 6,
    "ceiling": null,
    "temp": 22,
    "dewpoint": 16,
    "altimeter": 30.3,
    "conditions": "",
    "observationTime": "2026-06-21T20:20:00.000Z"
  },
  "SYD": {
    "raw": "METAR YSSY 212000Z 28009KT CAVOK 11/07 Q1026",
    "icao": "YSSY",
    "flightCategory": "VFR",
    "windDir": 280,
    "windSpeed": 9,
    "windGust": null,
    "visibility": 6,
    "ceiling": null,
    "temp": 11,
    "dewpoint": 7,
    "altimeter": 30.3,
    "conditions": "",
    "observationTime": "2026-06-21T20:00:00.000Z"
  }
}