{
  "LAX": {
    "raw": "METAR KLAX 041853Z 26007KT 7SM FEW009 BKN018 21/15 A2991 RMK AO2 SLP128 BKN V SCT T02110150 $",
    "icao": "KLAX",
    "flightCategory": "MVFR",
    "windDir": 260,
    "windSpeed": 7,
    "windGust": null,
    "visibility": 7,
    "ceiling": 1800,
    "temp": 21.1,
    "dewpoint": 15,
    "altimeter": 29.91,
    "conditions": "",
    "observationTime": "2026-06-04T19:00:00.000Z"
  },
  "SYD": {
    "raw": "METAR YSSY 041830Z AUTO 27010KT 9999 -DZ SCT068 BKN077 OVC090 13/06 Q1005",
    "icao": "YSSY",
    "flightCategory": "VFR",
    "windDir": 270,
    "windSpeed": 10,
    "windGust": null,
    "visibility": 6,
    "ceiling": 7700,
    "temp": 13,
    "dewpoint": 6,
    "altimeter": 29.68,
    "conditions": "-DZ",
    "observationTime": "2026-06-04T18:30:00.000Z"
  },
  "LAS": {
    "raw": "METAR KLAS 041856Z 17008G18KT 130V200 10SM CLR 38/M02 A2984 RMK AO2 SLP073 T03781022",
    "icao": "KLAS",
    "flightCategory": "VFR",
    "windDir": 170,
    "windSpeed": 8,
    "windGust": 18,
    "visibility": 10,
    "ceiling": null,
    "temp": 37.8,
    "dewpoint": -2.2,
    "altimeter": 29.84,
    "conditions": "",
    "observationTime": "2026-06-04T19:00:00.000Z"
  },
  "ORD": {
    "raw": "METAR KORD 041851Z 20013G21KT 10SM FEW200 BKN300 29/07 A3006 RMK AO2 SLP175 T02890072",
    "icao": "KORD",
    "flightCategory": "VFR",
    "windDir": 200,
    "windSpeed": 13,
    "windGust": 21,
    "visibility": 10,
    "ceiling": 30000,
    "temp": 28.9,
    "dewpoint": 7.2,
    "altimeter": 30.06,
    "conditions": "",
    "observationTime": "2026-06-04T19:00:00.000Z"
  },
  "LHR": {
    "raw": "METAR EGLL 041850Z AUTO 26017KT 9999 BKN041/// BKN048/// //////TCU 17/08 Q1002",
    "icao": "EGLL",
    "flightCategory": "VFR",
    "windDir": 260,
    "windSpeed": 17,
    "windGust": null,
    "visibility": 6,
    "ceiling": 4100,
    "temp": 17,
    "dewpoint": 8,
    "altimeter": 29.59,
    "conditions": "",
    "observationTime": "2026-06-04T19:00:00.000Z"
  }
}