{
  "LAS": {
    "raw": "METAR KLAS 062056Z 24015G24KT 10SM FEW140 41/06 A2986 RMK AO2 PK WND 21028/2033 SLP079 T04060056 58016",
    "icao": "KLAS",
    "flightCategory": "VFR",
    "windDir": 240,
    "windSpeed": 15,
    "windGust": 24,
    "visibility": 10,
    "ceiling": null,
    "temp": 40.6,
    "dewpoint": 5.6,
    "altimeter": 29.86,
    "conditions": "",
    "observationTime": "2026-07-06T21:00:00.000Z"
  },
  "LAX": {
    "raw": "SPECI KLAX 062017Z 25011KT 10SM FEW009 23/16 A2995 RMK AO2 T02280161",
    "icao": "KLAX",
    "flightCategory": "VFR",
    "windDir": 250,
    "windSpeed": 11,
    "windGust": null,
    "visibility": 10,
    "ceiling": null,
    "temp": 22.8,
    "dewpoint": 16.1,
    "altimeter": 29.95,
    "conditions": "",
    "observationTime": "2026-07-06T20:17:00.000Z"
  },
  "ORD": {
    "raw": "METAR KORD 062051Z 03013KT 10SM SCT032 26/13 A3005 RMK AO2 SLP172 T02560133 58001 $",
    "icao": "KORD",
    "flightCategory": "VFR",
    "windDir": 30,
    "windSpeed": 13,
    "windGust": null,
    "visibility": 10,
    "ceiling": null,
    "temp": 25.6,
    "dewpoint": 13.3,
    "altimeter": 30.05,
    "conditions": "",
    "observationTime": "2026-07-06T21:00:00.000Z"
  },
  "LHR": {
    "raw": "METAR EGLL 062020Z AUTO 27011KT 9999 NCD 26/06 Q1016",
    "icao": "EGLL",
    "flightCategory": "VFR",
    "windDir": 270,
    "windSpeed": 11,
    "windGust": null,
    "visibility": 6,
    "ceiling": null,
    "temp": 26,
    "dewpoint": 6,
    "altimeter": 30,
    "conditions": "",
    "observationTime": "2026-07-06T20:20:00.000Z"
  },
  "SYD": {
    "raw": "METAR YSSY 062030Z 24011KT 9999 -SHRA FEW014 BKN022 12/10 Q1033",
    "icao": "YSSY",
    "flightCategory": "MVFR",
    "windDir": 240,
    "windSpeed": 11,
    "windGust": null,
    "visibility": 6,
    "ceiling": 2200,
    "temp": 12,
    "dewpoint": 10,
    "altimeter": 30.5,
    "conditions": "-SHRA",
    "observationTime": "2026-07-06T20:30:00.000Z"
  }
}