{
  "LAS": {
    "raw": "METAR KLAS 141056Z 17005KT 10SM CLR 31/06 A2984 RMK AO2 SLP071 T03110056",
    "icao": "KLAS",
    "flightCategory": "VFR",
    "windDir": 170,
    "windSpeed": 5,
    "windGust": null,
    "visibility": 10,
    "ceiling": null,
    "temp": 31.1,
    "dewpoint": 5.6,
    "altimeter": 29.84,
    "conditions": "",
    "observationTime": "2026-06-14T11:00:00.000Z"
  },
  "LAX": {
    "raw": "METAR KLAX 141053Z 25006KT 10SM OVC008 17/15 A2992 RMK AO2 SLP131 T01670150 $",
    "icao": "KLAX",
    "flightCategory": "IFR",
    "windDir": 250,
    "windSpeed": 6,
    "windGust": null,
    "visibility": 10,
    "ceiling": 800,
    "temp": 16.7,
    "dewpoint": 15,
    "altimeter": 29.92,
    "conditions": "",
    "observationTime": "2026-06-14T11:00:00.000Z"
  },
  "ORD": {
    "raw": "METAR KORD 141051Z 32012KT 10SM -RA SCT065 BKN080 OVC120 18/14 A2978 RMK AO2 SLP080 P0000 T01830139 $",
    "icao": "KORD",
    "flightCategory": "VFR",
    "windDir": 320,
    "windSpeed": 12,
    "windGust": null,
    "visibility": 10,
    "ceiling": 8000,
    "temp": 18.3,
    "dewpoint": 13.9,
    "altimeter": 29.78,
    "conditions": "-RA",
    "observationTime": "2026-06-14T11:00:00.000Z"
  },
  "LHR": {
    "raw": "METAR EGLL 141020Z AUTO VRB05KT 9999 NCD 18/08 Q1020",
    "icao": "EGLL",
    "flightCategory": "VFR",
    "windDir": null,
    "windSpeed": 5,
    "windGust": null,
    "visibility": 6,
    "ceiling": null,
    "temp": 18,
    "dewpoint": 8,
    "altimeter": 30.12,
    "conditions": "",
    "observationTime": "2026-06-14T10:20:00.000Z"
  },
  "SYD": {
    "raw": "SPECI YSSY 141018Z AUTO 15016KT 6000 RA SCT022 BKN026 BKN034 17/14 Q1031",
    "icao": "YSSY",
    "flightCategory": "MVFR",
    "windDir": 150,
    "windSpeed": 16,
    "windGust": null,
    "visibility": 3.73,
    "ceiling": 2600,
    "temp": 17,
    "dewpoint": 14,
    "altimeter": 30.45,
    "conditions": "RA",
    "observationTime": "2026-06-14T10:18:00.000Z"
  }
}