{
  "SYD": {
    "raw": "METAR YSSY 181730Z AUTO 26007KT //// // ////// 17/16 Q1008",
    "icao": "YSSY",
    "flightCategory": "UNKNOWN",
    "windDir": 260,
    "windSpeed": 7,
    "windGust": null,
    "visibility": null,
    "ceiling": null,
    "temp": 17,
    "dewpoint": 16,
    "altimeter": 29.77,
    "conditions": "",
    "observationTime": "2026-05-18T17:30:00.000Z"
  },
  "LAS": {
    "raw": "METAR KLAS 181756Z 06015G23KT 10SM FEW120 20/M07 A2998 RMK AO2 WSHFT 1644 SLP137 T02001067 10200 20144 51011",
    "icao": "KLAS",
    "flightCategory": "VFR",
    "windDir": 60,
    "windSpeed": 15,
    "windGust": 23,
    "visibility": 10,
    "ceiling": null,
    "temp": 20,
    "dewpoint": -6.7,
    "altimeter": 29.98,
    "conditions": "",
    "observationTime": "2026-05-18T18:00:00.000Z"
  },
  "LAX": {
    "raw": "METAR KLAX 181753Z 25007KT 7SM FEW036 SCT044 21/12 A2989 RMK AO2 SLP120 T02060122 10206 20156 51006",
    "icao": "KLAX",
    "flightCategory": "VFR",
    "windDir": 250,
    "windSpeed": 7,
    "windGust": null,
    "visibility": 7,
    "ceiling": null,
    "temp": 20.6,
    "dewpoint": 12.2,
    "altimeter": 29.89,
    "conditions": "",
    "observationTime": "2026-05-18T18:00:00.000Z"
  },
  "ORD": {
    "raw": "METAR KORD 181751Z 14005KT 10SM FEW010 BKN120 OVC250 23/21 A2981 RMK AO2 SLP090 60039 T02280206 10244 20200 55005",
    "icao": "KORD",
    "flightCategory": "VFR",
    "windDir": 140,
    "windSpeed": 5,
    "windGust": null,
    "visibility": 10,
    "ceiling": 12000,
    "temp": 22.8,
    "dewpoint": 20.6,
    "altimeter": 29.81,
    "conditions": "",
    "observationTime": "2026-05-18T18:00:00.000Z"
  },
  "LHR": {
    "raw": "METAR EGLL 181750Z AUTO 22014KT 190V250 9999 BKN039 14/04 Q1012",
    "icao": "EGLL",
    "flightCategory": "VFR",
    "windDir": 220,
    "windSpeed": 14,
    "windGust": null,
    "visibility": 6,
    "ceiling": 3900,
    "temp": 14,
    "dewpoint": 4,
    "altimeter": 29.88,
    "conditions": "",
    "observationTime": "2026-05-18T18:00:00.000Z"
  }
}