{
  "LHR": {
    "raw": "METAR EGLL 130550Z COR AUTO 07002KT 9999 NCD 04/03 Q1013 NOSIG",
    "icao": "EGLL",
    "flightCategory": "VFR",
    "windDir": 70,
    "windSpeed": 2,
    "windGust": null,
    "visibility": 6,
    "ceiling": null,
    "temp": 4,
    "dewpoint": 3,
    "altimeter": 29.91,
    "conditions": "",
    "observationTime": "2026-04-13T06:00:00.000Z"
  },
  "SYD": {
    "raw": "METAR YSSY 130530Z 13005KT 100V160 CAVOK 21/07 Q1016",
    "icao": "YSSY",
    "flightCategory": "VFR",
    "windDir": 130,
    "windSpeed": 5,
    "windGust": null,
    "visibility": 6,
    "ceiling": null,
    "temp": 21,
    "dewpoint": 7,
    "altimeter": 30,
    "conditions": "",
    "observationTime": "2026-04-13T05:30:00.000Z"
  },
  "LAS": {
    "raw": "METAR KLAS 130556Z 21008G19KT 10SM CLR 17/M04 A2990 RMK AO2 PK WND 21029/0503 SLP111 T01671039 10206 20167 51018",
    "icao": "KLAS",
    "flightCategory": "VFR",
    "windDir": 210,
    "windSpeed": 8,
    "windGust": 19,
    "visibility": 10,
    "ceiling": null,
    "temp": 16.7,
    "dewpoint": -3.9,
    "altimeter": 29.9,
    "conditions": "",
    "observationTime": "2026-04-13T06:00:00.000Z"
  },
  "LAX": {
    "raw": "METAR KLAX 130553Z 31006G18KT 10SM FEW014 FEW030 SCT080 16/09 A3004 RMK AO2 SLP172 T01560094 10183 20156 52009 $",
    "icao": "KLAX",
    "flightCategory": "VFR",
    "windDir": 310,
    "windSpeed": 6,
    "windGust": 18,
    "visibility": 10,
    "ceiling": null,
    "temp": 15.6,
    "dewpoint": 9.4,
    "altimeter": 30.04,
    "conditions": "",
    "observationTime": "2026-04-13T06:00:00.000Z"
  },
  "ORD": {
    "raw": "METAR KORD 130551Z 24013G27KT 10SM BKN009 BKN014 OVC030 17/15 A2980 RMK AO2 PK WND 21027/0549 RAE24 SLP086 P0002 60013 T01670150 10239 20161 402720133 55005 $",
    "icao": "KORD",
    "flightCategory": "IFR",
    "windDir": 240,
    "windSpeed": 13,
    "windGust": 27,
    "visibility": 10,
    "ceiling": 900,
    "temp": 16.7,
    "dewpoint": 15,
    "altimeter": 29.8,
    "conditions": "",
    "observationTime": "2026-04-13T06:00:00.000Z"
  }
}