{
  "SYD": {
    "raw": "METAR YSSY 131030Z AUTO 27009KT 9999 // NCD 19/08 Q1018",
    "icao": "YSSY",
    "flightCategory": "VFR",
    "windDir": 270,
    "windSpeed": 9,
    "windGust": null,
    "visibility": 6,
    "ceiling": null,
    "temp": 19,
    "dewpoint": 8,
    "altimeter": 30.06,
    "conditions": "",
    "observationTime": "2026-04-13T10:30:00.000Z"
  },
  "LAS": {
    "raw": "METAR KLAS 131056Z 20010G16KT 10SM FEW140 FEW180 13/01 A2992 RMK AO2 SLP117 T01330006",
    "icao": "KLAS",
    "flightCategory": "VFR",
    "windDir": 200,
    "windSpeed": 10,
    "windGust": 16,
    "visibility": 10,
    "ceiling": null,
    "temp": 13.3,
    "dewpoint": 0.6,
    "altimeter": 29.92,
    "conditions": "",
    "observationTime": "2026-04-13T11:00:00.000Z"
  },
  "LAX": {
    "raw": "METAR KLAX 131053Z 00000KT 10SM FEW014 BKN045 BKN075 14/08 A3002 RMK AO2 SLP164 T01440083 $",
    "icao": "KLAX",
    "flightCategory": "VFR",
    "windDir": 0,
    "windSpeed": 0,
    "windGust": null,
    "visibility": 10,
    "ceiling": 4500,
    "temp": 14.4,
    "dewpoint": 8.3,
    "altimeter": 30.02,
    "conditions": "",
    "observationTime": "2026-04-13T11:00:00.000Z"
  },
  "ORD": {
    "raw": "SPECI KORD 131035Z 23012KT 10SM SCT012 OVC016 18/16 A2985 RMK AO2 T01830161 $",
    "icao": "KORD",
    "flightCategory": "MVFR",
    "windDir": 230,
    "windSpeed": 12,
    "windGust": null,
    "visibility": 10,
    "ceiling": 1600,
    "temp": 18.3,
    "dewpoint": 16.1,
    "altimeter": 29.85,
    "conditions": "",
    "observationTime": "2026-04-13T10:35:00.000Z"
  },
  "LHR": {
    "raw": "METAR EGLL 131020Z COR AUTO 30004KT 240V360 9999 FEW032 12/03 Q1013 NOSIG",
    "icao": "EGLL",
    "flightCategory": "VFR",
    "windDir": 300,
    "windSpeed": 4,
    "windGust": null,
    "visibility": 6,
    "ceiling": null,
    "temp": 12,
    "dewpoint": 3,
    "altimeter": 29.91,
    "conditions": "",
    "observationTime": "2026-04-13T10:20:00.000Z"
  }
}