{
  "ORD": {
    "raw": "METAR KORD 220151Z 07012KT 9SM -RA FEW009 BKN080 OVC100 15/13 A2984 RMK AO2 SLP104 P0002 T01500133 $",
    "icao": "KORD",
    "flightCategory": "VFR",
    "windDir": 70,
    "windSpeed": 12,
    "windGust": null,
    "visibility": 9,
    "ceiling": 8000,
    "temp": 15,
    "dewpoint": 13.3,
    "altimeter": 29.84,
    "conditions": "-RA",
    "observationTime": "2026-06-22T02:00:00.000Z"
  },
  "SYD": {
    "raw": "METAR YSSY 220130Z 23008KT 180V280 9999 FEW033 17/08 Q1025",
    "icao": "YSSY",
    "flightCategory": "VFR",
    "windDir": 230,
    "windSpeed": 8,
    "windGust": null,
    "visibility": 6,
    "ceiling": null,
    "temp": 17,
    "dewpoint": 8,
    "altimeter": 30.27,
    "conditions": "",
    "observationTime": "2026-06-22T01:30:00.000Z"
  },
  "LHR": {
    "raw": "METAR EGLL 220120Z AUTO 07006KT 9999 NCD 19/16 Q1027",
    "icao": "EGLL",
    "flightCategory": "VFR",
    "windDir": 70,
    "windSpeed": 6,
    "windGust": null,
    "visibility": 6,
    "ceiling": null,
    "temp": 19,
    "dewpoint": 16,
    "altimeter": 30.33,
    "conditions": "",
    "observationTime": "2026-06-22T01:20:00.000Z"
  },
  "LAS": {
    "raw": "METAR KLAS 220056Z 00000KT 10SM CLR 39/M09 A2970 RMK AO2 SLP025 T03891089",
    "icao": "KLAS",
    "flightCategory": "VFR",
    "windDir": 0,
    "windSpeed": 0,
    "windGust": null,
    "visibility": 10,
    "ceiling": null,
    "temp": 38.9,
    "dewpoint": -8.9,
    "altimeter": 29.7,
    "conditions": "",
    "observationTime": "2026-06-22T01:00:00.000Z"
  }
}