{
  "LHR": {
    "raw": "METAR EGLL 140150Z AUTO 31005KT 9999 NCD 13/08 Q1021",
    "icao": "EGLL",
    "flightCategory": "VFR",
    "windDir": 310,
    "windSpeed": 5,
    "windGust": null,
    "visibility": 6,
    "ceiling": null,
    "temp": 13,
    "dewpoint": 8,
    "altimeter": 30.15,
    "conditions": "",
    "observationTime": "2026-06-14T02:00:00.000Z"
  },
  "SYD": {
    "raw": "METAR YSSY 140130Z 33005KT 9999 -RA NSC 17/15 Q1027",
    "icao": "YSSY",
    "flightCategory": "VFR",
    "windDir": 330,
    "windSpeed": 5,
    "windGust": null,
    "visibility": 6,
    "ceiling": null,
    "temp": 17,
    "dewpoint": 15,
    "altimeter": 30.33,
    "conditions": "-RA",
    "observationTime": "2026-06-14T01:30:00.000Z"
  },
  "LAS": {
    "raw": "METAR KLAS 140156Z 22011G20KT 10SM SCT120 40/01 A2974 RMK AO2 SLP037 T04000011",
    "icao": "KLAS",
    "flightCategory": "VFR",
    "windDir": 220,
    "windSpeed": 11,
    "windGust": 20,
    "visibility": 10,
    "ceiling": null,
    "temp": 40,
    "dewpoint": 1.1,
    "altimeter": 29.74,
    "conditions": "",
    "observationTime": "2026-06-14T02:00:00.000Z"
  },
  "LAX": {
    "raw": "METAR KLAX 140153Z 27009G18KT 10SM BKN008 18/16 A2988 RMK AO2 SLP117 T01830156 $",
    "icao": "KLAX",
    "flightCategory": "IFR",
    "windDir": 270,
    "windSpeed": 9,
    "windGust": 18,
    "visibility": 10,
    "ceiling": 800,
    "temp": 18.3,
    "dewpoint": 15.6,
    "altimeter": 29.88,
    "conditions": "",
    "observationTime": "2026-06-14T02:00:00.000Z"
  },
  "ORD": {
    "raw": "METAR KORD 140151Z 21009KT 10SM FEW026 FEW050 SCT150 SCT220 BKN250 24/20 A2982 RMK AO2 SLP092 TCU DSNT NW-N T02440200 $",
    "icao": "KORD",
    "flightCategory": "VFR",
    "windDir": 210,
    "windSpeed": 9,
    "windGust": null,
    "visibility": 10,
    "ceiling": null,
    "temp": 24.4,
    "dewpoint": 20,
    "altimeter": 29.82,
    "conditions": "",
    "observationTime": "2026-06-14T02:00:00.000Z"
  }
}