{
  "LHR": {
    "raw": "METAR EGLL 202250Z AUTO 27005KT 9999 FEW030 21/17 Q1023",
    "icao": "EGLL",
    "flightCategory": "VFR",
    "windDir": 270,
    "windSpeed": 5,
    "windGust": null,
    "visibility": 6,
    "ceiling": null,
    "temp": 21,
    "dewpoint": 17,
    "altimeter": 30.21,
    "conditions": "",
    "observationTime": "2026-06-20T23:00:00.000Z"
  },
  "SYD": {
    "raw": "METAR YSSY 202230Z 31007KT CAVOK 12/07 Q1027",
    "icao": "YSSY",
    "flightCategory": "VFR",
    "windDir": 310,
    "windSpeed": 7,
    "windGust": null,
    "visibility": 6,
    "ceiling": null,
    "temp": 12,
    "dewpoint": 7,
    "altimeter": 30.33,
    "conditions": "",
    "observationTime": "2026-06-20T22:30:00.000Z"
  },
  "LAS": {
    "raw": "METAR KLAS 202256Z 22013G21KT 10SM CLR 39/M12 A2975 RMK AO2 SLP044 T03891111",
    "icao": "KLAS",
    "flightCategory": "VFR",
    "windDir": 220,
    "windSpeed": 13,
    "windGust": 21,
    "visibility": 10,
    "ceiling": null,
    "temp": 38.9,
    "dewpoint": -11.1,
    "altimeter": 29.75,
    "conditions": "",
    "observationTime": "2026-06-20T23:00:00.000Z"
  },
  "LAX": {
    "raw": "METAR KLAX 202253Z 26016G21KT 10SM FEW017 SCT023 20/13 A2996 RMK AO2 SLP144 T02000128",
    "icao": "KLAX",
    "flightCategory": "VFR",
    "windDir": 260,
    "windSpeed": 16,
    "windGust": 21,
    "visibility": 10,
    "ceiling": null,
    "temp": 20,
    "dewpoint": 12.8,
    "altimeter": 29.96,
    "conditions": "",
    "observationTime": "2026-06-20T23:00:00.000Z"
  },
  "ORD": {
    "raw": "METAR KORD 202251Z 27011KT 10SM SCT070 24/10 A2992 RMK AO2 SLP130 T02390100 $",
    "icao": "KORD",
    "flightCategory": "VFR",
    "windDir": 270,
    "windSpeed": 11,
    "windGust": null,
    "visibility": 10,
    "ceiling": null,
    "temp": 23.9,
    "dewpoint": 10,
    "altimeter": 29.92,
    "conditions": "",
    "observationTime": "2026-06-20T23:00:00.000Z"
  }
}