{
  "SYD": {
    "raw": "METAR YSSY 150930Z AUTO 25009KT 9999 // NCD 13/07 Q1034",
    "icao": "YSSY",
    "flightCategory": "VFR",
    "windDir": 250,
    "windSpeed": 9,
    "windGust": null,
    "visibility": 6,
    "ceiling": null,
    "temp": 13,
    "dewpoint": 7,
    "altimeter": 30.53,
    "conditions": "",
    "observationTime": "2026-07-15T09:30:00.000Z"
  },
  "LAS": {
    "raw": "METAR KLAS 150956Z 20005KT 10SM FEW200 33/10 A2989 RMK AO2 SLP089 T03330100",
    "icao": "KLAS",
    "flightCategory": "VFR",
    "windDir": 200,
    "windSpeed": 5,
    "windGust": null,
    "visibility": 10,
    "ceiling": null,
    "temp": 33.3,
    "dewpoint": 10,
    "altimeter": 29.89,
    "conditions": "",
    "observationTime": "2026-07-15T10:00:00.000Z"
  },
  "LAX": {
    "raw": "METAR KLAX 150953Z 00000KT 10SM FEW250 20/18 A2989 RMK AO2 SLP118 T02000178 $",
    "icao": "KLAX",
    "flightCategory": "VFR",
    "windDir": 0,
    "windSpeed": 0,
    "windGust": null,
    "visibility": 10,
    "ceiling": null,
    "temp": 20,
    "dewpoint": 17.8,
    "altimeter": 29.89,
    "conditions": "",
    "observationTime": "2026-07-15T10:00:00.000Z"
  },
  "ORD": {
    "raw": "METAR KORD 150951Z 25004KT 10SM FEW250 25/23 A3010 RMK AO2 SLP186 T02500228 $",
    "icao": "KORD",
    "flightCategory": "VFR",
    "windDir": 250,
    "windSpeed": 4,
    "windGust": null,
    "visibility": 10,
    "ceiling": null,
    "temp": 25,
    "dewpoint": 22.8,
    "altimeter": 30.1,
    "conditions": "",
    "observationTime": "2026-07-15T10:00:00.000Z"
  },
  "LHR": {
    "raw": "METAR EGLL 150920Z AUTO 05009KT 360V080 9999 BKN026 23/15 Q1024",
    "icao": "EGLL",
    "flightCategory": "MVFR",
    "windDir": 50,
    "windSpeed": 9,
    "windGust": null,
    "visibility": 6,
    "ceiling": 2600,
    "temp": 23,
    "dewpoint": 15,
    "altimeter": 30.24,
    "conditions": "",
    "observationTime": "2026-07-15T09:20:00.000Z"
  }
}