{
  "SYD": {
    "raw": "METAR YSSY 271900Z AUTO 34007KT 9999 // BKN050 14/12 Q1025",
    "icao": "YSSY",
    "flightCategory": "VFR",
    "windDir": 340,
    "windSpeed": 7,
    "windGust": null,
    "visibility": 6,
    "ceiling": 5000,
    "temp": 14,
    "dewpoint": 12,
    "altimeter": 30.27,
    "conditions": "",
    "observationTime": "2026-04-27T19:00:00.000Z"
  },
  "ORD": {
    "raw": "SPECI KORD 271922Z 14021G37KT 8SM SCT008 OVC180 16/14 A2957 RMK AO2 PK WND 15046/1852 T01560139 $",
    "icao": "KORD",
    "flightCategory": "VFR",
    "windDir": 140,
    "windSpeed": 21,
    "windGust": 37,
    "visibility": 8,
    "ceiling": 18000,
    "temp": 15.6,
    "dewpoint": 13.9,
    "altimeter": 29.57,
    "conditions": "",
    "observationTime": "2026-04-27T19:22:00.000Z"
  },
  "LHR": {
    "raw": "METAR EGLL 271920Z AUTO 04008KT 360V070 9999 NCD 18/07 Q1022 TEMPO SHRA",
    "icao": "EGLL",
    "flightCategory": "VFR",
    "windDir": 40,
    "windSpeed": 8,
    "windGust": null,
    "visibility": 6,
    "ceiling": null,
    "temp": 18,
    "dewpoint": 7,
    "altimeter": 30.18,
    "conditions": "",
    "observationTime": "2026-04-27T19:20:00.000Z"
  },
  "LAS": {
    "raw": "METAR KLAS 271856Z 17008G19KT 140V210 10SM FEW100 FEW250 18/M02 A2990 RMK AO2 SLP111 T01831017",
    "icao": "KLAS",
    "flightCategory": "VFR",
    "windDir": 170,
    "windSpeed": 8,
    "windGust": 19,
    "visibility": 10,
    "ceiling": null,
    "temp": 18.3,
    "dewpoint": -1.7,
    "altimeter": 29.9,
    "conditions": "",
    "observationTime": "2026-04-27T19:00:00.000Z"
  },
  "LAX": {
    "raw": "METAR KLAX 271853Z 24011KT 10SM FEW010 FEW042 SCT070 18/08 A3004 RMK AO2 PRESFR SLP169 PRESRR T01780083 $",
    "icao": "KLAX",
    "flightCategory": "VFR",
    "windDir": 240,
    "windSpeed": 11,
    "windGust": null,
    "visibility": 10,
    "ceiling": null,
    "temp": 17.8,
    "dewpoint": 8.3,
    "altimeter": 30.04,
    "conditions": "",
    "observationTime": "2026-04-27T19:00:00.000Z"
  }
}