{
  "SYD": {
    "raw": "METAR YSSY 280800Z AUTO 00000KT 9999 // SCT056 BKN110 13/12 Q1030",
    "icao": "YSSY",
    "flightCategory": "VFR",
    "windDir": 0,
    "windSpeed": 0,
    "windGust": null,
    "visibility": 6,
    "ceiling": 11000,
    "temp": 13,
    "dewpoint": 12,
    "altimeter": 30.42,
    "conditions": "",
    "observationTime": "2026-06-28T08:00:00.000Z"
  },
  "LHR": {
    "raw": "METAR EGLL 280750Z AUTO 22015G26KT 9999 BKN032 21/14 Q1016",
    "icao": "EGLL",
    "flightCategory": "VFR",
    "windDir": 220,
    "windSpeed": 15,
    "windGust": 26,
    "visibility": 6,
    "ceiling": 3200,
    "temp": 21,
    "dewpoint": 14,
    "altimeter": 30,
    "conditions": "",
    "observationTime": "2026-06-28T08:00:00.000Z"
  },
  "LAS": {
    "raw": "METAR KLAS 280756Z 22021G34KT 10SM CLR 26/01 A2963 RMK AO2 PK WND 22039/0744 SLP005 T02560011 403560250",
    "icao": "KLAS",
    "flightCategory": "VFR",
    "windDir": 220,
    "windSpeed": 21,
    "windGust": 34,
    "visibility": 10,
    "ceiling": null,
    "temp": 25.6,
    "dewpoint": 1.1,
    "altimeter": 29.63,
    "conditions": "",
    "observationTime": "2026-06-28T08:00:00.000Z"
  },
  "LAX": {
    "raw": "METAR KLAX 280753Z 23005KT 10SM BKN015 17/14 A2992 RMK AO2 SLP131 T01720139 402280172",
    "icao": "KLAX",
    "flightCategory": "MVFR",
    "windDir": 230,
    "windSpeed": 5,
    "windGust": null,
    "visibility": 10,
    "ceiling": 1500,
    "temp": 17.2,
    "dewpoint": 13.9,
    "altimeter": 29.92,
    "conditions": "",
    "observationTime": "2026-06-28T08:00:00.000Z"
  },
  "ORD": {
    "raw": "METAR KORD 280751Z 04006KT 10SM FEW065 BKN250 18/14 A2992 RMK AO2 SLP129 T01830144 $",
    "icao": "KORD",
    "flightCategory": "VFR",
    "windDir": 40,
    "windSpeed": 6,
    "windGust": null,
    "visibility": 10,
    "ceiling": 25000,
    "temp": 18.3,
    "dewpoint": 14.4,
    "altimeter": 29.92,
    "conditions": "",
    "observationTime": "2026-06-28T08:00:00.000Z"
  }
}