{
  "LAS": {
    "raw": "METAR KLAS 150556Z 23009KT 10SM CLR 34/01 A2988 RMK AO2 SLP083 T03440006 10400 20344 51017",
    "icao": "KLAS",
    "flightCategory": "VFR",
    "windDir": 230,
    "windSpeed": 9,
    "windGust": null,
    "visibility": 10,
    "ceiling": null,
    "temp": 34.4,
    "dewpoint": 0.6,
    "altimeter": 29.88,
    "conditions": "",
    "observationTime": "2026-06-15T06:00:00.000Z"
  },
  "LAX": {
    "raw": "SPECI KLAX 150534Z 24009KT 10SM FEW008 SCT011 18/15 A2998 RMK AO2 T01780150 $",
    "icao": "KLAX",
    "flightCategory": "VFR",
    "windDir": 240,
    "windSpeed": 9,
    "windGust": null,
    "visibility": 10,
    "ceiling": null,
    "temp": 17.8,
    "dewpoint": 15,
    "altimeter": 29.98,
    "conditions": "",
    "observationTime": "2026-06-15T05:34:00.000Z"
  },
  "ORD": {
    "raw": "METAR KORD 150551Z 25003KT 10SM FEW060 13/08 A2999 RMK AO2 SLP156 T01330078 10206 20133 402110133 53002 $",
    "icao": "KORD",
    "flightCategory": "VFR",
    "windDir": 250,
    "windSpeed": 3,
    "windGust": null,
    "visibility": 10,
    "ceiling": null,
    "temp": 13.3,
    "dewpoint": 7.8,
    "altimeter": 29.99,
    "conditions": "",
    "observationTime": "2026-06-15T06:00:00.000Z"
  },
  "LHR": {
    "raw": "METAR EGLL 150520Z AUTO 08005KT 9999 NCD 14/12 Q1017",
    "icao": "EGLL",
    "flightCategory": "VFR",
    "windDir": 80,
    "windSpeed": 5,
    "windGust": null,
    "visibility": 6,
    "ceiling": null,
    "temp": 14,
    "dewpoint": 12,
    "altimeter": 30.03,
    "conditions": "",
    "observationTime": "2026-06-15T05:20:00.000Z"
  },
  "SYD": {
    "raw": "METAR YSSY 150530Z 13006KT 9999 SCT040 BKN050 18/09 Q1031",
    "icao": "YSSY",
    "flightCategory": "VFR",
    "windDir": 130,
    "windSpeed": 6,
    "windGust": null,
    "visibility": 6,
    "ceiling": 5000,
    "temp": 18,
    "dewpoint": 9,
    "altimeter": 30.45,
    "conditions": "",
    "observationTime": "2026-06-15T05:30:00.000Z"
  }
}