{
  "LAS": {
    "raw": "METAR KLAS 151456Z 00000KT 10SM FEW180 32/03 A2998 RMK AO2 SLP120 T03220028 51017",
    "icao": "KLAS",
    "flightCategory": "VFR",
    "windDir": 0,
    "windSpeed": 0,
    "windGust": null,
    "visibility": 10,
    "ceiling": null,
    "temp": 32.2,
    "dewpoint": 2.8,
    "altimeter": 29.98,
    "conditions": "",
    "observationTime": "2026-06-15T15:00:00.000Z"
  },
  "LAX": {
    "raw": "SPECI KLAX 151416Z 18005KT 8SM SCT008 BKN010 18/16 A3000 RMK AO2 T01780156 $",
    "icao": "KLAX",
    "flightCategory": "MVFR",
    "windDir": 180,
    "windSpeed": 5,
    "windGust": null,
    "visibility": 8,
    "ceiling": 1000,
    "temp": 17.8,
    "dewpoint": 15.6,
    "altimeter": 30,
    "conditions": "",
    "observationTime": "2026-06-15T14:16:00.000Z"
  },
  "ORD": {
    "raw": "METAR KORD 151451Z 26011G19KT 10SM FEW200 19/07 A2996 RMK AO2 SLP144 T01940072 58002",
    "icao": "KORD",
    "flightCategory": "VFR",
    "windDir": 260,
    "windSpeed": 11,
    "windGust": 19,
    "visibility": 10,
    "ceiling": null,
    "temp": 19.4,
    "dewpoint": 7.2,
    "altimeter": 29.96,
    "conditions": "",
    "observationTime": "2026-06-15T15:00:00.000Z"
  },
  "LHR": {
    "raw": "METAR EGLL 151420Z AUTO 13013KT 9999 NCD 21/10 Q1013",
    "icao": "EGLL",
    "flightCategory": "VFR",
    "windDir": 130,
    "windSpeed": 13,
    "windGust": null,
    "visibility": 6,
    "ceiling": null,
    "temp": 21,
    "dewpoint": 10,
    "altimeter": 29.91,
    "conditions": "",
    "observationTime": "2026-06-15T14:20:00.000Z"
  },
  "SYD": {
    "raw": "METAR YSSY 151430Z AUTO 32006KT 9999 // FEW052 15/11 Q1031",
    "icao": "YSSY",
    "flightCategory": "VFR",
    "windDir": 320,
    "windSpeed": 6,
    "windGust": null,
    "visibility": 6,
    "ceiling": null,
    "temp": 15,
    "dewpoint": 11,
    "altimeter": 30.45,
    "conditions": "",
    "observationTime": "2026-06-15T14:30:00.000Z"
  }
}