{
  "LHR": {
    "raw": "METAR EGLL 211650Z AUTO 08009KT 050V110 9999 NCD 29/17 Q1024",
    "icao": "EGLL",
    "flightCategory": "VFR",
    "windDir": 80,
    "windSpeed": 9,
    "windGust": null,
    "visibility": 6,
    "ceiling": null,
    "temp": 29,
    "dewpoint": 17,
    "altimeter": 30.24,
    "conditions": "",
    "observationTime": "2026-06-21T17:00:00.000Z"
  },
  "SYD": {
    "raw": "METAR YSSY 211700Z AUTO 31008KT 9999 // NCD 10/07 Q1026",
    "icao": "YSSY",
    "flightCategory": "VFR",
    "windDir": 310,
    "windSpeed": 8,
    "windGust": null,
    "visibility": 6,
    "ceiling": null,
    "temp": 10,
    "dewpoint": 7,
    "altimeter": 30.3,
    "conditions": "",
    "observationTime": "2026-06-21T17:00:00.000Z"
  },
  "LAS": {
    "raw": "METAR KLAS 211656Z 35004KT 10SM CLR 32/M04 A2983 RMK A02 SLP071 T03171039",
    "icao": "KLAS",
    "flightCategory": "VFR",
    "windDir": 350,
    "windSpeed": 4,
    "windGust": null,
    "visibility": 10,
    "ceiling": null,
    "temp": 31.7,
    "dewpoint": -3.9,
    "altimeter": 29.83,
    "conditions": "",
    "observationTime": "2026-06-21T17:00:00.000Z"
  },
  "LAX": {
    "raw": "METAR KLAX 211653Z 19006KT 10SM FEW006 BKN017 BKN022 19/13 A2993 RMK AO2 SLP135 FU FEW006 T01890133",
    "icao": "KLAX",
    "flightCategory": "MVFR",
    "windDir": 190,
    "windSpeed": 6,
    "windGust": null,
    "visibility": 10,
    "ceiling": 1700,
    "temp": 18.9,
    "dewpoint": 13.3,
    "altimeter": 29.93,
    "conditions": "",
    "observationTime": "2026-06-21T17:00:00.000Z"
  },
  "ORD": {
    "raw": "METAR KORD 211651Z 13006KT 10SM -RA FEW050 BKN110 OVC250 21/14 A2990 RMK AO2 RAB49 SLP121 P0000 T02110139 $",
    "icao": "KORD",
    "flightCategory": "VFR",
    "windDir": 130,
    "windSpeed": 6,
    "windGust": null,
    "visibility": 10,
    "ceiling": 11000,
    "temp": 21.1,
    "dewpoint": 13.9,
    "altimeter": 29.9,
    "conditions": "-RA",
    "observationTime": "2026-06-21T17:00:00.000Z"
  }
}