{
  "SYD": {
    "raw": "METAR YSSY 031200Z AUTO 15015KT 9999 // BKN069 OVC096 22/17 Q1024",
    "icao": "YSSY",
    "flightCategory": "VFR",
    "windDir": 150,
    "windSpeed": 15,
    "windGust": null,
    "visibility": 6,
    "ceiling": 6900,
    "temp": 22,
    "dewpoint": 17,
    "altimeter": 30.24,
    "conditions": "",
    "observationTime": "2026-04-03T12:00:00.000Z"
  },
  "LHR": {
    "raw": "METAR EGLL 031150Z COR AUTO 23014G25KT 9999 BKN019 OVC024 14/10 Q1010 NOSIG",
    "icao": "EGLL",
    "flightCategory": "MVFR",
    "windDir": 230,
    "windSpeed": 14,
    "windGust": 25,
    "visibility": 6,
    "ceiling": 1900,
    "temp": 14,
    "dewpoint": 10,
    "altimeter": 29.83,
    "conditions": "",
    "observationTime": "2026-04-03T12:00:00.000Z"
  },
  "LAS": {
    "raw": "METAR KLAS 031156Z 01017KT 10SM CLR 13/M14 A3015 RMK AO2 PK WND 01031/1100 SLP196 T01331139 10211 20133 53030",
    "icao": "KLAS",
    "flightCategory": "VFR",
    "windDir": 10,
    "windSpeed": 17,
    "windGust": null,
    "visibility": 10,
    "ceiling": null,
    "temp": 13.3,
    "dewpoint": -13.9,
    "altimeter": 30.15,
    "conditions": "",
    "observationTime": "2026-04-03T12:00:00.000Z"
  },
  "LAX": {
    "raw": "METAR KLAX 031153Z 07003KT 10SM FEW016 FEW200 13/12 A2995 RMK AO2 SLP138 T01330117 10167 20133 56006 $",
    "icao": "KLAX",
    "flightCategory": "VFR",
    "windDir": 70,
    "windSpeed": 3,
    "windGust": null,
    "visibility": 10,
    "ceiling": null,
    "temp": 13.3,
    "dewpoint": 11.7,
    "altimeter": 29.95,
    "conditions": "",
    "observationTime": "2026-04-03T12:00:00.000Z"
  },
  "ORD": {
    "raw": "METAR KORD 031151Z 24010G16KT 10SM OVC013 08/06 A2997 RMK AO2 SLP150 70053 T00830061 10167 20083 53033",
    "icao": "KORD",
    "flightCategory": "MVFR",
    "windDir": 240,
    "windSpeed": 10,
    "windGust": 16,
    "visibility": 10,
    "ceiling": 1300,
    "temp": 8.3,
    "dewpoint": 6.1,
    "altimeter": 29.97,
    "conditions": "",
    "observationTime": "2026-04-03T12:00:00.000Z"
  }
}