{
  "LAS": {
    "raw": "METAR KLAS 091156Z 18010KT 10SM BKN250 22/M04 A2983 RMK AO2 SLP075 T02171039 10256 20217 55001",
    "icao": "KLAS",
    "flightCategory": "VFR",
    "windDir": 180,
    "windSpeed": 10,
    "windGust": null,
    "visibility": 10,
    "ceiling": 25000,
    "temp": 21.7,
    "dewpoint": -3.9,
    "altimeter": 29.83,
    "conditions": "",
    "observationTime": "2026-04-09T12:00:00.000Z"
  },
  "LAX": {
    "raw": "SPECI KLAX 091136Z 10004KT 9SM FEW004 SCT011 BKN250 16/14 A2991 RMK AO2 T01610144 $",
    "icao": "KLAX",
    "flightCategory": "VFR",
    "windDir": 100,
    "windSpeed": 4,
    "windGust": null,
    "visibility": 9,
    "ceiling": 25000,
    "temp": 16.1,
    "dewpoint": 14.4,
    "altimeter": 29.91,
    "conditions": "",
    "observationTime": "2026-04-09T11:36:00.000Z"
  },
  "ORD": {
    "raw": "METAR KORD 091151Z 20003KT 10SM BKN100 BKN150 13/07 A3009 RMK AO2 SLP186 VIRGA 60000 T01280067 10183 20128 51027",
    "icao": "KORD",
    "flightCategory": "VFR",
    "windDir": 200,
    "windSpeed": 3,
    "windGust": null,
    "visibility": 10,
    "ceiling": 10000,
    "temp": 12.8,
    "dewpoint": 6.7,
    "altimeter": 30.09,
    "conditions": "",
    "observationTime": "2026-04-09T12:00:00.000Z"
  },
  "LHR": {
    "raw": "METAR EGLL 091120Z COR AUTO 28009KT 240V310 9999 NCD 20/12 Q1017 NOSIG",
    "icao": "EGLL",
    "flightCategory": "VFR",
    "windDir": 280,
    "windSpeed": 9,
    "windGust": null,
    "visibility": 6,
    "ceiling": null,
    "temp": 20,
    "dewpoint": 12,
    "altimeter": 30.03,
    "conditions": "",
    "observationTime": "2026-04-09T11:20:00.000Z"
  },
  "SYD": {
    "raw": "METAR YSSY 091130Z AUTO 02009KT 9999 // NCD 25/19 Q1013",
    "icao": "YSSY",
    "flightCategory": "VFR",
    "windDir": 20,
    "windSpeed": 9,
    "windGust": null,
    "visibility": 6,
    "ceiling": null,
    "temp": 25,
    "dewpoint": 19,
    "altimeter": 29.91,
    "conditions": "",
    "observationTime": "2026-04-09T11:30:00.000Z"
  }
}