{
  "SYD": {
    "raw": "METAR YSSY 090930Z AUTO 03014KT 9999 // NCD 25/20 Q1013",
    "icao": "YSSY",
    "flightCategory": "VFR",
    "windDir": 30,
    "windSpeed": 14,
    "windGust": null,
    "visibility": 6,
    "ceiling": null,
    "temp": 25,
    "dewpoint": 20,
    "altimeter": 29.91,
    "conditions": "",
    "observationTime": "2026-04-09T09:30:00.000Z"
  },
  "LAS": {
    "raw": "METAR KLAS 090956Z 20007KT 10SM BKN250 23/M04 A2983 RMK AO2 SLP075 T02331039",
    "icao": "KLAS",
    "flightCategory": "VFR",
    "windDir": 200,
    "windSpeed": 7,
    "windGust": null,
    "visibility": 10,
    "ceiling": 25000,
    "temp": 23.3,
    "dewpoint": -3.9,
    "altimeter": 29.83,
    "conditions": "",
    "observationTime": "2026-04-09T10:00:00.000Z"
  },
  "LAX": {
    "raw": "METAR KLAX 090953Z 05004KT 10SM FEW011 SCT250 17/14 A2991 RMK AO2 SLP127 T01670144 $",
    "icao": "KLAX",
    "flightCategory": "VFR",
    "windDir": 50,
    "windSpeed": 4,
    "windGust": null,
    "visibility": 10,
    "ceiling": null,
    "temp": 16.7,
    "dewpoint": 14.4,
    "altimeter": 29.91,
    "conditions": "",
    "observationTime": "2026-04-09T10:00:00.000Z"
  },
  "ORD": {
    "raw": "METAR KORD 090951Z 28007KT 10SM BKN090 OVC110 14/07 A3004 RMK AO2 SLP170 T01440067 $",
    "icao": "KORD",
    "flightCategory": "VFR",
    "windDir": 280,
    "windSpeed": 7,
    "windGust": null,
    "visibility": 10,
    "ceiling": 9000,
    "temp": 14.4,
    "dewpoint": 6.7,
    "altimeter": 30.04,
    "conditions": "",
    "observationTime": "2026-04-09T10:00:00.000Z"
  },
  "LHR": {
    "raw": "METAR EGLL 090920Z COR AUTO 24006KT 210V280 9999 NCD 17/11 Q1018 NOSIG",
    "icao": "EGLL",
    "flightCategory": "VFR",
    "windDir": 240,
    "windSpeed": 6,
    "windGust": null,
    "visibility": 6,
    "ceiling": null,
    "temp": 17,
    "dewpoint": 11,
    "altimeter": 30.06,
    "conditions": "",
    "observationTime": "2026-04-09T09:20:00.000Z"
  }
}