{
  "SYD": {
    "raw": "METAR YSSY 230230Z 19013G23KT 9999 FEW012 SCT030 BKN040 18/15 Q1026",
    "icao": "YSSY",
    "flightCategory": "VFR",
    "windDir": 190,
    "windSpeed": 13,
    "windGust": 23,
    "visibility": 6,
    "ceiling": 4000,
    "temp": 18,
    "dewpoint": 15,
    "altimeter": 30.3,
    "conditions": "",
    "observationTime": "2026-05-23T02:30:00.000Z"
  },
  "LAS": {
    "raw": "METAR KLAS 230256Z 14009G17KT 10SM FEW150 32/M06 A2972 RMK AO2 SLP036 T03221061 53003",
    "icao": "KLAS",
    "flightCategory": "VFR",
    "windDir": 140,
    "windSpeed": 9,
    "windGust": 17,
    "visibility": 10,
    "ceiling": null,
    "temp": 32.2,
    "dewpoint": -6.1,
    "altimeter": 29.72,
    "conditions": "",
    "observationTime": "2026-05-23T03:00:00.000Z"
  },
  "LAX": {
    "raw": "METAR KLAX 230253Z 24009KT 10SM FEW014 SCT025 16/12 A2987 RMK AO2 SLP114 T01610122 53007",
    "icao": "KLAX",
    "flightCategory": "VFR",
    "windDir": 240,
    "windSpeed": 9,
    "windGust": null,
    "visibility": 10,
    "ceiling": null,
    "temp": 16.1,
    "dewpoint": 12.2,
    "altimeter": 29.87,
    "conditions": "",
    "observationTime": "2026-05-23T03:00:00.000Z"
  },
  "ORD": {
    "raw": "METAR KORD 230251Z 07004KT 10SM SCT040 OVC049 16/08 A2998 RMK AO2 SLP153 T01610078 55000",
    "icao": "KORD",
    "flightCategory": "VFR",
    "windDir": 70,
    "windSpeed": 4,
    "windGust": null,
    "visibility": 10,
    "ceiling": 4900,
    "temp": 16.1,
    "dewpoint": 7.8,
    "altimeter": 29.98,
    "conditions": "",
    "observationTime": "2026-05-23T03:00:00.000Z"
  },
  "LHR": {
    "raw": "METAR EGLL 230250Z AUTO 20003KT 9999 NCD 19/14 Q1024",
    "icao": "EGLL",
    "flightCategory": "VFR",
    "windDir": 200,
    "windSpeed": 3,
    "windGust": null,
    "visibility": 6,
    "ceiling": null,
    "temp": 19,
    "dewpoint": 14,
    "altimeter": 30.24,
    "conditions": "",
    "observationTime": "2026-05-23T03:00:00.000Z"
  }
}