{
  "SYD": {
    "raw": "METAR YSSY 270300Z 08005KT 9999 FEW044 BKN052 24/10 Q1023",
    "icao": "YSSY",
    "flightCategory": "VFR",
    "windDir": 80,
    "windSpeed": 5,
    "windGust": null,
    "visibility": 6,
    "ceiling": 5200,
    "temp": 24,
    "dewpoint": 10,
    "altimeter": 30.21,
    "conditions": "",
    "observationTime": "2026-04-27T03:00:00.000Z"
  },
  "LHR": {
    "raw": "METAR EGLL 270250Z COR AUTO 03002KT 9999 NCD 08/06 Q1025 NOSIG",
    "icao": "EGLL",
    "flightCategory": "VFR",
    "windDir": 30,
    "windSpeed": 2,
    "windGust": null,
    "visibility": 6,
    "ceiling": null,
    "temp": 8,
    "dewpoint": 6,
    "altimeter": 30.27,
    "conditions": "",
    "observationTime": "2026-04-27T03:00:00.000Z"
  },
  "LAS": {
    "raw": "METAR KLAS 270256Z 22009KT 10SM FEW110 19/M01 A2978 RMK AO2 SLP070 T01891006 53004",
    "icao": "KLAS",
    "flightCategory": "VFR",
    "windDir": 220,
    "windSpeed": 9,
    "windGust": null,
    "visibility": 10,
    "ceiling": null,
    "temp": 18.9,
    "dewpoint": -0.6,
    "altimeter": 29.78,
    "conditions": "",
    "observationTime": "2026-04-27T03:00:00.000Z"
  },
  "LAX": {
    "raw": "METAR KLAX 270253Z 24013KT 10SM FEW028 15/08 A2997 RMK AO2 SLP148 T01500078 53004 $",
    "icao": "KLAX",
    "flightCategory": "VFR",
    "windDir": 240,
    "windSpeed": 13,
    "windGust": null,
    "visibility": 10,
    "ceiling": null,
    "temp": 15,
    "dewpoint": 7.8,
    "altimeter": 29.97,
    "conditions": "",
    "observationTime": "2026-04-27T03:00:00.000Z"
  },
  "ORD": {
    "raw": "METAR KORD 270251Z 07007KT 10SM OVC250 08/06 A3004 RMK AO2 SLP174 T00830061 53015 $",
    "icao": "KORD",
    "flightCategory": "VFR",
    "windDir": 70,
    "windSpeed": 7,
    "windGust": null,
    "visibility": 10,
    "ceiling": 25000,
    "temp": 8.3,
    "dewpoint": 6.1,
    "altimeter": 30.04,
    "conditions": "",
    "observationTime": "2026-04-27T03:00:00.000Z"
  }
}