{
  "SYD": {
    "raw": "METAR YSSY 230600Z 20008KT 9999 FEW040 BKN210 BKN240 15/05 Q1025",
    "icao": "YSSY",
    "flightCategory": "VFR",
    "windDir": 200,
    "windSpeed": 8,
    "windGust": null,
    "visibility": 6,
    "ceiling": 21000,
    "temp": 15,
    "dewpoint": 5,
    "altimeter": 30.27,
    "conditions": "",
    "observationTime": "2026-06-23T06:00:00.000Z"
  },
  "LHR": {
    "raw": "METAR EGLL 230550Z AUTO 07007KT 9999 NCD 20/19 Q1021",
    "icao": "EGLL",
    "flightCategory": "VFR",
    "windDir": 70,
    "windSpeed": 7,
    "windGust": null,
    "visibility": 6,
    "ceiling": null,
    "temp": 20,
    "dewpoint": 19,
    "altimeter": 30.15,
    "conditions": "",
    "observationTime": "2026-06-23T06:00:00.000Z"
  },
  "LAS": {
    "raw": "METAR KLAS 230556Z 19005KT 10SM CLR 33/M07 A2991 RMK SLP097 T03331067 10411 20333 51019",
    "icao": "KLAS",
    "flightCategory": "VFR",
    "windDir": 190,
    "windSpeed": 5,
    "windGust": null,
    "visibility": 10,
    "ceiling": null,
    "temp": 33.3,
    "dewpoint": -6.7,
    "altimeter": 29.91,
    "conditions": "",
    "observationTime": "2026-06-23T06:00:00.000Z"
  },
  "LAX": {
    "raw": "METAR KLAX 230553Z 25008KT 10SM FEW010 17/15 A2999 RMK AO2 SLP152 T01720150 10217 20172 51016 $",
    "icao": "KLAX",
    "flightCategory": "VFR",
    "windDir": 250,
    "windSpeed": 8,
    "windGust": null,
    "visibility": 10,
    "ceiling": null,
    "temp": 17.2,
    "dewpoint": 15,
    "altimeter": 29.99,
    "conditions": "",
    "observationTime": "2026-06-23T06:00:00.000Z"
  },
  "ORD": {
    "raw": "METAR KORD 230551Z 34005KT 10SM CLR 14/08 A3013 RMK AO2 SLP201 T01440083 10194 20144 402280144 53004",
    "icao": "KORD",
    "flightCategory": "VFR",
    "windDir": 340,
    "windSpeed": 5,
    "windGust": null,
    "visibility": 10,
    "ceiling": null,
    "temp": 14.4,
    "dewpoint": 8.3,
    "altimeter": 30.13,
    "conditions": "",
    "observationTime": "2026-06-23T06:00:00.000Z"
  }
}