{
  "LAX": {
    "raw": "METAR KLAX 150553Z 24005KT 10SM CLR 21/17 A2991 RMK AO2 SLP126 T02060167 10244 20206 51012 $",
    "icao": "KLAX",
    "flightCategory": "VFR",
    "windDir": 240,
    "windSpeed": 5,
    "windGust": null,
    "visibility": 10,
    "ceiling": null,
    "temp": 20.6,
    "dewpoint": 16.7,
    "altimeter": 29.91,
    "conditions": "",
    "observationTime": "2026-07-15T06:00:00.000Z"
  },
  "ORD": {
    "raw": "METAR KORD 150551Z 26005KT 10SM CLR 28/23 A3010 RMK AO2 SLP186 T02780233 10339 20272 403560233 58001 $",
    "icao": "KORD",
    "flightCategory": "VFR",
    "windDir": 260,
    "windSpeed": 5,
    "windGust": null,
    "visibility": 10,
    "ceiling": null,
    "temp": 27.8,
    "dewpoint": 23.3,
    "altimeter": 30.1,
    "conditions": "",
    "observationTime": "2026-07-15T06:00:00.000Z"
  },
  "LHR": {
    "raw": "METAR EGLL 150520Z AUTO 04009KT 360V090 9999 NCD 18/15 Q1023",
    "icao": "EGLL",
    "flightCategory": "VFR",
    "windDir": 40,
    "windSpeed": 9,
    "windGust": null,
    "visibility": 6,
    "ceiling": null,
    "temp": 18,
    "dewpoint": 15,
    "altimeter": 30.21,
    "conditions": "",
    "observationTime": "2026-07-15T05:20:00.000Z"
  },
  "SYD": {
    "raw": "METAR YSSY 150500Z 20016KT CAVOK 16/07 Q1032",
    "icao": "YSSY",
    "flightCategory": "VFR",
    "windDir": 200,
    "windSpeed": 16,
    "windGust": null,
    "visibility": 6,
    "ceiling": null,
    "temp": 16,
    "dewpoint": 7,
    "altimeter": 30.47,
    "conditions": "",
    "observationTime": "2026-07-15T05:00:00.000Z"
  }
}