{
  "LAX": {
    "raw": "METAR KLAX 251353Z 19006KT 10SM SCT017 BKN028 BKN037 BKN200 15/11 A2990 RMK AO2 SLP122 T01500106 $",
    "icao": "KLAX",
    "flightCategory": "MVFR",
    "windDir": 190,
    "windSpeed": 6,
    "windGust": null,
    "visibility": 10,
    "ceiling": 2800,
    "temp": 15,
    "dewpoint": 10.6,
    "altimeter": 29.9,
    "conditions": "",
    "observationTime": "2026-04-25T14:00:00.000Z"
  },
  "ORD": {
    "raw": "SPECI KORD 251308Z 03012KT 6SM -DZ BR OVC007 08/07 A2998 RMK AO2 P0000 T00830067",
    "icao": "KORD",
    "flightCategory": "IFR",
    "windDir": 30,
    "windSpeed": 12,
    "windGust": null,
    "visibility": 6,
    "ceiling": 700,
    "temp": 8.3,
    "dewpoint": 6.7,
    "altimeter": 29.98,
    "conditions": "-DZ BR",
    "observationTime": "2026-04-25T13:08:00.000Z"
  },
  "LHR": {
    "raw": "METAR EGLL 251320Z COR AUTO VRB03KT 9999 NCD 20/M05 Q1021 NOSIG",
    "icao": "EGLL",
    "flightCategory": "VFR",
    "windDir": null,
    "windSpeed": 3,
    "windGust": null,
    "visibility": 6,
    "ceiling": null,
    "temp": 20,
    "dewpoint": -5,
    "altimeter": 30.15,
    "conditions": "",
    "observationTime": "2026-04-25T13:20:00.000Z"
  },
  "SYD": {
    "raw": "METAR YSSY 251300Z AUTO 31007KT 9999 // NCD 19/14 Q1027",
    "icao": "YSSY",
    "flightCategory": "VFR",
    "windDir": 310,
    "windSpeed": 7,
    "windGust": null,
    "visibility": 6,
    "ceiling": null,
    "temp": 19,
    "dewpoint": 14,
    "altimeter": 30.33,
    "conditions": "",
    "observationTime": "2026-04-25T13:00:00.000Z"
  }
}