{
  "LAS": {
    "raw": "METAR KLAS 300656Z 18005KT 10SM CLR 29/M04 A2974 RMK AO2 SLP045 T02891044",
    "icao": "KLAS",
    "flightCategory": "VFR",
    "windDir": 180,
    "windSpeed": 5,
    "windGust": null,
    "visibility": 10,
    "ceiling": null,
    "temp": 28.9,
    "dewpoint": -4.4,
    "altimeter": 29.74,
    "conditions": "",
    "observationTime": "2026-06-30T07:00:00.000Z"
  },
  "LAX": {
    "raw": "METAR KLAX 300653Z 24006KT 10SM FEW016 BKN022 18/14 A2993 RMK AO2 SLP134 T01830139 $",
    "icao": "KLAX",
    "flightCategory": "MVFR",
    "windDir": 240,
    "windSpeed": 6,
    "windGust": null,
    "visibility": 10,
    "ceiling": 2200,
    "temp": 18.3,
    "dewpoint": 13.9,
    "altimeter": 29.93,
    "conditions": "",
    "observationTime": "2026-06-30T07:00:00.000Z"
  },
  "ORD": {
    "raw": "METAR KORD 300651Z 21009KT 10SM CLR 28/24 A2990 RMK AO2 SLP118 T02780239 $",
    "icao": "KORD",
    "flightCategory": "VFR",
    "windDir": 210,
    "windSpeed": 9,
    "windGust": null,
    "visibility": 10,
    "ceiling": null,
    "temp": 27.8,
    "dewpoint": 23.9,
    "altimeter": 29.9,
    "conditions": "",
    "observationTime": "2026-06-30T07:00:00.000Z"
  },
  "LHR": {
    "raw": "METAR EGLL 300620Z AUTO 23005KT 190V270 9999 NCD 17/12 Q1023",
    "icao": "EGLL",
    "flightCategory": "VFR",
    "windDir": 230,
    "windSpeed": 5,
    "windGust": null,
    "visibility": 6,
    "ceiling": null,
    "temp": 17,
    "dewpoint": 12,
    "altimeter": 30.21,
    "conditions": "",
    "observationTime": "2026-06-30T06:20:00.000Z"
  },
  "SYD": {
    "raw": "METAR YSSY 300630Z AUTO 02012KT 9999 // FEW115 19/12 Q1018",
    "icao": "YSSY",
    "flightCategory": "VFR",
    "windDir": 20,
    "windSpeed": 12,
    "windGust": null,
    "visibility": 6,
    "ceiling": null,
    "temp": 19,
    "dewpoint": 12,
    "altimeter": 30.06,
    "conditions": "",
    "observationTime": "2026-06-30T06:30:00.000Z"
  }
}