{
  "LAS": {
    "raw": "METAR KLAS 040856Z 21008KT 10SM CLR 29/M07 A2983 RMK AO2 SLP068 T02941067 58002 $",
    "icao": "KLAS",
    "flightCategory": "VFR",
    "windDir": 210,
    "windSpeed": 8,
    "windGust": null,
    "visibility": 10,
    "ceiling": null,
    "temp": 29.4,
    "dewpoint": -6.7,
    "altimeter": 29.83,
    "conditions": "",
    "observationTime": "2026-06-04T09:00:00.000Z"
  },
  "LAX": {
    "raw": "METAR KLAX 040853Z 13007KT 9SM FEW005 FEW008 OVC010 17/14 A2989 RMK AO2 SLP119 T01720144 58010 $",
    "icao": "KLAX",
    "flightCategory": "MVFR",
    "windDir": 130,
    "windSpeed": 7,
    "windGust": null,
    "visibility": 9,
    "ceiling": 1000,
    "temp": 17.2,
    "dewpoint": 14.4,
    "altimeter": 29.89,
    "conditions": "",
    "observationTime": "2026-06-04T09:00:00.000Z"
  },
  "ORD": {
    "raw": "METAR KORD 040851Z 22006KT 10SM BKN250 18/09 A3016 RMK AO2 SLP209 T01830089 50002 $",
    "icao": "KORD",
    "flightCategory": "VFR",
    "windDir": 220,
    "windSpeed": 6,
    "windGust": null,
    "visibility": 10,
    "ceiling": 25000,
    "temp": 18.3,
    "dewpoint": 8.9,
    "altimeter": 30.16,
    "conditions": "",
    "observationTime": "2026-06-04T09:00:00.000Z"
  },
  "LHR": {
    "raw": "METAR EGLL 040820Z AUTO 24017KT 9999 SCT024 BKN031 BKN037 16/10 Q0996",
    "icao": "EGLL",
    "flightCategory": "VFR",
    "windDir": 240,
    "windSpeed": 17,
    "windGust": null,
    "visibility": 6,
    "ceiling": 3100,
    "temp": 16,
    "dewpoint": 10,
    "altimeter": 29.41,
    "conditions": "",
    "observationTime": "2026-06-04T08:20:00.000Z"
  },
  "SYD": {
    "raw": "METAR YSSY 040830Z AUTO 29011KT 9999 // NCD 16/06 Q1002",
    "icao": "YSSY",
    "flightCategory": "VFR",
    "windDir": 290,
    "windSpeed": 11,
    "windGust": null,
    "visibility": 6,
    "ceiling": null,
    "temp": 16,
    "dewpoint": 6,
    "altimeter": 29.59,
    "conditions": "",
    "observationTime": "2026-06-04T08:30:00.000Z"
  }
}