{
  "LHR": {
    "raw": "METAR EGLL 211750Z AUTO 21009KT 160V250 9999 NCD 23/13 Q1025",
    "icao": "EGLL",
    "flightCategory": "VFR",
    "windDir": 210,
    "windSpeed": 9,
    "windGust": null,
    "visibility": 6,
    "ceiling": null,
    "temp": 23,
    "dewpoint": 13,
    "altimeter": 30.27,
    "conditions": "",
    "observationTime": "2026-05-21T18:00:00.000Z"
  },
  "SYD": {
    "raw": "METAR YSSY 211730Z AUTO 24011KT 9999 // SCT037 BKN043 14/13 Q1026",
    "icao": "YSSY",
    "flightCategory": "VFR",
    "windDir": 240,
    "windSpeed": 11,
    "windGust": null,
    "visibility": 6,
    "ceiling": 4300,
    "temp": 14,
    "dewpoint": 13,
    "altimeter": 30.3,
    "conditions": "",
    "observationTime": "2026-05-21T17:30:00.000Z"
  },
  "LAS": {
    "raw": "METAR KLAS 211756Z VRB03KT 10SM FEW250 28/M09 A2989 RMK AO2 SLP098 T02831094 10289 20189 58004",
    "icao": "KLAS",
    "flightCategory": "VFR",
    "windDir": null,
    "windSpeed": 3,
    "windGust": null,
    "visibility": 10,
    "ceiling": null,
    "temp": 28.3,
    "dewpoint": -9.4,
    "altimeter": 29.89,
    "conditions": "",
    "observationTime": "2026-05-21T18:00:00.000Z"
  },
  "LAX": {
    "raw": "METAR KLAX 211753Z COR 26012KT 9SM FEW012 21/16 A2990 RMK AO2 SLP125 T02110156 10228 20161 51004 $",
    "icao": "KLAX",
    "flightCategory": "VFR",
    "windDir": 260,
    "windSpeed": 12,
    "windGust": null,
    "visibility": 9,
    "ceiling": null,
    "temp": 21.1,
    "dewpoint": 15.6,
    "altimeter": 29.9,
    "conditions": "",
    "observationTime": "2026-05-21T18:00:00.000Z"
  },
  "ORD": {
    "raw": "METAR KORD 211751Z 04010KT 10SM SCT150 OVC250 13/06 A3029 RMK AO2 SLP260 T01280061 10133 20094 53002",
    "icao": "KORD",
    "flightCategory": "VFR",
    "windDir": 40,
    "windSpeed": 10,
    "windGust": null,
    "visibility": 10,
    "ceiling": 25000,
    "temp": 12.8,
    "dewpoint": 6.1,
    "altimeter": 30.29,
    "conditions": "",
    "observationTime": "2026-05-21T18:00:00.000Z"
  }
}