{
  "SYD": {
    "raw": "METAR YSSY 131530Z AUTO 36007KT 9999 // NCD 10/05 Q1020",
    "icao": "YSSY",
    "flightCategory": "VFR",
    "windDir": 360,
    "windSpeed": 7,
    "windGust": null,
    "visibility": 6,
    "ceiling": null,
    "temp": 10,
    "dewpoint": 5,
    "altimeter": 30.12,
    "conditions": "",
    "observationTime": "2026-07-13T15:30:00.000Z"
  },
  "LAS": {
    "raw": "METAR KLAS 131556Z 20009KT 10SM FEW070 BKN100 OVC150 33/11 A3001 RMK AO2 SLP128 T03330111 $",
    "icao": "KLAS",
    "flightCategory": "VFR",
    "windDir": 200,
    "windSpeed": 9,
    "windGust": null,
    "visibility": 10,
    "ceiling": 10000,
    "temp": 33.3,
    "dewpoint": 11.1,
    "altimeter": 30.01,
    "conditions": "",
    "observationTime": "2026-07-13T16:00:00.000Z"
  },
  "LAX": {
    "raw": "METAR KLAX 131553Z 25005KT 9SM FEW017 SCT095 BKN160 BKN250 21/18 A2997 RMK AO2 SLP146 T02110178 $",
    "icao": "KLAX",
    "flightCategory": "VFR",
    "windDir": 250,
    "windSpeed": 5,
    "windGust": null,
    "visibility": 9,
    "ceiling": 16000,
    "temp": 21.1,
    "dewpoint": 17.8,
    "altimeter": 29.97,
    "conditions": "",
    "observationTime": "2026-07-13T16:00:00.000Z"
  },
  "ORD": {
    "raw": "METAR KORD 131551Z 32007KT 10SM FEW100 FEW170 SCT250 30/17 A3020 RMK AO2 SLP220 T03000172",
    "icao": "KORD",
    "flightCategory": "VFR",
    "windDir": 320,
    "windSpeed": 7,
    "windGust": null,
    "visibility": 10,
    "ceiling": null,
    "temp": 30,
    "dewpoint": 17.2,
    "altimeter": 30.2,
    "conditions": "",
    "observationTime": "2026-07-13T16:00:00.000Z"
  },
  "LHR": {
    "raw": "METAR EGLL 131520Z AUTO 06015KT 030V090 9999 NCD 28/13 Q1020",
    "icao": "EGLL",
    "flightCategory": "VFR",
    "windDir": 60,
    "windSpeed": 15,
    "windGust": null,
    "visibility": 6,
    "ceiling": null,
    "temp": 28,
    "dewpoint": 13,
    "altimeter": 30.12,
    "conditions": "",
    "observationTime": "2026-07-13T15:20:00.000Z"
  }
}