{
  "SYD": {
    "raw": "METAR YSSY 111900Z AUTO 27006KT 9999 // NCD 13/02 Q1010",
    "icao": "YSSY",
    "flightCategory": "VFR",
    "windDir": 270,
    "windSpeed": 6,
    "windGust": null,
    "visibility": 6,
    "ceiling": null,
    "temp": 13,
    "dewpoint": 2,
    "altimeter": 29.83,
    "conditions": "",
    "observationTime": "2026-04-11T19:00:00.000Z"
  },
  "LHR": {
    "raw": "METAR EGLL 111850Z COR AUTO 22016KT 190V250 9999 NCD 10/M00 Q1008 NOSIG",
    "icao": "EGLL",
    "flightCategory": "VFR",
    "windDir": 220,
    "windSpeed": 16,
    "windGust": null,
    "visibility": 6,
    "ceiling": null,
    "temp": 10,
    "dewpoint": 0,
    "altimeter": 29.77,
    "conditions": "",
    "observationTime": "2026-04-11T19:00:00.000Z"
  },
  "LAS": {
    "raw": "METAR KLAS 111856Z 21017G26KT 10SM FEW150 SCT250 23/M04 A2988 RMK AO2 PK WND 21026/1854 SLP100 T02281039",
    "icao": "KLAS",
    "flightCategory": "VFR",
    "windDir": 210,
    "windSpeed": 17,
    "windGust": 26,
    "visibility": 10,
    "ceiling": null,
    "temp": 22.8,
    "dewpoint": -3.9,
    "altimeter": 29.88,
    "conditions": "",
    "observationTime": "2026-04-11T19:00:00.000Z"
  },
  "LAX": {
    "raw": "METAR KLAX 111853Z 27011G21KT 10SM FEW034 SCT060 SCT085 20/12 A3003 RMK AO2 SLP167 T02000122 $",
    "icao": "KLAX",
    "flightCategory": "VFR",
    "windDir": 270,
    "windSpeed": 11,
    "windGust": 21,
    "visibility": 10,
    "ceiling": null,
    "temp": 20,
    "dewpoint": 12.2,
    "altimeter": 30.03,
    "conditions": "",
    "observationTime": "2026-04-11T19:00:00.000Z"
  },
  "ORD": {
    "raw": "METAR KORD 111851Z 11011KT 10SM BKN100 BKN250 12/02 A3036 RMK AO2 SLP284 T01220022 $",
    "icao": "KORD",
    "flightCategory": "VFR",
    "windDir": 110,
    "windSpeed": 11,
    "windGust": null,
    "visibility": 10,
    "ceiling": 10000,
    "temp": 12.2,
    "dewpoint": 2.2,
    "altimeter": 30.36,
    "conditions": "",
    "observationTime": "2026-04-11T19:00:00.000Z"
  }
}