{
  "SYD": {
    "raw": "METAR YSSY 101800Z AUTO 36007KT 9999 -RA OVC100 17/15 Q1028",
    "icao": "YSSY",
    "flightCategory": "VFR",
    "windDir": 360,
    "windSpeed": 7,
    "windGust": null,
    "visibility": 6,
    "ceiling": 10000,
    "temp": 17,
    "dewpoint": 15,
    "altimeter": 30.36,
    "conditions": "-RA",
    "observationTime": "2026-06-10T18:00:00.000Z"
  },
  "LHR": {
    "raw": "METAR EGLL 101750Z AUTO 28011KT 250V320 9999 -RA FEW041/// //////CB 16/07 Q1016",
    "icao": "EGLL",
    "flightCategory": "VFR",
    "windDir": 280,
    "windSpeed": 11,
    "windGust": null,
    "visibility": 6,
    "ceiling": null,
    "temp": 16,
    "dewpoint": 7,
    "altimeter": 30,
    "conditions": "-RA",
    "observationTime": "2026-06-10T18:00:00.000Z"
  },
  "LAS": {
    "raw": "METAR KLAS 101756Z 35004KT 10SM CLR 34/02 A2987 RMK AO2 SLP083 T03440022 10344 20256 58001",
    "icao": "KLAS",
    "flightCategory": "VFR",
    "windDir": 350,
    "windSpeed": 4,
    "windGust": null,
    "visibility": 10,
    "ceiling": null,
    "temp": 34.4,
    "dewpoint": 2.2,
    "altimeter": 29.87,
    "conditions": "",
    "observationTime": "2026-06-10T18:00:00.000Z"
  },
  "LAX": {
    "raw": "METAR KLAX 101753Z 27007KT 10SM FEW022 23/16 A2985 RMK AO2 SLP105 T02280161 10228 20172 58002",
    "icao": "KLAX",
    "flightCategory": "VFR",
    "windDir": 270,
    "windSpeed": 7,
    "windGust": null,
    "visibility": 10,
    "ceiling": null,
    "temp": 22.8,
    "dewpoint": 16.1,
    "altimeter": 29.85,
    "conditions": "",
    "observationTime": "2026-06-10T18:00:00.000Z"
  },
  "ORD": {
    "raw": "METAR KORD 101751Z 20012KT 10SM BKN032 BKN300 32/23 A2971 RMK AO2 SLP056 T03170233 10317 20250 58019",
    "icao": "KORD",
    "flightCategory": "VFR",
    "windDir": 200,
    "windSpeed": 12,
    "windGust": null,
    "visibility": 10,
    "ceiling": 3200,
    "temp": 31.7,
    "dewpoint": 23.3,
    "altimeter": 29.71,
    "conditions": "",
    "observationTime": "2026-06-10T18:00:00.000Z"
  }
}