{
  "LAS": {
    "raw": "METAR KLAS 170056Z 17013G33KT 10SM FEW120 FEW180 BKN220 39/16 A2974 RMK AO2 PK WND 13033/0048 LTG DSNT S SLP036 CB DSNT N-E-S T03940156 $",
    "icao": "KLAS",
    "flightCategory": "VFR",
    "windDir": 170,
    "windSpeed": 13,
    "windGust": 33,
    "visibility": 10,
    "ceiling": 22000,
    "temp": 39.4,
    "dewpoint": 15.6,
    "altimeter": 29.74,
    "conditions": "",
    "observationTime": "2026-07-17T01:00:00.000Z"
  },
  "LAX": {
    "raw": "METAR KLAX 170053Z 24008KT 10SM FEW010 FEW150 24/19 A2978 RMK AO2 SLP083 T02390189 $",
    "icao": "KLAX",
    "flightCategory": "VFR",
    "windDir": 240,
    "windSpeed": 8,
    "windGust": null,
    "visibility": 10,
    "ceiling": null,
    "temp": 23.9,
    "dewpoint": 18.9,
    "altimeter": 29.78,
    "conditions": "",
    "observationTime": "2026-07-17T01:00:00.000Z"
  },
  "ORD": {
    "raw": "METAR KORD 170051Z 10006KT 3/4SM R10L/5000V5500FT FU VV015 28/13 A3003 RMK AO2 SLP165 T02830133",
    "icao": "KORD",
    "flightCategory": "LIFR",
    "windDir": 100,
    "windSpeed": 6,
    "windGust": null,
    "visibility": 0.75,
    "ceiling": 1500,
    "temp": 28.3,
    "dewpoint": 13.3,
    "altimeter": 30.03,
    "conditions": "FU",
    "observationTime": "2026-07-17T01:00:00.000Z"
  },
  "LHR": {
    "raw": "METAR EGLL 170020Z AUTO 03004KT 350V060 9999 NCD 19/12 Q1017",
    "icao": "EGLL",
    "flightCategory": "VFR",
    "windDir": 30,
    "windSpeed": 4,
    "windGust": null,
    "visibility": 6,
    "ceiling": null,
    "temp": 19,
    "dewpoint": 12,
    "altimeter": 30.03,
    "conditions": "",
    "observationTime": "2026-07-17T00:20:00.000Z"
  },
  "SYD": {
    "raw": "METAR YSSY 170000Z AUTO 23009KT 9999 // FEW009 OVC056 OVC064 15/14 Q1034",
    "icao": "YSSY",
    "flightCategory": "VFR",
    "windDir": 230,
    "windSpeed": 9,
    "windGust": null,
    "visibility": 6,
    "ceiling": 5600,
    "temp": 15,
    "dewpoint": 14,
    "altimeter": 30.53,
    "conditions": "",
    "observationTime": "2026-07-17T00:00:00.000Z"
  }
}