{
  "SYD": {
    "raw": "SPECI YSSY 261825Z AUTO 01005KT 0800 R34L/0600V1100U FG OVC001 17/17 Q1017",
    "icao": "YSSY",
    "flightCategory": "LIFR",
    "windDir": 10,
    "windSpeed": 5,
    "windGust": null,
    "visibility": 0.5,
    "ceiling": 100,
    "temp": 17,
    "dewpoint": 17,
    "altimeter": 30.03,
    "conditions": "FG",
    "observationTime": "2026-05-26T18:25:00.000Z"
  },
  "LAS": {
    "raw": "METAR KLAS 261856Z 20019G31KT 7SM BKN250 31/M02 A2962 RMK AO2 PK WND 21031/1855 SLP002 T03061017",
    "icao": "KLAS",
    "flightCategory": "VFR",
    "windDir": 200,
    "windSpeed": 19,
    "windGust": 31,
    "visibility": 7,
    "ceiling": 25000,
    "temp": 30.6,
    "dewpoint": -1.7,
    "altimeter": 29.62,
    "conditions": "",
    "observationTime": "2026-05-26T19:00:00.000Z"
  },
  "LAX": {
    "raw": "SPECI KLAX 261807Z 22011KT 10SM SCT025 OVC031 17/11 A2988 RMK AO2 T01720106 $",
    "icao": "KLAX",
    "flightCategory": "VFR",
    "windDir": 220,
    "windSpeed": 11,
    "windGust": null,
    "visibility": 10,
    "ceiling": 3100,
    "temp": 17.2,
    "dewpoint": 10.6,
    "altimeter": 29.88,
    "conditions": "",
    "observationTime": "2026-05-26T18:07:00.000Z"
  },
  "ORD": {
    "raw": "METAR KORD 261851Z 11006KT 10SM OVC250 28/09 A3002 RMK AO2 SLP159 T02830089",
    "icao": "KORD",
    "flightCategory": "VFR",
    "windDir": 110,
    "windSpeed": 6,
    "windGust": null,
    "visibility": 10,
    "ceiling": 25000,
    "temp": 28.3,
    "dewpoint": 8.9,
    "altimeter": 30.02,
    "conditions": "",
    "observationTime": "2026-05-26T19:00:00.000Z"
  },
  "LHR": {
    "raw": "METAR EGLL 261820Z AUTO 20013KT 170V230 9999 NCD 31/12 Q1023",
    "icao": "EGLL",
    "flightCategory": "VFR",
    "windDir": 200,
    "windSpeed": 13,
    "windGust": null,
    "visibility": 6,
    "ceiling": null,
    "temp": 31,
    "dewpoint": 12,
    "altimeter": 30.21,
    "conditions": "",
    "observationTime": "2026-05-26T18:20:00.000Z"
  }
}