{
  "LAX": {
    "raw": "METAR KLAX 150153Z 26013KT 10SM FEW060 17/12 A3002 RMK AO2 SLP166 T01720117",
    "icao": "KLAX",
    "flightCategory": "VFR",
    "windDir": 260,
    "windSpeed": 13,
    "windGust": null,
    "visibility": 10,
    "ceiling": null,
    "temp": 17.2,
    "dewpoint": 11.7,
    "altimeter": 30.02,
    "conditions": "",
    "observationTime": "2026-04-15T02:00:00.000Z"
  },
  "ORD": {
    "raw": "METAR KORD 150151Z 20011G23KT 10SM FEW044 BKN150 OVC250 26/18 A2966 RMK AO2 SLP040 CONS LTGICCCCA DSNT NW-N CB DSNT NW-N MOV E T02610183",
    "icao": "KORD",
    "flightCategory": "VFR",
    "windDir": 200,
    "windSpeed": 11,
    "windGust": 23,
    "visibility": 10,
    "ceiling": 15000,
    "temp": 26.1,
    "dewpoint": 18.3,
    "altimeter": 29.66,
    "conditions": "",
    "observationTime": "2026-04-15T02:00:00.000Z"
  },
  "LHR": {
    "raw": "METAR EGLL 150120Z COR AUTO 18008KT 9999 OVC013 13/10 Q1017 NOSIG",
    "icao": "EGLL",
    "flightCategory": "MVFR",
    "windDir": 180,
    "windSpeed": 8,
    "windGust": null,
    "visibility": 6,
    "ceiling": 1300,
    "temp": 13,
    "dewpoint": 10,
    "altimeter": 30.03,
    "conditions": "",
    "observationTime": "2026-04-15T01:20:00.000Z"
  },
  "SYD": {
    "raw": "METAR YSSY 150100Z 25010KT CAVOK 23/11 Q1019",
    "icao": "YSSY",
    "flightCategory": "VFR",
    "windDir": 250,
    "windSpeed": 10,
    "windGust": null,
    "visibility": 6,
    "ceiling": null,
    "temp": 23,
    "dewpoint": 11,
    "altimeter": 30.09,
    "conditions": "",
    "observationTime": "2026-04-15T01:00:00.000Z"
  }
}