{
  "LAS": {
    "raw": "METAR KLAS 201656Z 08008KT 10SM CLR 24/M10 A3001 RMK AO2 SLP141 T02441100",
    "icao": "KLAS",
    "flightCategory": "VFR",
    "windDir": 80,
    "windSpeed": 8,
    "windGust": null,
    "visibility": 10,
    "ceiling": null,
    "temp": 24.4,
    "dewpoint": -10,
    "altimeter": 30.01,
    "conditions": "",
    "observationTime": "2026-05-20T17:00:00.000Z"
  },
  "LAX": {
    "raw": "METAR KLAX 201653Z 00000KT 9SM CLR 24/11 A2991 RMK AO2 SLP128 T02440106",
    "icao": "KLAX",
    "flightCategory": "VFR",
    "windDir": 0,
    "windSpeed": 0,
    "windGust": null,
    "visibility": 9,
    "ceiling": null,
    "temp": 24.4,
    "dewpoint": 10.6,
    "altimeter": 29.91,
    "conditions": "",
    "observationTime": "2026-05-20T17:00:00.000Z"
  },
  "ORD": {
    "raw": "METAR KORD 201651Z 05015G22KT 10SM R10L/0500VP6000FT SCT040 BKN210 BKN250 14/06 A3025 RMK AO2 SLP245 T01440056",
    "icao": "KORD",
    "flightCategory": "VFR",
    "windDir": 50,
    "windSpeed": 15,
    "windGust": 22,
    "visibility": 10,
    "ceiling": 21000,
    "temp": 14.4,
    "dewpoint": 5.6,
    "altimeter": 30.25,
    "conditions": "",
    "observationTime": "2026-05-20T17:00:00.000Z"
  },
  "LHR": {
    "raw": "METAR EGLL 201620Z AUTO 27016KT 9999 -RADZ FEW025/// SCT033/// BKN042/// //////CB 16/13 Q1021",
    "icao": "EGLL",
    "flightCategory": "VFR",
    "windDir": 270,
    "windSpeed": 16,
    "windGust": null,
    "visibility": 6,
    "ceiling": 4200,
    "temp": 16,
    "dewpoint": 13,
    "altimeter": 30.15,
    "conditions": "-RA -DZ",
    "observationTime": "2026-05-20T16:20:00.000Z"
  },
  "SYD": {
    "raw": "METAR YSSY 201630Z AUTO 26013KT 9999 // BKN039 OVC046 14/08 Q1023",
    "icao": "YSSY",
    "flightCategory": "VFR",
    "windDir": 260,
    "windSpeed": 13,
    "windGust": null,
    "visibility": 6,
    "ceiling": 3900,
    "temp": 14,
    "dewpoint": 8,
    "altimeter": 30.21,
    "conditions": "",
    "observationTime": "2026-05-20T16:30:00.000Z"
  }
}