{
  "LAS": {
    "raw": "METAR KLAS 191556Z 00000KT 10SM FEW200 BKN250 19/M16 A2998 RMK AO2 SLP137 T01941161",
    "icao": "KLAS",
    "flightCategory": "VFR",
    "windDir": 0,
    "windSpeed": 0,
    "windGust": null,
    "visibility": 10,
    "ceiling": 25000,
    "temp": 19.4,
    "dewpoint": -16.1,
    "altimeter": 29.98,
    "conditions": "",
    "observationTime": "2026-04-19T16:00:00.000Z"
  },
  "LAX": {
    "raw": "SPECI KLAX 191506Z COR 25003KT 10SM FEW006 FEW190 SCT220 BKN280 18/12 A2990 RMK AO2 T01780122 $",
    "icao": "KLAX",
    "flightCategory": "VFR",
    "windDir": 250,
    "windSpeed": 3,
    "windGust": null,
    "visibility": 10,
    "ceiling": 28000,
    "temp": 17.8,
    "dewpoint": 12.2,
    "altimeter": 29.9,
    "conditions": "",
    "observationTime": "2026-04-19T15:06:00.000Z"
  },
  "ORD": {
    "raw": "METAR KORD 191551Z 29012G24KT 10SM FEW075 SCT100 BKN250 09/M05 A3010 RMK AO2 PK WND 28027/1537 SLP196 T00891050 $",
    "icao": "KORD",
    "flightCategory": "VFR",
    "windDir": 290,
    "windSpeed": 12,
    "windGust": 24,
    "visibility": 10,
    "ceiling": 25000,
    "temp": 8.9,
    "dewpoint": -5,
    "altimeter": 30.1,
    "conditions": "",
    "observationTime": "2026-04-19T16:00:00.000Z"
  },
  "LHR": {
    "raw": "METAR EGLL 191520Z COR AUTO 33007KT 290V020 9999 NCD 14/M01 Q1024 NOSIG",
    "icao": "EGLL",
    "flightCategory": "VFR",
    "windDir": 330,
    "windSpeed": 7,
    "windGust": null,
    "visibility": 6,
    "ceiling": null,
    "temp": 14,
    "dewpoint": -1,
    "altimeter": 30.24,
    "conditions": "",
    "observationTime": "2026-04-19T15:20:00.000Z"
  },
  "SYD": {
    "raw": "METAR YSSY 191530Z AUTO 31008KT 9999 // NCD 12/08 Q1022",
    "icao": "YSSY",
    "flightCategory": "VFR",
    "windDir": 310,
    "windSpeed": 8,
    "windGust": null,
    "visibility": 6,
    "ceiling": null,
    "temp": 12,
    "dewpoint": 8,
    "altimeter": 30.18,
    "conditions": "",
    "observationTime": "2026-04-19T15:30:00.000Z"
  }
}