{
  "SYD": {
    "raw": "METAR YSSY 250800Z AUTO 18004KT 8000 // FEW017 OVC038 19/18 Q1020",
    "icao": "YSSY",
    "flightCategory": "MVFR",
    "windDir": 180,
    "windSpeed": 4,
    "windGust": null,
    "visibility": 4.97,
    "ceiling": 3800,
    "temp": 19,
    "dewpoint": 18,
    "altimeter": 30.12,
    "conditions": "",
    "observationTime": "2026-05-25T08:00:00.000Z"
  },
  "LHR": {
    "raw": "METAR EGLL 250750Z AUTO 11003KT 060V140 9999 NCD 25/16 Q1031",
    "icao": "EGLL",
    "flightCategory": "VFR",
    "windDir": 110,
    "windSpeed": 3,
    "windGust": null,
    "visibility": 6,
    "ceiling": null,
    "temp": 25,
    "dewpoint": 16,
    "altimeter": 30.45,
    "conditions": "",
    "observationTime": "2026-05-25T08:00:00.000Z"
  },
  "LAS": {
    "raw": "METAR KLAS 250756Z 17004KT 10SM FEW250 25/M06 A2986 RMK AO2 SLP084 T02501056 403440228",
    "icao": "KLAS",
    "flightCategory": "VFR",
    "windDir": 170,
    "windSpeed": 4,
    "windGust": null,
    "visibility": 10,
    "ceiling": null,
    "temp": 25,
    "dewpoint": -5.6,
    "altimeter": 29.86,
    "conditions": "",
    "observationTime": "2026-05-25T08:00:00.000Z"
  },
  "LAX": {
    "raw": "METAR KLAX 250753Z 26013KT 10SM CLR 16/12 A2998 RMK AO2 SLP150 T01610117 402000156 $",
    "icao": "KLAX",
    "flightCategory": "VFR",
    "windDir": 260,
    "windSpeed": 13,
    "windGust": null,
    "visibility": 10,
    "ceiling": null,
    "temp": 16.1,
    "dewpoint": 11.7,
    "altimeter": 29.98,
    "conditions": "",
    "observationTime": "2026-05-25T08:00:00.000Z"
  },
  "ORD": {
    "raw": "METAR KORD 250751Z 19004KT 9SM CLR 16/13 A3009 RMK AO2 SLP186 T01560128 $",
    "icao": "KORD",
    "flightCategory": "VFR",
    "windDir": 190,
    "windSpeed": 4,
    "windGust": null,
    "visibility": 9,
    "ceiling": null,
    "temp": 15.6,
    "dewpoint": 12.8,
    "altimeter": 30.09,
    "conditions": "",
    "observationTime": "2026-05-25T08:00:00.000Z"
  }
}