{
  "SYD": {
    "raw": "METAR YSSY 270800Z AUTO 21008KT 9999 // SCT019 BKN027 BKN100 14/13 Q1029",
    "icao": "YSSY",
    "flightCategory": "MVFR",
    "windDir": 210,
    "windSpeed": 8,
    "windGust": null,
    "visibility": 6,
    "ceiling": 2700,
    "temp": 14,
    "dewpoint": 13,
    "altimeter": 30.39,
    "conditions": "",
    "observationTime": "2026-06-27T08:00:00.000Z"
  },
  "LHR": {
    "raw": "METAR EGLL 270750Z AUTO VRB04KT 9999 NCD 24/17 Q1018",
    "icao": "EGLL",
    "flightCategory": "VFR",
    "windDir": null,
    "windSpeed": 4,
    "windGust": null,
    "visibility": 6,
    "ceiling": null,
    "temp": 24,
    "dewpoint": 17,
    "altimeter": 30.06,
    "conditions": "",
    "observationTime": "2026-06-27T08:00:00.000Z"
  },
  "LAS": {
    "raw": "METAR KLAS 270756Z 24026G34KT 10SM FEW220 28/04 A2971 RMK AO2 PK WND 24034/0756 SLP027 T02830044 403940272",
    "icao": "KLAS",
    "flightCategory": "VFR",
    "windDir": 240,
    "windSpeed": 26,
    "windGust": 34,
    "visibility": 10,
    "ceiling": null,
    "temp": 28.3,
    "dewpoint": 4.4,
    "altimeter": 29.71,
    "conditions": "",
    "observationTime": "2026-06-27T08:00:00.000Z"
  },
  "LAX": {
    "raw": "METAR KLAX 270753Z 00000KT 10SM BKN019 18/14 A2994 RMK AO2 SLP137 T01780139 402280167",
    "icao": "KLAX",
    "flightCategory": "MVFR",
    "windDir": 0,
    "windSpeed": 0,
    "windGust": null,
    "visibility": 10,
    "ceiling": 1900,
    "temp": 17.8,
    "dewpoint": 13.9,
    "altimeter": 29.94,
    "conditions": "",
    "observationTime": "2026-06-27T08:00:00.000Z"
  },
  "ORD": {
    "raw": "METAR KORD 270751Z 02005KT 10SM OVC060 16/14 A3000 RMK AO2 SLP156 T01610144 $",
    "icao": "KORD",
    "flightCategory": "VFR",
    "windDir": 20,
    "windSpeed": 5,
    "windGust": null,
    "visibility": 10,
    "ceiling": 6000,
    "temp": 16.1,
    "dewpoint": 14.4,
    "altimeter": 30,
    "conditions": "",
    "observationTime": "2026-06-27T08:00:00.000Z"
  }
}