{
  "SYD": {
    "raw": "METAR YSSY 110730Z AUTO 17010KT 9999 // SCT016 BKN098 18/16 Q1030",
    "icao": "YSSY",
    "flightCategory": "VFR",
    "windDir": 170,
    "windSpeed": 10,
    "windGust": null,
    "visibility": 6,
    "ceiling": 9800,
    "temp": 18,
    "dewpoint": 16,
    "altimeter": 30.42,
    "conditions": "",
    "observationTime": "2026-06-11T07:30:00.000Z"
  },
  "LAS": {
    "raw": "METAR KLAS 110756Z 21007KT 10SM CLR 32/01 A2974 RMK AO2 SLP037 T03220006 404110256",
    "icao": "KLAS",
    "flightCategory": "VFR",
    "windDir": 210,
    "windSpeed": 7,
    "windGust": null,
    "visibility": 10,
    "ceiling": null,
    "temp": 32.2,
    "dewpoint": 0.6,
    "altimeter": 29.74,
    "conditions": "",
    "observationTime": "2026-06-11T08:00:00.000Z"
  },
  "LAX": {
    "raw": "SPECI KLAX 110736Z 15006KT 10SM BKN011 19/17 A2982 RMK AO2 T01940167",
    "icao": "KLAX",
    "flightCategory": "MVFR",
    "windDir": 150,
    "windSpeed": 6,
    "windGust": null,
    "visibility": 10,
    "ceiling": 1100,
    "temp": 19.4,
    "dewpoint": 16.7,
    "altimeter": 29.82,
    "conditions": "",
    "observationTime": "2026-06-11T07:36:00.000Z"
  },
  "ORD": {
    "raw": "METAR KORD 110751Z 21014G23KT 10SM SCT010 BKN080 BKN120 OVC160 19/18 A2973 RMK AO2 RAE50 TSE04 SLP061 P0001 T01940178 $",
    "icao": "KORD",
    "flightCategory": "VFR",
    "windDir": 210,
    "windSpeed": 14,
    "windGust": 23,
    "visibility": 10,
    "ceiling": 8000,
    "temp": 19.4,
    "dewpoint": 17.8,
    "altimeter": 29.73,
    "conditions": "",
    "observationTime": "2026-06-11T08:00:00.000Z"
  },
  "LHR": {
    "raw": "METAR EGLL 110750Z AUTO 25010KT 210V270 9999 -RA NCD 13/10 Q1020",
    "icao": "EGLL",
    "flightCategory": "VFR",
    "windDir": 250,
    "windSpeed": 10,
    "windGust": null,
    "visibility": 6,
    "ceiling": null,
    "temp": 13,
    "dewpoint": 10,
    "altimeter": 30.12,
    "conditions": "-RA",
    "observationTime": "2026-06-11T08:00:00.000Z"
  }
}