{
  "LAS": {
    "raw": "METAR KLAS 021456Z 31004KT 10SM FEW250 28/M01 A2996 RMK AO2 SLP116 T02781011 51018 $",
    "icao": "KLAS",
    "flightCategory": "VFR",
    "windDir": 310,
    "windSpeed": 4,
    "windGust": null,
    "visibility": 10,
    "ceiling": null,
    "temp": 27.8,
    "dewpoint": -1.1,
    "altimeter": 29.96,
    "conditions": "",
    "observationTime": "2026-06-02T15:00:00.000Z"
  },
  "LAX": {
    "raw": "METAR KLAX 021453Z VRB03KT 6SM HZ OVC016 17/14 A3000 RMK AO2 SLP158 T01720139 53006 $",
    "icao": "KLAX",
    "flightCategory": "MVFR",
    "windDir": null,
    "windSpeed": 3,
    "windGust": null,
    "visibility": 6,
    "ceiling": 1600,
    "temp": 17.2,
    "dewpoint": 13.9,
    "altimeter": 30,
    "conditions": "HZ",
    "observationTime": "2026-06-02T15:00:00.000Z"
  },
  "ORD": {
    "raw": "METAR KORD 021451Z 08010KT 10SM FEW300 21/08 A3033 RMK AO2 SLP269 T02060078 51013",
    "icao": "KORD",
    "flightCategory": "VFR",
    "windDir": 80,
    "windSpeed": 10,
    "windGust": null,
    "visibility": 10,
    "ceiling": null,
    "temp": 20.6,
    "dewpoint": 7.8,
    "altimeter": 30.33,
    "conditions": "",
    "observationTime": "2026-06-02T15:00:00.000Z"
  },
  "LHR": {
    "raw": "METAR EGLL 021420Z 22011KT 190V260 9999 FEW040CB 15/11 Q1004 RETSRA",
    "icao": "EGLL",
    "flightCategory": "VFR",
    "windDir": 220,
    "windSpeed": 11,
    "windGust": null,
    "visibility": 6,
    "ceiling": null,
    "temp": 15,
    "dewpoint": 11,
    "altimeter": 29.65,
    "conditions": "",
    "observationTime": "2026-06-02T14:20:00.000Z"
  },
  "SYD": {
    "raw": "METAR YSSY 021430Z AUTO 35010KT 9999 // SCT071 15/09 Q1001",
    "icao": "YSSY",
    "flightCategory": "VFR",
    "windDir": 350,
    "windSpeed": 10,
    "windGust": null,
    "visibility": 6,
    "ceiling": null,
    "temp": 15,
    "dewpoint": 9,
    "altimeter": 29.56,
    "conditions": "",
    "observationTime": "2026-06-02T14:30:00.000Z"
  }
}