{
  "LHR": {
    "raw": "METAR EGLL 121120Z AUTO 21018G30KT 190V250 9000 -RA SCT043/// //////TCU 12/05 Q1010 NOSIG",
    "icao": "EGLL",
    "flightCategory": "VFR",
    "windDir": 210,
    "windSpeed": 18,
    "windGust": 30,
    "visibility": 5.59,
    "ceiling": null,
    "temp": 12,
    "dewpoint": 5,
    "altimeter": 29.83,
    "conditions": "-RA",
    "observationTime": "2026-04-12T11:20:00.000Z"
  },
  "SYD": {
    "raw": "METAR YSSY 121100Z AUTO 27014KT 9999 // NCD 16/02 Q1014",
    "icao": "YSSY",
    "flightCategory": "VFR",
    "windDir": 270,
    "windSpeed": 14,
    "windGust": null,
    "visibility": 6,
    "ceiling": null,
    "temp": 16,
    "dewpoint": 2,
    "altimeter": 29.94,
    "conditions": "",
    "observationTime": "2026-04-12T11:00:00.000Z"
  },
  "LAS": {
    "raw": "METAR KLAS 121056Z 20005KT 10SM CLR 17/00 A2978 RMK AO2 PK WND 22026/1024 SLP068 T01670000",
    "icao": "KLAS",
    "flightCategory": "VFR",
    "windDir": 200,
    "windSpeed": 5,
    "windGust": null,
    "visibility": 10,
    "ceiling": null,
    "temp": 16.7,
    "dewpoint": 0,
    "altimeter": 29.78,
    "conditions": "",
    "observationTime": "2026-04-12T11:00:00.000Z"
  }
}