{
  "SYD": {
    "raw": "METAR YSSY 020900Z AUTO 03010KT 9999 // NCD 22/15 Q1023",
    "icao": "YSSY",
    "flightCategory": "VFR",
    "windDir": 30,
    "windSpeed": 10,
    "windGust": null,
    "visibility": 6,
    "ceiling": null,
    "temp": 22,
    "dewpoint": 15,
    "altimeter": 30.21,
    "conditions": "",
    "observationTime": "2026-05-02T09:00:00.000Z"
  },
  "LHR": {
    "raw": "METAR EGLL 020850Z COR AUTO VRB03KT 9999 NCD 13/09 Q1018 NOSIG",
    "icao": "EGLL",
    "flightCategory": "VFR",
    "windDir": null,
    "windSpeed": 3,
    "windGust": null,
    "visibility": 6,
    "ceiling": null,
    "temp": 13,
    "dewpoint": 9,
    "altimeter": 30.06,
    "conditions": "",
    "observationTime": "2026-05-02T09:00:00.000Z"
  },
  "LAS": {
    "raw": "METAR KLAS 020856Z VRB03KT 10SM BKN200 22/M11 A2999 RMK AO2 SLP134 T02171111 50008",
    "icao": "KLAS",
    "flightCategory": "VFR",
    "windDir": null,
    "windSpeed": 3,
    "windGust": null,
    "visibility": 10,
    "ceiling": 20000,
    "temp": 21.7,
    "dewpoint": -11.1,
    "altimeter": 29.99,
    "conditions": "",
    "observationTime": "2026-05-02T09:00:00.000Z"
  },
  "LAX": {
    "raw": "METAR KLAX 020853Z 27005KT 7SM OVC008 15/13 A2993 RMK AO2 SLP135 T01500133 58004",
    "icao": "KLAX",
    "flightCategory": "IFR",
    "windDir": 270,
    "windSpeed": 5,
    "windGust": null,
    "visibility": 7,
    "ceiling": 800,
    "temp": 15,
    "dewpoint": 13.3,
    "altimeter": 29.93,
    "conditions": "",
    "observationTime": "2026-05-02T09:00:00.000Z"
  },
  "ORD": {
    "raw": "METAR KORD 020851Z 00000KT 10SM CLR 01/M02 A3009 RMK AO2 SLP195 T00061017 55005 $",
    "icao": "KORD",
    "flightCategory": "VFR",
    "windDir": 0,
    "windSpeed": 0,
    "windGust": null,
    "visibility": 10,
    "ceiling": null,
    "temp": 0.6,
    "dewpoint": -1.7,
    "altimeter": 30.09,
    "conditions": "",
    "observationTime": "2026-05-02T09:00:00.000Z"
  }
}