{
  "SYD": {
    "raw": "SPECI YSSY 050327Z 16015KT 9999 VCSH FEW030 SCT040 BKN065 20/15 Q1024",
    "icao": "YSSY",
    "flightCategory": "VFR",
    "windDir": 160,
    "windSpeed": 15,
    "windGust": null,
    "visibility": 6,
    "ceiling": 6500,
    "temp": 20,
    "dewpoint": 15,
    "altimeter": 30.24,
    "conditions": "VCSH",
    "observationTime": "2026-04-05T03:27:00.000Z"
  },
  "LAS": {
    "raw": "METAR KLAS 050356Z 32005KT 10SM FEW250 23/M13 A3009 RMK AO2 SLP175 T02281133",
    "icao": "KLAS",
    "flightCategory": "VFR",
    "windDir": 320,
    "windSpeed": 5,
    "windGust": null,
    "visibility": 10,
    "ceiling": null,
    "temp": 22.8,
    "dewpoint": -13.3,
    "altimeter": 30.09,
    "conditions": "",
    "observationTime": "2026-04-05T04:00:00.000Z"
  },
  "LAX": {
    "raw": "METAR KLAX 050353Z 25009KT 10SM SCT240 20/10 A2997 RMK AO2 SLP145 T02000100 $",
    "icao": "KLAX",
    "flightCategory": "VFR",
    "windDir": 250,
    "windSpeed": 9,
    "windGust": null,
    "visibility": 10,
    "ceiling": null,
    "temp": 20,
    "dewpoint": 10,
    "altimeter": 29.97,
    "conditions": "",
    "observationTime": "2026-04-05T04:00:00.000Z"
  },
  "ORD": {
    "raw": "METAR KORD 050351Z 26010G19KT 10SM BKN031 BKN047 05/M01 A2995 RMK AO2 PK WND 27026/0257 RAB37E45 SLP147 SHRA AT AP P0000 T00501006 $",
    "icao": "KORD",
    "flightCategory": "VFR",
    "windDir": 260,
    "windSpeed": 10,
    "windGust": 19,
    "visibility": 10,
    "ceiling": 3100,
    "temp": 5,
    "dewpoint": -0.6,
    "altimeter": 29.95,
    "conditions": "",
    "observationTime": "2026-04-05T04:00:00.000Z"
  },
  "LHR": {
    "raw": "METAR EGLL 050320Z COR AUTO 25018KT 9999 FEW036 10/03 Q1010 NOSIG",
    "icao": "EGLL",
    "flightCategory": "VFR",
    "windDir": 250,
    "windSpeed": 18,
    "windGust": null,
    "visibility": 6,
    "ceiling": null,
    "temp": 10,
    "dewpoint": 3,
    "altimeter": 29.83,
    "conditions": "",
    "observationTime": "2026-04-05T03:20:00.000Z"
  }
}