{
  "ORD": {
    "raw": "METAR KORD 021651Z 10006KT 2SM BR OVC004 10/09 A2976 RMK AO2 LTG DSNT W RAE13B21E45 TSB19E39 SLP082 P0007 T01000094",
    "icao": "KORD",
    "flightCategory": "LIFR",
    "windDir": 100,
    "windSpeed": 6,
    "windGust": null,
    "visibility": 2,
    "ceiling": 400,
    "temp": 10,
    "dewpoint": 9.4,
    "altimeter": 29.76,
    "conditions": "BR",
    "observationTime": "2026-04-02T17:00:00.000Z"
  },
  "SYD": {
    "raw": "METAR YSSY 021700Z AUTO 34005KT 320V020 9999 // NCD 20/18 Q1020",
    "icao": "YSSY",
    "flightCategory": "VFR",
    "windDir": 340,
    "windSpeed": 5,
    "windGust": null,
    "visibility": 6,
    "ceiling": null,
    "temp": 20,
    "dewpoint": 18,
    "altimeter": 30.12,
    "conditions": "",
    "observationTime": "2026-04-02T17:00:00.000Z"
  },
  "LHR": {
    "raw": "METAR EGLL 021650Z COR AUTO 24006KT 210V270 9999 NCD 12/00 Q1020 NOSIG",
    "icao": "EGLL",
    "flightCategory": "VFR",
    "windDir": 240,
    "windSpeed": 6,
    "windGust": null,
    "visibility": 6,
    "ceiling": null,
    "temp": 12,
    "dewpoint": 0,
    "altimeter": 30.12,
    "conditions": "",
    "observationTime": "2026-04-02T17:00:00.000Z"
  },
  "LAS": {
    "raw": "METAR KLAS 021656Z 20012G21KT 10SM FEW070 BKN200 17/04 A2982 RMK AO2 PK WND 21026/1605 SLP083 T01720044",
    "icao": "KLAS",
    "flightCategory": "VFR",
    "windDir": 200,
    "windSpeed": 12,
    "windGust": 21,
    "visibility": 10,
    "ceiling": 20000,
    "temp": 17.2,
    "dewpoint": 4.4,
    "altimeter": 29.82,
    "conditions": "",
    "observationTime": "2026-04-02T17:00:00.000Z"
  },
  "LAX": {
    "raw": "METAR KLAX 021653Z 27008KT 10SM FEW010 BKN033 BKN160 BKN250 17/12 A3000 RMK AO2 SLP159 T01670117 $",
    "icao": "KLAX",
    "flightCategory": "VFR",
    "windDir": 270,
    "windSpeed": 8,
    "windGust": null,
    "visibility": 10,
    "ceiling": 3300,
    "temp": 16.7,
    "dewpoint": 11.7,
    "altimeter": 30,
    "conditions": "",
    "observationTime": "2026-04-02T17:00:00.000Z"
  }
}