{
  "ORD": {
    "raw": "METAR KORD 231151Z 02009G17KT 10SM BKN008 OVC019 13/11 A2998 RMK AO2 SLP150 60000 T01280106 10161 20122 53002",
    "icao": "KORD",
    "flightCategory": "IFR",
    "windDir": 20,
    "windSpeed": 9,
    "windGust": 17,
    "visibility": 10,
    "ceiling": 800,
    "temp": 12.8,
    "dewpoint": 10.6,
    "altimeter": 29.98,
    "conditions": "",
    "observationTime": "2026-05-23T12:00:00.000Z"
  },
  "SYD": {
    "raw": "METAR YSSY 231200Z AUTO 27006KT 9999 // FEW028 SCT036 BKN041 17/16 Q1026",
    "icao": "YSSY",
    "flightCategory": "VFR",
    "windDir": 270,
    "windSpeed": 6,
    "windGust": null,
    "visibility": 6,
    "ceiling": 4100,
    "temp": 17,
    "dewpoint": 16,
    "altimeter": 30.3,
    "conditions": "",
    "observationTime": "2026-05-23T12:00:00.000Z"
  },
  "LHR": {
    "raw": "METAR EGLL 231150Z AUTO VRB05KT 9999 NCD 27/13 Q1027",
    "icao": "EGLL",
    "flightCategory": "VFR",
    "windDir": null,
    "windSpeed": 5,
    "windGust": null,
    "visibility": 6,
    "ceiling": null,
    "temp": 27,
    "dewpoint": 13,
    "altimeter": 30.33,
    "conditions": "",
    "observationTime": "2026-05-23T12:00:00.000Z"
  },
  "LAS": {
    "raw": "METAR KLAS 231156Z 19008KT 10SM CLR 25/00 A2982 RMK AO2 SLP070 T02500000 10294 20244 53008",
    "icao": "KLAS",
    "flightCategory": "VFR",
    "windDir": 190,
    "windSpeed": 8,
    "windGust": null,
    "visibility": 10,
    "ceiling": null,
    "temp": 25,
    "dewpoint": 0,
    "altimeter": 29.82,
    "conditions": "",
    "observationTime": "2026-05-23T12:00:00.000Z"
  },
  "LAX": {
    "raw": "METAR KLAX 231153Z 19005KT 10SM OVC021 17/12 A2991 RMK AO2 SLP127 T01670122 10167 20156 57000",
    "icao": "KLAX",
    "flightCategory": "MVFR",
    "windDir": 190,
    "windSpeed": 5,
    "windGust": null,
    "visibility": 10,
    "ceiling": 2100,
    "temp": 16.7,
    "dewpoint": 12.2,
    "altimeter": 29.91,
    "conditions": "",
    "observationTime": "2026-05-23T12:00:00.000Z"
  }
}