{
  "SYD": {
    "raw": "METAR YSSY 080230Z 27017KT CAVOK 20/04 Q1016",
    "icao": "YSSY",
    "flightCategory": "VFR",
    "windDir": 270,
    "windSpeed": 17,
    "windGust": null,
    "visibility": 6,
    "ceiling": null,
    "temp": 20,
    "dewpoint": 4,
    "altimeter": 30,
    "conditions": "",
    "observationTime": "2026-05-08T02:30:00.000Z"
  },
  "LAS": {
    "raw": "METAR KLAS 080256Z 23006KT 10SM FEW250 32/M03 A2984 RMK AO2 SLP079 T03171028 55003",
    "icao": "KLAS",
    "flightCategory": "VFR",
    "windDir": 230,
    "windSpeed": 6,
    "windGust": null,
    "visibility": 10,
    "ceiling": null,
    "temp": 31.7,
    "dewpoint": -2.8,
    "altimeter": 29.84,
    "conditions": "",
    "observationTime": "2026-05-08T03:00:00.000Z"
  },
  "LAX": {
    "raw": "METAR KLAX 080253Z 27009KT 10SM SCT009 16/13 A2996 RMK AO2 SLP144 T01610133 53004",
    "icao": "KLAX",
    "flightCategory": "VFR",
    "windDir": 270,
    "windSpeed": 9,
    "windGust": null,
    "visibility": 10,
    "ceiling": null,
    "temp": 16.1,
    "dewpoint": 13.3,
    "altimeter": 29.96,
    "conditions": "",
    "observationTime": "2026-05-08T03:00:00.000Z"
  },
  "ORD": {
    "raw": "METAR KORD 080251Z 19004KT 10SM FEW070 12/04 A2983 RMK AO2 SLP103 T01170044 53012",
    "icao": "KORD",
    "flightCategory": "VFR",
    "windDir": 190,
    "windSpeed": 4,
    "windGust": null,
    "visibility": 10,
    "ceiling": null,
    "temp": 11.7,
    "dewpoint": 4.4,
    "altimeter": 29.83,
    "conditions": "",
    "observationTime": "2026-05-08T03:00:00.000Z"
  },
  "LHR": {
    "raw": "METAR EGLL 080220Z COR AUTO 07003KT 9999 NCD 08/06 Q1016 NOSIG",
    "icao": "EGLL",
    "flightCategory": "VFR",
    "windDir": 70,
    "windSpeed": 3,
    "windGust": null,
    "visibility": 6,
    "ceiling": null,
    "temp": 8,
    "dewpoint": 6,
    "altimeter": 30,
    "conditions": "",
    "observationTime": "2026-05-08T02:20:00.000Z"
  }
}