{
  "LHR": {
    "raw": "METAR EGLL 031750Z COR AUTO 24007KT 200V260 9999 SCT041 17/10 Q1009 NOSIG",
    "icao": "EGLL",
    "flightCategory": "VFR",
    "windDir": 240,
    "windSpeed": 7,
    "windGust": null,
    "visibility": 6,
    "ceiling": null,
    "temp": 17,
    "dewpoint": 10,
    "altimeter": 29.8,
    "conditions": "",
    "observationTime": "2026-05-03T18:00:00.000Z"
  },
  "SYD": {
    "raw": "SPECI YSSY 031750Z AUTO 04006KT 9999 // NCD 19/16 Q1015",
    "icao": "YSSY",
    "flightCategory": "VFR",
    "windDir": 40,
    "windSpeed": 6,
    "windGust": null,
    "visibility": 6,
    "ceiling": null,
    "temp": 19,
    "dewpoint": 16,
    "altimeter": 29.97,
    "conditions": "",
    "observationTime": "2026-05-03T17:50:00.000Z"
  },
  "LAS": {
    "raw": "METAR KLAS 031756Z VRB06KT 10SM FEW130 FEW220 27/M10 A2986 RMK AO2 SLP088 T02721100 10272 20172 58010",
    "icao": "KLAS",
    "flightCategory": "VFR",
    "windDir": null,
    "windSpeed": 6,
    "windGust": null,
    "visibility": 10,
    "ceiling": null,
    "temp": 27.2,
    "dewpoint": -10,
    "altimeter": 29.86,
    "conditions": "",
    "observationTime": "2026-05-03T18:00:00.000Z"
  },
  "LAX": {
    "raw": "METAR KLAX 031753Z VRB06G15KT 10SM FEW024 SCT031 OVC036 17/11 A2997 RMK AO2 SLP148 T01670106 10167 20150 51012",
    "icao": "KLAX",
    "flightCategory": "VFR",
    "windDir": null,
    "windSpeed": 6,
    "windGust": 15,
    "visibility": 10,
    "ceiling": 3600,
    "temp": 16.7,
    "dewpoint": 10.6,
    "altimeter": 29.97,
    "conditions": "",
    "observationTime": "2026-05-03T18:00:00.000Z"
  },
  "ORD": {
    "raw": "METAR KORD 031751Z 18013G25KT 10SM BKN090 BKN200 BKN250 13/04 A2985 RMK AO2 PK WND 20029/1702 SLP108 60000 T01280039 10133 20089 58021 $",
    "icao": "KORD",
    "flightCategory": "VFR",
    "windDir": 180,
    "windSpeed": 13,
    "windGust": 25,
    "visibility": 10,
    "ceiling": 9000,
    "temp": 12.8,
    "dewpoint": 3.9,
    "altimeter": 29.85,
    "conditions": "",
    "observationTime": "2026-05-03T18:00:00.000Z"
  }
}