{
  "LAS": {
    "raw": "METAR KLAS 010556Z 01013KT 10SM BKN140 24/M07 A2985 RMK AO2 SLP087 T02441067 10283 20244 51017",
    "icao": "KLAS",
    "flightCategory": "VFR",
    "windDir": 10,
    "windSpeed": 13,
    "windGust": null,
    "visibility": 10,
    "ceiling": 14000,
    "temp": 24.4,
    "dewpoint": -6.7,
    "altimeter": 29.85,
    "conditions": "",
    "observationTime": "2026-05-01T06:00:00.000Z"
  },
  "LAX": {
    "raw": "METAR KLAX 010553Z 18003KT 10SM FEW012 SCT016 16/13 A2992 RMK AO2 SLP131 T01610133 10183 20156 51014",
    "icao": "KLAX",
    "flightCategory": "VFR",
    "windDir": 180,
    "windSpeed": 3,
    "windGust": null,
    "visibility": 10,
    "ceiling": null,
    "temp": 16.1,
    "dewpoint": 13.3,
    "altimeter": 29.92,
    "conditions": "",
    "observationTime": "2026-05-01T06:00:00.000Z"
  },
  "ORD": {
    "raw": "METAR KORD 010551Z 06007KT 10SM BKN030 BKN042 OVC065 05/03 A2995 RMK AO2 RAE48 SLP147 P0007 60015 T00500033 10061 20050 401330028 58008",
    "icao": "KORD",
    "flightCategory": "MVFR",
    "windDir": 60,
    "windSpeed": 7,
    "windGust": null,
    "visibility": 10,
    "ceiling": 3000,
    "temp": 5,
    "dewpoint": 3.3,
    "altimeter": 29.95,
    "conditions": "",
    "observationTime": "2026-05-01T06:00:00.000Z"
  },
  "LHR": {
    "raw": "METAR EGLL 010520Z COR AUTO 07004KT 9999 NCD 10/03 Q1020 NOSIG",
    "icao": "EGLL",
    "flightCategory": "VFR",
    "windDir": 70,
    "windSpeed": 4,
    "windGust": null,
    "visibility": 6,
    "ceiling": null,
    "temp": 10,
    "dewpoint": 3,
    "altimeter": 30.12,
    "conditions": "",
    "observationTime": "2026-05-01T05:20:00.000Z"
  },
  "SYD": {
    "raw": "METAR YSSY 010530Z AUTO 05007KT 9999 // SCT072 23/13 Q1027",
    "icao": "YSSY",
    "flightCategory": "VFR",
    "windDir": 50,
    "windSpeed": 7,
    "windGust": null,
    "visibility": 6,
    "ceiling": null,
    "temp": 23,
    "dewpoint": 13,
    "altimeter": 30.33,
    "conditions": "",
    "observationTime": "2026-05-01T05:30:00.000Z"
  }
}