{
  "LAX": {
    "raw": "METAR KLAX 231053Z 00000KT 10SM OVC021 17/12 A2991 RMK AO2 SLP126 T01670122",
    "icao": "KLAX",
    "flightCategory": "MVFR",
    "windDir": 0,
    "windSpeed": 0,
    "windGust": null,
    "visibility": 10,
    "ceiling": 2100,
    "temp": 16.7,
    "dewpoint": 12.2,
    "altimeter": 29.91,
    "conditions": "",
    "observationTime": "2026-05-23T11:00:00.000Z"
  },
  "ORD": {
    "raw": "METAR KORD 231051Z 05007KT 10SM FEW016 BKN080 BKN250 13/11 A2996 RMK AO2 SLP145 T01280106",
    "icao": "KORD",
    "flightCategory": "VFR",
    "windDir": 50,
    "windSpeed": 7,
    "windGust": null,
    "visibility": 10,
    "ceiling": 8000,
    "temp": 12.8,
    "dewpoint": 10.6,
    "altimeter": 29.96,
    "conditions": "",
    "observationTime": "2026-05-23T11:00:00.000Z"
  },
  "LHR": {
    "raw": "METAR EGLL 231020Z AUTO VRB03KT 9999 NCD 25/14 Q1026",
    "icao": "EGLL",
    "flightCategory": "VFR",
    "windDir": null,
    "windSpeed": 3,
    "windGust": null,
    "visibility": 6,
    "ceiling": null,
    "temp": 25,
    "dewpoint": 14,
    "altimeter": 30.3,
    "conditions": "",
    "observationTime": "2026-05-23T10:20:00.000Z"
  },
  "SYD": {
    "raw": "METAR YSSY 231000Z AUTO 23007KT 9999 // FEW045 OVC071 17/16 Q1026",
    "icao": "YSSY",
    "flightCategory": "VFR",
    "windDir": 230,
    "windSpeed": 7,
    "windGust": null,
    "visibility": 6,
    "ceiling": 7100,
    "temp": 17,
    "dewpoint": 16,
    "altimeter": 30.3,
    "conditions": "",
    "observationTime": "2026-05-23T10:00:00.000Z"
  }
}