{
  "LAS": {
    "raw": "METAR KLAS 232056Z VRB04KT 10SM FEW250 23/M09 A2994 RMK AO2 SLP123 T02281089 58020",
    "icao": "KLAS",
    "flightCategory": "VFR",
    "windDir": null,
    "windSpeed": 4,
    "windGust": null,
    "visibility": 10,
    "ceiling": null,
    "temp": 22.8,
    "dewpoint": -8.9,
    "altimeter": 29.94,
    "conditions": "",
    "observationTime": "2026-04-23T21:00:00.000Z"
  },
  "LAX": {
    "raw": "METAR KLAX 232053Z 24014KT 10SM FEW095 FEW240 SCT290 21/11 A2996 RMK AO2 SLP145 T02060106 56015 $",
    "icao": "KLAX",
    "flightCategory": "VFR",
    "windDir": 240,
    "windSpeed": 14,
    "windGust": null,
    "visibility": 10,
    "ceiling": null,
    "temp": 20.6,
    "dewpoint": 10.6,
    "altimeter": 29.96,
    "conditions": "",
    "observationTime": "2026-04-23T21:00:00.000Z"
  },
  "ORD": {
    "raw": "METAR KORD 232051Z 21012G22KT 10SM SCT065 BKN300 27/12 A2976 RMK AO2 PK WND 18026/2032 SLP074 T02670117 58027",
    "icao": "KORD",
    "flightCategory": "VFR",
    "windDir": 210,
    "windSpeed": 12,
    "windGust": 22,
    "visibility": 10,
    "ceiling": 30000,
    "temp": 26.7,
    "dewpoint": 11.7,
    "altimeter": 29.76,
    "conditions": "",
    "observationTime": "2026-04-23T21:00:00.000Z"
  },
  "LHR": {
    "raw": "METAR EGLL 232020Z COR AUTO 10008KT 9999 NCD 10/05 Q1028 NOSIG",
    "icao": "EGLL",
    "flightCategory": "VFR",
    "windDir": 100,
    "windSpeed": 8,
    "windGust": null,
    "visibility": 6,
    "ceiling": null,
    "temp": 10,
    "dewpoint": 5,
    "altimeter": 30.36,
    "conditions": "",
    "observationTime": "2026-04-23T20:20:00.000Z"
  },
  "SYD": {
    "raw": "METAR YSSY 232030Z 30006KT 9999 FEW035 15/10 Q1031",
    "icao": "YSSY",
    "flightCategory": "VFR",
    "windDir": 300,
    "windSpeed": 6,
    "windGust": null,
    "visibility": 6,
    "ceiling": null,
    "temp": 15,
    "dewpoint": 10,
    "altimeter": 30.45,
    "conditions": "",
    "observationTime": "2026-04-23T20:30:00.000Z"
  }
}