{
  "LHR": {
    "raw": "METAR EGLL 102050Z COR AUTO 15009KT 9999 NCD 09/M00 Q1012 NOSIG",
    "icao": "EGLL",
    "flightCategory": "VFR",
    "windDir": 150,
    "windSpeed": 9,
    "windGust": null,
    "visibility": 6,
    "ceiling": null,
    "temp": 9,
    "dewpoint": 0,
    "altimeter": 29.88,
    "conditions": "",
    "observationTime": "2026-04-10T21:00:00.000Z"
  },
  "SYD": {
    "raw": "METAR YSSY 102030Z 26008KT CAVOK 19/11 Q1007",
    "icao": "YSSY",
    "flightCategory": "VFR",
    "windDir": 260,
    "windSpeed": 8,
    "windGust": null,
    "visibility": 6,
    "ceiling": null,
    "temp": 19,
    "dewpoint": 11,
    "altimeter": 29.74,
    "conditions": "",
    "observationTime": "2026-04-10T20:30:00.000Z"
  },
  "LAS": {
    "raw": "METAR KLAS 102056Z 23013G22KT 10SM FEW090 SCT250 27/02 A2986 RMK AO2 PK WND 24026/2004 SLP089 T02720022 58014",
    "icao": "KLAS",
    "flightCategory": "VFR",
    "windDir": 230,
    "windSpeed": 13,
    "windGust": 22,
    "visibility": 10,
    "ceiling": null,
    "temp": 27.2,
    "dewpoint": 2.2,
    "altimeter": 29.86,
    "conditions": "",
    "observationTime": "2026-04-10T21:00:00.000Z"
  },
  "LAX": {
    "raw": "METAR KLAX 102053Z 24010KT 10SM BKN013 BKN050 BKN100 19/13 A2997 RMK AO2 SLP148 T01940133 58010",
    "icao": "KLAX",
    "flightCategory": "MVFR",
    "windDir": 240,
    "windSpeed": 10,
    "windGust": null,
    "visibility": 10,
    "ceiling": 1300,
    "temp": 19.4,
    "dewpoint": 13.3,
    "altimeter": 29.97,
    "conditions": "",
    "observationTime": "2026-04-10T21:00:00.000Z"
  },
  "ORD": {
    "raw": "METAR KORD 102051Z 31006KT 10SM BKN024 BKN035 11/05 A3029 RMK AO2 SLP260 T01060050 51008",
    "icao": "KORD",
    "flightCategory": "MVFR",
    "windDir": 310,
    "windSpeed": 6,
    "windGust": null,
    "visibility": 10,
    "ceiling": 2400,
    "temp": 10.6,
    "dewpoint": 5,
    "altimeter": 30.29,
    "conditions": "",
    "observationTime": "2026-04-10T21:00:00.000Z"
  }
}