{
  "LAS": {
    "raw": "METAR KLAS 130156Z 19014G24KT 10SM SCT120 BKN220 37/M02 A2985 RMK AO2 SLP077 T03721017",
    "icao": "KLAS",
    "flightCategory": "VFR",
    "windDir": 190,
    "windSpeed": 14,
    "windGust": 24,
    "visibility": 10,
    "ceiling": 22000,
    "temp": 37.2,
    "dewpoint": -1.7,
    "altimeter": 29.85,
    "conditions": "",
    "observationTime": "2026-05-13T02:00:00.000Z"
  },
  "LAX": {
    "raw": "METAR KLAX 130153Z 28008KT 10SM FEW025 FEW250 17/12 A3001 RMK AO2 SLP162 T01720122",
    "icao": "KLAX",
    "flightCategory": "VFR",
    "windDir": 280,
    "windSpeed": 8,
    "windGust": null,
    "visibility": 10,
    "ceiling": null,
    "temp": 17.2,
    "dewpoint": 12.2,
    "altimeter": 30.01,
    "conditions": "",
    "observationTime": "2026-05-13T02:00:00.000Z"
  },
  "ORD": {
    "raw": "METAR KORD 130151Z 21010KT 10SM FEW090 SCT250 19/10 A2976 RMK AO2 SLP077 T01940100 $",
    "icao": "KORD",
    "flightCategory": "VFR",
    "windDir": 210,
    "windSpeed": 10,
    "windGust": null,
    "visibility": 10,
    "ceiling": null,
    "temp": 19.4,
    "dewpoint": 10,
    "altimeter": 29.76,
    "conditions": "",
    "observationTime": "2026-05-13T02:00:00.000Z"
  },
  "LHR": {
    "raw": "METAR EGLL 130120Z COR AUTO 24008KT 9999 NCD 08/02 Q1008 NOSIG",
    "icao": "EGLL",
    "flightCategory": "VFR",
    "windDir": 240,
    "windSpeed": 8,
    "windGust": null,
    "visibility": 6,
    "ceiling": null,
    "temp": 8,
    "dewpoint": 2,
    "altimeter": 29.77,
    "conditions": "",
    "observationTime": "2026-05-13T01:20:00.000Z"
  },
  "HND": {
    "raw": "METAR RJTT 130130Z 08004KT 9999 FEW025 22/14 Q1009 NOSIG",
    "icao": "RJTT",
    "flightCategory": "VFR",
    "windDir": 80,
    "windSpeed": 4,
    "windGust": null,
    "visibility": 6,
    "ceiling": null,
    "temp": 22,
    "dewpoint": 14,
    "altimeter": 29.8,
    "conditions": "",
    "observationTime": "2026-05-13T01:30:00.000Z"
  }
}