{
  "SYD": {
    "raw": "METAR YSSY 250630Z AUTO 04013KT 9999 // NCD 23/14 Q1027",
    "icao": "YSSY",
    "flightCategory": "VFR",
    "windDir": 40,
    "windSpeed": 13,
    "windGust": null,
    "visibility": 6,
    "ceiling": null,
    "temp": 23,
    "dewpoint": 14,
    "altimeter": 30.33,
    "conditions": "",
    "observationTime": "2026-04-25T06:30:00.000Z"
  },
  "LAS": {
    "raw": "METAR KLAS 250656Z 22009KT 10SM CLR 22/M03 A2972 RMK AO2 SLP044 T02171033",
    "icao": "KLAS",
    "flightCategory": "VFR",
    "windDir": 220,
    "windSpeed": 9,
    "windGust": null,
    "visibility": 10,
    "ceiling": null,
    "temp": 21.7,
    "dewpoint": -3.3,
    "altimeter": 29.72,
    "conditions": "",
    "observationTime": "2026-04-25T07:00:00.000Z"
  },
  "LAX": {
    "raw": "METAR KLAX 250653Z 22006KT 10SM FEW012 FEW220 SCT280 16/11 A2989 RMK AO2 SLP118 T01560111 $",
    "icao": "KLAX",
    "flightCategory": "VFR",
    "windDir": 220,
    "windSpeed": 6,
    "windGust": null,
    "visibility": 10,
    "ceiling": null,
    "temp": 15.6,
    "dewpoint": 11.1,
    "altimeter": 29.89,
    "conditions": "",
    "observationTime": "2026-04-25T07:00:00.000Z"
  },
  "ORD": {
    "raw": "SPECI KORD 250647Z 03009KT 10SM BKN009 09/06 A2987 RMK AO2",
    "icao": "KORD",
    "flightCategory": "IFR",
    "windDir": 30,
    "windSpeed": 9,
    "windGust": null,
    "visibility": 10,
    "ceiling": 900,
    "temp": 9,
    "dewpoint": 6,
    "altimeter": 29.87,
    "conditions": "",
    "observationTime": "2026-04-25T06:47:00.000Z"
  },
  "LHR": {
    "raw": "METAR EGLL 250620Z 13003KT 040V180 4000 1000E R27R/P1500N R27L/0275N HZ PRFG FEW001 04/03 Q1022 TEMPO 0500 FG BKN001",
    "icao": "EGLL",
    "flightCategory": "IFR",
    "windDir": 130,
    "windSpeed": 3,
    "windGust": null,
    "visibility": 2.49,
    "ceiling": null,
    "temp": 4,
    "dewpoint": 3,
    "altimeter": 30.18,
    "conditions": "PRFG HZ",
    "observationTime": "2026-04-25T06:20:00.000Z"
  }
}