{
  "LAS": {
    "raw": "METAR KLAS 280856Z 21004KT 10SM FEW250 22/M02 A2993 RMK AO2 SLP113 T02221022 58003",
    "icao": "KLAS",
    "flightCategory": "VFR",
    "windDir": 210,
    "windSpeed": 4,
    "windGust": null,
    "visibility": 10,
    "ceiling": null,
    "temp": 22.2,
    "dewpoint": -2.2,
    "altimeter": 29.93,
    "conditions": "",
    "observationTime": "2026-03-28T09:00:00.000Z"
  },
  "LAX": {
    "raw": "SPECI KLAX 280841Z 32005KT 8SM SCT010 15/13 A2999 RMK AO2 T01500133 $",
    "icao": "KLAX",
    "flightCategory": "VFR",
    "windDir": 320,
    "windSpeed": 5,
    "windGust": null,
    "visibility": 8,
    "ceiling": null,
    "temp": 15,
    "dewpoint": 13.3,
    "altimeter": 29.99,
    "conditions": "",
    "observationTime": "2026-03-28T08:41:00.000Z"
  },
  "ORD": {
    "raw": "METAR KORD 280851Z 34007KT 10SM CLR M02/M11 A3061 RMK AO2 SLP372 T10221106 53010",
    "icao": "KORD",
    "flightCategory": "VFR",
    "windDir": 340,
    "windSpeed": 7,
    "windGust": null,
    "visibility": 10,
    "ceiling": null,
    "temp": -2.2,
    "dewpoint": -10.6,
    "altimeter": 30.61,
    "conditions": "",
    "observationTime": "2026-03-28T09:00:00.000Z"
  },
  "LHR": {
    "raw": "METAR EGLL 280820Z COR AUTO 28011KT 9999 NCD 06/01 Q1024 NOSIG",
    "icao": "EGLL",
    "flightCategory": "VFR",
    "windDir": 280,
    "windSpeed": 11,
    "windGust": null,
    "visibility": 6,
    "ceiling": null,
    "temp": 6,
    "dewpoint": 1,
    "altimeter": 30.24,
    "conditions": "",
    "observationTime": "2026-03-28T08:20:00.000Z"
  }
}