{
  "SYD": {
    "raw": "METAR YSSY 211100Z AUTO 02005KT 9999 // NCD 16/12 Q1027",
    "icao": "YSSY",
    "flightCategory": "VFR",
    "windDir": 20,
    "windSpeed": 5,
    "windGust": null,
    "visibility": 6,
    "ceiling": null,
    "temp": 16,
    "dewpoint": 12,
    "altimeter": 30.33,
    "conditions": "",
    "observationTime": "2026-07-21T11:00:00.000Z"
  },
  "LHR": {
    "raw": "METAR EGLL 211120Z AUTO 02005KT 340V060 9999 BKN036 21/11 Q1029",
    "icao": "EGLL",
    "flightCategory": "VFR",
    "windDir": 20,
    "windSpeed": 5,
    "windGust": null,
    "visibility": 6,
    "ceiling": 3600,
    "temp": 21,
    "dewpoint": 11,
    "altimeter": 30.39,
    "conditions": "",
    "observationTime": "2026-07-21T11:20:00.000Z"
  },
  "LAS": {
    "raw": "METAR KLAS 211056Z 20004KT 10SM BKN180 BKN220 33/10 A2986 RMK AO2 SLP075 T03330100 $",
    "icao": "KLAS",
    "flightCategory": "VFR",
    "windDir": 200,
    "windSpeed": 4,
    "windGust": null,
    "visibility": 10,
    "ceiling": 18000,
    "temp": 33.3,
    "dewpoint": 10,
    "altimeter": 29.86,
    "conditions": "",
    "observationTime": "2026-07-21T11:00:00.000Z"
  }
}