{
  "LHR": {
    "raw": "METAR EGLL 131850Z COR AUTO 21006KT 160V260 9999 NCD 11/02 Q1014 NOSIG",
    "icao": "EGLL",
    "flightCategory": "VFR",
    "windDir": 210,
    "windSpeed": 6,
    "windGust": null,
    "visibility": 6,
    "ceiling": null,
    "temp": 11,
    "dewpoint": 2,
    "altimeter": 29.94,
    "conditions": "",
    "observationTime": "2026-04-13T19:00:00.000Z"
  },
  "SYD": {
    "raw": "METAR YSSY 131900Z AUTO 28011KT 9999 // NCD 14/08 Q1019",
    "icao": "YSSY",
    "flightCategory": "VFR",
    "windDir": 280,
    "windSpeed": 11,
    "windGust": null,
    "visibility": 6,
    "ceiling": null,
    "temp": 14,
    "dewpoint": 8,
    "altimeter": 30.09,
    "conditions": "",
    "observationTime": "2026-04-13T19:00:00.000Z"
  },
  "LAS": {
    "raw": "METAR KLAS 131856Z 20010G18KT 10SM FEW070 FEW100 SCT200 19/M02 A2994 RMK AO2 SLP124 T01891022",
    "icao": "KLAS",
    "flightCategory": "VFR",
    "windDir": 200,
    "windSpeed": 10,
    "windGust": 18,
    "visibility": 10,
    "ceiling": null,
    "temp": 18.9,
    "dewpoint": -2.2,
    "altimeter": 29.94,
    "conditions": "",
    "observationTime": "2026-04-13T19:00:00.000Z"
  },
  "LAX": {
    "raw": "METAR KLAX 131853Z 23011KT 10SM FEW025 FEW060 SCT100 17/09 A3007 RMK AO2 SLP182 T01720089 $",
    "icao": "KLAX",
    "flightCategory": "VFR",
    "windDir": 230,
    "windSpeed": 11,
    "windGust": null,
    "visibility": 10,
    "ceiling": null,
    "temp": 17.2,
    "dewpoint": 8.9,
    "altimeter": 30.07,
    "conditions": "",
    "observationTime": "2026-04-13T19:00:00.000Z"
  },
  "ORD": {
    "raw": "METAR KORD 131851Z 21011G17KT 10SM FEW022 SCT032 BKN170 BKN250 23/17 A2990 RMK AO2 SLP122 T02330172",
    "icao": "KORD",
    "flightCategory": "VFR",
    "windDir": 210,
    "windSpeed": 11,
    "windGust": 17,
    "visibility": 10,
    "ceiling": 17000,
    "temp": 23.3,
    "dewpoint": 17.2,
    "altimeter": 29.9,
    "conditions": "",
    "observationTime": "2026-04-13T19:00:00.000Z"
  }
}