{
  "SYD": {
    "raw": "METAR YSSY 151930Z AUTO 26009KT 9999 // SCT036 OVC050 11/07 Q1034",
    "icao": "YSSY",
    "flightCategory": "VFR",
    "windDir": 260,
    "windSpeed": 9,
    "windGust": null,
    "visibility": 6,
    "ceiling": 5000,
    "temp": 11,
    "dewpoint": 7,
    "altimeter": 30.53,
    "conditions": "",
    "observationTime": "2026-07-15T19:30:00.000Z"
  },
  "LAS": {
    "raw": "METAR KLAS 151956Z 11009KT 10SM FEW130 41/11 A2986 RMK AO2 SLP077 CB DSNT E T04110106",
    "icao": "KLAS",
    "flightCategory": "VFR",
    "windDir": 110,
    "windSpeed": 9,
    "windGust": null,
    "visibility": 10,
    "ceiling": null,
    "temp": 41.1,
    "dewpoint": 10.6,
    "altimeter": 29.86,
    "conditions": "",
    "observationTime": "2026-07-15T20:00:00.000Z"
  },
  "LAX": {
    "raw": "METAR KLAX 151953Z 26010KT 10SM FEW012 FEW025 27/18 A2986 RMK AO2 SLP109 T02670183 $",
    "icao": "KLAX",
    "flightCategory": "VFR",
    "windDir": 260,
    "windSpeed": 10,
    "windGust": null,
    "visibility": 10,
    "ceiling": null,
    "temp": 26.7,
    "dewpoint": 18.3,
    "altimeter": 29.86,
    "conditions": "",
    "observationTime": "2026-07-15T20:00:00.000Z"
  },
  "ORD": {
    "raw": "METAR KORD 151951Z 24008KT 10SM FEW050 BKN300 34/22 A3005 RMK AO2 SLP167 T03440217",
    "icao": "KORD",
    "flightCategory": "VFR",
    "windDir": 240,
    "windSpeed": 8,
    "windGust": null,
    "visibility": 10,
    "ceiling": 30000,
    "temp": 34.4,
    "dewpoint": 21.7,
    "altimeter": 30.05,
    "conditions": "",
    "observationTime": "2026-07-15T20:00:00.000Z"
  },
  "LHR": {
    "raw": "METAR EGLL 151920Z AUTO 10011KT 9999 NCD 24/13 Q1022",
    "icao": "EGLL",
    "flightCategory": "VFR",
    "windDir": 100,
    "windSpeed": 11,
    "windGust": null,
    "visibility": 6,
    "ceiling": null,
    "temp": 24,
    "dewpoint": 13,
    "altimeter": 30.18,
    "conditions": "",
    "observationTime": "2026-07-15T19:20:00.000Z"
  }
}