{
  "SYD": {
    "raw": "SPECI YSSY 261730Z AUTO 31004KT 2600 BR OVC001 17/17 Q1017",
    "icao": "YSSY",
    "flightCategory": "LIFR",
    "windDir": 310,
    "windSpeed": 4,
    "windGust": null,
    "visibility": 1.62,
    "ceiling": 100,
    "temp": 17,
    "dewpoint": 17,
    "altimeter": 30.03,
    "conditions": "BR",
    "observationTime": "2026-05-26T17:30:00.000Z"
  },
  "LAS": {
    "raw": "METAR KLAS 261756Z 20017G28KT 10SM BKN250 29/02 A2964 RMK AO2 PK WND 20032/1742 SLP010 T02890017 10294 20228 58011",
    "icao": "KLAS",
    "flightCategory": "VFR",
    "windDir": 200,
    "windSpeed": 17,
    "windGust": 28,
    "visibility": 10,
    "ceiling": 25000,
    "temp": 28.9,
    "dewpoint": 1.7,
    "altimeter": 29.64,
    "conditions": "",
    "observationTime": "2026-05-26T18:00:00.000Z"
  },
  "LAX": {
    "raw": "METAR KLAX 261753Z 22010KT 10SM SCT023 OVC027 17/11 A2989 RMK AO2 SLP119 T01720106 10183 20161 53001 $",
    "icao": "KLAX",
    "flightCategory": "MVFR",
    "windDir": 220,
    "windSpeed": 10,
    "windGust": null,
    "visibility": 10,
    "ceiling": 2700,
    "temp": 17.2,
    "dewpoint": 10.6,
    "altimeter": 29.89,
    "conditions": "",
    "observationTime": "2026-05-26T18:00:00.000Z"
  },
  "ORD": {
    "raw": "METAR KORD 261751Z 10004KT 10SM OVC250 28/08 A3003 RMK AO2 SLP166 T02780078 10278 20189 58012",
    "icao": "KORD",
    "flightCategory": "VFR",
    "windDir": 100,
    "windSpeed": 4,
    "windGust": null,
    "visibility": 10,
    "ceiling": 25000,
    "temp": 27.8,
    "dewpoint": 7.8,
    "altimeter": 30.03,
    "conditions": "",
    "observationTime": "2026-05-26T18:00:00.000Z"
  },
  "LHR": {
    "raw": "METAR EGLL 261720Z AUTO 19013KT 160V220 9999 NCD 32/13 Q1024",
    "icao": "EGLL",
    "flightCategory": "VFR",
    "windDir": 190,
    "windSpeed": 13,
    "windGust": null,
    "visibility": 6,
    "ceiling": null,
    "temp": 32,
    "dewpoint": 13,
    "altimeter": 30.24,
    "conditions": "",
    "observationTime": "2026-05-26T17:20:00.000Z"
  }
}