{
  "SYD": {
    "raw": "METAR YSSY 250100Z 23009KT 8000 -SHRA SCT008 BKN022 BKN035 15/13 Q1034",
    "icao": "YSSY",
    "flightCategory": "MVFR",
    "windDir": 230,
    "windSpeed": 9,
    "windGust": null,
    "visibility": 4.97,
    "ceiling": 2200,
    "temp": 15,
    "dewpoint": 13,
    "altimeter": 30.53,
    "conditions": "-SHRA",
    "observationTime": "2026-06-25T01:00:00.000Z"
  },
  "LHR": {
    "raw": "METAR EGLL 250050Z AUTO 10007KT 9999 NCD 23/19 Q1019",
    "icao": "EGLL",
    "flightCategory": "VFR",
    "windDir": 100,
    "windSpeed": 7,
    "windGust": null,
    "visibility": 6,
    "ceiling": null,
    "temp": 23,
    "dewpoint": 19,
    "altimeter": 30.09,
    "conditions": "",
    "observationTime": "2026-06-25T01:00:00.000Z"
  },
  "LAS": {
    "raw": "METAR KLAS 250056Z 10008KT 10SM FEW120 FEW200 36/12 A2985 RMK AO2 SLP075 T03610122",
    "icao": "KLAS",
    "flightCategory": "VFR",
    "windDir": 100,
    "windSpeed": 8,
    "windGust": null,
    "visibility": 10,
    "ceiling": null,
    "temp": 36.1,
    "dewpoint": 12.2,
    "altimeter": 29.85,
    "conditions": "",
    "observationTime": "2026-06-25T01:00:00.000Z"
  },
  "LAX": {
    "raw": "METAR KLAX 250053Z 24013KT 10SM SCT011 SCT060 19/14 A2994 RMK AO2 SLP138 T01940144 $",
    "icao": "KLAX",
    "flightCategory": "VFR",
    "windDir": 240,
    "windSpeed": 13,
    "windGust": null,
    "visibility": 10,
    "ceiling": null,
    "temp": 19.4,
    "dewpoint": 14.4,
    "altimeter": 29.94,
    "conditions": "",
    "observationTime": "2026-06-25T01:00:00.000Z"
  },
  "ORD": {
    "raw": "SPECI KORD 250049Z 18008KT 7SM -RA FEW030 SCT050 BKN090 BKN150 OVC250 19/17 A2989 RMK AO2 PK WND 28031/0000 RAB2354 TSE43 OCNL LTGIC DSNT E-S CB DSNT E-S MOV SE P0069 $",
    "icao": "KORD",
    "flightCategory": "VFR",
    "windDir": 180,
    "windSpeed": 8,
    "windGust": null,
    "visibility": 7,
    "ceiling": 9000,
    "temp": 19,
    "dewpoint": 17,
    "altimeter": 29.89,
    "conditions": "-RA",
    "observationTime": "2026-06-25T00:49:00.000Z"
  }
}