{
  "LHR": {
    "raw": "METAR EGLL 162150Z AUTO 24012KT 9999 NCD 18/14 Q1016",
    "icao": "EGLL",
    "flightCategory": "VFR",
    "windDir": 240,
    "windSpeed": 12,
    "windGust": null,
    "visibility": 6,
    "ceiling": null,
    "temp": 18,
    "dewpoint": 14,
    "altimeter": 30,
    "conditions": "",
    "observationTime": "2026-06-16T22:00:00.000Z"
  },
  "SYD": {
    "raw": "METAR YSSY 162130Z 32009KT CAVOK 15/12 Q1028",
    "icao": "YSSY",
    "flightCategory": "VFR",
    "windDir": 320,
    "windSpeed": 9,
    "windGust": null,
    "visibility": 6,
    "ceiling": null,
    "temp": 15,
    "dewpoint": 12,
    "altimeter": 30.36,
    "conditions": "",
    "observationTime": "2026-06-16T21:30:00.000Z"
  },
  "LAS": {
    "raw": "METAR KLAS 162156Z COR 17007G20KT 10SM FEW130 SCT200 42/01 A2981 RMK AO2 SLP059 FU SCT200 T04170011",
    "icao": "KLAS",
    "flightCategory": "VFR",
    "windDir": 170,
    "windSpeed": 7,
    "windGust": 20,
    "visibility": 10,
    "ceiling": null,
    "temp": 41.7,
    "dewpoint": 1.1,
    "altimeter": 29.81,
    "conditions": "",
    "observationTime": "2026-06-16T22:00:00.000Z"
  },
  "LAX": {
    "raw": "METAR KLAX 162153Z 23014KT 10SM FEW012 SCT100 21/14 A2996 RMK AO2 SLP143 T02060144 $",
    "icao": "KLAX",
    "flightCategory": "VFR",
    "windDir": 230,
    "windSpeed": 14,
    "windGust": null,
    "visibility": 10,
    "ceiling": null,
    "temp": 20.6,
    "dewpoint": 14.4,
    "altimeter": 29.96,
    "conditions": "",
    "observationTime": "2026-06-16T22:00:00.000Z"
  },
  "ORD": {
    "raw": "METAR KORD 162151Z 27019G30KT 10SM FEW060 BKN070 BKN250 22/08 A2959 RMK AO2 PK WND 27034/2117 SLP016 T02220083",
    "icao": "KORD",
    "flightCategory": "VFR",
    "windDir": 270,
    "windSpeed": 19,
    "windGust": 30,
    "visibility": 10,
    "ceiling": 7000,
    "temp": 22.2,
    "dewpoint": 8.3,
    "altimeter": 29.59,
    "conditions": "",
    "observationTime": "2026-06-16T22:00:00.000Z"
  }
}