{
  "SYD": {
    "raw": "METAR YSSY 221030Z AUTO 23011KT 9999 // BKN074 14/08 Q1026",
    "icao": "YSSY",
    "flightCategory": "VFR",
    "windDir": 230,
    "windSpeed": 11,
    "windGust": null,
    "visibility": 6,
    "ceiling": 7400,
    "temp": 14,
    "dewpoint": 8,
    "altimeter": 30.3,
    "conditions": "",
    "observationTime": "2026-06-22T10:30:00.000Z"
  },
  "LAS": {
    "raw": "METAR KLAS 221056Z 19003KT 10SM CLR 27/M08 A2980 RMK SLP060 T02721078",
    "icao": "KLAS",
    "flightCategory": "VFR",
    "windDir": 190,
    "windSpeed": 3,
    "windGust": null,
    "visibility": 10,
    "ceiling": null,
    "temp": 27.2,
    "dewpoint": -7.8,
    "altimeter": 29.8,
    "conditions": "",
    "observationTime": "2026-06-22T11:00:00.000Z"
  },
  "LAX": {
    "raw": "SPECI KLAX 221050Z 27004KT 10SM FEW010 BKN012 17/14 A2989 RMK AO2 $",
    "icao": "KLAX",
    "flightCategory": "MVFR",
    "windDir": 270,
    "windSpeed": 4,
    "windGust": null,
    "visibility": 10,
    "ceiling": 1200,
    "temp": 17,
    "dewpoint": 14,
    "altimeter": 29.89,
    "conditions": "",
    "observationTime": "2026-06-22T10:50:00.000Z"
  },
  "ORD": {
    "raw": "SPECI KORD 221040Z 02010KT 10SM SCT010 BKN040 BKN120 OVC250 14/13 A2992 RMK AO2 T01440133 $",
    "icao": "KORD",
    "flightCategory": "VFR",
    "windDir": 20,
    "windSpeed": 10,
    "windGust": null,
    "visibility": 10,
    "ceiling": 4000,
    "temp": 14.4,
    "dewpoint": 13.3,
    "altimeter": 29.92,
    "conditions": "",
    "observationTime": "2026-06-22T10:40:00.000Z"
  },
  "LHR": {
    "raw": "METAR EGLL 221020Z AUTO 06010KT 020V080 9999 NCD 25/18 Q1026",
    "icao": "EGLL",
    "flightCategory": "VFR",
    "windDir": 60,
    "windSpeed": 10,
    "windGust": null,
    "visibility": 6,
    "ceiling": null,
    "temp": 25,
    "dewpoint": 18,
    "altimeter": 30.3,
    "conditions": "",
    "observationTime": "2026-06-22T10:20:00.000Z"
  }
}