{
  "LAS": {
    "raw": "METAR KLAS 020656Z 03008KT 10SM FEW200 23/M12 A2998 RMK AO2 SLP132 T02331117",
    "icao": "KLAS",
    "flightCategory": "VFR",
    "windDir": 30,
    "windSpeed": 8,
    "windGust": null,
    "visibility": 10,
    "ceiling": null,
    "temp": 23.3,
    "dewpoint": -11.7,
    "altimeter": 29.98,
    "conditions": "",
    "observationTime": "2026-05-02T07:00:00.000Z"
  },
  "LAX": {
    "raw": "METAR KLAX 020653Z 22004KT 9SM BKN010 15/13 A2995 RMK AO2 SLP141 T01500128",
    "icao": "KLAX",
    "flightCategory": "MVFR",
    "windDir": 220,
    "windSpeed": 4,
    "windGust": null,
    "visibility": 9,
    "ceiling": 1000,
    "temp": 15,
    "dewpoint": 12.8,
    "altimeter": 29.95,
    "conditions": "",
    "observationTime": "2026-05-02T07:00:00.000Z"
  },
  "ORD": {
    "raw": "METAR KORD 020651Z 28003KT 10SM FEW050 01/M02 A3010 RMK AO2 SLP196 T00111017 $",
    "icao": "KORD",
    "flightCategory": "VFR",
    "windDir": 280,
    "windSpeed": 3,
    "windGust": null,
    "visibility": 10,
    "ceiling": null,
    "temp": 1.1,
    "dewpoint": -1.7,
    "altimeter": 30.1,
    "conditions": "",
    "observationTime": "2026-05-02T07:00:00.000Z"
  },
  "LHR": {
    "raw": "METAR EGLL 020620Z AUTO 27004KT 210V300 6000 OVC004 10/09 Q1018 BECMG SCT004",
    "icao": "EGLL",
    "flightCategory": "LIFR",
    "windDir": 270,
    "windSpeed": 4,
    "windGust": null,
    "visibility": 3.73,
    "ceiling": 400,
    "temp": 10,
    "dewpoint": 9,
    "altimeter": 30.06,
    "conditions": "",
    "observationTime": "2026-05-02T06:20:00.000Z"
  },
  "SYD": {
    "raw": "METAR YSSY 020630Z AUTO 04013KT 9999 // NCD 23/17 Q1022",
    "icao": "YSSY",
    "flightCategory": "VFR",
    "windDir": 40,
    "windSpeed": 13,
    "windGust": null,
    "visibility": 6,
    "ceiling": null,
    "temp": 23,
    "dewpoint": 17,
    "altimeter": 30.18,
    "conditions": "",
    "observationTime": "2026-05-02T06:30:00.000Z"
  }
}