{
  "ORD": {
    "raw": "METAR KORD 141251Z 00000KT 10SM FEW300 12/02 A3013 RMK AO2 SLP206 T01170022 $",
    "icao": "KORD",
    "flightCategory": "VFR",
    "windDir": 0,
    "windSpeed": 0,
    "windGust": null,
    "visibility": 10,
    "ceiling": null,
    "temp": 11.7,
    "dewpoint": 2.2,
    "altimeter": 30.13,
    "conditions": "",
    "observationTime": "2026-05-14T13:00:00.000Z"
  },
  "SYD": {
    "raw": "METAR YSSY 141200Z AUTO 24007KT 9999 // FEW032 SCT046 16/15 Q1031",
    "icao": "YSSY",
    "flightCategory": "VFR",
    "windDir": 240,
    "windSpeed": 7,
    "windGust": null,
    "visibility": 6,
    "ceiling": null,
    "temp": 16,
    "dewpoint": 15,
    "altimeter": 30.45,
    "conditions": "",
    "observationTime": "2026-05-14T12:00:00.000Z"
  },
  "LHR": {
    "raw": "METAR EGLL 141220Z AUTO 02007KT 340V060 9999 -RA SCT044/// //////CB 11/03 Q1001 TEMPO 4000 SHRA",
    "icao": "EGLL",
    "flightCategory": "VFR",
    "windDir": 20,
    "windSpeed": 7,
    "windGust": null,
    "visibility": 6,
    "ceiling": null,
    "temp": 11,
    "dewpoint": 3,
    "altimeter": 29.56,
    "conditions": "-RA",
    "observationTime": "2026-05-14T12:20:00.000Z"
  },
  "LAS": {
    "raw": "METAR KLAS 141156Z 19007KT 10SM CLR 23/01 A2988 RMK AO2 SLP091 T02330006 10289 20233 53006",
    "icao": "KLAS",
    "flightCategory": "VFR",
    "windDir": 190,
    "windSpeed": 7,
    "windGust": null,
    "visibility": 10,
    "ceiling": null,
    "temp": 23.3,
    "dewpoint": 0.6,
    "altimeter": 29.88,
    "conditions": "",
    "observationTime": "2026-05-14T12:00:00.000Z"
  }
}