{
  "SYD": {
    "raw": "METAR YSSY 240600Z 14005KT 9000 -DZ VCSH FEW017 SCT030 BKN035 18/16 Q1023",
    "icao": "YSSY",
    "flightCategory": "VFR",
    "windDir": 140,
    "windSpeed": 5,
    "windGust": null,
    "visibility": 5.59,
    "ceiling": 3500,
    "temp": 18,
    "dewpoint": 16,
    "altimeter": 30.21,
    "conditions": "-DZ VCSH",
    "observationTime": "2026-05-24T06:00:00.000Z"
  },
  "LHR": {
    "raw": "METAR EGLL 240550Z AUTO 02001KT 9999 NCD 17/13 Q1030",
    "icao": "EGLL",
    "flightCategory": "VFR",
    "windDir": 20,
    "windSpeed": 1,
    "windGust": null,
    "visibility": 6,
    "ceiling": null,
    "temp": 17,
    "dewpoint": 13,
    "altimeter": 30.42,
    "conditions": "",
    "observationTime": "2026-05-24T06:00:00.000Z"
  },
  "LAS": {
    "raw": "METAR KLAS 240556Z 20012KT 10SM CLR 28/01 A2989 RMK AO2 SLP095 T02830011 10350 20283 51014",
    "icao": "KLAS",
    "flightCategory": "VFR",
    "windDir": 200,
    "windSpeed": 12,
    "windGust": null,
    "visibility": 10,
    "ceiling": null,
    "temp": 28.3,
    "dewpoint": 1.1,
    "altimeter": 29.89,
    "conditions": "",
    "observationTime": "2026-05-24T06:00:00.000Z"
  },
  "LAX": {
    "raw": "METAR KLAX 240553Z 24008KT 10SM FEW012 SCT022 BKN025 16/13 A3002 RMK AO2 SLP165 T01610128 10183 20156 51017",
    "icao": "KLAX",
    "flightCategory": "MVFR",
    "windDir": 240,
    "windSpeed": 8,
    "windGust": null,
    "visibility": 10,
    "ceiling": 2500,
    "temp": 16.1,
    "dewpoint": 12.8,
    "altimeter": 30.02,
    "conditions": "",
    "observationTime": "2026-05-24T06:00:00.000Z"
  },
  "ORD": {
    "raw": "METAR KORD 240551Z 09003KT 10SM SCT047 BKN250 14/12 A2999 RMK AO2 SLP156 T01390117 10161 20133 402220122 58002",
    "icao": "KORD",
    "flightCategory": "VFR",
    "windDir": 90,
    "windSpeed": 3,
    "windGust": null,
    "visibility": 10,
    "ceiling": 25000,
    "temp": 13.9,
    "dewpoint": 11.7,
    "altimeter": 29.99,
    "conditions": "",
    "observationTime": "2026-05-24T06:00:00.000Z"
  }
}