{
  "SYD": {
    "raw": "METAR YSSY 060530Z 05005KT 9999 VCSH FEW040 BKN075 BKN120 20/13 Q1016",
    "icao": "YSSY",
    "flightCategory": "VFR",
    "windDir": 50,
    "windSpeed": 5,
    "windGust": null,
    "visibility": 6,
    "ceiling": 7500,
    "temp": 20,
    "dewpoint": 13,
    "altimeter": 30,
    "conditions": "VCSH",
    "observationTime": "2026-04-06T05:30:00.000Z"
  },
  "LAS": {
    "raw": "METAR KLAS 060556Z 23005KT 10SM FEW250 21/M09 A2998 RMK AO2 SLP134 T02111089 10289 20211 50004",
    "icao": "KLAS",
    "flightCategory": "VFR",
    "windDir": 230,
    "windSpeed": 5,
    "windGust": null,
    "visibility": 10,
    "ceiling": null,
    "temp": 21.1,
    "dewpoint": -8.9,
    "altimeter": 29.98,
    "conditions": "",
    "observationTime": "2026-04-06T06:00:00.000Z"
  },
  "ORD": {
    "raw": "SPECI KORD 060537Z 32011KT 6SM -TSRA SCT031 BKN043CB OVC060 08/03 A3016 RMK AO2 TSB35 PRESRR OCNL LTGICCC OHD TS OHD MOV SE P0001 T00780028 $",
    "icao": "KORD",
    "flightCategory": "VFR",
    "windDir": 320,
    "windSpeed": 11,
    "windGust": null,
    "visibility": 6,
    "ceiling": 4300,
    "temp": 7.8,
    "dewpoint": 2.8,
    "altimeter": 30.16,
    "conditions": "-TSRA",
    "observationTime": "2026-04-06T05:37:00.000Z"
  },
  "LAX": {
    "raw": "METAR KLAX 060553Z 15003KT 10SM SCT210 BKN280 18/14 A2997 RMK AO2 SLP147 T01780139 10228 20178 50005 $",
    "icao": "KLAX",
    "flightCategory": "VFR",
    "windDir": 150,
    "windSpeed": 3,
    "windGust": null,
    "visibility": 10,
    "ceiling": 28000,
    "temp": 17.8,
    "dewpoint": 13.9,
    "altimeter": 29.97,
    "conditions": "",
    "observationTime": "2026-04-06T06:00:00.000Z"
  },
  "LHR": {
    "raw": "METAR EGLL 060520Z COR AUTO 18004KT 9999 NCD 03/00 Q1027 NOSIG",
    "icao": "EGLL",
    "flightCategory": "VFR",
    "windDir": 180,
    "windSpeed": 4,
    "windGust": null,
    "visibility": 6,
    "ceiling": null,
    "temp": 3,
    "dewpoint": 0,
    "altimeter": 30.33,
    "conditions": "",
    "observationTime": "2026-04-06T05:20:00.000Z"
  }
}