{
  "SYD": {
    "raw": "SPECI YSSY 281709Z AUTO 20020KT 9999 // SCT012 BKN031 BKN045 18/16 Q1004",
    "icao": "YSSY",
    "flightCategory": "VFR",
    "windDir": 200,
    "windSpeed": 20,
    "windGust": null,
    "visibility": 6,
    "ceiling": 3100,
    "temp": 18,
    "dewpoint": 16,
    "altimeter": 29.65,
    "conditions": "",
    "observationTime": "2026-05-28T17:09:00.000Z"
  },
  "LAS": {
    "raw": "METAR KLAS 281756Z 10011G16KT 10SM FEW140 FEW200 22/M03 A2987 RMK AO2 SLP098 T02171033 10217 20139 51001",
    "icao": "KLAS",
    "flightCategory": "VFR",
    "windDir": 100,
    "windSpeed": 11,
    "windGust": 16,
    "visibility": 10,
    "ceiling": null,
    "temp": 21.7,
    "dewpoint": -3.3,
    "altimeter": 29.87,
    "conditions": "",
    "observationTime": "2026-05-28T18:00:00.000Z"
  },
  "LAX": {
    "raw": "METAR KLAX 281753Z COR 00000KT 10SM FEW010 BKN041 BKN055 17/09 A2996 RMK AO2 SLP144 T01720089 10178 20133 50006 $",
    "icao": "KLAX",
    "flightCategory": "VFR",
    "windDir": 0,
    "windSpeed": 0,
    "windGust": null,
    "visibility": 10,
    "ceiling": 4100,
    "temp": 17.2,
    "dewpoint": 8.9,
    "altimeter": 29.96,
    "conditions": "",
    "observationTime": "2026-05-28T18:00:00.000Z"
  },
  "ORD": {
    "raw": "METAR KORD 281751Z 04011G16KT 10SM SCT300 21/09 A3019 RMK AO2 SLP221 T02110089 10211 20150 50000",
    "icao": "KORD",
    "flightCategory": "VFR",
    "windDir": 40,
    "windSpeed": 11,
    "windGust": 16,
    "visibility": 10,
    "ceiling": null,
    "temp": 21.1,
    "dewpoint": 8.9,
    "altimeter": 30.19,
    "conditions": "",
    "observationTime": "2026-05-28T18:00:00.000Z"
  },
  "LHR": {
    "raw": "METAR EGLL 281720Z AUTO 20011KT 170V250 9999 NCD 29/16 Q1019",
    "icao": "EGLL",
    "flightCategory": "VFR",
    "windDir": 200,
    "windSpeed": 11,
    "windGust": null,
    "visibility": 6,
    "ceiling": null,
    "temp": 29,
    "dewpoint": 16,
    "altimeter": 30.09,
    "conditions": "",
    "observationTime": "2026-05-28T17:20:00.000Z"
  }
}