{
  "LHR": {
    "raw": "METAR EGLL 220850Z AUTO 16011KT 130V190 9999 NCD 23/13 Q1025",
    "icao": "EGLL",
    "flightCategory": "VFR",
    "windDir": 160,
    "windSpeed": 11,
    "windGust": null,
    "visibility": 6,
    "ceiling": null,
    "temp": 23,
    "dewpoint": 13,
    "altimeter": 30.27,
    "conditions": "",
    "observationTime": "2026-05-22T09:00:00.000Z"
  },
  "SYD": {
    "raw": "METAR YSSY 220830Z AUTO 17018KT 9999 // SCT033 OVC062 18/13 Q1026",
    "icao": "YSSY",
    "flightCategory": "VFR",
    "windDir": 170,
    "windSpeed": 18,
    "windGust": null,
    "visibility": 6,
    "ceiling": 6200,
    "temp": 18,
    "dewpoint": 13,
    "altimeter": 30.3,
    "conditions": "",
    "observationTime": "2026-05-22T08:30:00.000Z"
  },
  "LAS": {
    "raw": "METAR KLAS 220856Z 18006KT 10SM CLR 25/M09 A2973 RMK AO2 SLP040 T02501089 56002",
    "icao": "KLAS",
    "flightCategory": "VFR",
    "windDir": 180,
    "windSpeed": 6,
    "windGust": null,
    "visibility": 10,
    "ceiling": null,
    "temp": 25,
    "dewpoint": -8.9,
    "altimeter": 29.73,
    "conditions": "",
    "observationTime": "2026-05-22T09:00:00.000Z"
  },
  "LAX": {
    "raw": "METAR KLAX 220853Z 00000KT 10SM BKN011 16/13 A2986 RMK AO2 SLP108 T01610133 55001 $",
    "icao": "KLAX",
    "flightCategory": "MVFR",
    "windDir": 0,
    "windSpeed": 0,
    "windGust": null,
    "visibility": 10,
    "ceiling": 1100,
    "temp": 16.1,
    "dewpoint": 13.3,
    "altimeter": 29.86,
    "conditions": "",
    "observationTime": "2026-05-22T09:00:00.000Z"
  },
  "ORD": {
    "raw": "METAR KORD 220851Z 06010KT 10SM OVC060 12/07 A3016 RMK AO2 SLP215 T01170067 55002 $",
    "icao": "KORD",
    "flightCategory": "VFR",
    "windDir": 60,
    "windSpeed": 10,
    "windGust": null,
    "visibility": 10,
    "ceiling": 6000,
    "temp": 11.7,
    "dewpoint": 6.7,
    "altimeter": 30.16,
    "conditions": "",
    "observationTime": "2026-05-22T09:00:00.000Z"
  }
}