{
  "LAX": {
    "raw": "SPECI KLAX 100551Z 22004KT 4SM BR OVC004 14/14 A2993 RMK AO2",
    "icao": "KLAX",
    "flightCategory": "LIFR",
    "windDir": 220,
    "windSpeed": 4,
    "windGust": null,
    "visibility": 4,
    "ceiling": 400,
    "temp": 14,
    "dewpoint": 14,
    "altimeter": 29.93,
    "conditions": "BR",
    "observationTime": "2026-05-10T05:51:00.000Z"
  },
  "SYD": {
    "raw": "METAR YSSY 100530Z 17015KT 9999 FEW030 20/15 Q1028",
    "icao": "YSSY",
    "flightCategory": "VFR",
    "windDir": 170,
    "windSpeed": 15,
    "windGust": null,
    "visibility": 6,
    "ceiling": null,
    "temp": 20,
    "dewpoint": 15,
    "altimeter": 30.36,
    "conditions": "",
    "observationTime": "2026-05-10T05:30:00.000Z"
  },
  "LAS": {
    "raw": "METAR KLAS 100556Z 19003KT 10SM FEW120 32/M05 A2982 RMK AO2 SLP067 T03171050 10372 20317 51015",
    "icao": "KLAS",
    "flightCategory": "VFR",
    "windDir": 190,
    "windSpeed": 3,
    "windGust": null,
    "visibility": 10,
    "ceiling": null,
    "temp": 31.7,
    "dewpoint": -5,
    "altimeter": 29.82,
    "conditions": "",
    "observationTime": "2026-05-10T06:00:00.000Z"
  },
  "ORD": {
    "raw": "METAR KORD 100551Z VRB05KT 10SM FEW250 09/03 A2991 RMK AO2 SLP127 T00940028 10206 20094 402390094 53025",
    "icao": "KORD",
    "flightCategory": "VFR",
    "windDir": null,
    "windSpeed": 5,
    "windGust": null,
    "visibility": 10,
    "ceiling": null,
    "temp": 9.4,
    "dewpoint": 2.8,
    "altimeter": 29.91,
    "conditions": "",
    "observationTime": "2026-05-10T06:00:00.000Z"
  },
  "LHR": {
    "raw": "METAR EGLL 100550Z AUTO 04011KT 010V080 9999 BKN015 10/07 Q1017 TEMPO BKN014",
    "icao": "EGLL",
    "flightCategory": "MVFR",
    "windDir": 40,
    "windSpeed": 11,
    "windGust": null,
    "visibility": 6,
    "ceiling": 1500,
    "temp": 10,
    "dewpoint": 7,
    "altimeter": 30.03,
    "conditions": "",
    "observationTime": "2026-05-10T06:00:00.000Z"
  }
}