{
  "SYD": {
    "raw": "METAR YSSY 240800Z AUTO 13005KT 9999 // NCD 18/16 Q1023",
    "icao": "YSSY",
    "flightCategory": "VFR",
    "windDir": 130,
    "windSpeed": 5,
    "windGust": null,
    "visibility": 6,
    "ceiling": null,
    "temp": 18,
    "dewpoint": 16,
    "altimeter": 30.21,
    "conditions": "",
    "observationTime": "2026-05-24T08:00:00.000Z"
  },
  "LHR": {
    "raw": "METAR EGLL 240820Z AUTO VRB03KT 9999 NCD 22/14 Q1031",
    "icao": "EGLL",
    "flightCategory": "VFR",
    "windDir": null,
    "windSpeed": 3,
    "windGust": null,
    "visibility": 6,
    "ceiling": null,
    "temp": 22,
    "dewpoint": 14,
    "altimeter": 30.45,
    "conditions": "",
    "observationTime": "2026-05-24T08:20:00.000Z"
  },
  "LAS": {
    "raw": "METAR KLAS 240756Z 21010KT 10SM CLR 27/02 A2990 RMK AO2 SLP098 T02670022 403500239",
    "icao": "KLAS",
    "flightCategory": "VFR",
    "windDir": 210,
    "windSpeed": 10,
    "windGust": null,
    "visibility": 10,
    "ceiling": null,
    "temp": 26.7,
    "dewpoint": 2.2,
    "altimeter": 29.9,
    "conditions": "",
    "observationTime": "2026-05-24T08:00:00.000Z"
  }
}