{
  "LAS": {
    "raw": "METAR KLAS 272156Z 18007G20KT 10SM FEW090 26/M04 A2968 RMK AO2 SLP031 T02611039",
    "icao": "KLAS",
    "flightCategory": "VFR",
    "windDir": 180,
    "windSpeed": 7,
    "windGust": 20,
    "visibility": 10,
    "ceiling": null,
    "temp": 26.1,
    "dewpoint": -3.9,
    "altimeter": 29.68,
    "conditions": "",
    "observationTime": "2026-05-27T22:00:00.000Z"
  },
  "LAX": {
    "raw": "METAR KLAX 272153Z 24015G22KT 10SM FEW020 FEW048 18/09 A2985 RMK AO2 SLP108 T01780089 $",
    "icao": "KLAX",
    "flightCategory": "VFR",
    "windDir": 240,
    "windSpeed": 15,
    "windGust": 22,
    "visibility": 10,
    "ceiling": null,
    "temp": 17.8,
    "dewpoint": 8.9,
    "altimeter": 29.85,
    "conditions": "",
    "observationTime": "2026-05-27T22:00:00.000Z"
  },
  "ORD": {
    "raw": "METAR KORD 272151Z 05009KT 10SM FEW060 FEW250 28/12 A2999 RMK AO2 SLP150 T02780122",
    "icao": "KORD",
    "flightCategory": "VFR",
    "windDir": 50,
    "windSpeed": 9,
    "windGust": null,
    "visibility": 10,
    "ceiling": null,
    "temp": 27.8,
    "dewpoint": 12.2,
    "altimeter": 29.99,
    "conditions": "",
    "observationTime": "2026-05-27T22:00:00.000Z"
  },
  "LHR": {
    "raw": "METAR EGLL 272120Z AUTO 09010KT 9999 NCD 18/11 Q1023",
    "icao": "EGLL",
    "flightCategory": "VFR",
    "windDir": 90,
    "windSpeed": 10,
    "windGust": null,
    "visibility": 6,
    "ceiling": null,
    "temp": 18,
    "dewpoint": 11,
    "altimeter": 30.21,
    "conditions": "",
    "observationTime": "2026-05-27T21:20:00.000Z"
  },
  "SYD": {
    "raw": "METAR YSSY 272130Z 20013KT 9999 -SHRA FEW006 SCT020 BKN040 19/17 Q1013",
    "icao": "YSSY",
    "flightCategory": "VFR",
    "windDir": 200,
    "windSpeed": 13,
    "windGust": null,
    "visibility": 6,
    "ceiling": 4000,
    "temp": 19,
    "dewpoint": 17,
    "altimeter": 29.91,
    "conditions": "-SHRA",
    "observationTime": "2026-05-27T21:30:00.000Z"
  }
}