{
  "SYD": {
    "raw": "METAR YSSY 061800Z AUTO 30006KT 9999 // NCD 16/14 Q1011",
    "icao": "YSSY",
    "flightCategory": "VFR",
    "windDir": 300,
    "windSpeed": 6,
    "windGust": null,
    "visibility": 6,
    "ceiling": null,
    "temp": 16,
    "dewpoint": 14,
    "altimeter": 29.85,
    "conditions": "",
    "observationTime": "2026-04-06T18:00:00.000Z"
  },
  "LHR": {
    "raw": "METAR EGLL 061750Z COR AUTO 15010KT 9999 NCD 14/M02 Q1024 NOSIG",
    "icao": "EGLL",
    "flightCategory": "VFR",
    "windDir": 150,
    "windSpeed": 10,
    "windGust": null,
    "visibility": 6,
    "ceiling": null,
    "temp": 14,
    "dewpoint": -2,
    "altimeter": 30.24,
    "conditions": "",
    "observationTime": "2026-04-06T18:00:00.000Z"
  },
  "LAS": {
    "raw": "METAR KLAS 061756Z 03003KT 10SM FEW130 BKN200 25/M08 A2999 RMK AO2 SLP135 T02501078 10256 20178 50002",
    "icao": "KLAS",
    "flightCategory": "VFR",
    "windDir": 30,
    "windSpeed": 3,
    "windGust": null,
    "visibility": 10,
    "ceiling": 20000,
    "temp": 25,
    "dewpoint": -7.8,
    "altimeter": 29.99,
    "conditions": "",
    "observationTime": "2026-04-06T18:00:00.000Z"
  },
  "LAX": {
    "raw": "METAR KLAX 061753Z 08005KT 10SM FEW012 SCT019 SCT120 BKN160 24/12 A3003 RMK AO2 SLP168 T02390122 10239 20172 51007 $",
    "icao": "KLAX",
    "flightCategory": "VFR",
    "windDir": 80,
    "windSpeed": 5,
    "windGust": null,
    "visibility": 10,
    "ceiling": 16000,
    "temp": 23.9,
    "dewpoint": 12.2,
    "altimeter": 30.03,
    "conditions": "",
    "observationTime": "2026-04-06T18:00:00.000Z"
  },
  "ORD": {
    "raw": "METAR KORD 061751Z 31017G27KT 10SM SCT040 BKN055 09/M02 A3022 RMK AO2 PK WND 32027/1745 SLP237 T00941017 10094 20050 50002 $",
    "icao": "KORD",
    "flightCategory": "VFR",
    "windDir": 310,
    "windSpeed": 17,
    "windGust": 27,
    "visibility": 10,
    "ceiling": 5500,
    "temp": 9.4,
    "dewpoint": -1.7,
    "altimeter": 30.22,
    "conditions": "",
    "observationTime": "2026-04-06T18:00:00.000Z"
  }
}