{
  "SYD": {
    "raw": "METAR YSSY 251030Z AUTO 02007KT 9999 // NCD 21/15 Q1027",
    "icao": "YSSY",
    "flightCategory": "VFR",
    "windDir": 20,
    "windSpeed": 7,
    "windGust": null,
    "visibility": 6,
    "ceiling": null,
    "temp": 21,
    "dewpoint": 15,
    "altimeter": 30.33,
    "conditions": "",
    "observationTime": "2026-04-25T10:30:00.000Z"
  },
  "LAS": {
    "raw": "METAR KLAS 251056Z 19012G17KT 10SM FEW200 18/M01 A2969 RMK AO2 SLP033 T01831006",
    "icao": "KLAS",
    "flightCategory": "VFR",
    "windDir": 190,
    "windSpeed": 12,
    "windGust": 17,
    "visibility": 10,
    "ceiling": null,
    "temp": 18.3,
    "dewpoint": -0.6,
    "altimeter": 29.69,
    "conditions": "",
    "observationTime": "2026-04-25T11:00:00.000Z"
  },
  "ORD": {
    "raw": "SPECI KORD 251018Z 03010KT 1 1/2SM -DZ BR OVC004 08/07 A2994 RMK AO2 DZB01 P0000 T00780067",
    "icao": "KORD",
    "flightCategory": "LIFR",
    "windDir": 30,
    "windSpeed": 10,
    "windGust": null,
    "visibility": 1.5,
    "ceiling": 400,
    "temp": 7.8,
    "dewpoint": 6.7,
    "altimeter": 29.94,
    "conditions": "-DZ BR",
    "observationTime": "2026-04-25T10:18:00.000Z"
  },
  "LAX": {
    "raw": "METAR KLAX 251053Z 21003KT 10SM SCT021 BKN029 BKN034 15/12 A2988 RMK AO2 SLP117 T01500117 $",
    "icao": "KLAX",
    "flightCategory": "MVFR",
    "windDir": 210,
    "windSpeed": 3,
    "windGust": null,
    "visibility": 10,
    "ceiling": 2900,
    "temp": 15,
    "dewpoint": 11.7,
    "altimeter": 29.88,
    "conditions": "",
    "observationTime": "2026-04-25T11:00:00.000Z"
  },
  "LHR": {
    "raw": "METAR EGLL 251020Z COR AUTO 14005KT 090V200 9999 NCD 15/02 Q1022 NOSIG",
    "icao": "EGLL",
    "flightCategory": "VFR",
    "windDir": 140,
    "windSpeed": 5,
    "windGust": null,
    "visibility": 6,
    "ceiling": null,
    "temp": 15,
    "dewpoint": 2,
    "altimeter": 30.18,
    "conditions": "",
    "observationTime": "2026-04-25T10:20:00.000Z"
  }
}