{
  "ORD": {
    "raw": "METAR KORD 211951Z 26014G19KT 10SM TS SCT055CB BKN095 BKN120 OVC250 22/09 A2986 RMK AO2 TSB45 SLP108 OCNL LTGICCG N TS N MOV SE T02220094 $",
    "icao": "KORD",
    "flightCategory": "VFR",
    "windDir": 260,
    "windSpeed": 14,
    "windGust": 19,
    "visibility": 10,
    "ceiling": 9500,
    "temp": 22.2,
    "dewpoint": 9.4,
    "altimeter": 29.86,
    "conditions": "TS",
    "observationTime": "2026-04-21T20:00:00.000Z"
  },
  "SYD": {
    "raw": "METAR YSSY 212000Z 15011KT 9999 FEW035 BKN060 19/10 Q1025",
    "icao": "YSSY",
    "flightCategory": "VFR",
    "windDir": 150,
    "windSpeed": 11,
    "windGust": null,
    "visibility": 6,
    "ceiling": 6000,
    "temp": 19,
    "dewpoint": 10,
    "altimeter": 30.27,
    "conditions": "",
    "observationTime": "2026-04-21T20:00:00.000Z"
  },
  "LHR": {
    "raw": "METAR EGLL 211950Z COR AUTO 07011KT 9999 NCD 10/00 Q1025 NOSIG",
    "icao": "EGLL",
    "flightCategory": "VFR",
    "windDir": 70,
    "windSpeed": 11,
    "windGust": null,
    "visibility": 6,
    "ceiling": null,
    "temp": 10,
    "dewpoint": 0,
    "altimeter": 30.27,
    "conditions": "",
    "observationTime": "2026-04-21T20:00:00.000Z"
  },
  "LAS": {
    "raw": "METAR KLAS 211956Z 21020G32KT 10SM FEW200 30/M12 A2984 RMK AO2 PK WND 21035/1944 SLP080 T03001122",
    "icao": "KLAS",
    "flightCategory": "VFR",
    "windDir": 210,
    "windSpeed": 20,
    "windGust": 32,
    "visibility": 10,
    "ceiling": null,
    "temp": 30,
    "dewpoint": -12.2,
    "altimeter": 29.84,
    "conditions": "",
    "observationTime": "2026-04-21T20:00:00.000Z"
  },
  "LAX": {
    "raw": "METAR KLAX 211953Z 23008KT 8SM FEW011 BKN030 BKN140 18/11 A3005 RMK AO2 SLP176 T01830111 $",
    "icao": "KLAX",
    "flightCategory": "MVFR",
    "windDir": 230,
    "windSpeed": 8,
    "windGust": null,
    "visibility": 8,
    "ceiling": 3000,
    "temp": 18.3,
    "dewpoint": 11.1,
    "altimeter": 30.05,
    "conditions": "",
    "observationTime": "2026-04-21T20:00:00.000Z"
  }
}