{
  "LHR": {
    "raw": "METAR EGLL 251950Z AUTO 15007KT 9999 NCD 28/14 Q1029",
    "icao": "EGLL",
    "flightCategory": "VFR",
    "windDir": 150,
    "windSpeed": 7,
    "windGust": null,
    "visibility": 6,
    "ceiling": null,
    "temp": 28,
    "dewpoint": 14,
    "altimeter": 30.39,
    "conditions": "",
    "observationTime": "2026-05-25T20:00:00.000Z"
  },
  "SYD": {
    "raw": "METAR YSSY 252000Z 24006KT 9000 VCSH FEW015 SCT025 BKN060 18/17 Q1019",
    "icao": "YSSY",
    "flightCategory": "VFR",
    "windDir": 240,
    "windSpeed": 6,
    "windGust": null,
    "visibility": 5.59,
    "ceiling": 6000,
    "temp": 18,
    "dewpoint": 17,
    "altimeter": 30.09,
    "conditions": "VCSH",
    "observationTime": "2026-05-25T20:00:00.000Z"
  },
  "LAS": {
    "raw": "METAR KLAS 251956Z VRB04KT 10SM FEW120 FEW250 32/M01 A2980 RMK AO2 SLP064 T03221006",
    "icao": "KLAS",
    "flightCategory": "VFR",
    "windDir": null,
    "windSpeed": 4,
    "windGust": null,
    "visibility": 10,
    "ceiling": null,
    "temp": 32.2,
    "dewpoint": -0.6,
    "altimeter": 29.8,
    "conditions": "",
    "observationTime": "2026-05-25T20:00:00.000Z"
  },
  "LAX": {
    "raw": "METAR KLAX 251953Z 24011KT 10SM FEW018 20/11 A2996 RMK AO2 SLP142 T02000111 $",
    "icao": "KLAX",
    "flightCategory": "VFR",
    "windDir": 240,
    "windSpeed": 11,
    "windGust": null,
    "visibility": 10,
    "ceiling": null,
    "temp": 20,
    "dewpoint": 11.1,
    "altimeter": 29.96,
    "conditions": "",
    "observationTime": "2026-05-25T20:00:00.000Z"
  },
  "ORD": {
    "raw": "METAR KORD 251951Z 18008G14KT 10SM FEW070 FEW120 FEW250 28/11 A3008 RMK AO2 SLP182 T02780111 $",
    "icao": "KORD",
    "flightCategory": "VFR",
    "windDir": 180,
    "windSpeed": 8,
    "windGust": 14,
    "visibility": 10,
    "ceiling": null,
    "temp": 27.8,
    "dewpoint": 11.1,
    "altimeter": 30.08,
    "conditions": "",
    "observationTime": "2026-05-25T20:00:00.000Z"
  }
}