{
  "SYD": {
    "raw": "METAR YSSY 191330Z AUTO 26008KT 9999 // BKN086 16/13 Q1012",
    "icao": "YSSY",
    "flightCategory": "VFR",
    "windDir": 260,
    "windSpeed": 8,
    "windGust": null,
    "visibility": 6,
    "ceiling": 8600,
    "temp": 16,
    "dewpoint": 13,
    "altimeter": 29.88,
    "conditions": "",
    "observationTime": "2026-05-19T13:30:00.000Z"
  },
  "LAS": {
    "raw": "METAR KLAS 191356Z 05008KT 10SM CLR 18/M07 A3008 RMK AO2 SLP170 T01781067",
    "icao": "KLAS",
    "flightCategory": "VFR",
    "windDir": 50,
    "windSpeed": 8,
    "windGust": null,
    "visibility": 10,
    "ceiling": null,
    "temp": 17.8,
    "dewpoint": -6.7,
    "altimeter": 30.08,
    "conditions": "",
    "observationTime": "2026-05-19T14:00:00.000Z"
  },
  "LAX": {
    "raw": "METAR KLAX 191353Z 00000KT 4SM HZ FEW018 FEW240 16/13 A2996 RMK AO2 SLP143 FU FEW018 T01610133",
    "icao": "KLAX",
    "flightCategory": "MVFR",
    "windDir": 0,
    "windSpeed": 0,
    "windGust": null,
    "visibility": 4,
    "ceiling": null,
    "temp": 16.1,
    "dewpoint": 13.3,
    "altimeter": 29.96,
    "conditions": "HZ",
    "observationTime": "2026-05-19T14:00:00.000Z"
  },
  "ORD": {
    "raw": "SPECI KORD 191342Z 23012G25KT 10SM SCT016 BKN095 BKN170 22/18 A2988 RMK AO2 PK WND 22027/1257 T02170178",
    "icao": "KORD",
    "flightCategory": "VFR",
    "windDir": 230,
    "windSpeed": 12,
    "windGust": 25,
    "visibility": 10,
    "ceiling": 9500,
    "temp": 21.7,
    "dewpoint": 17.8,
    "altimeter": 29.88,
    "conditions": "",
    "observationTime": "2026-05-19T13:42:00.000Z"
  },
  "LHR": {
    "raw": "METAR EGLL 191320Z AUTO 22018KT 9999 SCT028 BKN032 BKN039 17/10 Q1008",
    "icao": "EGLL",
    "flightCategory": "VFR",
    "windDir": 220,
    "windSpeed": 18,
    "windGust": null,
    "visibility": 6,
    "ceiling": 3200,
    "temp": 17,
    "dewpoint": 10,
    "altimeter": 29.77,
    "conditions": "",
    "observationTime": "2026-05-19T13:20:00.000Z"
  }
}