{
  "LAS": {
    "raw": "METAR KLAS 082256Z 20017G25KT 10SM FEW150 SCT200 BKN250 36/M03 A2974 RMK AO2 PK WND 18031/2202 SLP041 T03561028",
    "icao": "KLAS",
    "flightCategory": "VFR",
    "windDir": 200,
    "windSpeed": 17,
    "windGust": 25,
    "visibility": 10,
    "ceiling": 25000,
    "temp": 35.6,
    "dewpoint": -2.8,
    "altimeter": 29.74,
    "conditions": "",
    "observationTime": "2026-06-08T23:00:00.000Z"
  },
  "LAX": {
    "raw": "METAR KLAX 082253Z 26016KT 10SM BKN250 21/13 A2990 RMK AO2 SLP123 T02060133 $",
    "icao": "KLAX",
    "flightCategory": "VFR",
    "windDir": 260,
    "windSpeed": 16,
    "windGust": null,
    "visibility": 10,
    "ceiling": 25000,
    "temp": 20.6,
    "dewpoint": 13.3,
    "altimeter": 29.9,
    "conditions": "",
    "observationTime": "2026-06-08T23:00:00.000Z"
  },
  "ORD": {
    "raw": "METAR KORD 082251Z 15009G20KT 10SM SCT025TCU SCT037 BKN080 BKN130 BKN250 26/22 A2992 RMK AO2 SLP128 TCU NW T02560222",
    "icao": "KORD",
    "flightCategory": "VFR",
    "windDir": 150,
    "windSpeed": 9,
    "windGust": 20,
    "visibility": 10,
    "ceiling": 8000,
    "temp": 25.6,
    "dewpoint": 22.2,
    "altimeter": 29.92,
    "conditions": "",
    "observationTime": "2026-06-08T23:00:00.000Z"
  },
  "LHR": {
    "raw": "METAR EGLL 082220Z AUTO 27012KT 9999 NCD 11/06 Q1015",
    "icao": "EGLL",
    "flightCategory": "VFR",
    "windDir": 270,
    "windSpeed": 12,
    "windGust": null,
    "visibility": 6,
    "ceiling": null,
    "temp": 11,
    "dewpoint": 6,
    "altimeter": 29.97,
    "conditions": "",
    "observationTime": "2026-06-08T22:20:00.000Z"
  },
  "SYD": {
    "raw": "METAR YSSY 082230Z 33006KT 9999 FEW024 15/12 Q1032",
    "icao": "YSSY",
    "flightCategory": "VFR",
    "windDir": 330,
    "windSpeed": 6,
    "windGust": null,
    "visibility": 6,
    "ceiling": null,
    "temp": 15,
    "dewpoint": 12,
    "altimeter": 30.47,
    "conditions": "",
    "observationTime": "2026-06-08T22:30:00.000Z"
  }
}