{
  "ORD": {
    "raw": "METAR KORD 131951Z 20020G27KT 10SM FEW046 FEW075 BKN250 28/17 A2986 RMK AO2 PK WND 22027/1951 SLP106 CB DSNT S T02780172 $",
    "icao": "KORD",
    "flightCategory": "VFR",
    "windDir": 200,
    "windSpeed": 20,
    "windGust": 27,
    "visibility": 10,
    "ceiling": 25000,
    "temp": 27.8,
    "dewpoint": 17.2,
    "altimeter": 29.86,
    "conditions": "",
    "observationTime": "2026-06-13T20:00:00.000Z"
  },
  "LHR": {
    "raw": "METAR EGLL 131920Z AUTO 30011KT 9999 NCD 20/07 Q1020",
    "icao": "EGLL",
    "flightCategory": "VFR",
    "windDir": 300,
    "windSpeed": 11,
    "windGust": null,
    "visibility": 6,
    "ceiling": null,
    "temp": 20,
    "dewpoint": 7,
    "altimeter": 30.12,
    "conditions": "",
    "observationTime": "2026-06-13T19:20:00.000Z"
  },
  "SYD": {
    "raw": "METAR YSSY 131930Z 27004KT CAVOK 16/13 Q1025",
    "icao": "YSSY",
    "flightCategory": "VFR",
    "windDir": 270,
    "windSpeed": 4,
    "windGust": null,
    "visibility": 6,
    "ceiling": null,
    "temp": 16,
    "dewpoint": 13,
    "altimeter": 30.27,
    "conditions": "",
    "observationTime": "2026-06-13T19:30:00.000Z"
  }
}