{
  "LAX": {
    "raw": "METAR KLAX 051153Z 27009KT 10SM FEW046 SCT065 SCT075 14/11 A2993 RMK AO2 SLP134 T01390106 10161 20139 56007",
    "icao": "KLAX",
    "flightCategory": "VFR",
    "windDir": 270,
    "windSpeed": 9,
    "windGust": null,
    "visibility": 10,
    "ceiling": null,
    "temp": 13.9,
    "dewpoint": 10.6,
    "altimeter": 29.93,
    "conditions": "",
    "observationTime": "2026-05-05T12:00:00.000Z"
  },
  "ORD": {
    "raw": "METAR KORD 051151Z 30005KT 10SM -RA BKN050 BKN070 OVC250 09/01 A2977 RMK AO2 RAB27 SLP082 P0001 60001 70020 T00940011 10161 20089 53034",
    "icao": "KORD",
    "flightCategory": "VFR",
    "windDir": 300,
    "windSpeed": 5,
    "windGust": null,
    "visibility": 10,
    "ceiling": 5000,
    "temp": 9.4,
    "dewpoint": 1.1,
    "altimeter": 29.77,
    "conditions": "-RA",
    "observationTime": "2026-05-05T12:00:00.000Z"
  },
  "LHR": {
    "raw": "METAR EGLL 051120Z COR AUTO 03007KT 350V060 9999 SCT034 15/06 Q1012 NOSIG",
    "icao": "EGLL",
    "flightCategory": "VFR",
    "windDir": 30,
    "windSpeed": 7,
    "windGust": null,
    "visibility": 6,
    "ceiling": null,
    "temp": 15,
    "dewpoint": 6,
    "altimeter": 29.88,
    "conditions": "",
    "observationTime": "2026-05-05T11:20:00.000Z"
  },
  "SYD": {
    "raw": "METAR YSSY 051100Z AUTO 24006KT 9999 // NCD 17/11 Q1021",
    "icao": "YSSY",
    "flightCategory": "VFR",
    "windDir": 240,
    "windSpeed": 6,
    "windGust": null,
    "visibility": 6,
    "ceiling": null,
    "temp": 17,
    "dewpoint": 11,
    "altimeter": 30.15,
    "conditions": "",
    "observationTime": "2026-05-05T11:00:00.000Z"
  }
}