{
  "SYD": {
    "raw": "METAR YSSY 231200Z AUTO 13008KT 9999 // OVC062 19/11 Q1030",
    "icao": "YSSY",
    "flightCategory": "VFR",
    "windDir": 130,
    "windSpeed": 8,
    "windGust": null,
    "visibility": 6,
    "ceiling": 6200,
    "temp": 19,
    "dewpoint": 11,
    "altimeter": 30.42,
    "conditions": "",
    "observationTime": "2026-04-23T12:00:00.000Z"
  },
  "LHR": {
    "raw": "METAR EGLL 231150Z COR AUTO 09010KT 050V110 9999 NCD 17/04 Q1030 NOSIG",
    "icao": "EGLL",
    "flightCategory": "VFR",
    "windDir": 90,
    "windSpeed": 10,
    "windGust": null,
    "visibility": 6,
    "ceiling": null,
    "temp": 17,
    "dewpoint": 4,
    "altimeter": 30.42,
    "conditions": "",
    "observationTime": "2026-04-23T12:00:00.000Z"
  },
  "LAS": {
    "raw": "METAR KLAS 231156Z 03007KT 10SM CLR 16/M06 A2996 RMK AO2 SLP129 T01611056 10194 20161 51009",
    "icao": "KLAS",
    "flightCategory": "VFR",
    "windDir": 30,
    "windSpeed": 7,
    "windGust": null,
    "visibility": 10,
    "ceiling": null,
    "temp": 16.1,
    "dewpoint": -5.6,
    "altimeter": 29.96,
    "conditions": "",
    "observationTime": "2026-04-23T12:00:00.000Z"
  },
  "LAX": {
    "raw": "METAR KLAX 231153Z COR 08004KT 10SM FEW012 FEW250 13/09 A2999 RMK AO2 SLP155 T01330094 10161 20133",
    "icao": "KLAX",
    "flightCategory": "VFR",
    "windDir": 80,
    "windSpeed": 4,
    "windGust": null,
    "visibility": 10,
    "ceiling": null,
    "temp": 13.3,
    "dewpoint": 9.4,
    "altimeter": 29.99,
    "conditions": "",
    "observationTime": "2026-04-23T12:00:00.000Z"
  },
  "ORD": {
    "raw": "METAR KORD 231151Z 21005KT 10SM FEW250 14/11 A2992 RMK AO2 SLP131 T01390111 10139 20111 53003",
    "icao": "KORD",
    "flightCategory": "VFR",
    "windDir": 210,
    "windSpeed": 5,
    "windGust": null,
    "visibility": 10,
    "ceiling": null,
    "temp": 13.9,
    "dewpoint": 11.1,
    "altimeter": 29.92,
    "conditions": "",
    "observationTime": "2026-04-23T12:00:00.000Z"
  }
}