{
  "SYD": {
    "raw": "METAR YSSY 202100Z 33007KT CAVOK 09/07 Q1030",
    "icao": "YSSY",
    "flightCategory": "VFR",
    "windDir": 330,
    "windSpeed": 7,
    "windGust": null,
    "visibility": 6,
    "ceiling": null,
    "temp": 9,
    "dewpoint": 7,
    "altimeter": 30.42,
    "conditions": "",
    "observationTime": "2026-07-20T21:00:00.000Z"
  },
  "LHR": {
    "raw": "METAR EGLL 202050Z AUTO 13009KT 9999 NCD 20/09 Q1027",
    "icao": "EGLL",
    "flightCategory": "VFR",
    "windDir": 130,
    "windSpeed": 9,
    "windGust": null,
    "visibility": 6,
    "ceiling": null,
    "temp": 20,
    "dewpoint": 9,
    "altimeter": 30.33,
    "conditions": "",
    "observationTime": "2026-07-20T21:00:00.000Z"
  },
  "LAS": {
    "raw": "METAR KLAS 202056Z VRB03KT 10SM FEW100 SCT150 40/11 A2986 RMK AO2 SLP078 T04000111 58019 $",
    "icao": "KLAS",
    "flightCategory": "VFR",
    "windDir": null,
    "windSpeed": 3,
    "windGust": null,
    "visibility": 10,
    "ceiling": null,
    "temp": 40,
    "dewpoint": 11.1,
    "altimeter": 29.86,
    "conditions": "",
    "observationTime": "2026-07-20T21:00:00.000Z"
  },
  "LAX": {
    "raw": "METAR KLAX 202053Z 26009KT 10SM FEW012 SCT035 BKN120 BKN180 26/18 A2992 RMK AO2 SLP129 T02560183 58007 $",
    "icao": "KLAX",
    "flightCategory": "VFR",
    "windDir": 260,
    "windSpeed": 9,
    "windGust": null,
    "visibility": 10,
    "ceiling": 12000,
    "temp": 25.6,
    "dewpoint": 18.3,
    "altimeter": 29.92,
    "conditions": "",
    "observationTime": "2026-07-20T21:00:00.000Z"
  },
  "ORD": {
    "raw": "METAR KORD 202051Z 18013KT 5SM HZ SCT250 27/18 A2979 RMK AO2 SLP084 T02720183 58036",
    "icao": "KORD",
    "flightCategory": "MVFR",
    "windDir": 180,
    "windSpeed": 13,
    "windGust": null,
    "visibility": 5,
    "ceiling": null,
    "temp": 27.2,
    "dewpoint": 18.3,
    "altimeter": 29.79,
    "conditions": "HZ",
    "observationTime": "2026-07-20T21:00:00.000Z"
  }
}