{
  "SYD": {
    "raw": "METAR YSSY 310730Z AUTO 26010KT 9999 // NCD 16/05 Q1010",
    "icao": "YSSY",
    "flightCategory": "VFR",
    "windDir": 260,
    "windSpeed": 10,
    "windGust": null,
    "visibility": 6,
    "ceiling": null,
    "temp": 16,
    "dewpoint": 5,
    "altimeter": 29.83,
    "conditions": "",
    "observationTime": "2026-05-31T07:30:00.000Z"
  },
  "LAS": {
    "raw": "METAR KLAS 310756Z 23005KT 10SM CLR 25/00 A2990 RMK AO2 SLP101 T02500000 403110183",
    "icao": "KLAS",
    "flightCategory": "VFR",
    "windDir": 230,
    "windSpeed": 5,
    "windGust": null,
    "visibility": 10,
    "ceiling": null,
    "temp": 25,
    "dewpoint": 0,
    "altimeter": 29.9,
    "conditions": "",
    "observationTime": "2026-05-31T08:00:00.000Z"
  },
  "LAX": {
    "raw": "METAR KLAX 310753Z 26004KT 10SM SCT015 17/14 A2993 RMK AO2 SLP132 T01670144 402170156 $",
    "icao": "KLAX",
    "flightCategory": "VFR",
    "windDir": 260,
    "windSpeed": 4,
    "windGust": null,
    "visibility": 10,
    "ceiling": null,
    "temp": 16.7,
    "dewpoint": 14.4,
    "altimeter": 29.93,
    "conditions": "",
    "observationTime": "2026-05-31T08:00:00.000Z"
  },
  "ORD": {
    "raw": "METAR KORD 310751Z 13004KT 10SM BKN250 14/06 A3013 RMK AO2 SLP200 T01390056 $",
    "icao": "KORD",
    "flightCategory": "VFR",
    "windDir": 130,
    "windSpeed": 4,
    "windGust": null,
    "visibility": 10,
    "ceiling": 25000,
    "temp": 13.9,
    "dewpoint": 5.6,
    "altimeter": 30.13,
    "conditions": "",
    "observationTime": "2026-05-31T08:00:00.000Z"
  },
  "LHR": {
    "raw": "METAR EGLL 310750Z AUTO 25012KT 9999 FEW020 SCT025 18/12 Q1016",
    "icao": "EGLL",
    "flightCategory": "VFR",
    "windDir": 250,
    "windSpeed": 12,
    "windGust": null,
    "visibility": 6,
    "ceiling": null,
    "temp": 18,
    "dewpoint": 12,
    "altimeter": 30,
    "conditions": "",
    "observationTime": "2026-05-31T08:00:00.000Z"
  }
}