{
  "LHR": {
    "raw": "METAR EGLL 030850Z AUTO 21012KT 160V250 9999 OVC008 11/09 Q1011 TEMPO BKN010",
    "icao": "EGLL",
    "flightCategory": "IFR",
    "windDir": 210,
    "windSpeed": 12,
    "windGust": null,
    "visibility": 6,
    "ceiling": 800,
    "temp": 11,
    "dewpoint": 9,
    "altimeter": 29.85,
    "conditions": "",
    "observationTime": "2026-04-03T09:00:00.000Z"
  },
  "SYD": {
    "raw": "METAR YSSY 030900Z AUTO 15016KT 9999 // SCT022 BKN027 BKN032 22/17 Q1023",
    "icao": "YSSY",
    "flightCategory": "MVFR",
    "windDir": 150,
    "windSpeed": 16,
    "windGust": null,
    "visibility": 6,
    "ceiling": 2700,
    "temp": 22,
    "dewpoint": 17,
    "altimeter": 30.21,
    "conditions": "",
    "observationTime": "2026-04-03T09:00:00.000Z"
  },
  "LAS": {
    "raw": "METAR KLAS 030856Z 36021G30KT 10SM CLR 16/M09 A3005 RMK AO2 PK WND 36040/0824 SLP163 T01611094 51046",
    "icao": "KLAS",
    "flightCategory": "VFR",
    "windDir": 360,
    "windSpeed": 21,
    "windGust": 30,
    "visibility": 10,
    "ceiling": null,
    "temp": 16.1,
    "dewpoint": -9.4,
    "altimeter": 30.05,
    "conditions": "",
    "observationTime": "2026-04-03T09:00:00.000Z"
  },
  "LAX": {
    "raw": "METAR KLAX 030853Z 08003KT 10SM FEW050 FEW200 15/12 A2996 RMK AO2 SLP144 402000150 T01500122 50003 $",
    "icao": "KLAX",
    "flightCategory": "VFR",
    "windDir": 80,
    "windSpeed": 3,
    "windGust": null,
    "visibility": 10,
    "ceiling": null,
    "temp": 15,
    "dewpoint": 12.2,
    "altimeter": 29.96,
    "conditions": "",
    "observationTime": "2026-04-03T09:00:00.000Z"
  },
  "ORD": {
    "raw": "METAR KORD 030851Z 25018G25KT 10SM OVC013 11/08 A2987 RMK AO2 PK WND 24026/0754 SLP116 T01060078 51042 $",
    "icao": "KORD",
    "flightCategory": "MVFR",
    "windDir": 250,
    "windSpeed": 18,
    "windGust": 25,
    "visibility": 10,
    "ceiling": 1300,
    "temp": 10.6,
    "dewpoint": 7.8,
    "altimeter": 29.87,
    "conditions": "",
    "observationTime": "2026-04-03T09:00:00.000Z"
  }
}