{
  "SYD": {
    "raw": "METAR YSSY 020230Z 03015KT 9999 FEW028 SCT050 BKN060 24/16 Q1024",
    "icao": "YSSY",
    "flightCategory": "VFR",
    "windDir": 30,
    "windSpeed": 15,
    "windGust": null,
    "visibility": 6,
    "ceiling": 6000,
    "temp": 24,
    "dewpoint": 16,
    "altimeter": 30.24,
    "conditions": "",
    "observationTime": "2026-05-02T02:30:00.000Z"
  },
  "LAS": {
    "raw": "METAR KLAS 020256Z 04008KT 10SM FEW150 27/M11 A2990 RMK AO2 SLP106 T02721106 53005",
    "icao": "KLAS",
    "flightCategory": "VFR",
    "windDir": 40,
    "windSpeed": 8,
    "windGust": null,
    "visibility": 10,
    "ceiling": null,
    "temp": 27.2,
    "dewpoint": -10.6,
    "altimeter": 29.9,
    "conditions": "",
    "observationTime": "2026-05-02T03:00:00.000Z"
  },
  "LAX": {
    "raw": "METAR KLAX 020253Z 27014KT 10SM SCT010 SCT200 16/13 A2990 RMK AO2 SLP123 T01610133 53003",
    "icao": "KLAX",
    "flightCategory": "VFR",
    "windDir": 270,
    "windSpeed": 14,
    "windGust": null,
    "visibility": 10,
    "ceiling": null,
    "temp": 16.1,
    "dewpoint": 13.3,
    "altimeter": 29.9,
    "conditions": "",
    "observationTime": "2026-05-02T03:00:00.000Z"
  },
  "ORD": {
    "raw": "METAR KORD 020251Z 12003KT 10SM FEW060 FEW085 03/M03 A3009 RMK AO2 SLP194 T00331033 51013 $",
    "icao": "KORD",
    "flightCategory": "VFR",
    "windDir": 120,
    "windSpeed": 3,
    "windGust": null,
    "visibility": 10,
    "ceiling": null,
    "temp": 3.3,
    "dewpoint": -3.3,
    "altimeter": 30.09,
    "conditions": "",
    "observationTime": "2026-05-02T03:00:00.000Z"
  },
  "LHR": {
    "raw": "METAR EGLL 020220Z COR AUTO 21007KT 9999 NCD 10/09 Q1018 NOSIG",
    "icao": "EGLL",
    "flightCategory": "VFR",
    "windDir": 210,
    "windSpeed": 7,
    "windGust": null,
    "visibility": 6,
    "ceiling": null,
    "temp": 10,
    "dewpoint": 9,
    "altimeter": 30.06,
    "conditions": "",
    "observationTime": "2026-05-02T02:20:00.000Z"
  }
}