{
  "LHR": {
    "raw": "METAR EGLL 271050Z COR AUTO 08004KT 360V130 9999 NCD 18/04 Q1024 NOSIG",
    "icao": "EGLL",
    "flightCategory": "VFR",
    "windDir": 80,
    "windSpeed": 4,
    "windGust": null,
    "visibility": 6,
    "ceiling": null,
    "temp": 18,
    "dewpoint": 4,
    "altimeter": 30.24,
    "conditions": "",
    "observationTime": "2026-04-27T11:00:00.000Z"
  },
  "SYD": {
    "raw": "METAR YSSY 271100Z AUTO 04003KT 9999 // NCD 20/13 Q1026",
    "icao": "YSSY",
    "flightCategory": "VFR",
    "windDir": 40,
    "windSpeed": 3,
    "windGust": null,
    "visibility": 6,
    "ceiling": null,
    "temp": 20,
    "dewpoint": 13,
    "altimeter": 30.3,
    "conditions": "",
    "observationTime": "2026-04-27T11:00:00.000Z"
  },
  "LAS": {
    "raw": "METAR KLAS 271056Z 21013G22KT 10SM CLR 13/M01 A2984 RMK AO2 SLP093 T01281006",
    "icao": "KLAS",
    "flightCategory": "VFR",
    "windDir": 210,
    "windSpeed": 13,
    "windGust": 22,
    "visibility": 10,
    "ceiling": null,
    "temp": 12.8,
    "dewpoint": -0.6,
    "altimeter": 29.84,
    "conditions": "",
    "observationTime": "2026-04-27T11:00:00.000Z"
  },
  "LAX": {
    "raw": "METAR KLAX 271053Z 27009KT 10SM FEW020 OVC065 15/09 A2998 RMK AO2 SLP149 T01500094 $",
    "icao": "KLAX",
    "flightCategory": "VFR",
    "windDir": 270,
    "windSpeed": 9,
    "windGust": null,
    "visibility": 10,
    "ceiling": 6500,
    "temp": 15,
    "dewpoint": 9.4,
    "altimeter": 29.98,
    "conditions": "",
    "observationTime": "2026-04-27T11:00:00.000Z"
  },
  "ORD": {
    "raw": "METAR KORD 271051Z 14009KT 10SM FEW100 BKN160 OVC250 12/09 A2989 RMK AO2 SLP122 T01220089 $",
    "icao": "KORD",
    "flightCategory": "VFR",
    "windDir": 140,
    "windSpeed": 9,
    "windGust": null,
    "visibility": 10,
    "ceiling": 16000,
    "temp": 12.2,
    "dewpoint": 8.9,
    "altimeter": 29.89,
    "conditions": "",
    "observationTime": "2026-04-27T11:00:00.000Z"
  }
}