{
  "SYD": {
    "raw": "METAR YSSY 170130Z 31006KT 9999 FEW017 BKN190 BKN200 20/16 Q1021",
    "icao": "YSSY",
    "flightCategory": "VFR",
    "windDir": 310,
    "windSpeed": 6,
    "windGust": null,
    "visibility": 6,
    "ceiling": 19000,
    "temp": 20,
    "dewpoint": 16,
    "altimeter": 30.15,
    "conditions": "",
    "observationTime": "2026-05-17T01:30:00.000Z"
  },
  "LAS": {
    "raw": "METAR KLAS 170156Z 24011G21KT 10SM FEW120 33/M08 A2955 RMK AO2 SLP979 T03281078",
    "icao": "KLAS",
    "flightCategory": "VFR",
    "windDir": 240,
    "windSpeed": 11,
    "windGust": 21,
    "visibility": 10,
    "ceiling": null,
    "temp": 32.8,
    "dewpoint": -7.8,
    "altimeter": 29.55,
    "conditions": "",
    "observationTime": "2026-05-17T02:00:00.000Z"
  },
  "LAX": {
    "raw": "METAR KLAX 170153Z 24005KT 9SM FEW013 FEW038 18/11 A2983 RMK AO2 SLP099 T01830111",
    "icao": "KLAX",
    "flightCategory": "VFR",
    "windDir": 240,
    "windSpeed": 5,
    "windGust": null,
    "visibility": 9,
    "ceiling": null,
    "temp": 18.3,
    "dewpoint": 11.1,
    "altimeter": 29.83,
    "conditions": "",
    "observationTime": "2026-05-17T02:00:00.000Z"
  },
  "ORD": {
    "raw": "METAR KORD 170151Z 17008KT 10SM FEW190 BKN250 24/17 A2986 RMK AO2 SLP107 T02440172",
    "icao": "KORD",
    "flightCategory": "VFR",
    "windDir": 170,
    "windSpeed": 8,
    "windGust": null,
    "visibility": 10,
    "ceiling": 25000,
    "temp": 24.4,
    "dewpoint": 17.2,
    "altimeter": 29.86,
    "conditions": "",
    "observationTime": "2026-05-17T02:00:00.000Z"
  },
  "LHR": {
    "raw": "METAR EGLL 170150Z AUTO 25007KT 9999 -RA SCT040/// BKN047/// //////TCU 11/09 Q1008",
    "icao": "EGLL",
    "flightCategory": "VFR",
    "windDir": 250,
    "windSpeed": 7,
    "windGust": null,
    "visibility": 6,
    "ceiling": 4700,
    "temp": 11,
    "dewpoint": 9,
    "altimeter": 29.77,
    "conditions": "-RA",
    "observationTime": "2026-05-17T02:00:00.000Z"
  }
}