{
  "ORD": {
    "raw": "METAR KORD 011751Z 03019G26KT 10SM OVC014 03/M01 A3021 RMK AO2 PK WND 04027/1717 SLP236 T00281011 10033 20022 58000",
    "icao": "KORD",
    "flightCategory": "MVFR",
    "windDir": 30,
    "windSpeed": 19,
    "windGust": 26,
    "visibility": 10,
    "ceiling": 1400,
    "temp": 2.8,
    "dewpoint": -1.1,
    "altimeter": 30.21,
    "conditions": "",
    "observationTime": "2026-04-01T18:00:00.000Z"
  },
  "SYD": {
    "raw": "METAR YSSY 011730Z AUTO 00000KT 9999 // NCD 19/17 Q1022",
    "icao": "YSSY",
    "flightCategory": "VFR",
    "windDir": 0,
    "windSpeed": 0,
    "windGust": null,
    "visibility": 6,
    "ceiling": null,
    "temp": 19,
    "dewpoint": 17,
    "altimeter": 30.18,
    "conditions": "",
    "observationTime": "2026-04-01T17:30:00.000Z"
  },
  "LAS": {
    "raw": "METAR KLAS 011756Z 17005G22KT 10SM FEW110 FEW200 20/03 A2988 RMK AO2 SLP104 T02000033 10206 20156 51013",
    "icao": "KLAS",
    "flightCategory": "VFR",
    "windDir": 170,
    "windSpeed": 5,
    "windGust": 22,
    "visibility": 10,
    "ceiling": null,
    "temp": 20,
    "dewpoint": 3.3,
    "altimeter": 29.88,
    "conditions": "",
    "observationTime": "2026-04-01T18:00:00.000Z"
  },
  "LAX": {
    "raw": "METAR KLAX 011753Z 25007KT 10SM FEW022 FEW060 SCT140 SCT180 19/13 A3001 RMK AO2 SLP160 T01890128 10189 20150 53015 $",
    "icao": "KLAX",
    "flightCategory": "VFR",
    "windDir": 250,
    "windSpeed": 7,
    "windGust": null,
    "visibility": 10,
    "ceiling": null,
    "temp": 18.9,
    "dewpoint": 12.8,
    "altimeter": 30.01,
    "conditions": "",
    "observationTime": "2026-04-01T18:00:00.000Z"
  },
  "LHR": {
    "raw": "METAR EGLL 011750Z COR AUTO 29009KT 9999 SCT035 OVC047 12/06 Q1021 NOSIG",
    "icao": "EGLL",
    "flightCategory": "VFR",
    "windDir": 290,
    "windSpeed": 9,
    "windGust": null,
    "visibility": 6,
    "ceiling": 4700,
    "temp": 12,
    "dewpoint": 6,
    "altimeter": 30.15,
    "conditions": "",
    "observationTime": "2026-04-01T18:00:00.000Z"
  }
}