{
  "SYD": {
    "raw": "METAR YSSY 130230Z 12003KT CAVOK 20/15 Q1027",
    "icao": "YSSY",
    "flightCategory": "VFR",
    "windDir": 120,
    "windSpeed": 3,
    "windGust": null,
    "visibility": 6,
    "ceiling": null,
    "temp": 20,
    "dewpoint": 15,
    "altimeter": 30.33,
    "conditions": "",
    "observationTime": "2026-06-13T02:30:00.000Z"
  },
  "LAS": {
    "raw": "SPECI KLAS 130242Z 25014KT 10SM FEW120 SCT200 40/M01 A2972 RMK AO2 WSHFT 0222 T04001006",
    "icao": "KLAS",
    "flightCategory": "VFR",
    "windDir": 250,
    "windSpeed": 14,
    "windGust": null,
    "visibility": 10,
    "ceiling": null,
    "temp": 40,
    "dewpoint": -0.6,
    "altimeter": 29.72,
    "conditions": "",
    "observationTime": "2026-06-13T02:42:00.000Z"
  },
  "LAX": {
    "raw": "METAR KLAX 130253Z 26013KT 10SM BKN007 18/16 A2984 RMK AO2 SLP104 T01830161 53005 $",
    "icao": "KLAX",
    "flightCategory": "IFR",
    "windDir": 260,
    "windSpeed": 13,
    "windGust": null,
    "visibility": 10,
    "ceiling": 700,
    "temp": 18.3,
    "dewpoint": 16.1,
    "altimeter": 29.84,
    "conditions": "",
    "observationTime": "2026-06-13T03:00:00.000Z"
  },
  "ORD": {
    "raw": "METAR KORD 130251Z 23007KT 10SM CLR 23/14 A2993 RMK AO2 SLP131 T02280139 50007 $",
    "icao": "KORD",
    "flightCategory": "VFR",
    "windDir": 230,
    "windSpeed": 7,
    "windGust": null,
    "visibility": 10,
    "ceiling": null,
    "temp": 22.8,
    "dewpoint": 13.9,
    "altimeter": 29.93,
    "conditions": "",
    "observationTime": "2026-06-13T03:00:00.000Z"
  },
  "LHR": {
    "raw": "METAR EGLL 130220Z AUTO 23010KT 9999 BKN022 13/10 Q1022",
    "icao": "EGLL",
    "flightCategory": "MVFR",
    "windDir": 230,
    "windSpeed": 10,
    "windGust": null,
    "visibility": 6,
    "ceiling": 2200,
    "temp": 13,
    "dewpoint": 10,
    "altimeter": 30.18,
    "conditions": "",
    "observationTime": "2026-06-13T02:20:00.000Z"
  }
}