{
  "LHR": {
    "raw": "METAR EGLL 071350Z AUTO 29011KT 260V320 9999 NCD 29/12 Q1016",
    "icao": "EGLL",
    "flightCategory": "VFR",
    "windDir": 290,
    "windSpeed": 11,
    "windGust": null,
    "visibility": 6,
    "ceiling": null,
    "temp": 29,
    "dewpoint": 12,
    "altimeter": 30,
    "conditions": "",
    "observationTime": "2026-07-07T14:00:00.000Z"
  },
  "SYD": {
    "raw": "METAR YSSY 071330Z AUTO 21017KT 9999 // BKN065 14/11 Q1033",
    "icao": "YSSY",
    "flightCategory": "VFR",
    "windDir": 210,
    "windSpeed": 17,
    "windGust": null,
    "visibility": 6,
    "ceiling": 6500,
    "temp": 14,
    "dewpoint": 11,
    "altimeter": 30.5,
    "conditions": "",
    "observationTime": "2026-07-07T13:30:00.000Z"
  },
  "LAS": {
    "raw": "METAR KLAS 071356Z 21004KT 10SM CLR 31/03 A2993 RMK AO2 SLP103 T03060033 $",
    "icao": "KLAS",
    "flightCategory": "VFR",
    "windDir": 210,
    "windSpeed": 4,
    "windGust": null,
    "visibility": 10,
    "ceiling": null,
    "temp": 30.6,
    "dewpoint": 3.3,
    "altimeter": 29.93,
    "conditions": "",
    "observationTime": "2026-07-07T14:00:00.000Z"
  },
  "LAX": {
    "raw": "METAR KLAX 071353Z 25003KT 10SM FEW009 FEW012 SCT029 18/16 A2994 RMK AO2 SLP135 T01830161 $",
    "icao": "KLAX",
    "flightCategory": "VFR",
    "windDir": 250,
    "windSpeed": 3,
    "windGust": null,
    "visibility": 10,
    "ceiling": null,
    "temp": 18.3,
    "dewpoint": 16.1,
    "altimeter": 29.94,
    "conditions": "",
    "observationTime": "2026-07-07T14:00:00.000Z"
  },
  "ORD": {
    "raw": "METAR KORD 071351Z 35004KT 10SM CLR 26/16 A3010 RMK AO2 SLP188 T02560156 $",
    "icao": "KORD",
    "flightCategory": "VFR",
    "windDir": 350,
    "windSpeed": 4,
    "windGust": null,
    "visibility": 10,
    "ceiling": null,
    "temp": 25.6,
    "dewpoint": 15.6,
    "altimeter": 30.1,
    "conditions": "",
    "observationTime": "2026-07-07T14:00:00.000Z"
  }
}