{
  "LAS": {
    "raw": "METAR KLAS 310056Z 22016KT 10SM FEW150 BKN170 BKN220 29/M12 A2984 RMK AO2 PK WND 22027/0035 SLP081 T02891122",
    "icao": "KLAS",
    "flightCategory": "VFR",
    "windDir": 220,
    "windSpeed": 16,
    "windGust": null,
    "visibility": 10,
    "ceiling": 17000,
    "temp": 28.9,
    "dewpoint": -12.2,
    "altimeter": 29.84,
    "conditions": "",
    "observationTime": "2026-03-31T01:00:00.000Z"
  },
  "LAX": {
    "raw": "METAR KLAX 310053Z 25007KT 10SM FEW020 OVC250 18/14 A2998 RMK AO2 SLP151 T01780139",
    "icao": "KLAX",
    "flightCategory": "VFR",
    "windDir": 250,
    "windSpeed": 7,
    "windGust": null,
    "visibility": 10,
    "ceiling": 25000,
    "temp": 17.8,
    "dewpoint": 13.9,
    "altimeter": 29.98,
    "conditions": "",
    "observationTime": "2026-03-31T01:00:00.000Z"
  },
  "ORD": {
    "raw": "METAR KORD 310051Z 19015G28KT 10SM FEW170 BKN250 25/12 A2970 RMK AO2 PK WND 19028/0048 SLP054 T02500122",
    "icao": "KORD",
    "flightCategory": "VFR",
    "windDir": 190,
    "windSpeed": 15,
    "windGust": 28,
    "visibility": 10,
    "ceiling": 25000,
    "temp": 25,
    "dewpoint": 12.2,
    "altimeter": 29.7,
    "conditions": "",
    "observationTime": "2026-03-31T01:00:00.000Z"
  },
  "LHR": {
    "raw": "METAR EGLL 310020Z COR AUTO 27008KT 9999 OVC039 09/03 Q1029 NOSIG",
    "icao": "EGLL",
    "flightCategory": "VFR",
    "windDir": 270,
    "windSpeed": 8,
    "windGust": null,
    "visibility": 6,
    "ceiling": 3900,
    "temp": 9,
    "dewpoint": 3,
    "altimeter": 30.39,
    "conditions": "",
    "observationTime": "2026-03-31T00:20:00.000Z"
  },
  "SYD": {
    "raw": "METAR YSSY 310030Z 20006KT 9999 SCT035 22/16 Q1026",
    "icao": "YSSY",
    "flightCategory": "VFR",
    "windDir": 200,
    "windSpeed": 6,
    "windGust": null,
    "visibility": 6,
    "ceiling": null,
    "temp": 22,
    "dewpoint": 16,
    "altimeter": 30.3,
    "conditions": "",
    "observationTime": "2026-03-31T00:30:00.000Z"
  }
}