{
  "SYD": {
    "raw": "SPECI YSSY 120849Z AUTO 20006KT 9999 // FEW014 SCT018 BKN067 17/16 Q1031",
    "icao": "YSSY",
    "flightCategory": "VFR",
    "windDir": 200,
    "windSpeed": 6,
    "windGust": null,
    "visibility": 6,
    "ceiling": 6700,
    "temp": 17,
    "dewpoint": 16,
    "altimeter": 30.45,
    "conditions": "",
    "observationTime": "2026-06-12T08:49:00.000Z"
  },
  "LHR": {
    "raw": "METAR EGLL 120850Z AUTO 27015KT 9999 OVC017 17/14 Q1020",
    "icao": "EGLL",
    "flightCategory": "MVFR",
    "windDir": 270,
    "windSpeed": 15,
    "windGust": null,
    "visibility": 6,
    "ceiling": 1700,
    "temp": 17,
    "dewpoint": 14,
    "altimeter": 30.12,
    "conditions": "",
    "observationTime": "2026-06-12T09:00:00.000Z"
  },
  "LAS": {
    "raw": "METAR KLAS 120856Z 22004KT 10SM SCT250 29/M02 A2981 RMK AO2 SLP063 T02941017 50000",
    "icao": "KLAS",
    "flightCategory": "VFR",
    "windDir": 220,
    "windSpeed": 4,
    "windGust": null,
    "visibility": 10,
    "ceiling": null,
    "temp": 29.4,
    "dewpoint": -1.7,
    "altimeter": 29.81,
    "conditions": "",
    "observationTime": "2026-06-12T09:00:00.000Z"
  },
  "LAX": {
    "raw": "METAR KLAX 120853Z 27004KT 10SM OVC006 18/17 A2987 RMK AO2 SLP113 T01830167 50000",
    "icao": "KLAX",
    "flightCategory": "IFR",
    "windDir": 270,
    "windSpeed": 4,
    "windGust": null,
    "visibility": 10,
    "ceiling": 600,
    "temp": 18.3,
    "dewpoint": 16.7,
    "altimeter": 29.87,
    "conditions": "",
    "observationTime": "2026-06-12T09:00:00.000Z"
  },
  "ORD": {
    "raw": "METAR KORD 120851Z 22006KT 10SM CLR 17/14 A2984 RMK AO2 SLP102 T01670144 51015 $",
    "icao": "KORD",
    "flightCategory": "VFR",
    "windDir": 220,
    "windSpeed": 6,
    "windGust": null,
    "visibility": 10,
    "ceiling": null,
    "temp": 16.7,
    "dewpoint": 14.4,
    "altimeter": 29.84,
    "conditions": "",
    "observationTime": "2026-06-12T09:00:00.000Z"
  }
}