{
  "LAS": {
    "raw": "METAR KLAS 180456Z 18008KT 10SM SCT120 SCT150 BKN220 30/17 A2996 RMK AO2 SLP116 T03000167 $",
    "icao": "KLAS",
    "flightCategory": "VFR",
    "windDir": 180,
    "windSpeed": 8,
    "windGust": null,
    "visibility": 10,
    "ceiling": 22000,
    "temp": 30,
    "dewpoint": 16.7,
    "altimeter": 29.96,
    "conditions": "",
    "observationTime": "2026-07-18T05:00:00.000Z"
  },
  "LAX": {
    "raw": "METAR KLAX 180453Z 24004KT 10SM FEW012 SCT110 SCT150 22/18 A2998 RMK AO2 SLP147 T02170183 $",
    "icao": "KLAX",
    "flightCategory": "VFR",
    "windDir": 240,
    "windSpeed": 4,
    "windGust": null,
    "visibility": 10,
    "ceiling": null,
    "temp": 21.7,
    "dewpoint": 18.3,
    "altimeter": 29.98,
    "conditions": "",
    "observationTime": "2026-07-18T05:00:00.000Z"
  },
  "ORD": {
    "raw": "METAR KORD 180451Z 23006KT 10SM FEW250 28/22 A2992 RMK AO2 SLP124 T02780222 $",
    "icao": "KORD",
    "flightCategory": "VFR",
    "windDir": 230,
    "windSpeed": 6,
    "windGust": null,
    "visibility": 10,
    "ceiling": null,
    "temp": 27.8,
    "dewpoint": 22.2,
    "altimeter": 29.92,
    "conditions": "",
    "observationTime": "2026-07-18T05:00:00.000Z"
  },
  "LHR": {
    "raw": "METAR EGLL 180420Z AUTO 03006KT 9999 NCD 16/12 Q1019",
    "icao": "EGLL",
    "flightCategory": "VFR",
    "windDir": 30,
    "windSpeed": 6,
    "windGust": null,
    "visibility": 6,
    "ceiling": null,
    "temp": 16,
    "dewpoint": 12,
    "altimeter": 30.09,
    "conditions": "",
    "observationTime": "2026-07-18T04:20:00.000Z"
  },
  "SYD": {
    "raw": "METAR YSSY 180430Z 13010KT 9999 FEW030 BKN037 19/09 Q1030",
    "icao": "YSSY",
    "flightCategory": "VFR",
    "windDir": 130,
    "windSpeed": 10,
    "windGust": null,
    "visibility": 6,
    "ceiling": 3700,
    "temp": 19,
    "dewpoint": 9,
    "altimeter": 30.42,
    "conditions": "",
    "observationTime": "2026-07-18T04:30:00.000Z"
  }
}