{
  "LHR": {
    "raw": "METAR EGLL 051650Z COR AUTO 35006KT 300V020 9999 NCD 16/06 Q1011 NOSIG",
    "icao": "EGLL",
    "flightCategory": "VFR",
    "windDir": 350,
    "windSpeed": 6,
    "windGust": null,
    "visibility": 6,
    "ceiling": null,
    "temp": 16,
    "dewpoint": 6,
    "altimeter": 29.85,
    "conditions": "",
    "observationTime": "2026-05-05T17:00:00.000Z"
  },
  "SYD": {
    "raw": "METAR YSSY 051700Z AUTO 32007KT 9999 // SCT054 13/08 Q1020",
    "icao": "YSSY",
    "flightCategory": "VFR",
    "windDir": 320,
    "windSpeed": 7,
    "windGust": null,
    "visibility": 6,
    "ceiling": null,
    "temp": 13,
    "dewpoint": 8,
    "altimeter": 30.12,
    "conditions": "",
    "observationTime": "2026-05-05T17:00:00.000Z"
  },
  "LAS": {
    "raw": "METAR KLAS 051656Z VRB04KT 10SM FEW120 BKN250 18/01 A2985 RMK AO2 SLP094 T01830006",
    "icao": "KLAS",
    "flightCategory": "VFR",
    "windDir": null,
    "windSpeed": 4,
    "windGust": null,
    "visibility": 10,
    "ceiling": 25000,
    "temp": 18.3,
    "dewpoint": 0.6,
    "altimeter": 29.85,
    "conditions": "",
    "observationTime": "2026-05-05T17:00:00.000Z"
  },
  "LAX": {
    "raw": "METAR KLAX 051653Z 26011KT 10SM FEW010 SCT075 SCT090 BKN160 18/11 A2997 RMK AO2 SLP146 T01780106",
    "icao": "KLAX",
    "flightCategory": "VFR",
    "windDir": 260,
    "windSpeed": 11,
    "windGust": null,
    "visibility": 10,
    "ceiling": 16000,
    "temp": 17.8,
    "dewpoint": 10.6,
    "altimeter": 29.97,
    "conditions": "",
    "observationTime": "2026-05-05T17:00:00.000Z"
  },
  "ORD": {
    "raw": "METAR KORD 051651Z 29012G17KT 10SM FEW060 FEW150 BKN250 13/M02 A2978 RMK AO2 SLP082 T01331022",
    "icao": "KORD",
    "flightCategory": "VFR",
    "windDir": 290,
    "windSpeed": 12,
    "windGust": 17,
    "visibility": 10,
    "ceiling": 25000,
    "temp": 13.3,
    "dewpoint": -2.2,
    "altimeter": 29.78,
    "conditions": "",
    "observationTime": "2026-05-05T17:00:00.000Z"
  }
}