{
  "SYD": {
    "raw": "METAR YSSY 311030Z AUTO 28013KT 9999 // NCD 14/05 Q1011",
    "icao": "YSSY",
    "flightCategory": "VFR",
    "windDir": 280,
    "windSpeed": 13,
    "windGust": null,
    "visibility": 6,
    "ceiling": null,
    "temp": 14,
    "dewpoint": 5,
    "altimeter": 29.85,
    "conditions": "",
    "observationTime": "2026-05-31T10:30:00.000Z"
  },
  "LAS": {
    "raw": "METAR KLAS 311056Z 21006KT 10SM CLR 22/M01 A2989 RMK AO2 SLP099 T02221006",
    "icao": "KLAS",
    "flightCategory": "VFR",
    "windDir": 210,
    "windSpeed": 6,
    "windGust": null,
    "visibility": 10,
    "ceiling": null,
    "temp": 22.2,
    "dewpoint": -0.6,
    "altimeter": 29.89,
    "conditions": "",
    "observationTime": "2026-05-31T11:00:00.000Z"
  },
  "LAX": {
    "raw": "METAR KLAX 311053Z 01003KT 9SM FEW010 16/13 A2991 RMK AO2 SLP125 T01610133 $",
    "icao": "KLAX",
    "flightCategory": "VFR",
    "windDir": 10,
    "windSpeed": 3,
    "windGust": null,
    "visibility": 9,
    "ceiling": null,
    "temp": 16.1,
    "dewpoint": 13.3,
    "altimeter": 29.91,
    "conditions": "",
    "observationTime": "2026-05-31T11:00:00.000Z"
  },
  "ORD": {
    "raw": "METAR KORD 311051Z 11004KT 10SM BKN250 13/05 A3012 RMK AO2 SLP198 T01330050 $",
    "icao": "KORD",
    "flightCategory": "VFR",
    "windDir": 110,
    "windSpeed": 4,
    "windGust": null,
    "visibility": 10,
    "ceiling": 25000,
    "temp": 13.3,
    "dewpoint": 5,
    "altimeter": 30.12,
    "conditions": "",
    "observationTime": "2026-05-31T11:00:00.000Z"
  },
  "LHR": {
    "raw": "METAR EGLL 311020Z AUTO 26016KT 9999 FEW036 SCT045 20/10 Q1016",
    "icao": "EGLL",
    "flightCategory": "VFR",
    "windDir": 260,
    "windSpeed": 16,
    "windGust": null,
    "visibility": 6,
    "ceiling": null,
    "temp": 20,
    "dewpoint": 10,
    "altimeter": 30,
    "conditions": "",
    "observationTime": "2026-05-31T10:20:00.000Z"
  }
}