{
  "SYD": {
    "raw": "METAR YSSY 080230Z 14009KT 9999 FEW033 25/19 Q1014",
    "icao": "YSSY",
    "flightCategory": "VFR",
    "windDir": 140,
    "windSpeed": 9,
    "windGust": null,
    "visibility": 6,
    "ceiling": null,
    "temp": 25,
    "dewpoint": 19,
    "altimeter": 29.94,
    "conditions": "",
    "observationTime": "2026-04-08T02:30:00.000Z"
  },
  "LAS": {
    "raw": "METAR KLAS 080256Z 27008KT 10SM CLR 29/M08 A2983 RMK AO2 SLP080 T02891083 55001",
    "icao": "KLAS",
    "flightCategory": "VFR",
    "windDir": 270,
    "windSpeed": 8,
    "windGust": null,
    "visibility": 10,
    "ceiling": null,
    "temp": 28.9,
    "dewpoint": -8.3,
    "altimeter": 29.83,
    "conditions": "",
    "observationTime": "2026-04-08T03:00:00.000Z"
  },
  "LAX": {
    "raw": "METAR KLAX 080253Z 23005KT 10SM FEW015 17/14 A2991 RMK AO2 SLP126 T01720144 55003 $",
    "icao": "KLAX",
    "flightCategory": "VFR",
    "windDir": 230,
    "windSpeed": 5,
    "windGust": null,
    "visibility": 10,
    "ceiling": null,
    "temp": 17.2,
    "dewpoint": 14.4,
    "altimeter": 29.91,
    "conditions": "",
    "observationTime": "2026-04-08T03:00:00.000Z"
  },
  "ORD": {
    "raw": "METAR KORD 080251Z 10006KT 10SM SCT130 OVC250 01/M05 A3039 RMK AO2 SLP297 T00061050 56006 $",
    "icao": "KORD",
    "flightCategory": "VFR",
    "windDir": 100,
    "windSpeed": 6,
    "windGust": null,
    "visibility": 10,
    "ceiling": 25000,
    "temp": 0.6,
    "dewpoint": -5,
    "altimeter": 30.39,
    "conditions": "",
    "observationTime": "2026-04-08T03:00:00.000Z"
  },
  "LHR": {
    "raw": "METAR EGLL 080220Z COR AUTO 07005KT 9999 NCD 09/05 Q1022 NOSIG",
    "icao": "EGLL",
    "flightCategory": "VFR",
    "windDir": 70,
    "windSpeed": 5,
    "windGust": null,
    "visibility": 6,
    "ceiling": null,
    "temp": 9,
    "dewpoint": 5,
    "altimeter": 30.18,
    "conditions": "",
    "observationTime": "2026-04-08T02:20:00.000Z"
  }
}