{
  "LHR": {
    "raw": "METAR EGLL 242350Z COR AUTO 09002KT 9999 NCD 07/03 Q1023 NOSIG",
    "icao": "EGLL",
    "flightCategory": "VFR",
    "windDir": 90,
    "windSpeed": 2,
    "windGust": null,
    "visibility": 6,
    "ceiling": null,
    "temp": 7,
    "dewpoint": 3,
    "altimeter": 30.21,
    "conditions": "",
    "observationTime": "2026-04-25T00:00:00.000Z"
  },
  "SYD": {
    "raw": "METAR YSSY 250000Z 27005KT 9999 FEW040 20/14 Q1031",
    "icao": "YSSY",
    "flightCategory": "VFR",
    "windDir": 270,
    "windSpeed": 5,
    "windGust": null,
    "visibility": 6,
    "ceiling": null,
    "temp": 20,
    "dewpoint": 14,
    "altimeter": 30.45,
    "conditions": "",
    "observationTime": "2026-04-25T00:00:00.000Z"
  },
  "LAS": {
    "raw": "METAR KLAS 242356Z 22016G26KT 10SM SCT140 BKN170 BKN220 28/M13 A2969 RMK AO2 PK WND 22026/2352 SLP037 T02781128 10278 20233 56021",
    "icao": "KLAS",
    "flightCategory": "VFR",
    "windDir": 220,
    "windSpeed": 16,
    "windGust": 26,
    "visibility": 10,
    "ceiling": 17000,
    "temp": 27.8,
    "dewpoint": -12.8,
    "altimeter": 29.69,
    "conditions": "",
    "observationTime": "2026-04-25T00:00:00.000Z"
  },
  "LAX": {
    "raw": "METAR KLAX 242353Z 26012KT 10SM FEW012 FEW080 SCT160 19/13 A2986 RMK AO2 SLP109 T01890128 10233 20189 56011 $",
    "icao": "KLAX",
    "flightCategory": "VFR",
    "windDir": 260,
    "windSpeed": 12,
    "windGust": null,
    "visibility": 10,
    "ceiling": null,
    "temp": 18.9,
    "dewpoint": 12.8,
    "altimeter": 29.86,
    "conditions": "",
    "observationTime": "2026-04-25T00:00:00.000Z"
  },
  "ORD": {
    "raw": "METAR KORD 242351Z 31009KT 10SM SCT042 BKN250 21/11 A2974 RMK AO2 SLP068 T02060106 10211 20194 53007",
    "icao": "KORD",
    "flightCategory": "VFR",
    "windDir": 310,
    "windSpeed": 9,
    "windGust": null,
    "visibility": 10,
    "ceiling": 25000,
    "temp": 20.6,
    "dewpoint": 10.6,
    "altimeter": 29.74,
    "conditions": "",
    "observationTime": "2026-04-25T00:00:00.000Z"
  }
}