{
  "SYD": {
    "raw": "METAR YSSY 040600Z AUTO 20017KT 9999 // FEW060 BKN072 OVC081 19/16 Q1024",
    "icao": "YSSY",
    "flightCategory": "VFR",
    "windDir": 200,
    "windSpeed": 17,
    "windGust": null,
    "visibility": 6,
    "ceiling": 7200,
    "temp": 19,
    "dewpoint": 16,
    "altimeter": 30.24,
    "conditions": "",
    "observationTime": "2026-04-04T06:00:00.000Z"
  },
  "ORD": {
    "raw": "SPECI KORD 040541Z 04010KT 10SM -RA BKN009 OVC070 05/04 A2998 RMK AO2 P0001 T00500039 $",
    "icao": "KORD",
    "flightCategory": "IFR",
    "windDir": 40,
    "windSpeed": 10,
    "windGust": null,
    "visibility": 10,
    "ceiling": 900,
    "temp": 5,
    "dewpoint": 3.9,
    "altimeter": 29.98,
    "conditions": "-RA",
    "observationTime": "2026-04-04T05:41:00.000Z"
  },
  "LHR": {
    "raw": "METAR EGLL 040550Z COR AUTO 22007KT 9999 NCD 08/05 Q1017 NOSIG",
    "icao": "EGLL",
    "flightCategory": "VFR",
    "windDir": 220,
    "windSpeed": 7,
    "windGust": null,
    "visibility": 6,
    "ceiling": null,
    "temp": 8,
    "dewpoint": 5,
    "altimeter": 30.03,
    "conditions": "",
    "observationTime": "2026-04-04T06:00:00.000Z"
  },
  "LAS": {
    "raw": "METAR KLAS 040556Z 05008KT 10SM CLR 17/M10 A3023 RMK AO2 SLP225 T01721100 10217 20172 51016",
    "icao": "KLAS",
    "flightCategory": "VFR",
    "windDir": 50,
    "windSpeed": 8,
    "windGust": null,
    "visibility": 10,
    "ceiling": null,
    "temp": 17.2,
    "dewpoint": -10,
    "altimeter": 30.23,
    "conditions": "",
    "observationTime": "2026-04-04T06:00:00.000Z"
  },
  "LAX": {
    "raw": "METAR KLAX 040553Z 09003KT 10SM FEW190 SCT240 SCT290 19/11 A3003 RMK AO2 SLP167 T01940106 10206 20183 51017 $",
    "icao": "KLAX",
    "flightCategory": "VFR",
    "windDir": 90,
    "windSpeed": 3,
    "windGust": null,
    "visibility": 10,
    "ceiling": null,
    "temp": 19.4,
    "dewpoint": 10.6,
    "altimeter": 30.03,
    "conditions": "",
    "observationTime": "2026-04-04T06:00:00.000Z"
  }
}