{
  "LAX": {
    "raw": "SPECI KLAX 191206Z 24005KT 10SM FEW009 SCT012 OVC015 17/14 A2997 RMK AO2 T01720139 $",
    "icao": "KLAX",
    "flightCategory": "MVFR",
    "windDir": 240,
    "windSpeed": 5,
    "windGust": null,
    "visibility": 10,
    "ceiling": 1500,
    "temp": 17.2,
    "dewpoint": 13.9,
    "altimeter": 29.97,
    "conditions": "",
    "observationTime": "2026-06-19T12:06:00.000Z"
  },
  "ORD": {
    "raw": "METAR KORD 191251Z 30007KT 10SM FEW055 19/11 A2995 RMK AO2 SLP140 T01890111 $",
    "icao": "KORD",
    "flightCategory": "VFR",
    "windDir": 300,
    "windSpeed": 7,
    "windGust": null,
    "visibility": 10,
    "ceiling": null,
    "temp": 18.9,
    "dewpoint": 11.1,
    "altimeter": 29.95,
    "conditions": "",
    "observationTime": "2026-06-19T13:00:00.000Z"
  },
  "LHR": {
    "raw": "METAR EGLL 191220Z AUTO 23010G20KT 9999 NCD 29/17 Q1012",
    "icao": "EGLL",
    "flightCategory": "VFR",
    "windDir": 230,
    "windSpeed": 10,
    "windGust": 20,
    "visibility": 6,
    "ceiling": null,
    "temp": 29,
    "dewpoint": 17,
    "altimeter": 29.88,
    "conditions": "",
    "observationTime": "2026-06-19T12:20:00.000Z"
  },
  "SYD": {
    "raw": "METAR YSSY 191200Z AUTO 34012KT 9999 // NCD 17/10 Q1014",
    "icao": "YSSY",
    "flightCategory": "VFR",
    "windDir": 340,
    "windSpeed": 12,
    "windGust": null,
    "visibility": 6,
    "ceiling": null,
    "temp": 17,
    "dewpoint": 10,
    "altimeter": 29.94,
    "conditions": "",
    "observationTime": "2026-06-19T12:00:00.000Z"
  }
}