{
  "SYD": {
    "raw": "METAR YSSY 142000Z 30008KT CAVOK 13/10 Q1018",
    "icao": "YSSY",
    "flightCategory": "VFR",
    "windDir": 300,
    "windSpeed": 8,
    "windGust": null,
    "visibility": 6,
    "ceiling": null,
    "temp": 13,
    "dewpoint": 10,
    "altimeter": 30.06,
    "conditions": "",
    "observationTime": "2026-04-14T20:00:00.000Z"
  },
  "LHR": {
    "raw": "METAR EGLL 141950Z COR AUTO 18011KT 9999 OVC022 13/07 Q1018 NOSIG",
    "icao": "EGLL",
    "flightCategory": "MVFR",
    "windDir": 180,
    "windSpeed": 11,
    "windGust": null,
    "visibility": 6,
    "ceiling": 2200,
    "temp": 13,
    "dewpoint": 7,
    "altimeter": 30.06,
    "conditions": "",
    "observationTime": "2026-04-14T20:00:00.000Z"
  },
  "LAS": {
    "raw": "METAR KLAS 141956Z 21003KT 10SM FEW085 21/M03 A3002 RMK AO2 SLP154 T02111028 $",
    "icao": "KLAS",
    "flightCategory": "VFR",
    "windDir": 210,
    "windSpeed": 3,
    "windGust": null,
    "visibility": 10,
    "ceiling": null,
    "temp": 21.1,
    "dewpoint": -2.8,
    "altimeter": 30.02,
    "conditions": "",
    "observationTime": "2026-04-14T20:00:00.000Z"
  },
  "LAX": {
    "raw": "METAR KLAX 141953Z 23010KT 10SM FEW010 FEW030 20/09 A3009 RMK AO2 SLP189 T02000094",
    "icao": "KLAX",
    "flightCategory": "VFR",
    "windDir": 230,
    "windSpeed": 10,
    "windGust": null,
    "visibility": 10,
    "ceiling": null,
    "temp": 20,
    "dewpoint": 9.4,
    "altimeter": 30.09,
    "conditions": "",
    "observationTime": "2026-04-14T20:00:00.000Z"
  },
  "ORD": {
    "raw": "METAR KORD 141951Z 21013G26KT 10SM SCT040 BKN160 BKN250 26/17 A2977 RMK AO2 PK WND 19026/1942 SLP076 T02610172",
    "icao": "KORD",
    "flightCategory": "VFR",
    "windDir": 210,
    "windSpeed": 13,
    "windGust": 26,
    "visibility": 10,
    "ceiling": 16000,
    "temp": 26.1,
    "dewpoint": 17.2,
    "altimeter": 29.77,
    "conditions": "",
    "observationTime": "2026-04-14T20:00:00.000Z"
  }
}