{
  "ORD": {
    "raw": "METAR KORD 070851Z 35005KT 10SM CLR 18/14 A3007 RMK AO2 SLP180 T01830144 58001 $",
    "icao": "KORD",
    "flightCategory": "VFR",
    "windDir": 350,
    "windSpeed": 5,
    "windGust": null,
    "visibility": 10,
    "ceiling": null,
    "temp": 18.3,
    "dewpoint": 14.4,
    "altimeter": 30.07,
    "conditions": "",
    "observationTime": "2026-07-07T09:00:00.000Z"
  },
  "LHR": {
    "raw": "METAR EGLL 070820Z AUTO 28010KT 9999 NCD 22/12 Q1016",
    "icao": "EGLL",
    "flightCategory": "VFR",
    "windDir": 280,
    "windSpeed": 10,
    "windGust": null,
    "visibility": 6,
    "ceiling": null,
    "temp": 22,
    "dewpoint": 12,
    "altimeter": 30,
    "conditions": "",
    "observationTime": "2026-07-07T08:20:00.000Z"
  },
  "SYD": {
    "raw": "METAR YSSY 070800Z AUTO 21016KT 9999 // OVC059 15/12 Q1033",
    "icao": "YSSY",
    "flightCategory": "VFR",
    "windDir": 210,
    "windSpeed": 16,
    "windGust": null,
    "visibility": 6,
    "ceiling": 5900,
    "temp": 15,
    "dewpoint": 12,
    "altimeter": 30.5,
    "conditions": "",
    "observationTime": "2026-07-07T08:00:00.000Z"
  },
  "LAS": {
    "raw": "METAR KLAS 070756Z 28005KT 10SM CLR 32/02 A2986 RMK AO2 SLP077 T03220022 404170289 $",
    "icao": "KLAS",
    "flightCategory": "VFR",
    "windDir": 280,
    "windSpeed": 5,
    "windGust": null,
    "visibility": 10,
    "ceiling": null,
    "temp": 32.2,
    "dewpoint": 2.2,
    "altimeter": 29.86,
    "conditions": "",
    "observationTime": "2026-07-07T08:00:00.000Z"
  }
}