{
  "SYD": {
    "raw": "METAR YSSY 041300Z AUTO 33009KT 9999 // FEW100 12/04 Q1003",
    "icao": "YSSY",
    "flightCategory": "VFR",
    "windDir": 330,
    "windSpeed": 9,
    "windGust": null,
    "visibility": 6,
    "ceiling": null,
    "temp": 12,
    "dewpoint": 4,
    "altimeter": 29.62,
    "conditions": "",
    "observationTime": "2026-06-04T13:00:00.000Z"
  },
  "LHR": {
    "raw": "METAR EGLL 041250Z AUTO 25019KT 9999 FEW023/// BKN029/// BKN036/// //////CB 17/11 Q0998",
    "icao": "EGLL",
    "flightCategory": "MVFR",
    "windDir": 250,
    "windSpeed": 19,
    "windGust": null,
    "visibility": 6,
    "ceiling": 2900,
    "temp": 17,
    "dewpoint": 11,
    "altimeter": 29.47,
    "conditions": "",
    "observationTime": "2026-06-04T13:00:00.000Z"
  },
  "LAS": {
    "raw": "METAR KLAS 041256Z 20004KT 10SM CLR 27/M02 A2985 RMK AO2 SLP078 T02671017 $",
    "icao": "KLAS",
    "flightCategory": "VFR",
    "windDir": 200,
    "windSpeed": 4,
    "windGust": null,
    "visibility": 10,
    "ceiling": null,
    "temp": 26.7,
    "dewpoint": -1.7,
    "altimeter": 29.85,
    "conditions": "",
    "observationTime": "2026-06-04T13:00:00.000Z"
  },
  "LAX": {
    "raw": "METAR KLAX 041253Z 15003KT 7SM FEW007 OVC010 17/14 A2987 RMK AO2 SLP112 T01670144 $",
    "icao": "KLAX",
    "flightCategory": "MVFR",
    "windDir": 150,
    "windSpeed": 3,
    "windGust": null,
    "visibility": 7,
    "ceiling": 1000,
    "temp": 16.7,
    "dewpoint": 14.4,
    "altimeter": 29.87,
    "conditions": "",
    "observationTime": "2026-06-04T13:00:00.000Z"
  },
  "ORD": {
    "raw": "METAR KORD 041251Z 22005KT 10SM BKN300 22/10 A3015 RMK AO2 SLP207 T02170100",
    "icao": "KORD",
    "flightCategory": "VFR",
    "windDir": 220,
    "windSpeed": 5,
    "windGust": null,
    "visibility": 10,
    "ceiling": 30000,
    "temp": 21.7,
    "dewpoint": 10,
    "altimeter": 30.15,
    "conditions": "",
    "observationTime": "2026-06-04T13:00:00.000Z"
  }
}