{
  "SYD": {
    "raw": "SPECI YSSY 280730Z AUTO 15012KT 9999 -RA BKN016 BKN022 BKN030 20/18 Q1007 RERA",
    "icao": "YSSY",
    "flightCategory": "MVFR",
    "windDir": 150,
    "windSpeed": 12,
    "windGust": null,
    "visibility": 6,
    "ceiling": 1600,
    "temp": 20,
    "dewpoint": 18,
    "altimeter": 29.74,
    "conditions": "-RA",
    "observationTime": "2026-05-28T07:30:00.000Z"
  },
  "LAS": {
    "raw": "METAR KLAS 280756Z 23017G22KT 10SM FEW200 17/02 A2976 RMK AO2 PK WND 22029/0716 SLP062 T01720017 402780150",
    "icao": "KLAS",
    "flightCategory": "VFR",
    "windDir": 230,
    "windSpeed": 17,
    "windGust": 22,
    "visibility": 10,
    "ceiling": null,
    "temp": 17.2,
    "dewpoint": 1.7,
    "altimeter": 29.76,
    "conditions": "",
    "observationTime": "2026-05-28T08:00:00.000Z"
  },
  "LAX": {
    "raw": "METAR KLAX 280753Z 24005KT 10SM FEW018 FEW022 SCT055 14/09 A2994 RMK AO2 SLP135 T01440089 401890144 $",
    "icao": "KLAX",
    "flightCategory": "VFR",
    "windDir": 240,
    "windSpeed": 5,
    "windGust": null,
    "visibility": 10,
    "ceiling": null,
    "temp": 14.4,
    "dewpoint": 8.9,
    "altimeter": 29.94,
    "conditions": "",
    "observationTime": "2026-05-28T08:00:00.000Z"
  },
  "ORD": {
    "raw": "METAR KORD 280751Z 01009KT 10SM FEW250 16/08 A3009 RMK AO2 SLP187 T01560083 $",
    "icao": "KORD",
    "flightCategory": "VFR",
    "windDir": 10,
    "windSpeed": 9,
    "windGust": null,
    "visibility": 10,
    "ceiling": null,
    "temp": 15.6,
    "dewpoint": 8.3,
    "altimeter": 30.09,
    "conditions": "",
    "observationTime": "2026-05-28T08:00:00.000Z"
  },
  "LHR": {
    "raw": "METAR EGLL 280750Z AUTO 09011KT 9999 NCD 21/13 Q1022",
    "icao": "EGLL",
    "flightCategory": "VFR",
    "windDir": 90,
    "windSpeed": 11,
    "windGust": null,
    "visibility": 6,
    "ceiling": null,
    "temp": 21,
    "dewpoint": 13,
    "altimeter": 30.18,
    "conditions": "",
    "observationTime": "2026-05-28T08:00:00.000Z"
  }
}