{
  "SYD": {
    "raw": "METAR YSSY 061400Z AUTO 33006KT 9999 // NCD 16/13 Q1014",
    "icao": "YSSY",
    "flightCategory": "VFR",
    "windDir": 330,
    "windSpeed": 6,
    "windGust": null,
    "visibility": 6,
    "ceiling": null,
    "temp": 16,
    "dewpoint": 13,
    "altimeter": 29.94,
    "conditions": "",
    "observationTime": "2026-05-06T14:00:00.000Z"
  },
  "LHR": {
    "raw": "METAR EGLL 061350Z COR AUTO 02009KT 320V050 9999 FEW036 13/03 Q1013 NOSIG",
    "icao": "EGLL",
    "flightCategory": "VFR",
    "windDir": 20,
    "windSpeed": 9,
    "windGust": null,
    "visibility": 6,
    "ceiling": null,
    "temp": 13,
    "dewpoint": 3,
    "altimeter": 29.91,
    "conditions": "",
    "observationTime": "2026-05-06T14:00:00.000Z"
  },
  "LAS": {
    "raw": "METAR KLAS 061356Z 20006KT 10SM CLR 17/03 A2998 RMK AO2 SLP135 T01720028",
    "icao": "KLAS",
    "flightCategory": "VFR",
    "windDir": 200,
    "windSpeed": 6,
    "windGust": null,
    "visibility": 10,
    "ceiling": null,
    "temp": 17.2,
    "dewpoint": 2.8,
    "altimeter": 29.98,
    "conditions": "",
    "observationTime": "2026-05-06T14:00:00.000Z"
  },
  "LAX": {
    "raw": "METAR KLAX 061353Z 09003KT 10SM FEW016 FEW027 SCT160 14/11 A3007 RMK AO2 SLP180 T01390106",
    "icao": "KLAX",
    "flightCategory": "VFR",
    "windDir": 90,
    "windSpeed": 3,
    "windGust": null,
    "visibility": 10,
    "ceiling": null,
    "temp": 13.9,
    "dewpoint": 10.6,
    "altimeter": 30.07,
    "conditions": "",
    "observationTime": "2026-05-06T14:00:00.000Z"
  },
  "ORD": {
    "raw": "METAR KORD 061351Z 00000KT 10SM FEW210 BKN250 10/M03 A2993 RMK AO2 SLP138 T01001033",
    "icao": "KORD",
    "flightCategory": "VFR",
    "windDir": 0,
    "windSpeed": 0,
    "windGust": null,
    "visibility": 10,
    "ceiling": 25000,
    "temp": 10,
    "dewpoint": -3.3,
    "altimeter": 29.93,
    "conditions": "",
    "observationTime": "2026-05-06T14:00:00.000Z"
  }
}