{
  "LHR": {
    "raw": "METAR EGLL 192250Z AUTO 04005KT 010V070 9999 NCD 17/07 Q1026",
    "icao": "EGLL",
    "flightCategory": "VFR",
    "windDir": 40,
    "windSpeed": 5,
    "windGust": null,
    "visibility": 6,
    "ceiling": null,
    "temp": 17,
    "dewpoint": 7,
    "altimeter": 30.3,
    "conditions": "",
    "observationTime": "2026-07-19T23:00:00.000Z"
  },
  "SYD": {
    "raw": "METAR YSSY 192230Z AUTO 33006KT 9999 // OVC038 13/09 Q1033",
    "icao": "YSSY",
    "flightCategory": "VFR",
    "windDir": 330,
    "windSpeed": 6,
    "windGust": null,
    "visibility": 6,
    "ceiling": 3800,
    "temp": 13,
    "dewpoint": 9,
    "altimeter": 30.5,
    "conditions": "",
    "observationTime": "2026-07-19T22:30:00.000Z"
  },
  "LAS": {
    "raw": "METAR KLAS 192256Z 16007KT 120V190 10SM FEW080 FEW100 SCT150 40/12 A2984 RMK AO2 SLP068 T04000117 $",
    "icao": "KLAS",
    "flightCategory": "VFR",
    "windDir": 160,
    "windSpeed": 7,
    "windGust": null,
    "visibility": 10,
    "ceiling": null,
    "temp": 40,
    "dewpoint": 11.7,
    "altimeter": 29.84,
    "conditions": "",
    "observationTime": "2026-07-19T23:00:00.000Z"
  },
  "LAX": {
    "raw": "METAR KLAX 192253Z 26011KT 10SM FEW020 FEW120 24/18 A2988 RMK AO2 SLP116 T02440183 $",
    "icao": "KLAX",
    "flightCategory": "VFR",
    "windDir": 260,
    "windSpeed": 11,
    "windGust": null,
    "visibility": 10,
    "ceiling": null,
    "temp": 24.4,
    "dewpoint": 18.3,
    "altimeter": 29.88,
    "conditions": "",
    "observationTime": "2026-07-19T23:00:00.000Z"
  },
  "ORD": {
    "raw": "METAR KORD 192251Z 04008KT 8SM FEW035 FEW250 26/13 A2999 RMK AO2 SLP151 T02560128 $",
    "icao": "KORD",
    "flightCategory": "VFR",
    "windDir": 40,
    "windSpeed": 8,
    "windGust": null,
    "visibility": 8,
    "ceiling": null,
    "temp": 25.6,
    "dewpoint": 12.8,
    "altimeter": 29.99,
    "conditions": "",
    "observationTime": "2026-07-19T23:00:00.000Z"
  }
}