{
  "LHR": {
    "raw": "METAR EGLL 110850Z COR AUTO 33008KT 290V030 9999 BKN022 BKN029 BKN034 10/05 Q1011 NOSIG",
    "icao": "EGLL",
    "flightCategory": "MVFR",
    "windDir": 330,
    "windSpeed": 8,
    "windGust": null,
    "visibility": 6,
    "ceiling": 2200,
    "temp": 10,
    "dewpoint": 5,
    "altimeter": 29.85,
    "conditions": "",
    "observationTime": "2026-05-11T09:00:00.000Z"
  },
  "LAX": {
    "raw": "METAR KLAX 110853Z 28004KT 7SM FEW008 OVC010 16/14 A2997 RMK AO2 SLP145 T01610139 58003",
    "icao": "KLAX",
    "flightCategory": "MVFR",
    "windDir": 280,
    "windSpeed": 4,
    "windGust": null,
    "visibility": 7,
    "ceiling": 1000,
    "temp": 16.1,
    "dewpoint": 13.9,
    "altimeter": 29.97,
    "conditions": "",
    "observationTime": "2026-05-11T09:00:00.000Z"
  },
  "SYD": {
    "raw": "METAR YSSY 110830Z AUTO 11006KT 9999 // SCT030 SCT040 BKN051 19/14 Q1033",
    "icao": "YSSY",
    "flightCategory": "VFR",
    "windDir": 110,
    "windSpeed": 6,
    "windGust": null,
    "visibility": 6,
    "ceiling": 5100,
    "temp": 19,
    "dewpoint": 14,
    "altimeter": 30.5,
    "conditions": "",
    "observationTime": "2026-05-11T08:30:00.000Z"
  },
  "LAS": {
    "raw": "METAR KLAS 110856Z 21005KT 10SM CLR 27/M06 A2993 RMK AO2 SLP105 T02671061 50005",
    "icao": "KLAS",
    "flightCategory": "VFR",
    "windDir": 210,
    "windSpeed": 5,
    "windGust": null,
    "visibility": 10,
    "ceiling": null,
    "temp": 26.7,
    "dewpoint": -6.1,
    "altimeter": 29.93,
    "conditions": "",
    "observationTime": "2026-05-11T09:00:00.000Z"
  },
  "ORD": {
    "raw": "METAR KORD 110851Z 02011KT 10SM SCT100 07/03 A3015 RMK AO2 SLP211 T00720028 53007 $",
    "icao": "KORD",
    "flightCategory": "VFR",
    "windDir": 20,
    "windSpeed": 11,
    "windGust": null,
    "visibility": 10,
    "ceiling": null,
    "temp": 7.2,
    "dewpoint": 2.8,
    "altimeter": 30.15,
    "conditions": "",
    "observationTime": "2026-05-11T09:00:00.000Z"
  }
}