{
  "LAS": {
    "raw": "METAR KLAS 190156Z 28004KT 10SM FEW120 BKN250 24/M17 A2996 RMK AO2 SLP135 T02391167",
    "icao": "KLAS",
    "flightCategory": "VFR",
    "windDir": 280,
    "windSpeed": 4,
    "windGust": null,
    "visibility": 10,
    "ceiling": 25000,
    "temp": 23.9,
    "dewpoint": -16.7,
    "altimeter": 29.96,
    "conditions": "",
    "observationTime": "2026-04-19T02:00:00.000Z"
  },
  "LAX": {
    "raw": "METAR KLAX 190153Z 25009KT 10SM SCT220 SCT300 19/12 A2990 RMK AO2 SLP123 T01890122 $",
    "icao": "KLAX",
    "flightCategory": "VFR",
    "windDir": 250,
    "windSpeed": 9,
    "windGust": null,
    "visibility": 10,
    "ceiling": null,
    "temp": 18.9,
    "dewpoint": 12.2,
    "altimeter": 29.9,
    "conditions": "",
    "observationTime": "2026-04-19T02:00:00.000Z"
  },
  "ORD": {
    "raw": "METAR KORD 190151Z 27012G20KT 10SM FEW050 07/M04 A3003 RMK AO2 PK WND 26030/0055 SLP172 T00671044 $",
    "icao": "KORD",
    "flightCategory": "VFR",
    "windDir": 270,
    "windSpeed": 12,
    "windGust": 20,
    "visibility": 10,
    "ceiling": null,
    "temp": 6.7,
    "dewpoint": -4.4,
    "altimeter": 30.03,
    "conditions": "",
    "observationTime": "2026-04-19T02:00:00.000Z"
  },
  "LHR": {
    "raw": "METAR EGLL 190120Z COR AUTO VRB02KT 9999 NCD 08/03 Q1025 NOSIG",
    "icao": "EGLL",
    "flightCategory": "VFR",
    "windDir": null,
    "windSpeed": 2,
    "windGust": null,
    "visibility": 6,
    "ceiling": null,
    "temp": 8,
    "dewpoint": 3,
    "altimeter": 30.27,
    "conditions": "",
    "observationTime": "2026-04-19T01:20:00.000Z"
  },
  "SYD": {
    "raw": "METAR YSSY 190100Z 20012KT CAVOK 19/08 Q1022",
    "icao": "YSSY",
    "flightCategory": "VFR",
    "windDir": 200,
    "windSpeed": 12,
    "windGust": null,
    "visibility": 6,
    "ceiling": null,
    "temp": 19,
    "dewpoint": 8,
    "altimeter": 30.18,
    "conditions": "",
    "observationTime": "2026-04-19T01:00:00.000Z"
  }
}