{
  "LAS": {
    "raw": "METAR KLAS 241756Z VRB04KT 10SM SCT200 BKN250 24/M11 A2984 RMK AO2 SLP087 T02391111 10239 20150 56008",
    "icao": "KLAS",
    "flightCategory": "VFR",
    "windDir": null,
    "windSpeed": 4,
    "windGust": null,
    "visibility": 10,
    "ceiling": 25000,
    "temp": 23.9,
    "dewpoint": -11.1,
    "altimeter": 29.84,
    "conditions": "",
    "observationTime": "2026-04-24T18:00:00.000Z"
  },
  "LAX": {
    "raw": "METAR KLAX 241753Z 16006KT 10SM FEW016 SCT140 22/11 A2993 RMK AO2 SLP133 T02170111 10217 20139 58001 $",
    "icao": "KLAX",
    "flightCategory": "VFR",
    "windDir": 160,
    "windSpeed": 6,
    "windGust": null,
    "visibility": 10,
    "ceiling": null,
    "temp": 21.7,
    "dewpoint": 11.1,
    "altimeter": 29.93,
    "conditions": "",
    "observationTime": "2026-04-24T18:00:00.000Z"
  },
  "ORD": {
    "raw": "METAR KORD 241751Z 27009KT 10SM FEW030 SCT130 BKN160 OVC250 21/13 A2970 RMK AO2 SLP055 T02060128 10217 20194 51013",
    "icao": "KORD",
    "flightCategory": "VFR",
    "windDir": 270,
    "windSpeed": 9,
    "windGust": null,
    "visibility": 10,
    "ceiling": 16000,
    "temp": 20.6,
    "dewpoint": 12.8,
    "altimeter": 29.7,
    "conditions": "",
    "observationTime": "2026-04-24T18:00:00.000Z"
  },
  "LHR": {
    "raw": "METAR EGLL 241720Z AUTO 09010KT 9999 NCD 17/M07 Q1023",
    "icao": "EGLL",
    "flightCategory": "VFR",
    "windDir": 90,
    "windSpeed": 10,
    "windGust": null,
    "visibility": 6,
    "ceiling": null,
    "temp": 17,
    "dewpoint": -7,
    "altimeter": 30.21,
    "conditions": "",
    "observationTime": "2026-04-24T17:20:00.000Z"
  },
  "SYD": {
    "raw": "METAR YSSY 241730Z AUTO 32004KT 9999 // FEW041 BKN073 16/14 Q1030",
    "icao": "YSSY",
    "flightCategory": "VFR",
    "windDir": 320,
    "windSpeed": 4,
    "windGust": null,
    "visibility": 6,
    "ceiling": 7300,
    "temp": 16,
    "dewpoint": 14,
    "altimeter": 30.42,
    "conditions": "",
    "observationTime": "2026-04-24T17:30:00.000Z"
  }
}