{
  "SYD": {
    "raw": "METAR YSSY 250800Z AUTO 04009KT 9999 // NCD 21/16 Q1027",
    "icao": "YSSY",
    "flightCategory": "VFR",
    "windDir": 40,
    "windSpeed": 9,
    "windGust": null,
    "visibility": 6,
    "ceiling": null,
    "temp": 21,
    "dewpoint": 16,
    "altimeter": 30.33,
    "conditions": "",
    "observationTime": "2026-04-25T08:00:00.000Z"
  },
  "LHR": {
    "raw": "METAR EGLL 250750Z COR AUTO 07003KT 010V120 7000 FEW003 06/06 Q1022 NOSIG",
    "icao": "EGLL",
    "flightCategory": "MVFR",
    "windDir": 70,
    "windSpeed": 3,
    "windGust": null,
    "visibility": 4.35,
    "ceiling": null,
    "temp": 6,
    "dewpoint": 6,
    "altimeter": 30.18,
    "conditions": "",
    "observationTime": "2026-04-25T08:00:00.000Z"
  },
  "ORD": {
    "raw": "METAR KORD 250751Z 04009KT 10SM OVC010 09/07 A2989 RMK AO2 SLP119 T00890067",
    "icao": "KORD",
    "flightCategory": "MVFR",
    "windDir": 40,
    "windSpeed": 9,
    "windGust": null,
    "visibility": 10,
    "ceiling": 1000,
    "temp": 8.9,
    "dewpoint": 6.7,
    "altimeter": 29.89,
    "conditions": "",
    "observationTime": "2026-04-25T08:00:00.000Z"
  },
  "LAS": {
    "raw": "METAR KLAS 250756Z 22012G16KT 10SM CLR 21/M02 A2972 RMK AO2 SLP043 T02061022 402780150",
    "icao": "KLAS",
    "flightCategory": "VFR",
    "windDir": 220,
    "windSpeed": 12,
    "windGust": 16,
    "visibility": 10,
    "ceiling": null,
    "temp": 20.6,
    "dewpoint": -2.2,
    "altimeter": 29.72,
    "conditions": "",
    "observationTime": "2026-04-25T08:00:00.000Z"
  },
  "LAX": {
    "raw": "METAR KLAX 250753Z 19008KT 10SM FEW012 FEW220 SCT280 15/12 A2989 RMK AO2 SLP119 T01500117 402330139 $",
    "icao": "KLAX",
    "flightCategory": "VFR",
    "windDir": 190,
    "windSpeed": 8,
    "windGust": null,
    "visibility": 10,
    "ceiling": null,
    "temp": 15,
    "dewpoint": 11.7,
    "altimeter": 29.89,
    "conditions": "",
    "observationTime": "2026-04-25T08:00:00.000Z"
  }
}