{
  "SYD": {
    "raw": "METAR YSSY 282130Z 31007KT CAVOK 15/12 Q1028",
    "icao": "YSSY",
    "flightCategory": "VFR",
    "windDir": 310,
    "windSpeed": 7,
    "windGust": null,
    "visibility": 6,
    "ceiling": null,
    "temp": 15,
    "dewpoint": 12,
    "altimeter": 30.36,
    "conditions": "",
    "observationTime": "2026-04-28T21:30:00.000Z"
  },
  "LAS": {
    "raw": "METAR KLAS 282156Z 35006KT 10SM FEW100 SCT200 23/M06 A3000 RMK AO2 SLP143 T02331056",
    "icao": "KLAS",
    "flightCategory": "VFR",
    "windDir": 350,
    "windSpeed": 6,
    "windGust": null,
    "visibility": 10,
    "ceiling": null,
    "temp": 23.3,
    "dewpoint": -5.6,
    "altimeter": 30,
    "conditions": "",
    "observationTime": "2026-04-28T22:00:00.000Z"
  },
  "LAX": {
    "raw": "METAR KLAX 282153Z 24016G21KT 10SM FEW250 19/10 A3003 RMK AO2 SLP169 T01940100 $",
    "icao": "KLAX",
    "flightCategory": "VFR",
    "windDir": 240,
    "windSpeed": 16,
    "windGust": 21,
    "visibility": 10,
    "ceiling": null,
    "temp": 19.4,
    "dewpoint": 10,
    "altimeter": 30.03,
    "conditions": "",
    "observationTime": "2026-04-28T22:00:00.000Z"
  },
  "ORD": {
    "raw": "METAR KORD 282151Z 31009KT 10SM FEW033 BKN250 17/07 A2990 RMK AO2 SLP125 T01720072 $",
    "icao": "KORD",
    "flightCategory": "VFR",
    "windDir": 310,
    "windSpeed": 9,
    "windGust": null,
    "visibility": 10,
    "ceiling": 25000,
    "temp": 17.2,
    "dewpoint": 7.2,
    "altimeter": 29.9,
    "conditions": "",
    "observationTime": "2026-04-28T22:00:00.000Z"
  },
  "LHR": {
    "raw": "METAR EGLL 282120Z COR AUTO 05010KT 010V080 9999 NCD 10/M00 Q1024 NOSIG",
    "icao": "EGLL",
    "flightCategory": "VFR",
    "windDir": 50,
    "windSpeed": 10,
    "windGust": null,
    "visibility": 6,
    "ceiling": null,
    "temp": 10,
    "dewpoint": 0,
    "altimeter": 30.24,
    "conditions": "",
    "observationTime": "2026-04-28T21:20:00.000Z"
  }
}