{
  "SYD": {
    "raw": "METAR YSSY 180930Z AUTO 18013KT 9999 // NCD 18/10 Q1020",
    "icao": "YSSY",
    "flightCategory": "VFR",
    "windDir": 180,
    "windSpeed": 13,
    "windGust": null,
    "visibility": 6,
    "ceiling": null,
    "temp": 18,
    "dewpoint": 10,
    "altimeter": 30.12,
    "conditions": "",
    "observationTime": "2026-04-18T09:30:00.000Z"
  },
  "ORD": {
    "raw": "METAR KORD 180951Z 26014G21KT 10SM OVC009 11/08 A2966 RMK AO2 SLP039 T01060083 $",
    "icao": "KORD",
    "flightCategory": "IFR",
    "windDir": 260,
    "windSpeed": 14,
    "windGust": 21,
    "visibility": 10,
    "ceiling": 900,
    "temp": 10.6,
    "dewpoint": 8.3,
    "altimeter": 29.66,
    "conditions": "",
    "observationTime": "2026-04-18T10:00:00.000Z"
  },
  "LAS": {
    "raw": "METAR KLAS 180956Z 18003KT 10SM CLR 12/M15 A3008 RMK AO2 SLP177 T01171150",
    "icao": "KLAS",
    "flightCategory": "VFR",
    "windDir": 180,
    "windSpeed": 3,
    "windGust": null,
    "visibility": 10,
    "ceiling": null,
    "temp": 11.7,
    "dewpoint": -15,
    "altimeter": 30.08,
    "conditions": "",
    "observationTime": "2026-04-18T10:00:00.000Z"
  },
  "LAX": {
    "raw": "METAR KLAX 180953Z 06006KT 10SM CLR 16/11 A2995 RMK AO2 SLP139 T01610111",
    "icao": "KLAX",
    "flightCategory": "VFR",
    "windDir": 60,
    "windSpeed": 6,
    "windGust": null,
    "visibility": 10,
    "ceiling": null,
    "temp": 16.1,
    "dewpoint": 11.1,
    "altimeter": 29.95,
    "conditions": "",
    "observationTime": "2026-04-18T10:00:00.000Z"
  },
  "LHR": {
    "raw": "METAR EGLL 180920Z COR AUTO 28009KT 240V320 9999 NCD 13/07 Q1022 NOSIG",
    "icao": "EGLL",
    "flightCategory": "VFR",
    "windDir": 280,
    "windSpeed": 9,
    "windGust": null,
    "visibility": 6,
    "ceiling": null,
    "temp": 13,
    "dewpoint": 7,
    "altimeter": 30.18,
    "conditions": "",
    "observationTime": "2026-04-18T09:20:00.000Z"
  }
}