{
  "SYD": {
    "raw": "METAR YSSY 010530Z AUTO 07014KT 9999 // NCD 26/16 Q1021",
    "icao": "YSSY",
    "flightCategory": "VFR",
    "windDir": 70,
    "windSpeed": 14,
    "windGust": null,
    "visibility": 6,
    "ceiling": null,
    "temp": 26,
    "dewpoint": 16,
    "altimeter": 30.15,
    "conditions": "",
    "observationTime": "2026-04-01T05:30:00.000Z"
  },
  "LAS": {
    "raw": "METAR KLAS 010556Z 23020G30KT 10SM BKN100 17/05 A2984 RMK AO2 PK WND 23030/0551 SLP087 T01670050 10256 20167 50005",
    "icao": "KLAS",
    "flightCategory": "VFR",
    "windDir": 230,
    "windSpeed": 20,
    "windGust": 30,
    "visibility": 10,
    "ceiling": 10000,
    "temp": 16.7,
    "dewpoint": 5,
    "altimeter": 29.84,
    "conditions": "",
    "observationTime": "2026-04-01T06:00:00.000Z"
  },
  "LAX": {
    "raw": "METAR KLAX 010553Z 00000KT 10SM -RA FEW018 FEW025 OVC080 18/15 A2993 RMK AO2 SLP134 P0002 60002 T01780150 10189 20172 55000 $",
    "icao": "KLAX",
    "flightCategory": "VFR",
    "windDir": 0,
    "windSpeed": 0,
    "windGust": null,
    "visibility": 10,
    "ceiling": 8000,
    "temp": 17.8,
    "dewpoint": 15,
    "altimeter": 29.93,
    "conditions": "-RA",
    "observationTime": "2026-04-01T06:00:00.000Z"
  },
  "ORD": {
    "raw": "SPECI KORD 010517Z 03018KT 10SM SCT019 SCT250 04/01 A3008 RMK AO2 PK WND 04027/0504 T00440011 $",
    "icao": "KORD",
    "flightCategory": "VFR",
    "windDir": 30,
    "windSpeed": 18,
    "windGust": null,
    "visibility": 10,
    "ceiling": null,
    "temp": 4.4,
    "dewpoint": 1.1,
    "altimeter": 30.08,
    "conditions": "",
    "observationTime": "2026-04-01T05:17:00.000Z"
  },
  "LHR": {
    "raw": "METAR EGLL 010520Z COR AUTO 30005KT 8000 BKN047 08/07 Q1026 NOSIG",
    "icao": "EGLL",
    "flightCategory": "MVFR",
    "windDir": 300,
    "windSpeed": 5,
    "windGust": null,
    "visibility": 4.97,
    "ceiling": 4700,
    "temp": 8,
    "dewpoint": 7,
    "altimeter": 30.3,
    "conditions": "",
    "observationTime": "2026-04-01T05:20:00.000Z"
  }
}