{
  "SYD": {
    "raw": "METAR YSSY 041800Z AUTO 26009KT 9999 // NCD 15/10 Q1016",
    "icao": "YSSY",
    "flightCategory": "VFR",
    "windDir": 260,
    "windSpeed": 9,
    "windGust": null,
    "visibility": 6,
    "ceiling": null,
    "temp": 15,
    "dewpoint": 10,
    "altimeter": 30,
    "conditions": "",
    "observationTime": "2026-05-04T18:00:00.000Z"
  },
  "LHR": {
    "raw": "METAR EGLL 041820Z COR AUTO 06005KT 9999 SCT022 15/10 Q1014 NOSIG",
    "icao": "EGLL",
    "flightCategory": "VFR",
    "windDir": 60,
    "windSpeed": 5,
    "windGust": null,
    "visibility": 6,
    "ceiling": null,
    "temp": 15,
    "dewpoint": 10,
    "altimeter": 29.94,
    "conditions": "",
    "observationTime": "2026-05-04T18:20:00.000Z"
  },
  "LAS": {
    "raw": "METAR KLAS 041756Z 18010G19KT 150V210 10SM SCT200 BKN250 21/02 A2983 RMK AO2 SLP083 T02110017 10211 20167 53009",
    "icao": "KLAS",
    "flightCategory": "VFR",
    "windDir": 180,
    "windSpeed": 10,
    "windGust": 19,
    "visibility": 10,
    "ceiling": 25000,
    "temp": 21.1,
    "dewpoint": 1.7,
    "altimeter": 29.83,
    "conditions": "",
    "observationTime": "2026-05-04T18:00:00.000Z"
  },
  "LAX": {
    "raw": "METAR KLAX 041753Z 24013G19KT 10SM FEW032 FEW060 SCT140 BKN180 18/09 A3001 RMK AO2 SLP161 T01830094 10189 20144 53012",
    "icao": "KLAX",
    "flightCategory": "VFR",
    "windDir": 240,
    "windSpeed": 13,
    "windGust": 19,
    "visibility": 10,
    "ceiling": 18000,
    "temp": 18.3,
    "dewpoint": 9.4,
    "altimeter": 30.01,
    "conditions": "",
    "observationTime": "2026-05-04T18:00:00.000Z"
  },
  "ORD": {
    "raw": "METAR KORD 041751Z 24014G26KT 10SM FEW075 SCT250 24/04 A2953 RMK AO2 PK WND 20026/1741 SLP996 T02440044 10244 20117 58022",
    "icao": "KORD",
    "flightCategory": "VFR",
    "windDir": 240,
    "windSpeed": 14,
    "windGust": 26,
    "visibility": 10,
    "ceiling": null,
    "temp": 24.4,
    "dewpoint": 4.4,
    "altimeter": 29.53,
    "conditions": "",
    "observationTime": "2026-05-04T18:00:00.000Z"
  }
}