{
  "LHR": {
    "raw": "METAR EGLL 191550Z AUTO 22017G30KT 190V250 9999 SCT026 BKN034 BKN041 17/11 Q1008",
    "icao": "EGLL",
    "flightCategory": "VFR",
    "windDir": 220,
    "windSpeed": 17,
    "windGust": 30,
    "visibility": 6,
    "ceiling": 3400,
    "temp": 17,
    "dewpoint": 11,
    "altimeter": 29.77,
    "conditions": "",
    "observationTime": "2026-05-19T16:00:00.000Z"
  },
  "SYD": {
    "raw": "METAR YSSY 191600Z AUTO 26009KT 9999 // NCD 13/10 Q1013",
    "icao": "YSSY",
    "flightCategory": "VFR",
    "windDir": 260,
    "windSpeed": 9,
    "windGust": null,
    "visibility": 6,
    "ceiling": null,
    "temp": 13,
    "dewpoint": 10,
    "altimeter": 29.91,
    "conditions": "",
    "observationTime": "2026-05-19T16:00:00.000Z"
  },
  "LAS": {
    "raw": "METAR KLAS 191556Z 02009KT 10SM CLR 21/M09 A3010 RMK AO2 SLP175 T02061094",
    "icao": "KLAS",
    "flightCategory": "VFR",
    "windDir": 20,
    "windSpeed": 9,
    "windGust": null,
    "visibility": 10,
    "ceiling": null,
    "temp": 20.6,
    "dewpoint": -9.4,
    "altimeter": 30.1,
    "conditions": "",
    "observationTime": "2026-05-19T16:00:00.000Z"
  },
  "LAX": {
    "raw": "METAR KLAX 191553Z 00000KT 6SM HZ FEW016 FEW230 SCT280 20/12 A2998 RMK AO2 SLP151 FU FEW016 T02000122",
    "icao": "KLAX",
    "flightCategory": "VFR",
    "windDir": 0,
    "windSpeed": 0,
    "windGust": null,
    "visibility": 6,
    "ceiling": null,
    "temp": 20,
    "dewpoint": 12.2,
    "altimeter": 29.98,
    "conditions": "HZ",
    "observationTime": "2026-05-19T16:00:00.000Z"
  },
  "ORD": {
    "raw": "METAR KORD 191551Z 24015G24KT 10SM FEW027 SCT120 BKN250 24/17 A2990 RMK AO2 PK WND 22029/1509 SLP122 T02390167",
    "icao": "KORD",
    "flightCategory": "VFR",
    "windDir": 240,
    "windSpeed": 15,
    "windGust": 24,
    "visibility": 10,
    "ceiling": 25000,
    "temp": 23.9,
    "dewpoint": 16.7,
    "altimeter": 29.9,
    "conditions": "",
    "observationTime": "2026-05-19T16:00:00.000Z"
  }
}