{
  "LHR": {
    "raw": "METAR EGLL 262350Z COR AUTO 14003KT 9999 NCD 10/06 Q1025 NOSIG",
    "icao": "EGLL",
    "flightCategory": "VFR",
    "windDir": 140,
    "windSpeed": 3,
    "windGust": null,
    "visibility": 6,
    "ceiling": null,
    "temp": 10,
    "dewpoint": 6,
    "altimeter": 30.27,
    "conditions": "",
    "observationTime": "2026-04-27T00:00:00.000Z"
  },
  "SYD": {
    "raw": "METAR YSSY 270000Z 31005KT 9999 FEW032 20/11 Q1025",
    "icao": "YSSY",
    "flightCategory": "VFR",
    "windDir": 310,
    "windSpeed": 5,
    "windGust": null,
    "visibility": 6,
    "ceiling": null,
    "temp": 20,
    "dewpoint": 11,
    "altimeter": 30.27,
    "conditions": "",
    "observationTime": "2026-04-27T00:00:00.000Z"
  },
  "LAS": {
    "raw": "METAR KLAS 262356Z 21011G15KT 10SM FEW070 FEW110 SCT140 BKN200 20/01 A2976 RMK AO2 SLP066 T02000011 10200 20161 58007",
    "icao": "KLAS",
    "flightCategory": "VFR",
    "windDir": 210,
    "windSpeed": 11,
    "windGust": 15,
    "visibility": 10,
    "ceiling": 20000,
    "temp": 20,
    "dewpoint": 1.1,
    "altimeter": 29.76,
    "conditions": "",
    "observationTime": "2026-04-27T00:00:00.000Z"
  },
  "LAX": {
    "raw": "METAR KLAX 262353Z 25018KT 10SM FEW028 FEW090 18/09 A2996 RMK AO2 SLP144 T01780094 58003 $",
    "icao": "KLAX",
    "flightCategory": "VFR",
    "windDir": 250,
    "windSpeed": 18,
    "windGust": null,
    "visibility": 10,
    "ceiling": null,
    "temp": 17.8,
    "dewpoint": 9.4,
    "altimeter": 29.96,
    "conditions": "",
    "observationTime": "2026-04-27T00:00:00.000Z"
  },
  "ORD": {
    "raw": "METAR KORD 262351Z 08008KT 10SM FEW200 SCT250 14/08 A2999 RMK AO2 SLP158 T01390078 10150 20117 56004 $",
    "icao": "KORD",
    "flightCategory": "VFR",
    "windDir": 80,
    "windSpeed": 8,
    "windGust": null,
    "visibility": 10,
    "ceiling": null,
    "temp": 13.9,
    "dewpoint": 7.8,
    "altimeter": 29.99,
    "conditions": "",
    "observationTime": "2026-04-27T00:00:00.000Z"
  }
}