{
  "SYD": {
    "raw": "METAR YSSY 042000Z 12006KT 9999 VCSH FEW012 SCT030 BKN055 16/15 Q1025",
    "icao": "YSSY",
    "flightCategory": "VFR",
    "windDir": 120,
    "windSpeed": 6,
    "windGust": null,
    "visibility": 6,
    "ceiling": 5500,
    "temp": 16,
    "dewpoint": 15,
    "altimeter": 30.27,
    "conditions": "VCSH",
    "observationTime": "2026-04-04T20:00:00.000Z"
  },
  "LHR": {
    "raw": "METAR EGLL 041950Z COR AUTO 23021KT 9999 BKN027 BKN031 12/07 Q1008 NOSIG",
    "icao": "EGLL",
    "flightCategory": "MVFR",
    "windDir": 230,
    "windSpeed": 21,
    "windGust": null,
    "visibility": 6,
    "ceiling": 2700,
    "temp": 12,
    "dewpoint": 7,
    "altimeter": 29.77,
    "conditions": "",
    "observationTime": "2026-04-04T20:00:00.000Z"
  },
  "LAS": {
    "raw": "METAR KLAS 041956Z 06011G21KT 10SM SCT250 23/M10 A3021 RMK AO2 SLP216 T02281100",
    "icao": "KLAS",
    "flightCategory": "VFR",
    "windDir": 60,
    "windSpeed": 11,
    "windGust": 21,
    "visibility": 10,
    "ceiling": null,
    "temp": 22.8,
    "dewpoint": -10,
    "altimeter": 30.21,
    "conditions": "",
    "observationTime": "2026-04-04T20:00:00.000Z"
  },
  "LAX": {
    "raw": "METAR KLAX 041953Z 25007KT 10SM FEW260 SCT300 29/00 A3000 RMK AO2 SLP158 T02940000 $",
    "icao": "KLAX",
    "flightCategory": "VFR",
    "windDir": 250,
    "windSpeed": 7,
    "windGust": null,
    "visibility": 10,
    "ceiling": null,
    "temp": 29.4,
    "dewpoint": 0,
    "altimeter": 30,
    "conditions": "",
    "observationTime": "2026-04-04T20:00:00.000Z"
  },
  "ORD": {
    "raw": "METAR KORD 041951Z 26015G26KT 10SM BKN018 BKN110 BKN250 09/04 A2986 RMK AO2 PK WND 27027/1938 SLP115 T00890044 $",
    "icao": "KORD",
    "flightCategory": "MVFR",
    "windDir": 260,
    "windSpeed": 15,
    "windGust": 26,
    "visibility": 10,
    "ceiling": 1800,
    "temp": 8.9,
    "dewpoint": 4.4,
    "altimeter": 29.86,
    "conditions": "",
    "observationTime": "2026-04-04T20:00:00.000Z"
  }
}