{
  "ORD": {
    "raw": "SPECI KORD 261321Z 07007KT 4SM BR OVC006 09/07 A3008 RMK AO2 T00890072",
    "icao": "KORD",
    "flightCategory": "IFR",
    "windDir": 70,
    "windSpeed": 7,
    "windGust": null,
    "visibility": 4,
    "ceiling": 600,
    "temp": 8.9,
    "dewpoint": 7.2,
    "altimeter": 30.08,
    "conditions": "BR",
    "observationTime": "2026-04-26T13:21:00.000Z"
  },
  "SYD": {
    "raw": "METAR YSSY 261330Z AUTO 28006KT 9999 // NCD 17/12 Q1024",
    "icao": "YSSY",
    "flightCategory": "VFR",
    "windDir": 280,
    "windSpeed": 6,
    "windGust": null,
    "visibility": 6,
    "ceiling": null,
    "temp": 17,
    "dewpoint": 12,
    "altimeter": 30.24,
    "conditions": "",
    "observationTime": "2026-04-26T13:30:00.000Z"
  },
  "LAS": {
    "raw": "METAR KLAS 261356Z 23017G24KT 10SM SCT060 BKN150 13/02 A2969 RMK AO2 PK WND 24032/1324 SLP041 T01280017",
    "icao": "KLAS",
    "flightCategory": "VFR",
    "windDir": 230,
    "windSpeed": 17,
    "windGust": 24,
    "visibility": 10,
    "ceiling": 15000,
    "temp": 12.8,
    "dewpoint": 1.7,
    "altimeter": 29.69,
    "conditions": "",
    "observationTime": "2026-04-26T14:00:00.000Z"
  },
  "LAX": {
    "raw": "METAR KLAX 261353Z 28013KT 10SM SCT012 SCT025 14/09 A2991 RMK AO2 SLP126 T01390094 $",
    "icao": "KLAX",
    "flightCategory": "VFR",
    "windDir": 280,
    "windSpeed": 13,
    "windGust": null,
    "visibility": 10,
    "ceiling": null,
    "temp": 13.9,
    "dewpoint": 9.4,
    "altimeter": 29.91,
    "conditions": "",
    "observationTime": "2026-04-26T14:00:00.000Z"
  },
  "LHR": {
    "raw": "METAR EGLL 261320Z COR AUTO 10006KT 050V200 9999 NCD 19/05 Q1024 NOSIG",
    "icao": "EGLL",
    "flightCategory": "VFR",
    "windDir": 100,
    "windSpeed": 6,
    "windGust": null,
    "visibility": 6,
    "ceiling": null,
    "temp": 19,
    "dewpoint": 5,
    "altimeter": 30.24,
    "conditions": "",
    "observationTime": "2026-04-26T13:20:00.000Z"
  }
}