{
  "LHR": {
    "raw": "METAR EGLL 100850Z COR AUTO 25003KT 190V310 9999 NCD 09/01 Q1021 NOSIG",
    "icao": "EGLL",
    "flightCategory": "VFR",
    "windDir": 250,
    "windSpeed": 3,
    "windGust": null,
    "visibility": 6,
    "ceiling": null,
    "temp": 9,
    "dewpoint": 1,
    "altimeter": 30.15,
    "conditions": "",
    "observationTime": "2026-04-10T09:00:00.000Z"
  },
  "ORD": {
    "raw": "SPECI KORD 100843Z 11008KT 3SM RA BR BKN006 OVC048 07/06 A3006 RMK AO2 PRESFR P0018 T00670056",
    "icao": "KORD",
    "flightCategory": "IFR",
    "windDir": 110,
    "windSpeed": 8,
    "windGust": null,
    "visibility": 3,
    "ceiling": 600,
    "temp": 6.7,
    "dewpoint": 5.6,
    "altimeter": 30.06,
    "conditions": "RA BR",
    "observationTime": "2026-04-10T08:43:00.000Z"
  },
  "SYD": {
    "raw": "METAR YSSY 100900Z AUTO 02014KT 9999 // NCD 27/16 Q1008",
    "icao": "YSSY",
    "flightCategory": "VFR",
    "windDir": 20,
    "windSpeed": 14,
    "windGust": null,
    "visibility": 6,
    "ceiling": null,
    "temp": 27,
    "dewpoint": 16,
    "altimeter": 29.77,
    "conditions": "",
    "observationTime": "2026-04-10T09:00:00.000Z"
  },
  "LAS": {
    "raw": "METAR KLAS 100856Z 21013G21KT 10SM FEW180 BKN220 22/06 A2986 RMK AO2 SLP087 T02220056 51006",
    "icao": "KLAS",
    "flightCategory": "VFR",
    "windDir": 210,
    "windSpeed": 13,
    "windGust": 21,
    "visibility": 10,
    "ceiling": 22000,
    "temp": 22.2,
    "dewpoint": 5.6,
    "altimeter": 29.86,
    "conditions": "",
    "observationTime": "2026-04-10T09:00:00.000Z"
  },
  "LAX": {
    "raw": "METAR KLAX 100853Z 25005KT 10SM BKN008 BKN012 16/13 A2996 RMK AO2 SLP143 T01560133 50001 $",
    "icao": "KLAX",
    "flightCategory": "IFR",
    "windDir": 250,
    "windSpeed": 5,
    "windGust": null,
    "visibility": 10,
    "ceiling": 800,
    "temp": 15.6,
    "dewpoint": 13.3,
    "altimeter": 29.96,
    "conditions": "",
    "observationTime": "2026-04-10T09:00:00.000Z"
  }
}