{
  "SYD": {
    "raw": "METAR YSSY 091330Z AUTO 32005KT 9999 // NCD 16/13 Q1028",
    "icao": "YSSY",
    "flightCategory": "VFR",
    "windDir": 320,
    "windSpeed": 5,
    "windGust": null,
    "visibility": 6,
    "ceiling": null,
    "temp": 16,
    "dewpoint": 13,
    "altimeter": 30.36,
    "conditions": "",
    "observationTime": "2026-06-09T13:30:00.000Z"
  },
  "LAS": {
    "raw": "METAR KLAS 091356Z 18009KT 10SM CLR 24/M03 A2981 RMK AO2 SLP067 T02441033",
    "icao": "KLAS",
    "flightCategory": "VFR",
    "windDir": 180,
    "windSpeed": 9,
    "windGust": null,
    "visibility": 10,
    "ceiling": null,
    "temp": 24.4,
    "dewpoint": -3.3,
    "altimeter": 29.81,
    "conditions": "",
    "observationTime": "2026-06-09T14:00:00.000Z"
  },
  "LAX": {
    "raw": "METAR KLAX 091353Z 00000KT 10SM FEW014 SCT160 18/13 A2990 RMK AO2 SLP124 T01780133 $",
    "icao": "KLAX",
    "flightCategory": "VFR",
    "windDir": 0,
    "windSpeed": 0,
    "windGust": null,
    "visibility": 10,
    "ceiling": null,
    "temp": 17.8,
    "dewpoint": 13.3,
    "altimeter": 29.9,
    "conditions": "",
    "observationTime": "2026-06-09T14:00:00.000Z"
  },
  "ORD": {
    "raw": "SPECI KORD 091347Z 19006KT 5SM -RA BR SCT007 SCT014 OVC041 23/22 A2993 RMK AO2 P0004",
    "icao": "KORD",
    "flightCategory": "MVFR",
    "windDir": 190,
    "windSpeed": 6,
    "windGust": null,
    "visibility": 5,
    "ceiling": 4100,
    "temp": 23,
    "dewpoint": 22,
    "altimeter": 29.93,
    "conditions": "-RA BR",
    "observationTime": "2026-06-09T13:47:00.000Z"
  },
  "LHR": {
    "raw": "METAR EGLL 091350Z AUTO 26021KT 9999 NCD 18/03 Q1014",
    "icao": "EGLL",
    "flightCategory": "VFR",
    "windDir": 260,
    "windSpeed": 21,
    "windGust": null,
    "visibility": 6,
    "ceiling": null,
    "temp": 18,
    "dewpoint": 3,
    "altimeter": 29.94,
    "conditions": "",
    "observationTime": "2026-06-09T14:00:00.000Z"
  }
}