{
  "SYD": {
    "raw": "METAR YSSY 240430Z 18005KT 9999 FEW013 BKN060 19/16 Q1023",
    "icao": "YSSY",
    "flightCategory": "VFR",
    "windDir": 180,
    "windSpeed": 5,
    "windGust": null,
    "visibility": 6,
    "ceiling": 6000,
    "temp": 19,
    "dewpoint": 16,
    "altimeter": 30.21,
    "conditions": "",
    "observationTime": "2026-05-24T04:30:00.000Z"
  },
  "LAS": {
    "raw": "METAR KLAS 240456Z 20009KT 10SM CLR 29/01 A2989 RMK AO2 SLP093 T02940011",
    "icao": "KLAS",
    "flightCategory": "VFR",
    "windDir": 200,
    "windSpeed": 9,
    "windGust": null,
    "visibility": 10,
    "ceiling": null,
    "temp": 29.4,
    "dewpoint": 1.1,
    "altimeter": 29.89,
    "conditions": "",
    "observationTime": "2026-05-24T05:00:00.000Z"
  },
  "LAX": {
    "raw": "METAR KLAX 240453Z 25008KT 10SM SCT012 16/13 A3002 RMK AO2 SLP163 T01610128",
    "icao": "KLAX",
    "flightCategory": "VFR",
    "windDir": 250,
    "windSpeed": 8,
    "windGust": null,
    "visibility": 10,
    "ceiling": null,
    "temp": 16.1,
    "dewpoint": 12.8,
    "altimeter": 30.02,
    "conditions": "",
    "observationTime": "2026-05-24T05:00:00.000Z"
  },
  "ORD": {
    "raw": "METAR KORD 240451Z 05006KT 10SM BKN110 BKN250 14/11 A3000 RMK AO2 SLP157 T01390111",
    "icao": "KORD",
    "flightCategory": "VFR",
    "windDir": 50,
    "windSpeed": 6,
    "windGust": null,
    "visibility": 10,
    "ceiling": 11000,
    "temp": 13.9,
    "dewpoint": 11.1,
    "altimeter": 30,
    "conditions": "",
    "observationTime": "2026-05-24T05:00:00.000Z"
  },
  "LHR": {
    "raw": "METAR EGLL 240450Z AUTO 08002KT 9999 NCD 15/13 Q1030",
    "icao": "EGLL",
    "flightCategory": "VFR",
    "windDir": 80,
    "windSpeed": 2,
    "windGust": null,
    "visibility": 6,
    "ceiling": null,
    "temp": 15,
    "dewpoint": 13,
    "altimeter": 30.42,
    "conditions": "",
    "observationTime": "2026-05-24T05:00:00.000Z"
  }
}