{
  "SYD": {
    "raw": "METAR YSSY 192300Z 30007KT 9999 FEW030 18/11 Q1025",
    "icao": "YSSY",
    "flightCategory": "VFR",
    "windDir": 300,
    "windSpeed": 7,
    "windGust": null,
    "visibility": 6,
    "ceiling": null,
    "temp": 18,
    "dewpoint": 11,
    "altimeter": 30.27,
    "conditions": "",
    "observationTime": "2026-04-19T23:00:00.000Z"
  },
  "LHR": {
    "raw": "METAR EGLL 192320Z COR AUTO 10005KT 9999 NCD 07/04 Q1025 NOSIG",
    "icao": "EGLL",
    "flightCategory": "VFR",
    "windDir": 100,
    "windSpeed": 5,
    "windGust": null,
    "visibility": 6,
    "ceiling": null,
    "temp": 7,
    "dewpoint": 4,
    "altimeter": 30.27,
    "conditions": "",
    "observationTime": "2026-04-19T23:20:00.000Z"
  },
  "LAS": {
    "raw": "METAR KLAS 192256Z 06008KT 10SM FEW130 BKN200 BKN250 29/M12 A2987 RMK AO2 SLP096 T02891122",
    "icao": "KLAS",
    "flightCategory": "VFR",
    "windDir": 60,
    "windSpeed": 8,
    "windGust": null,
    "visibility": 10,
    "ceiling": 20000,
    "temp": 28.9,
    "dewpoint": -12.2,
    "altimeter": 29.87,
    "conditions": "",
    "observationTime": "2026-04-19T23:00:00.000Z"
  },
  "LAX": {
    "raw": "METAR KLAX 192253Z 24011KT 10SM FEW250 21/11 A2990 RMK AO2 SLP122 T02110111 $",
    "icao": "KLAX",
    "flightCategory": "VFR",
    "windDir": 240,
    "windSpeed": 11,
    "windGust": null,
    "visibility": 10,
    "ceiling": null,
    "temp": 21.1,
    "dewpoint": 11.1,
    "altimeter": 29.9,
    "conditions": "",
    "observationTime": "2026-04-19T23:00:00.000Z"
  },
  "ORD": {
    "raw": "METAR KORD 192251Z 33011G21KT 10SM SCT060 BKN085 BKN250 08/M04 A3013 RMK AO2 SLP209 VIRGA T00831039 $",
    "icao": "KORD",
    "flightCategory": "VFR",
    "windDir": 330,
    "windSpeed": 11,
    "windGust": 21,
    "visibility": 10,
    "ceiling": 8500,
    "temp": 8.3,
    "dewpoint": -3.9,
    "altimeter": 30.13,
    "conditions": "",
    "observationTime": "2026-04-19T23:00:00.000Z"
  }
}