{
  "ORD": {
    "raw": "SPECI KORD 061137Z 26003KT 10SM BKN018 BKN060 BKN120 23/21 A2984 RMK AO2 RAE1055 TSB02E30 OCNL LTGIC DSNT SE CB DSNT SE MOV SE P0000 T02280211 $",
    "icao": "KORD",
    "flightCategory": "MVFR",
    "windDir": 260,
    "windSpeed": 3,
    "windGust": null,
    "visibility": 10,
    "ceiling": 1800,
    "temp": 22.8,
    "dewpoint": 21.1,
    "altimeter": 29.84,
    "conditions": "",
    "observationTime": "2026-06-06T11:37:00.000Z"
  },
  "LHR": {
    "raw": "METAR EGLL 061150Z AUTO 21018KT 170V240 9999 SCT022 BKN029 BKN047 16/12 Q1005",
    "icao": "EGLL",
    "flightCategory": "MVFR",
    "windDir": 210,
    "windSpeed": 18,
    "windGust": null,
    "visibility": 6,
    "ceiling": 2900,
    "temp": 16,
    "dewpoint": 12,
    "altimeter": 29.68,
    "conditions": "",
    "observationTime": "2026-06-06T12:00:00.000Z"
  },
  "SYD": {
    "raw": "METAR YSSY 061200Z AUTO 29005KT 9999 // NCD 13/08 Q1028",
    "icao": "YSSY",
    "flightCategory": "VFR",
    "windDir": 290,
    "windSpeed": 5,
    "windGust": null,
    "visibility": 6,
    "ceiling": null,
    "temp": 13,
    "dewpoint": 8,
    "altimeter": 30.36,
    "conditions": "",
    "observationTime": "2026-06-06T12:00:00.000Z"
  },
  "LAS": {
    "raw": "METAR KLAS 061156Z 20012G21KT 10SM CLR 28/02 A2971 RMK AO2 SLP028 T02780022 10328 20278 58000",
    "icao": "KLAS",
    "flightCategory": "VFR",
    "windDir": 200,
    "windSpeed": 12,
    "windGust": 21,
    "visibility": 10,
    "ceiling": null,
    "temp": 27.8,
    "dewpoint": 2.2,
    "altimeter": 29.71,
    "conditions": "",
    "observationTime": "2026-06-06T12:00:00.000Z"
  },
  "LAX": {
    "raw": "METAR KLAX 061153Z 16006KT 10SM OVC018 18/14 A2983 RMK AO2 SLP100 T01830139 10189 20183 58003 $",
    "icao": "KLAX",
    "flightCategory": "MVFR",
    "windDir": 160,
    "windSpeed": 6,
    "windGust": null,
    "visibility": 10,
    "ceiling": 1800,
    "temp": 18.3,
    "dewpoint": 13.9,
    "altimeter": 29.83,
    "conditions": "",
    "observationTime": "2026-06-06T12:00:00.000Z"
  }
}