{
  "LHR": {
    "raw": "METAR EGLL 051250Z AUTO 24010KT 210V290 9999 NCD 17/06 Q1012",
    "icao": "EGLL",
    "flightCategory": "VFR",
    "windDir": 240,
    "windSpeed": 10,
    "windGust": null,
    "visibility": 6,
    "ceiling": null,
    "temp": 17,
    "dewpoint": 6,
    "altimeter": 29.88,
    "conditions": "",
    "observationTime": "2026-06-05T13:00:00.000Z"
  },
  "SYD": {
    "raw": "METAR YSSY 051300Z AUTO 25015KT 9999 // NCD 13/05 Q1020",
    "icao": "YSSY",
    "flightCategory": "VFR",
    "windDir": 250,
    "windSpeed": 15,
    "windGust": null,
    "visibility": 6,
    "ceiling": null,
    "temp": 13,
    "dewpoint": 5,
    "altimeter": 30.12,
    "conditions": "",
    "observationTime": "2026-06-05T13:00:00.000Z"
  },
  "LAS": {
    "raw": "METAR KLAS 051256Z 17003KT 10SM CLR 27/M01 A2981 RMK AO2 SLP062 T02671006",
    "icao": "KLAS",
    "flightCategory": "VFR",
    "windDir": 170,
    "windSpeed": 3,
    "windGust": null,
    "visibility": 10,
    "ceiling": null,
    "temp": 26.7,
    "dewpoint": -0.6,
    "altimeter": 29.81,
    "conditions": "",
    "observationTime": "2026-06-05T13:00:00.000Z"
  },
  "LAX": {
    "raw": "METAR KLAX 051253Z 10004KT 4SM BR FEW008 OVC011 18/16 A2984 RMK AO2 SLP103 VIS N 2 1/2 T01780156 $",
    "icao": "KLAX",
    "flightCategory": "MVFR",
    "windDir": 100,
    "windSpeed": 4,
    "windGust": null,
    "visibility": 4,
    "ceiling": 1100,
    "temp": 17.8,
    "dewpoint": 15.6,
    "altimeter": 29.84,
    "conditions": "BR",
    "observationTime": "2026-06-05T13:00:00.000Z"
  },
  "ORD": {
    "raw": "METAR KORD 051251Z 20008G19KT 10SM BKN070 BKN085 BKN110 23/16 A2991 RMK AO2 LTG DSNT N SLP121 T02330156",
    "icao": "KORD",
    "flightCategory": "VFR",
    "windDir": 200,
    "windSpeed": 8,
    "windGust": 19,
    "visibility": 10,
    "ceiling": 7000,
    "temp": 23.3,
    "dewpoint": 15.6,
    "altimeter": 29.91,
    "conditions": "",
    "observationTime": "2026-06-05T13:00:00.000Z"
  }
}