{
  "SYD": {
    "raw": "METAR YSSY 080600Z 13009KT 9999 FEW035 BKN290 25/18 Q1014",
    "icao": "YSSY",
    "flightCategory": "VFR",
    "windDir": 130,
    "windSpeed": 9,
    "windGust": null,
    "visibility": 6,
    "ceiling": 29000,
    "temp": 25,
    "dewpoint": 18,
    "altimeter": 29.94,
    "conditions": "",
    "observationTime": "2026-04-08T06:00:00.000Z"
  },
  "LHR": {
    "raw": "METAR EGLL 080550Z COR AUTO VRB02KT 9999 NCD 09/06 Q1022 NOSIG",
    "icao": "EGLL",
    "flightCategory": "VFR",
    "windDir": null,
    "windSpeed": 2,
    "windGust": null,
    "visibility": 6,
    "ceiling": null,
    "temp": 9,
    "dewpoint": 6,
    "altimeter": 30.18,
    "conditions": "",
    "observationTime": "2026-04-08T06:00:00.000Z"
  },
  "LAS": {
    "raw": "METAR KLAS 080556Z 18005KT 10SM CLR 25/M08 A2986 RMK AO2 SLP090 T02501083 10322 20250 51011",
    "icao": "KLAS",
    "flightCategory": "VFR",
    "windDir": 180,
    "windSpeed": 5,
    "windGust": null,
    "visibility": 10,
    "ceiling": null,
    "temp": 25,
    "dewpoint": -8.3,
    "altimeter": 29.86,
    "conditions": "",
    "observationTime": "2026-04-08T06:00:00.000Z"
  },
  "LAX": {
    "raw": "METAR KLAX 080553Z 23004KT 10SM FEW007 FEW015 17/15 A2993 RMK AO2 SLP134 T01670150 10194 20167 51008 $",
    "icao": "KLAX",
    "flightCategory": "VFR",
    "windDir": 230,
    "windSpeed": 4,
    "windGust": null,
    "visibility": 10,
    "ceiling": null,
    "temp": 16.7,
    "dewpoint": 15,
    "altimeter": 29.93,
    "conditions": "",
    "observationTime": "2026-04-08T06:00:00.000Z"
  },
  "ORD": {
    "raw": "METAR KORD 080551Z 12005KT 10SM FEW080 BKN120 OVC250 02/M03 A3033 RMK AO2 SLP279 T00171028 10017 20000 400891022 58018 $",
    "icao": "KORD",
    "flightCategory": "VFR",
    "windDir": 120,
    "windSpeed": 5,
    "windGust": null,
    "visibility": 10,
    "ceiling": 12000,
    "temp": 1.7,
    "dewpoint": -2.8,
    "altimeter": 30.33,
    "conditions": "",
    "observationTime": "2026-04-08T06:00:00.000Z"
  }
}