{
  "SYD": {
    "raw": "METAR YSSY 150030Z 26012KT CAVOK 23/11 Q1019",
    "icao": "YSSY",
    "flightCategory": "VFR",
    "windDir": 260,
    "windSpeed": 12,
    "windGust": null,
    "visibility": 6,
    "ceiling": null,
    "temp": 23,
    "dewpoint": 11,
    "altimeter": 30.09,
    "conditions": "",
    "observationTime": "2026-04-15T00:30:00.000Z"
  },
  "LAS": {
    "raw": "METAR KLAS 150056Z 02004KT 10SM FEW100 FEW250 23/M05 A2994 RMK AO2 SLP126 T02331050",
    "icao": "KLAS",
    "flightCategory": "VFR",
    "windDir": 20,
    "windSpeed": 4,
    "windGust": null,
    "visibility": 10,
    "ceiling": null,
    "temp": 23.3,
    "dewpoint": -5,
    "altimeter": 29.94,
    "conditions": "",
    "observationTime": "2026-04-15T01:00:00.000Z"
  },
  "LAX": {
    "raw": "METAR KLAX 150053Z 26013KT 10SM FEW015 FEW070 18/12 A3003 RMK AO2 SLP168 T01830117",
    "icao": "KLAX",
    "flightCategory": "VFR",
    "windDir": 260,
    "windSpeed": 13,
    "windGust": null,
    "visibility": 10,
    "ceiling": null,
    "temp": 18.3,
    "dewpoint": 11.7,
    "altimeter": 30.03,
    "conditions": "",
    "observationTime": "2026-04-15T01:00:00.000Z"
  },
  "ORD": {
    "raw": "METAR KORD 150051Z 20015G22KT 10SM FEW046 SCT140 BKN240 OVC300 27/18 A2967 RMK AO2 SLP043 T02670178",
    "icao": "KORD",
    "flightCategory": "VFR",
    "windDir": 200,
    "windSpeed": 15,
    "windGust": 22,
    "visibility": 10,
    "ceiling": 24000,
    "temp": 26.7,
    "dewpoint": 17.8,
    "altimeter": 29.67,
    "conditions": "",
    "observationTime": "2026-04-15T01:00:00.000Z"
  },
  "LHR": {
    "raw": "METAR EGLL 150020Z COR AUTO 17008KT 9999 OVC015 13/10 Q1017 NOSIG",
    "icao": "EGLL",
    "flightCategory": "MVFR",
    "windDir": 170,
    "windSpeed": 8,
    "windGust": null,
    "visibility": 6,
    "ceiling": 1500,
    "temp": 13,
    "dewpoint": 10,
    "altimeter": 30.03,
    "conditions": "",
    "observationTime": "2026-04-15T00:20:00.000Z"
  }
}