{
  "LHR": {
    "raw": "METAR EGLL 212250Z COR AUTO 06010KT 9999 NCD 07/02 Q1026 NOSIG",
    "icao": "EGLL",
    "flightCategory": "VFR",
    "windDir": 60,
    "windSpeed": 10,
    "windGust": null,
    "visibility": 6,
    "ceiling": null,
    "temp": 7,
    "dewpoint": 2,
    "altimeter": 30.3,
    "conditions": "",
    "observationTime": "2026-04-21T23:00:00.000Z"
  },
  "SYD": {
    "raw": "METAR YSSY 212300Z 17009KT 9999 FEW040 BKN060 20/12 Q1027",
    "icao": "YSSY",
    "flightCategory": "VFR",
    "windDir": 170,
    "windSpeed": 9,
    "windGust": null,
    "visibility": 6,
    "ceiling": 6000,
    "temp": 20,
    "dewpoint": 12,
    "altimeter": 30.33,
    "conditions": "",
    "observationTime": "2026-04-21T23:00:00.000Z"
  },
  "LAS": {
    "raw": "METAR KLAS 212256Z 21018G30KT 10SM FEW120 SCT200 30/M08 A2978 RMK AO2 PK WND 21037/2226 SLP060 T03001083",
    "icao": "KLAS",
    "flightCategory": "VFR",
    "windDir": 210,
    "windSpeed": 18,
    "windGust": 30,
    "visibility": 10,
    "ceiling": null,
    "temp": 30,
    "dewpoint": -8.3,
    "altimeter": 29.78,
    "conditions": "",
    "observationTime": "2026-04-21T23:00:00.000Z"
  },
  "LAX": {
    "raw": "METAR KLAX 212253Z 20014KT 10SM FEW029 FEW055 21/13 A3004 RMK AO2 SLP170 T02060128 $",
    "icao": "KLAX",
    "flightCategory": "VFR",
    "windDir": 200,
    "windSpeed": 14,
    "windGust": null,
    "visibility": 10,
    "ceiling": null,
    "temp": 20.6,
    "dewpoint": 12.8,
    "altimeter": 30.04,
    "conditions": "",
    "observationTime": "2026-04-21T23:00:00.000Z"
  },
  "ORD": {
    "raw": "METAR KORD 212251Z 26013G18KT 10SM SCT060 BKN250 24/11 A2985 RMK AO2 SLP106 T02440106 $",
    "icao": "KORD",
    "flightCategory": "VFR",
    "windDir": 260,
    "windSpeed": 13,
    "windGust": 18,
    "visibility": 10,
    "ceiling": 25000,
    "temp": 24.4,
    "dewpoint": 10.6,
    "altimeter": 29.85,
    "conditions": "",
    "observationTime": "2026-04-21T23:00:00.000Z"
  }
}