{
  "SYD": {
    "raw": "METAR YSSY 100530Z 36014KT CAVOK 29/14 Q1008",
    "icao": "YSSY",
    "flightCategory": "VFR",
    "windDir": 360,
    "windSpeed": 14,
    "windGust": null,
    "visibility": 6,
    "ceiling": null,
    "temp": 29,
    "dewpoint": 14,
    "altimeter": 29.77,
    "conditions": "",
    "observationTime": "2026-04-10T05:30:00.000Z"
  },
  "LAS": {
    "raw": "METAR KLAS 100556Z AUTO 19010G23KT 10SM BKN200 24/03 A2984 RMK AO2 PK WND 21030/0543 SLP081 T02440033 10294 20244 51015",
    "icao": "KLAS",
    "flightCategory": "VFR",
    "windDir": 190,
    "windSpeed": 10,
    "windGust": 23,
    "visibility": 10,
    "ceiling": 20000,
    "temp": 24.4,
    "dewpoint": 3.3,
    "altimeter": 29.84,
    "conditions": "",
    "observationTime": "2026-04-10T06:00:00.000Z"
  },
  "LAX": {
    "raw": "METAR KLAX 100553Z 23004KT 10SM FEW010 BKN250 17/13 A2996 RMK AO2 SLP142 T01670133 10194 20167 50009 $",
    "icao": "KLAX",
    "flightCategory": "VFR",
    "windDir": 230,
    "windSpeed": 4,
    "windGust": null,
    "visibility": 10,
    "ceiling": 25000,
    "temp": 16.7,
    "dewpoint": 13.3,
    "altimeter": 29.96,
    "conditions": "",
    "observationTime": "2026-04-10T06:00:00.000Z"
  },
  "ORD": {
    "raw": "METAR KORD 100551Z 01013KT 10SM -RA OVC085 07/03 A3012 RMK AO2 RAB15 SLP200 P0000 60000 T00720033 10183 20072 402110072 53001",
    "icao": "KORD",
    "flightCategory": "VFR",
    "windDir": 10,
    "windSpeed": 13,
    "windGust": null,
    "visibility": 10,
    "ceiling": 8500,
    "temp": 7.2,
    "dewpoint": 3.3,
    "altimeter": 30.12,
    "conditions": "-RA",
    "observationTime": "2026-04-10T06:00:00.000Z"
  },
  "LHR": {
    "raw": "METAR EGLL 100520Z COR AUTO 32004KT 300V020 9999 NCD 07/M00 Q1021 NOSIG",
    "icao": "EGLL",
    "flightCategory": "VFR",
    "windDir": 320,
    "windSpeed": 4,
    "windGust": null,
    "visibility": 6,
    "ceiling": null,
    "temp": 7,
    "dewpoint": 0,
    "altimeter": 30.15,
    "conditions": "",
    "observationTime": "2026-04-10T05:20:00.000Z"
  }
}