{
  "LAS": {
    "raw": "METAR KLAS 111956Z 14007KT 100V160 10SM CLR 41/07 A2992 RMK AO2 SLP098 T04110067",
    "icao": "KLAS",
    "flightCategory": "VFR",
    "windDir": 140,
    "windSpeed": 7,
    "windGust": null,
    "visibility": 10,
    "ceiling": null,
    "temp": 41.1,
    "dewpoint": 6.7,
    "altimeter": 29.92,
    "conditions": "",
    "observationTime": "2026-07-11T20:00:00.000Z"
  },
  "LAX": {
    "raw": "METAR KLAX 111953Z 25011KT 10SM FEW012 SCT230 BKN280 23/16 A2995 RMK AO2 SLP139 T02330156 $",
    "icao": "KLAX",
    "flightCategory": "VFR",
    "windDir": 250,
    "windSpeed": 11,
    "windGust": null,
    "visibility": 10,
    "ceiling": 28000,
    "temp": 23.3,
    "dewpoint": 15.6,
    "altimeter": 29.95,
    "conditions": "",
    "observationTime": "2026-07-11T20:00:00.000Z"
  },
  "ORD": {
    "raw": "METAR KORD 111951Z 04015KT 10SM FEW015 FEW055 BKN250 27/17 A3007 RMK AO2 SLP178 T02720167 $",
    "icao": "KORD",
    "flightCategory": "VFR",
    "windDir": 40,
    "windSpeed": 15,
    "windGust": null,
    "visibility": 10,
    "ceiling": 25000,
    "temp": 27.2,
    "dewpoint": 16.7,
    "altimeter": 30.07,
    "conditions": "",
    "observationTime": "2026-07-11T20:00:00.000Z"
  },
  "LHR": {
    "raw": "METAR EGLL 111920Z AUTO 10010KT 9999 NCD 25/17 Q1021",
    "icao": "EGLL",
    "flightCategory": "VFR",
    "windDir": 100,
    "windSpeed": 10,
    "windGust": null,
    "visibility": 6,
    "ceiling": null,
    "temp": 25,
    "dewpoint": 17,
    "altimeter": 30.15,
    "conditions": "",
    "observationTime": "2026-07-11T19:20:00.000Z"
  },
  "SYD": {
    "raw": "METAR YSSY 111930Z 35013KT 9999 FEW045 SCT060 14/07 Q1009",
    "icao": "YSSY",
    "flightCategory": "VFR",
    "windDir": 350,
    "windSpeed": 13,
    "windGust": null,
    "visibility": 6,
    "ceiling": null,
    "temp": 14,
    "dewpoint": 7,
    "altimeter": 29.8,
    "conditions": "",
    "observationTime": "2026-07-11T19:30:00.000Z"
  }
}