{
  "ORD": {
    "raw": "SPECI KORD 131626Z 21010KT 10SM BKN015 OVC028 21/18 A2992 RMK AO2 T02110178",
    "icao": "KORD",
    "flightCategory": "MVFR",
    "windDir": 210,
    "windSpeed": 10,
    "windGust": null,
    "visibility": 10,
    "ceiling": 1500,
    "temp": 21.1,
    "dewpoint": 17.8,
    "altimeter": 29.92,
    "conditions": "",
    "observationTime": "2026-04-13T16:26:00.000Z"
  },
  "LHR": {
    "raw": "METAR EGLL 131620Z COR AUTO 24005KT 180V300 9999 NCD 12/03 Q1013 NOSIG",
    "icao": "EGLL",
    "flightCategory": "VFR",
    "windDir": 240,
    "windSpeed": 5,
    "windGust": null,
    "visibility": 6,
    "ceiling": null,
    "temp": 12,
    "dewpoint": 3,
    "altimeter": 29.91,
    "conditions": "",
    "observationTime": "2026-04-13T16:20:00.000Z"
  },
  "SYD": {
    "raw": "METAR YSSY 131600Z AUTO 29006KT 9999 // NCD 15/08 Q1019",
    "icao": "YSSY",
    "flightCategory": "VFR",
    "windDir": 290,
    "windSpeed": 6,
    "windGust": null,
    "visibility": 6,
    "ceiling": null,
    "temp": 15,
    "dewpoint": 8,
    "altimeter": 30.09,
    "conditions": "",
    "observationTime": "2026-04-13T16:00:00.000Z"
  },
  "LAS": {
    "raw": "METAR KLAS 131556Z 20005KT 10SM FEW065 FEW100 15/01 A2996 RMK AO2 SLP133 T01500006",
    "icao": "KLAS",
    "flightCategory": "VFR",
    "windDir": 200,
    "windSpeed": 5,
    "windGust": null,
    "visibility": 10,
    "ceiling": null,
    "temp": 15,
    "dewpoint": 0.6,
    "altimeter": 29.96,
    "conditions": "",
    "observationTime": "2026-04-13T16:00:00.000Z"
  }
}