{
  "ORD": {
    "raw": "METAR KORD 180251Z 24013G41KT 3SM +TSRA BR BKN043CB BKN060 OVC100 18/16 A2966 RMK AO2 PK WND 24041/0245 SLP042 FRQ LTGICCG OHD TS OHD MOV NE P0018 60019 T01830156 53017 $",
    "icao": "KORD",
    "flightCategory": "MVFR",
    "windDir": 240,
    "windSpeed": 13,
    "windGust": 41,
    "visibility": 3,
    "ceiling": 4300,
    "temp": 18.3,
    "dewpoint": 15.6,
    "altimeter": 29.66,
    "conditions": "+TSRA BR",
    "observationTime": "2026-04-18T03:00:00.000Z"
  },
  "LAS": {
    "raw": "METAR KLAS 180256Z 04009KT 10SM CLR 18/M19 A3005 RMK AO2 SLP166 T01831194 55002",
    "icao": "KLAS",
    "flightCategory": "VFR",
    "windDir": 40,
    "windSpeed": 9,
    "windGust": null,
    "visibility": 10,
    "ceiling": null,
    "temp": 18.3,
    "dewpoint": -19.4,
    "altimeter": 30.05,
    "conditions": "",
    "observationTime": "2026-04-18T03:00:00.000Z"
  },
  "LAX": {
    "raw": "METAR KLAX 180253Z 25012KT 10SM CLR 18/12 A2992 RMK AO2 SLP131 T01780122 56009",
    "icao": "KLAX",
    "flightCategory": "VFR",
    "windDir": 250,
    "windSpeed": 12,
    "windGust": null,
    "visibility": 10,
    "ceiling": null,
    "temp": 17.8,
    "dewpoint": 12.2,
    "altimeter": 29.92,
    "conditions": "",
    "observationTime": "2026-04-18T03:00:00.000Z"
  },
  "LHR": {
    "raw": "METAR EGLL 180220Z COR AUTO 26007KT 9999 BKN036 11/09 Q1020 NOSIG",
    "icao": "EGLL",
    "flightCategory": "VFR",
    "windDir": 260,
    "windSpeed": 7,
    "windGust": null,
    "visibility": 6,
    "ceiling": 3600,
    "temp": 11,
    "dewpoint": 9,
    "altimeter": 30.12,
    "conditions": "",
    "observationTime": "2026-04-18T02:20:00.000Z"
  },
  "SYD": {
    "raw": "METAR YSSY 180230Z AUTO 17012KT 9999 // NCD 19/06 Q1018",
    "icao": "YSSY",
    "flightCategory": "VFR",
    "windDir": 170,
    "windSpeed": 12,
    "windGust": null,
    "visibility": 6,
    "ceiling": null,
    "temp": 19,
    "dewpoint": 6,
    "altimeter": 30.06,
    "conditions": "",
    "observationTime": "2026-04-18T02:30:00.000Z"
  }
}