{
  "SYD": {
    "raw": "METAR YSSY 150800Z AUTO 13009KT 9999 // NCD 21/13 Q1018",
    "icao": "YSSY",
    "flightCategory": "VFR",
    "windDir": 130,
    "windSpeed": 9,
    "windGust": null,
    "visibility": 6,
    "ceiling": null,
    "temp": 21,
    "dewpoint": 13,
    "altimeter": 30.06,
    "conditions": "",
    "observationTime": "2026-04-15T08:00:00.000Z"
  },
  "LHR": {
    "raw": "METAR EGLL 150750Z COR AUTO 18009KT 160V220 9999 SCT008 OVC013 13/12 Q1015 NOSIG",
    "icao": "EGLL",
    "flightCategory": "MVFR",
    "windDir": 180,
    "windSpeed": 9,
    "windGust": null,
    "visibility": 6,
    "ceiling": 1300,
    "temp": 13,
    "dewpoint": 12,
    "altimeter": 29.97,
    "conditions": "",
    "observationTime": "2026-04-15T08:00:00.000Z"
  },
  "LAS": {
    "raw": "METAR KLAS 150756Z 21006KT 10SM CLR 17/M08 A2998 RMK AO2 SLP138 T01671078 402390117",
    "icao": "KLAS",
    "flightCategory": "VFR",
    "windDir": 210,
    "windSpeed": 6,
    "windGust": null,
    "visibility": 10,
    "ceiling": null,
    "temp": 16.7,
    "dewpoint": -7.8,
    "altimeter": 29.98,
    "conditions": "",
    "observationTime": "2026-04-15T08:00:00.000Z"
  },
  "LAX": {
    "raw": "SPECI KLAX 150738Z 22003KT 10SM FEW008 FEW012 16/12 A3003 RMK AO2 T01560122",
    "icao": "KLAX",
    "flightCategory": "VFR",
    "windDir": 220,
    "windSpeed": 3,
    "windGust": null,
    "visibility": 10,
    "ceiling": null,
    "temp": 15.6,
    "dewpoint": 12.2,
    "altimeter": 30.03,
    "conditions": "",
    "observationTime": "2026-04-15T07:38:00.000Z"
  },
  "ORD": {
    "raw": "METAR KORD 150751Z 10004KT 10SM BKN045 OVC250 18/17 A2973 RMK AO2 LTG DSNT NE AND NW SLP062 T01830172",
    "icao": "KORD",
    "flightCategory": "VFR",
    "windDir": 100,
    "windSpeed": 4,
    "windGust": null,
    "visibility": 10,
    "ceiling": 4500,
    "temp": 18.3,
    "dewpoint": 17.2,
    "altimeter": 29.73,
    "conditions": "",
    "observationTime": "2026-04-15T08:00:00.000Z"
  }
}