{
  "SYD": {
    "raw": "METAR YSSY 090100Z 36011KT CAVOK 27/14 Q1016",
    "icao": "YSSY",
    "flightCategory": "VFR",
    "windDir": 360,
    "windSpeed": 11,
    "windGust": null,
    "visibility": 6,
    "ceiling": null,
    "temp": 27,
    "dewpoint": 14,
    "altimeter": 30,
    "conditions": "",
    "observationTime": "2026-04-09T01:00:00.000Z"
  },
  "LHR": {
    "raw": "METAR EGLL 090050Z COR AUTO 19003KT 9999 NCD 14/10 Q1020 NOSIG",
    "icao": "EGLL",
    "flightCategory": "VFR",
    "windDir": 190,
    "windSpeed": 3,
    "windGust": null,
    "visibility": 6,
    "ceiling": null,
    "temp": 14,
    "dewpoint": 10,
    "altimeter": 30.12,
    "conditions": "",
    "observationTime": "2026-04-09T01:00:00.000Z"
  },
  "LAS": {
    "raw": "METAR KLAS 090056Z 03012G17KT 10SM FEW140 FEW250 32/M07 A2977 RMK AO2 SLP058 T03221067",
    "icao": "KLAS",
    "flightCategory": "VFR",
    "windDir": 30,
    "windSpeed": 12,
    "windGust": 17,
    "visibility": 10,
    "ceiling": null,
    "temp": 32.2,
    "dewpoint": -6.7,
    "altimeter": 29.77,
    "conditions": "",
    "observationTime": "2026-04-09T01:00:00.000Z"
  },
  "LAX": {
    "raw": "METAR KLAX 090053Z 24008KT 10SM FEW013 FEW250 19/14 A2987 RMK AO2 SLP115 T01890144 $",
    "icao": "KLAX",
    "flightCategory": "VFR",
    "windDir": 240,
    "windSpeed": 8,
    "windGust": null,
    "visibility": 10,
    "ceiling": null,
    "temp": 18.9,
    "dewpoint": 14.4,
    "altimeter": 29.87,
    "conditions": "",
    "observationTime": "2026-04-09T01:00:00.000Z"
  },
  "ORD": {
    "raw": "METAR KORD 090051Z 20012G22KT 10SM FEW080 FEW150 BKN250 20/03 A2999 RMK AO2 PK WND 21028/2357 SLP157 T02000033",
    "icao": "KORD",
    "flightCategory": "VFR",
    "windDir": 200,
    "windSpeed": 12,
    "windGust": 22,
    "visibility": 10,
    "ceiling": 25000,
    "temp": 20,
    "dewpoint": 3.3,
    "altimeter": 29.99,
    "conditions": "",
    "observationTime": "2026-04-09T01:00:00.000Z"
  }
}