{
  "LHR": {
    "raw": "METAR EGLL 151250Z COR AUTO 20015KT 160V230 9999 FEW023 SCT027 BKN037 16/11 Q1014 NOSIG",
    "icao": "EGLL",
    "flightCategory": "VFR",
    "windDir": 200,
    "windSpeed": 15,
    "windGust": null,
    "visibility": 6,
    "ceiling": 3700,
    "temp": 16,
    "dewpoint": 11,
    "altimeter": 29.94,
    "conditions": "",
    "observationTime": "2026-04-15T13:00:00.000Z"
  },
  "SYD": {
    "raw": "METAR YSSY 151300Z AUTO 31006KT 9999 // SCT033 19/14 Q1020",
    "icao": "YSSY",
    "flightCategory": "VFR",
    "windDir": 310,
    "windSpeed": 6,
    "windGust": null,
    "visibility": 6,
    "ceiling": null,
    "temp": 19,
    "dewpoint": 14,
    "altimeter": 30.12,
    "conditions": "",
    "observationTime": "2026-04-15T13:00:00.000Z"
  },
  "LAS": {
    "raw": "METAR KLAS 151256Z 00000KT 10SM CLR 14/M06 A2999 RMK AO2 SLP141 T01441061",
    "icao": "KLAS",
    "flightCategory": "VFR",
    "windDir": 0,
    "windSpeed": 0,
    "windGust": null,
    "visibility": 10,
    "ceiling": null,
    "temp": 14.4,
    "dewpoint": -6.1,
    "altimeter": 29.99,
    "conditions": "",
    "observationTime": "2026-04-15T13:00:00.000Z"
  },
  "LAX": {
    "raw": "METAR KLAX 151253Z 00000KT 10SM FEW008 SCT250 13/12 A3001 RMK AO2 SLP161 T01330117",
    "icao": "KLAX",
    "flightCategory": "VFR",
    "windDir": 0,
    "windSpeed": 0,
    "windGust": null,
    "visibility": 10,
    "ceiling": null,
    "temp": 13.3,
    "dewpoint": 11.7,
    "altimeter": 30.01,
    "conditions": "",
    "observationTime": "2026-04-15T13:00:00.000Z"
  },
  "ORD": {
    "raw": "METAR KORD 151251Z 00000KT 10SM FEW060 FEW100 OVC160 17/15 A2976 RMK AO2 RAE47 SLP074 P0006 T01720150",
    "icao": "KORD",
    "flightCategory": "VFR",
    "windDir": 0,
    "windSpeed": 0,
    "windGust": null,
    "visibility": 10,
    "ceiling": 16000,
    "temp": 17.2,
    "dewpoint": 15,
    "altimeter": 29.76,
    "conditions": "",
    "observationTime": "2026-04-15T13:00:00.000Z"
  }
}