{
  "SYD": {
    "raw": "METAR YSSY 272030Z 20011KT 9999 VCSH FEW006 BKN022 BKN050 19/18 Q1013",
    "icao": "YSSY",
    "flightCategory": "MVFR",
    "windDir": 200,
    "windSpeed": 11,
    "windGust": null,
    "visibility": 6,
    "ceiling": 2200,
    "temp": 19,
    "dewpoint": 18,
    "altimeter": 29.91,
    "conditions": "VCSH",
    "observationTime": "2026-05-27T20:30:00.000Z"
  },
  "LAS": {
    "raw": "METAR KLAS 272056Z 20007G19KT 10SM FEW090 25/M05 A2970 RMK AO2 SLP038 T02501050 58019",
    "icao": "KLAS",
    "flightCategory": "VFR",
    "windDir": 200,
    "windSpeed": 7,
    "windGust": 19,
    "visibility": 10,
    "ceiling": null,
    "temp": 25,
    "dewpoint": -5,
    "altimeter": 29.7,
    "conditions": "",
    "observationTime": "2026-05-27T21:00:00.000Z"
  },
  "LAX": {
    "raw": "METAR KLAX 272053Z 25017G23KT 10SM SCT020 SCT048 18/11 A2985 RMK AO2 SLP108 T01780106 50002 $",
    "icao": "KLAX",
    "flightCategory": "VFR",
    "windDir": 250,
    "windSpeed": 17,
    "windGust": 23,
    "visibility": 10,
    "ceiling": null,
    "temp": 17.8,
    "dewpoint": 10.6,
    "altimeter": 29.85,
    "conditions": "",
    "observationTime": "2026-05-27T21:00:00.000Z"
  },
  "ORD": {
    "raw": "METAR KORD 272051Z 04008KT 10SM FEW060 FEW160 28/13 A2999 RMK AO2 SLP152 T02780128 57006",
    "icao": "KORD",
    "flightCategory": "VFR",
    "windDir": 40,
    "windSpeed": 8,
    "windGust": null,
    "visibility": 10,
    "ceiling": null,
    "temp": 27.8,
    "dewpoint": 12.8,
    "altimeter": 29.99,
    "conditions": "",
    "observationTime": "2026-05-27T21:00:00.000Z"
  },
  "LHR": {
    "raw": "METAR EGLL 272020Z AUTO 10012KT 9999 NCD 19/11 Q1024",
    "icao": "EGLL",
    "flightCategory": "VFR",
    "windDir": 100,
    "windSpeed": 12,
    "windGust": null,
    "visibility": 6,
    "ceiling": null,
    "temp": 19,
    "dewpoint": 11,
    "altimeter": 30.24,
    "conditions": "",
    "observationTime": "2026-05-27T20:20:00.000Z"
  }
}