{
  "LAX": {
    "raw": "METAR KLAX 300453Z 27008KT 10SM FEW017 SCT023 18/14 A2992 RMK AO2 SLP130 T01830144 $",
    "icao": "KLAX",
    "flightCategory": "VFR",
    "windDir": 270,
    "windSpeed": 8,
    "windGust": null,
    "visibility": 10,
    "ceiling": null,
    "temp": 18.3,
    "dewpoint": 14.4,
    "altimeter": 29.92,
    "conditions": "",
    "observationTime": "2026-06-30T05:00:00.000Z"
  },
  "SYD": {
    "raw": "METAR YSSY 300500Z 36011KT CAVOK 18/12 Q1018",
    "icao": "YSSY",
    "flightCategory": "VFR",
    "windDir": 360,
    "windSpeed": 11,
    "windGust": null,
    "visibility": 6,
    "ceiling": null,
    "temp": 18,
    "dewpoint": 12,
    "altimeter": 30.06,
    "conditions": "",
    "observationTime": "2026-06-30T05:00:00.000Z"
  },
  "LHR": {
    "raw": "METAR EGLL 300450Z AUTO 25007KT 9999 NCD 17/12 Q1023",
    "icao": "EGLL",
    "flightCategory": "VFR",
    "windDir": 250,
    "windSpeed": 7,
    "windGust": null,
    "visibility": 6,
    "ceiling": null,
    "temp": 17,
    "dewpoint": 12,
    "altimeter": 30.21,
    "conditions": "",
    "observationTime": "2026-06-30T05:00:00.000Z"
  },
  "LAS": {
    "raw": "METAR KLAS 300456Z 19004KT 10SM CLR 31/M03 A2972 RMK AO2 SLP039 T03111033",
    "icao": "KLAS",
    "flightCategory": "VFR",
    "windDir": 190,
    "windSpeed": 4,
    "windGust": null,
    "visibility": 10,
    "ceiling": null,
    "temp": 31.1,
    "dewpoint": -3.3,
    "altimeter": 29.72,
    "conditions": "",
    "observationTime": "2026-06-30T05:00:00.000Z"
  },
  "ORD": {
    "raw": "METAR KORD 300451Z 19009G19KT 10SM FEW035 28/24 A2990 RMK AO2 SLP117 T02830244 $",
    "icao": "KORD",
    "flightCategory": "VFR",
    "windDir": 190,
    "windSpeed": 9,
    "windGust": 19,
    "visibility": 10,
    "ceiling": null,
    "temp": 28.3,
    "dewpoint": 24.4,
    "altimeter": 29.9,
    "conditions": "",
    "observationTime": "2026-06-30T05:00:00.000Z"
  }
}