{
  "SYD": {
    "raw": "METAR YSSY 091830Z AUTO 33005KT 9999 // SCT074 14/12 Q1027",
    "icao": "YSSY",
    "flightCategory": "VFR",
    "windDir": 330,
    "windSpeed": 5,
    "windGust": null,
    "visibility": 6,
    "ceiling": null,
    "temp": 14,
    "dewpoint": 12,
    "altimeter": 30.33,
    "conditions": "",
    "observationTime": "2026-06-09T18:30:00.000Z"
  },
  "LAS": {
    "raw": "METAR KLAS 091856Z 19007G18KT 160V230 10SM CLR 32/01 A2983 RMK AO2 SLP074 T03220011",
    "icao": "KLAS",
    "flightCategory": "VFR",
    "windDir": 190,
    "windSpeed": 7,
    "windGust": 18,
    "visibility": 10,
    "ceiling": null,
    "temp": 32.2,
    "dewpoint": 1.1,
    "altimeter": 29.83,
    "conditions": "",
    "observationTime": "2026-06-09T19:00:00.000Z"
  },
  "LAX": {
    "raw": "METAR KLAX 091853Z 24010KT 9SM FEW018 22/14 A2991 RMK AO2 SLP128 T02170139 $",
    "icao": "KLAX",
    "flightCategory": "VFR",
    "windDir": 240,
    "windSpeed": 10,
    "windGust": null,
    "visibility": 9,
    "ceiling": null,
    "temp": 21.7,
    "dewpoint": 13.9,
    "altimeter": 29.91,
    "conditions": "",
    "observationTime": "2026-06-09T19:00:00.000Z"
  },
  "ORD": {
    "raw": "SPECI KORD 091829Z 26007KT 10SM BKN030 BKN046 BKN070 28/22 A2989 RMK AO2 T02830222",
    "icao": "KORD",
    "flightCategory": "MVFR",
    "windDir": 260,
    "windSpeed": 7,
    "windGust": null,
    "visibility": 10,
    "ceiling": 3000,
    "temp": 28.3,
    "dewpoint": 22.2,
    "altimeter": 29.89,
    "conditions": "",
    "observationTime": "2026-06-09T18:29:00.000Z"
  },
  "LHR": {
    "raw": "METAR EGLL 091820Z AUTO 28017KT 9999 NCD 17/04 Q1014",
    "icao": "EGLL",
    "flightCategory": "VFR",
    "windDir": 280,
    "windSpeed": 17,
    "windGust": null,
    "visibility": 6,
    "ceiling": null,
    "temp": 17,
    "dewpoint": 4,
    "altimeter": 29.94,
    "conditions": "",
    "observationTime": "2026-06-09T18:20:00.000Z"
  }
}