{
  "ORD": {
    "raw": "SPECI KORD 280023Z 14014G17KT 2 1/2SM -TSRA FEW030 BKN040CB OVC050 17/16 A2959 RMK AO2 OCNL LTGICCG W TS W MOV E P0010 T01720156 $",
    "icao": "KORD",
    "flightCategory": "IFR",
    "windDir": 140,
    "windSpeed": 14,
    "windGust": 17,
    "visibility": 2.5,
    "ceiling": 4000,
    "temp": 17.2,
    "dewpoint": 15.6,
    "altimeter": 29.59,
    "conditions": "-TSRA",
    "observationTime": "2026-04-28T00:23:00.000Z"
  },
  "SYD": {
    "raw": "METAR YSSY 280030Z 26005KT 9999 FEW030 23/11 Q1027",
    "icao": "YSSY",
    "flightCategory": "VFR",
    "windDir": 260,
    "windSpeed": 5,
    "windGust": null,
    "visibility": 6,
    "ceiling": null,
    "temp": 23,
    "dewpoint": 11,
    "altimeter": 30.33,
    "conditions": "",
    "observationTime": "2026-04-28T00:30:00.000Z"
  },
  "LAS": {
    "raw": "SPECI KLAS 280022Z 25011G19KT 10SM FEW100 FEW150 22/M02 A2984 RMK AO2 WSHFT 0002 T02171022",
    "icao": "KLAS",
    "flightCategory": "VFR",
    "windDir": 250,
    "windSpeed": 11,
    "windGust": 19,
    "visibility": 10,
    "ceiling": null,
    "temp": 21.7,
    "dewpoint": -2.2,
    "altimeter": 29.84,
    "conditions": "",
    "observationTime": "2026-04-28T00:22:00.000Z"
  },
  "LAX": {
    "raw": "METAR KLAX 280053Z 25011G16KT 10SM FEW025 FEW090 17/08 A3001 RMK AO2 SLP159 T01720083",
    "icao": "KLAX",
    "flightCategory": "VFR",
    "windDir": 250,
    "windSpeed": 11,
    "windGust": 16,
    "visibility": 10,
    "ceiling": null,
    "temp": 17.2,
    "dewpoint": 8.3,
    "altimeter": 30.01,
    "conditions": "",
    "observationTime": "2026-04-28T01:00:00.000Z"
  },
  "LHR": {
    "raw": "METAR EGLL 280020Z COR AUTO 02007KT 350V060 9999 BKN013 10/07 Q1024 NOSIG",
    "icao": "EGLL",
    "flightCategory": "MVFR",
    "windDir": 20,
    "windSpeed": 7,
    "windGust": null,
    "visibility": 6,
    "ceiling": 1300,
    "temp": 10,
    "dewpoint": 7,
    "altimeter": 30.24,
    "conditions": "",
    "observationTime": "2026-04-28T00:20:00.000Z"
  }
}