{
  "SYD": {
    "raw": "METAR YSSY 010900Z AUTO 04010KT 9999 // NCD 23/17 Q1022",
    "icao": "YSSY",
    "flightCategory": "VFR",
    "windDir": 40,
    "windSpeed": 10,
    "windGust": null,
    "visibility": 6,
    "ceiling": null,
    "temp": 23,
    "dewpoint": 17,
    "altimeter": 30.18,
    "conditions": "",
    "observationTime": "2026-04-01T09:00:00.000Z"
  },
  "LHR": {
    "raw": "METAR EGLL 010850Z COR AUTO 31004KT 270V350 9999 OVC048 10/07 Q1026 NOSIG",
    "icao": "EGLL",
    "flightCategory": "VFR",
    "windDir": 310,
    "windSpeed": 4,
    "windGust": null,
    "visibility": 6,
    "ceiling": 4800,
    "temp": 10,
    "dewpoint": 7,
    "altimeter": 30.3,
    "conditions": "",
    "observationTime": "2026-04-01T09:00:00.000Z"
  },
  "LAS": {
    "raw": "METAR KLAS 010856Z 22020G32KT 10SM FEW055 SCT110 BKN140 OVC190 16/06 A2978 RMK AO2 PK WND 21032/0849 SLP066 TOPS OF MTNS OBSCURED DSNT W T01610056 58019",
    "icao": "KLAS",
    "flightCategory": "VFR",
    "windDir": 220,
    "windSpeed": 20,
    "windGust": 32,
    "visibility": 10,
    "ceiling": 14000,
    "temp": 16.1,
    "dewpoint": 5.6,
    "altimeter": 29.78,
    "conditions": "",
    "observationTime": "2026-04-01T09:00:00.000Z"
  },
  "LAX": {
    "raw": "METAR KLAX 010853Z 29006KT 7SM -RA FEW008 SCT020 OVC060 17/16 A2993 RMK AO2 SLP134 P0004 60009 T01670156 50000 $",
    "icao": "KLAX",
    "flightCategory": "VFR",
    "windDir": 290,
    "windSpeed": 6,
    "windGust": null,
    "visibility": 7,
    "ceiling": 6000,
    "temp": 16.7,
    "dewpoint": 15.6,
    "altimeter": 29.93,
    "conditions": "-RA",
    "observationTime": "2026-04-01T09:00:00.000Z"
  },
  "ORD": {
    "raw": "METAR KORD 010851Z 03018G25KT 10SM FEW020 OVC200 03/M02 A3012 RMK AO2 PK WND 03034/0802 SLP200 T00281017 50005 $",
    "icao": "KORD",
    "flightCategory": "VFR",
    "windDir": 30,
    "windSpeed": 18,
    "windGust": 25,
    "visibility": 10,
    "ceiling": 20000,
    "temp": 2.8,
    "dewpoint": -1.7,
    "altimeter": 30.12,
    "conditions": "",
    "observationTime": "2026-04-01T09:00:00.000Z"
  }
}