{
  "SYD": {
    "raw": "METAR YSSY 251200Z AUTO 25004KT 9000 // BKN059 18/17 Q1021",
    "icao": "YSSY",
    "flightCategory": "VFR",
    "windDir": 250,
    "windSpeed": 4,
    "windGust": null,
    "visibility": 5.59,
    "ceiling": 5900,
    "temp": 18,
    "dewpoint": 17,
    "altimeter": 30.15,
    "conditions": "",
    "observationTime": "2026-05-25T12:00:00.000Z"
  },
  "LHR": {
    "raw": "METAR EGLL 251220Z AUTO 18010KT 150V210 9999 NCD 32/12 Q1030",
    "icao": "EGLL",
    "flightCategory": "VFR",
    "windDir": 180,
    "windSpeed": 10,
    "windGust": null,
    "visibility": 6,
    "ceiling": null,
    "temp": 32,
    "dewpoint": 12,
    "altimeter": 30.42,
    "conditions": "",
    "observationTime": "2026-05-25T12:20:00.000Z"
  },
  "LAS": {
    "raw": "METAR KLAS 251156Z 19005KT 10SM FEW120 FEW200 22/M04 A2986 RMK AO2 SLP085 T02221044 10278 20217 53001",
    "icao": "KLAS",
    "flightCategory": "VFR",
    "windDir": 190,
    "windSpeed": 5,
    "windGust": null,
    "visibility": 10,
    "ceiling": null,
    "temp": 22.2,
    "dewpoint": -4.4,
    "altimeter": 29.86,
    "conditions": "",
    "observationTime": "2026-05-25T12:00:00.000Z"
  },
  "LAX": {
    "raw": "METAR KLAX 251153Z 01003KT 10SM FEW011 FEW020 14/11 A2996 RMK AO2 SLP143 FU FEW020 T01440111 10161 20144 56003 $",
    "icao": "KLAX",
    "flightCategory": "VFR",
    "windDir": 10,
    "windSpeed": 3,
    "windGust": null,
    "visibility": 10,
    "ceiling": null,
    "temp": 14.4,
    "dewpoint": 11.1,
    "altimeter": 29.96,
    "conditions": "",
    "observationTime": "2026-05-25T12:00:00.000Z"
  }
}