{
  "SYD": {
    "raw": "METAR YSSY 291430Z AUTO 29005KT 9999 // BKN058 17/14 Q1023",
    "icao": "YSSY",
    "flightCategory": "VFR",
    "windDir": 290,
    "windSpeed": 5,
    "windGust": null,
    "visibility": 6,
    "ceiling": 5800,
    "temp": 17,
    "dewpoint": 14,
    "altimeter": 30.21,
    "conditions": "",
    "observationTime": "2026-03-29T14:30:00.000Z"
  },
  "LAS": {
    "raw": "METAR KLAS 291456Z 28004KT 10SM FEW160 BKN200 BKN250 21/M03 A2997 RMK AO2 SLP128 T02111033 53017 $",
    "icao": "KLAS",
    "flightCategory": "VFR",
    "windDir": 280,
    "windSpeed": 4,
    "windGust": null,
    "visibility": 10,
    "ceiling": 20000,
    "temp": 21.1,
    "dewpoint": -3.3,
    "altimeter": 29.97,
    "conditions": "",
    "observationTime": "2026-03-29T15:00:00.000Z"
  },
  "LAX": {
    "raw": "METAR KLAX 291453Z VRB04KT 1SM R25L/6000VP6000FT BR OVC002 15/14 A2992 RMK AO2 SLP128 VIS SW-NW 1/2 T01500144 53013",
    "icao": "KLAX",
    "flightCategory": "LIFR",
    "windDir": null,
    "windSpeed": 4,
    "windGust": null,
    "visibility": 1,
    "ceiling": 200,
    "temp": 15,
    "dewpoint": 14.4,
    "altimeter": 29.92,
    "conditions": "BR",
    "observationTime": "2026-03-29T15:00:00.000Z"
  },
  "ORD": {
    "raw": "METAR KORD 291451Z 22011G21KT 10SM BKN110 BKN250 10/M03 A3020 RMK AO2 SLP229 T01001033 58009 $",
    "icao": "KORD",
    "flightCategory": "VFR",
    "windDir": 220,
    "windSpeed": 11,
    "windGust": 21,
    "visibility": 10,
    "ceiling": 11000,
    "temp": 10,
    "dewpoint": -3.3,
    "altimeter": 30.2,
    "conditions": "",
    "observationTime": "2026-03-29T15:00:00.000Z"
  },
  "LHR": {
    "raw": "METAR EGLL 291420Z COR AUTO 25021G32KT 9999 -RA BKN032 OVC046 09/04 Q1026 NOSIG",
    "icao": "EGLL",
    "flightCategory": "VFR",
    "windDir": 250,
    "windSpeed": 21,
    "windGust": 32,
    "visibility": 6,
    "ceiling": 3200,
    "temp": 9,
    "dewpoint": 4,
    "altimeter": 30.3,
    "conditions": "-RA",
    "observationTime": "2026-03-29T14:20:00.000Z"
  }
}