{
  "ORD": {
    "raw": "METAR KORD 091151Z 21004KT 5SM BR OVC006 22/22 A2993 RMK AO2 SLP131 60000 70008 T02220217 10222 20222 53007",
    "icao": "KORD",
    "flightCategory": "IFR",
    "windDir": 210,
    "windSpeed": 4,
    "windGust": null,
    "visibility": 5,
    "ceiling": 600,
    "temp": 22.2,
    "dewpoint": 21.7,
    "altimeter": 29.93,
    "conditions": "BR",
    "observationTime": "2026-06-09T12:00:00.000Z"
  },
  "LAS": {
    "raw": "METAR KLAS 091156Z 17009G17KT 10SM FEW250 24/M02 A2979 RMK AO2 SLP058 T02441022 10300 20244 53003",
    "icao": "KLAS",
    "flightCategory": "VFR",
    "windDir": 170,
    "windSpeed": 9,
    "windGust": 17,
    "visibility": 10,
    "ceiling": null,
    "temp": 24.4,
    "dewpoint": -2.2,
    "altimeter": 29.79,
    "conditions": "",
    "observationTime": "2026-06-09T12:00:00.000Z"
  },
  "LAX": {
    "raw": "METAR KLAX 091153Z 00000KT 10SM FEW014 16/13 A2988 RMK AO2 SLP116 T01610133 10178 20161 55002 $",
    "icao": "KLAX",
    "flightCategory": "VFR",
    "windDir": 0,
    "windSpeed": 0,
    "windGust": null,
    "visibility": 10,
    "ceiling": null,
    "temp": 16.1,
    "dewpoint": 13.3,
    "altimeter": 29.88,
    "conditions": "",
    "observationTime": "2026-06-09T12:00:00.000Z"
  },
  "LHR": {
    "raw": "METAR EGLL 091120Z AUTO 27020KT 9999 FEW033/// //////CB 16/07 Q1014 RESHGS",
    "icao": "EGLL",
    "flightCategory": "VFR",
    "windDir": 270,
    "windSpeed": 20,
    "windGust": null,
    "visibility": 6,
    "ceiling": null,
    "temp": 16,
    "dewpoint": 7,
    "altimeter": 29.94,
    "conditions": "",
    "observationTime": "2026-06-09T11:20:00.000Z"
  },
  "SYD": {
    "raw": "METAR YSSY 091130Z AUTO 02011KT 9999 // NCD 18/13 Q1028",
    "icao": "YSSY",
    "flightCategory": "VFR",
    "windDir": 20,
    "windSpeed": 11,
    "windGust": null,
    "visibility": 6,
    "ceiling": null,
    "temp": 18,
    "dewpoint": 13,
    "altimeter": 30.36,
    "conditions": "",
    "observationTime": "2026-06-09T11:30:00.000Z"
  }
}