{
  "SYD": {
    "raw": "METAR YSSY 091900Z AUTO 33005KT 9999 // NCD 12/09 Q1026",
    "icao": "YSSY",
    "flightCategory": "VFR",
    "windDir": 330,
    "windSpeed": 5,
    "windGust": null,
    "visibility": 6,
    "ceiling": null,
    "temp": 12,
    "dewpoint": 9,
    "altimeter": 30.3,
    "conditions": "",
    "observationTime": "2026-05-09T19:00:00.000Z"
  },
  "LHR": {
    "raw": "METAR EGLL 091850Z COR AUTO 10010KT 9999 NCD 17/04 Q1016 NOSIG",
    "icao": "EGLL",
    "flightCategory": "VFR",
    "windDir": 100,
    "windSpeed": 10,
    "windGust": null,
    "visibility": 6,
    "ceiling": null,
    "temp": 17,
    "dewpoint": 4,
    "altimeter": 30,
    "conditions": "",
    "observationTime": "2026-05-09T19:00:00.000Z"
  },
  "LAS": {
    "raw": "METAR KLAS 091856Z 10006KT 10SM FEW120 34/M04 A2989 RMK AO2 SLP090 T03441044",
    "icao": "KLAS",
    "flightCategory": "VFR",
    "windDir": 100,
    "windSpeed": 6,
    "windGust": null,
    "visibility": 10,
    "ceiling": null,
    "temp": 34.4,
    "dewpoint": -4.4,
    "altimeter": 29.89,
    "conditions": "",
    "observationTime": "2026-05-09T19:00:00.000Z"
  },
  "LAX": {
    "raw": "METAR KLAX 091853Z 25009KT 9SM FEW010 SCT018 19/14 A2994 RMK AO2 SLP139 T01940144",
    "icao": "KLAX",
    "flightCategory": "VFR",
    "windDir": 250,
    "windSpeed": 9,
    "windGust": null,
    "visibility": 9,
    "ceiling": null,
    "temp": 19.4,
    "dewpoint": 14.4,
    "altimeter": 29.94,
    "conditions": "",
    "observationTime": "2026-05-09T19:00:00.000Z"
  },
  "ORD": {
    "raw": "METAR KORD 091851Z 26013G23KT 10SM BKN110 BKN130 22/00 A2963 RMK AO2 SLP032 T02220000",
    "icao": "KORD",
    "flightCategory": "VFR",
    "windDir": 260,
    "windSpeed": 13,
    "windGust": 23,
    "visibility": 10,
    "ceiling": 11000,
    "temp": 22.2,
    "dewpoint": 0,
    "altimeter": 29.63,
    "conditions": "",
    "observationTime": "2026-05-09T19:00:00.000Z"
  }
}