{
  "LAS": {
    "raw": "METAR KLAS 152056Z 19010KT 10SM FEW250 26/M07 A2994 RMK AO2 SLP122 T02611067 58024",
    "icao": "KLAS",
    "flightCategory": "VFR",
    "windDir": 190,
    "windSpeed": 10,
    "windGust": null,
    "visibility": 10,
    "ceiling": null,
    "temp": 26.1,
    "dewpoint": -6.7,
    "altimeter": 29.94,
    "conditions": "",
    "observationTime": "2026-04-15T21:00:00.000Z"
  },
  "LAX": {
    "raw": "METAR KLAX 152053Z 24011KT 10SM FEW010 FEW050 SCT080 BKN250 20/12 A3003 RMK AO2 SLP167 T02000122 58009",
    "icao": "KLAX",
    "flightCategory": "VFR",
    "windDir": 240,
    "windSpeed": 11,
    "windGust": null,
    "visibility": 10,
    "ceiling": 25000,
    "temp": 20,
    "dewpoint": 12.2,
    "altimeter": 30.03,
    "conditions": "",
    "observationTime": "2026-04-15T21:00:00.000Z"
  },
  "ORD": {
    "raw": "METAR KORD 152051Z 23009KT 10SM SCT100 OVC250 21/16 A2979 RMK AO2 SLP085 60000 T02110161 58001",
    "icao": "KORD",
    "flightCategory": "VFR",
    "windDir": 230,
    "windSpeed": 9,
    "windGust": null,
    "visibility": 10,
    "ceiling": 25000,
    "temp": 21.1,
    "dewpoint": 16.1,
    "altimeter": 29.79,
    "conditions": "",
    "observationTime": "2026-04-15T21:00:00.000Z"
  },
  "LHR": {
    "raw": "METAR EGLL 152020Z COR AUTO 21013KT 9999 NCD 12/08 Q1016 NOSIG",
    "icao": "EGLL",
    "flightCategory": "VFR",
    "windDir": 210,
    "windSpeed": 13,
    "windGust": null,
    "visibility": 6,
    "ceiling": null,
    "temp": 12,
    "dewpoint": 8,
    "altimeter": 30,
    "conditions": "",
    "observationTime": "2026-04-15T20:20:00.000Z"
  },
  "SYD": {
    "raw": "METAR YSSY 152030Z 32007KT CAVOK 16/13 Q1019",
    "icao": "YSSY",
    "flightCategory": "VFR",
    "windDir": 320,
    "windSpeed": 7,
    "windGust": null,
    "visibility": 6,
    "ceiling": null,
    "temp": 16,
    "dewpoint": 13,
    "altimeter": 30.09,
    "conditions": "",
    "observationTime": "2026-04-15T20:30:00.000Z"
  }
}