{
  "SYD": {
    "raw": "METAR YSSY 031230Z AUTO 29015KT 9999 // NCD 13/03 Q1022",
    "icao": "YSSY",
    "flightCategory": "VFR",
    "windDir": 290,
    "windSpeed": 15,
    "windGust": null,
    "visibility": 6,
    "ceiling": null,
    "temp": 13,
    "dewpoint": 3,
    "altimeter": 30.18,
    "conditions": "",
    "observationTime": "2026-07-03T12:30:00.000Z"
  },
  "LAX": {
    "raw": "SPECI KLAX 031219Z 20008KT 10SM FEW008 SCT011 SCT150 17/15 A2996 RMK AO2 T01720150 $",
    "icao": "KLAX",
    "flightCategory": "VFR",
    "windDir": 200,
    "windSpeed": 8,
    "windGust": null,
    "visibility": 10,
    "ceiling": null,
    "temp": 17.2,
    "dewpoint": 15,
    "altimeter": 29.96,
    "conditions": "",
    "observationTime": "2026-07-03T12:19:00.000Z"
  },
  "ORD": {
    "raw": "METAR KORD 031251Z 20006KT 10SM FEW180 FEW250 24/22 A3006 RMK AO2 SLP172 T02440217 $",
    "icao": "KORD",
    "flightCategory": "VFR",
    "windDir": 200,
    "windSpeed": 6,
    "windGust": null,
    "visibility": 10,
    "ceiling": null,
    "temp": 24.4,
    "dewpoint": 21.7,
    "altimeter": 30.06,
    "conditions": "",
    "observationTime": "2026-07-03T13:00:00.000Z"
  },
  "LHR": {
    "raw": "METAR EGLL 031220Z AUTO VRB02KT 9999 NCD 23/09 Q1029",
    "icao": "EGLL",
    "flightCategory": "VFR",
    "windDir": null,
    "windSpeed": 2,
    "windGust": null,
    "visibility": 6,
    "ceiling": null,
    "temp": 23,
    "dewpoint": 9,
    "altimeter": 30.39,
    "conditions": "",
    "observationTime": "2026-07-03T12:20:00.000Z"
  }
}