{
  "ORD": {
    "raw": "METAR KORD 170451Z 24005KT 10SM FEW075 FEW250 17/11 A2966 RMK AO2 SLP039 T01670106 $",
    "icao": "KORD",
    "flightCategory": "VFR",
    "windDir": 240,
    "windSpeed": 5,
    "windGust": null,
    "visibility": 10,
    "ceiling": null,
    "temp": 16.7,
    "dewpoint": 10.6,
    "altimeter": 29.66,
    "conditions": "",
    "observationTime": "2026-06-17T05:00:00.000Z"
  },
  "SYD": {
    "raw": "METAR YSSY 170400Z AUTO 32006KT 9999 // NCD 20/12 Q1024",
    "icao": "YSSY",
    "flightCategory": "VFR",
    "windDir": 320,
    "windSpeed": 6,
    "windGust": null,
    "visibility": 6,
    "ceiling": null,
    "temp": 20,
    "dewpoint": 12,
    "altimeter": 30.24,
    "conditions": "",
    "observationTime": "2026-06-17T04:00:00.000Z"
  },
  "LHR": {
    "raw": "METAR EGLL 170420Z AUTO 22009KT 9999 OVC006 17/16 Q1016",
    "icao": "EGLL",
    "flightCategory": "IFR",
    "windDir": 220,
    "windSpeed": 9,
    "windGust": null,
    "visibility": 6,
    "ceiling": 600,
    "temp": 17,
    "dewpoint": 16,
    "altimeter": 30,
    "conditions": "",
    "observationTime": "2026-06-17T04:20:00.000Z"
  },
  "LAS": {
    "raw": "METAR KLAS 170356Z 23009KT 10SM FEW130 FEW200 38/00 A2976 RMK AO2 SLP043 T03830000",
    "icao": "KLAS",
    "flightCategory": "VFR",
    "windDir": 230,
    "windSpeed": 9,
    "windGust": null,
    "visibility": 10,
    "ceiling": null,
    "temp": 38.3,
    "dewpoint": 0,
    "altimeter": 29.76,
    "conditions": "",
    "observationTime": "2026-06-17T04:00:00.000Z"
  }
}