{
  "LHR": {
    "raw": "METAR EGLL 271250Z COR AUTO VRB05KT 9999 NCD 21/02 Q1023 NOSIG",
    "icao": "EGLL",
    "flightCategory": "VFR",
    "windDir": null,
    "windSpeed": 5,
    "windGust": null,
    "visibility": 6,
    "ceiling": null,
    "temp": 21,
    "dewpoint": 2,
    "altimeter": 30.21,
    "conditions": "",
    "observationTime": "2026-04-27T13:00:00.000Z"
  },
  "SYD": {
    "raw": "METAR YSSY 271300Z AUTO 29006KT 9999 // FEW051 17/13 Q1026",
    "icao": "YSSY",
    "flightCategory": "VFR",
    "windDir": 290,
    "windSpeed": 6,
    "windGust": null,
    "visibility": 6,
    "ceiling": null,
    "temp": 17,
    "dewpoint": 13,
    "altimeter": 30.3,
    "conditions": "",
    "observationTime": "2026-04-27T13:00:00.000Z"
  },
  "LAS": {
    "raw": "METAR KLAS 271256Z 20012G20KT 10SM FEW065 FEW250 12/00 A2985 RMK AO2 SLP098 T01170000",
    "icao": "KLAS",
    "flightCategory": "VFR",
    "windDir": 200,
    "windSpeed": 12,
    "windGust": 20,
    "visibility": 10,
    "ceiling": null,
    "temp": 11.7,
    "dewpoint": 0,
    "altimeter": 29.85,
    "conditions": "",
    "observationTime": "2026-04-27T13:00:00.000Z"
  },
  "LAX": {
    "raw": "METAR KLAX 271253Z 28008KT 10SM FEW012 FEW020 BKN070 15/08 A2997 RMK AO2 SLP148 T01500083 $",
    "icao": "KLAX",
    "flightCategory": "VFR",
    "windDir": 280,
    "windSpeed": 8,
    "windGust": null,
    "visibility": 10,
    "ceiling": 7000,
    "temp": 15,
    "dewpoint": 8.3,
    "altimeter": 29.97,
    "conditions": "",
    "observationTime": "2026-04-27T13:00:00.000Z"
  },
  "ORD": {
    "raw": "METAR KORD 271251Z 13013KT 10SM SCT075 BKN100 BKN130 OVC250 13/09 A2984 RMK AO2 RAB28E34 PRESFR SLP105 VCSH SE P0000 T01330094 $",
    "icao": "KORD",
    "flightCategory": "VFR",
    "windDir": 130,
    "windSpeed": 13,
    "windGust": null,
    "visibility": 10,
    "ceiling": 10000,
    "temp": 13.3,
    "dewpoint": 9.4,
    "altimeter": 29.84,
    "conditions": "",
    "observationTime": "2026-04-27T13:00:00.000Z"
  }
}