{
  "SYD": {
    "raw": "METAR YSSY 231300Z AUTO 33005KT 9999 // SCT029 BKN034 BKN041 16/16 Q1025",
    "icao": "YSSY",
    "flightCategory": "VFR",
    "windDir": 330,
    "windSpeed": 5,
    "windGust": null,
    "visibility": 6,
    "ceiling": 3400,
    "temp": 16,
    "dewpoint": 16,
    "altimeter": 30.27,
    "conditions": "",
    "observationTime": "2026-05-23T13:00:00.000Z"
  },
  "LHR": {
    "raw": "METAR EGLL 231320Z AUTO VRB06KT 9999 NCD 27/13 Q1027",
    "icao": "EGLL",
    "flightCategory": "VFR",
    "windDir": null,
    "windSpeed": 6,
    "windGust": null,
    "visibility": 6,
    "ceiling": null,
    "temp": 27,
    "dewpoint": 13,
    "altimeter": 30.33,
    "conditions": "",
    "observationTime": "2026-05-23T13:20:00.000Z"
  },
  "ORD": {
    "raw": "SPECI KORD 231310Z 02006KT 8SM OVC009 13/11 A3000 RMK AO2 T01330111",
    "icao": "KORD",
    "flightCategory": "IFR",
    "windDir": 20,
    "windSpeed": 6,
    "windGust": null,
    "visibility": 8,
    "ceiling": 900,
    "temp": 13.3,
    "dewpoint": 11.1,
    "altimeter": 30,
    "conditions": "",
    "observationTime": "2026-05-23T13:10:00.000Z"
  },
  "LAS": {
    "raw": "METAR KLAS 231256Z 18006KT 10SM FEW200 24/01 A2984 RMK AO2 SLP078 T02390011",
    "icao": "KLAS",
    "flightCategory": "VFR",
    "windDir": 180,
    "windSpeed": 6,
    "windGust": null,
    "visibility": 10,
    "ceiling": null,
    "temp": 23.9,
    "dewpoint": 1.1,
    "altimeter": 29.84,
    "conditions": "",
    "observationTime": "2026-05-23T13:00:00.000Z"
  },
  "LAX": {
    "raw": "METAR KLAX 231253Z VRB03KT 10SM OVC023 17/12 A2991 RMK AO2 SLP128 T01670122",
    "icao": "KLAX",
    "flightCategory": "MVFR",
    "windDir": null,
    "windSpeed": 3,
    "windGust": null,
    "visibility": 10,
    "ceiling": 2300,
    "temp": 16.7,
    "dewpoint": 12.2,
    "altimeter": 29.91,
    "conditions": "",
    "observationTime": "2026-05-23T13:00:00.000Z"
  }
}