{
  "SYD": {
    "raw": "METAR YSSY 111900Z AUTO 27005KT 9999 // BKN012 OVC018 16/14 Q1032",
    "icao": "YSSY",
    "flightCategory": "MVFR",
    "windDir": 270,
    "windSpeed": 5,
    "windGust": null,
    "visibility": 6,
    "ceiling": 1200,
    "temp": 16,
    "dewpoint": 14,
    "altimeter": 30.47,
    "conditions": "",
    "observationTime": "2026-06-11T19:00:00.000Z"
  },
  "LHR": {
    "raw": "METAR EGLL 111850Z AUTO 26016KT 9999 OVC017 17/14 Q1016",
    "icao": "EGLL",
    "flightCategory": "MVFR",
    "windDir": 260,
    "windSpeed": 16,
    "windGust": null,
    "visibility": 6,
    "ceiling": 1700,
    "temp": 17,
    "dewpoint": 14,
    "altimeter": 30,
    "conditions": "",
    "observationTime": "2026-06-11T19:00:00.000Z"
  },
  "LAS": {
    "raw": "METAR KLAS 111856Z VRB06KT 7SM HZ CLR 34/M05 A2991 RMK AO2 SLP095 T03391050",
    "icao": "KLAS",
    "flightCategory": "VFR",
    "windDir": null,
    "windSpeed": 6,
    "windGust": null,
    "visibility": 7,
    "ceiling": null,
    "temp": 33.9,
    "dewpoint": -5,
    "altimeter": 29.91,
    "conditions": "HZ",
    "observationTime": "2026-06-11T19:00:00.000Z"
  },
  "LAX": {
    "raw": "METAR KLAX 111853Z 28009KT 10SM FEW015 23/17 A2987 RMK AO2 SLP112 T02330167",
    "icao": "KLAX",
    "flightCategory": "VFR",
    "windDir": 280,
    "windSpeed": 9,
    "windGust": null,
    "visibility": 10,
    "ceiling": null,
    "temp": 23.3,
    "dewpoint": 16.7,
    "altimeter": 29.87,
    "conditions": "",
    "observationTime": "2026-06-11T19:00:00.000Z"
  },
  "ORD": {
    "raw": "METAR KORD 111851Z 22006KT 9SM -TSRA FEW012 SCT047CB BKN100 OVC130 24/22 A2983 RMK AO2 RAB1759 TSB1757E33B51 SLP099 OCNL LTGICCG OHD TS OHD MOV E CB DSNT SE-S P0003 T02390217",
    "icao": "KORD",
    "flightCategory": "VFR",
    "windDir": 220,
    "windSpeed": 6,
    "windGust": null,
    "visibility": 9,
    "ceiling": 10000,
    "temp": 23.9,
    "dewpoint": 21.7,
    "altimeter": 29.83,
    "conditions": "-TSRA",
    "observationTime": "2026-06-11T19:00:00.000Z"
  }
}