{
  "ORD": {
    "raw": "METAR KORD 132351Z 18007KT 10SM -TSRA FEW030 FEW060 SCT100CB BKN150 OVC250 23/14 A2981 RMK AO2 RAB25 TSB16 SLP090 OCNL LTGICCG OHD TS OHD MOV E P0005 60005 T02280139 10261 20222 58010",
    "icao": "KORD",
    "flightCategory": "VFR",
    "windDir": 180,
    "windSpeed": 7,
    "windGust": null,
    "visibility": 10,
    "ceiling": 15000,
    "temp": 22.8,
    "dewpoint": 13.9,
    "altimeter": 29.81,
    "conditions": "-TSRA",
    "observationTime": "2026-04-14T00:00:00.000Z"
  },
  "LHR": {
    "raw": "METAR EGLL 132350Z COR AUTO 20005KT 9999 NCD 06/04 Q1016 NOSIG",
    "icao": "EGLL",
    "flightCategory": "VFR",
    "windDir": 200,
    "windSpeed": 5,
    "windGust": null,
    "visibility": 6,
    "ceiling": null,
    "temp": 6,
    "dewpoint": 4,
    "altimeter": 30,
    "conditions": "",
    "observationTime": "2026-04-14T00:00:00.000Z"
  },
  "SYD": {
    "raw": "METAR YSSY 140000Z 27005KT CAVOK 21/08 Q1021",
    "icao": "YSSY",
    "flightCategory": "VFR",
    "windDir": 270,
    "windSpeed": 5,
    "windGust": null,
    "visibility": 6,
    "ceiling": null,
    "temp": 21,
    "dewpoint": 8,
    "altimeter": 30.15,
    "conditions": "",
    "observationTime": "2026-04-14T00:00:00.000Z"
  },
  "LAS": {
    "raw": "METAR KLAS 132356Z 20009G19KT 10SM BKN070 BKN100 OVC200 19/M05 A2984 RMK AO2 SLP094 T01941050 10211 20178 56014",
    "icao": "KLAS",
    "flightCategory": "VFR",
    "windDir": 200,
    "windSpeed": 9,
    "windGust": 19,
    "visibility": 10,
    "ceiling": 7000,
    "temp": 19.4,
    "dewpoint": -5,
    "altimeter": 29.84,
    "conditions": "",
    "observationTime": "2026-04-14T00:00:00.000Z"
  },
  "LAX": {
    "raw": "METAR KLAX 132353Z 25019KT 10SM FEW075 FEW100 18/08 A3001 RMK AO2 SLP161 T01830078 10189 20167 56009 $",
    "icao": "KLAX",
    "flightCategory": "VFR",
    "windDir": 250,
    "windSpeed": 19,
    "windGust": null,
    "visibility": 10,
    "ceiling": null,
    "temp": 18.3,
    "dewpoint": 7.8,
    "altimeter": 30.01,
    "conditions": "",
    "observationTime": "2026-04-14T00:00:00.000Z"
  }
}