{
  "SYD": {
    "raw": "METAR YSSY 311900Z 32004KT CAVOK 18/16 Q1023",
    "icao": "YSSY",
    "flightCategory": "VFR",
    "windDir": 320,
    "windSpeed": 4,
    "windGust": null,
    "visibility": 6,
    "ceiling": null,
    "temp": 18,
    "dewpoint": 16,
    "altimeter": 30.21,
    "conditions": "",
    "observationTime": "2026-03-31T19:00:00.000Z"
  },
  "LHR": {
    "raw": "METAR EGLL 311850Z COR AUTO 16004KT 130V210 9999 NCD 16/09 Q1029 NOSIG",
    "icao": "EGLL",
    "flightCategory": "VFR",
    "windDir": 160,
    "windSpeed": 4,
    "windGust": null,
    "visibility": 6,
    "ceiling": null,
    "temp": 16,
    "dewpoint": 9,
    "altimeter": 30.39,
    "conditions": "",
    "observationTime": "2026-03-31T19:00:00.000Z"
  },
  "LAS": {
    "raw": "METAR KLAS 311856Z 22017G25KT 10SM SCT100 BKN130 OVC200 26/01 A2990 RMK AO2 PK WND 19038/1808 SLP103 ACSL DSNT NW T02560006",
    "icao": "KLAS",
    "flightCategory": "VFR",
    "windDir": 220,
    "windSpeed": 17,
    "windGust": 25,
    "visibility": 10,
    "ceiling": 13000,
    "temp": 25.6,
    "dewpoint": 0.6,
    "altimeter": 29.9,
    "conditions": "",
    "observationTime": "2026-03-31T19:00:00.000Z"
  },
  "LAX": {
    "raw": "METAR KLAX 311853Z 16008KT 10SM SCT025 OVC031 20/14 A2998 RMK AO2 SLP149 T02000139 $",
    "icao": "KLAX",
    "flightCategory": "VFR",
    "windDir": 160,
    "windSpeed": 8,
    "windGust": null,
    "visibility": 10,
    "ceiling": 3100,
    "temp": 20,
    "dewpoint": 13.9,
    "altimeter": 29.98,
    "conditions": "",
    "observationTime": "2026-03-31T19:00:00.000Z"
  },
  "ORD": {
    "raw": "METAR KORD 311851Z 23007KT 10SM FEW039 SCT110 BKN170 OVC250 19/16 A2975 RMK AO2 RAB19E31 SLP072 P0000 T01890156",
    "icao": "KORD",
    "flightCategory": "VFR",
    "windDir": 230,
    "windSpeed": 7,
    "windGust": null,
    "visibility": 10,
    "ceiling": 17000,
    "temp": 18.9,
    "dewpoint": 15.6,
    "altimeter": 29.75,
    "conditions": "",
    "observationTime": "2026-03-31T19:00:00.000Z"
  }
}