{
  "SYD": {
    "raw": "SPECI YSSY 051555Z AUTO 17020KT 6000 -SHRA SCT025 SCT036 BKN046 13/10 Q1035",
    "icao": "YSSY",
    "flightCategory": "MVFR",
    "windDir": 170,
    "windSpeed": 20,
    "windGust": null,
    "visibility": 3.73,
    "ceiling": 4600,
    "temp": 13,
    "dewpoint": 10,
    "altimeter": 30.56,
    "conditions": "-SHRA",
    "observationTime": "2026-07-05T15:55:00.000Z"
  },
  "LHR": {
    "raw": "METAR EGLL 051550Z AUTO 30009KT 260V330 9999 NCD 28/14 Q1022",
    "icao": "EGLL",
    "flightCategory": "VFR",
    "windDir": 300,
    "windSpeed": 9,
    "windGust": null,
    "visibility": 6,
    "ceiling": null,
    "temp": 28,
    "dewpoint": 14,
    "altimeter": 30.18,
    "conditions": "",
    "observationTime": "2026-07-05T16:00:00.000Z"
  },
  "LAS": {
    "raw": "METAR KLAS 051556Z 19004KT 10SM FEW140 FEW180 BKN250 33/11 A2997 RMK AO2 SLP115 T03280106 $",
    "icao": "KLAS",
    "flightCategory": "VFR",
    "windDir": 190,
    "windSpeed": 4,
    "windGust": null,
    "visibility": 10,
    "ceiling": 25000,
    "temp": 32.8,
    "dewpoint": 10.6,
    "altimeter": 29.97,
    "conditions": "",
    "observationTime": "2026-07-05T16:00:00.000Z"
  },
  "LAX": {
    "raw": "METAR KLAX 051553Z 26006KT 10SM FEW012 SCT160 SCT220 BKN260 21/16 A3001 RMK AO2 SLP160 T02110161 $",
    "icao": "KLAX",
    "flightCategory": "VFR",
    "windDir": 260,
    "windSpeed": 6,
    "windGust": null,
    "visibility": 10,
    "ceiling": 26000,
    "temp": 21.1,
    "dewpoint": 16.1,
    "altimeter": 30.01,
    "conditions": "",
    "observationTime": "2026-07-05T16:00:00.000Z"
  },
  "ORD": {
    "raw": "METAR KORD 051551Z 01009KT 4SM BR OVC008 22/19 A2999 RMK AO2 SLP152 T02170194 $",
    "icao": "KORD",
    "flightCategory": "IFR",
    "windDir": 10,
    "windSpeed": 9,
    "windGust": null,
    "visibility": 4,
    "ceiling": 800,
    "temp": 21.7,
    "dewpoint": 19.4,
    "altimeter": 29.99,
    "conditions": "BR",
    "observationTime": "2026-07-05T16:00:00.000Z"
  }
}