{
  "LAX": {
    "raw": "METAR KLAX 281953Z 25009KT 220V290 10SM FEW010 FEW040 SCT060 BKN160 19/08 A2996 RMK AO2 SLP144 T01890078 $",
    "icao": "KLAX",
    "flightCategory": "VFR",
    "windDir": 250,
    "windSpeed": 9,
    "windGust": null,
    "visibility": 10,
    "ceiling": 16000,
    "temp": 18.9,
    "dewpoint": 7.8,
    "altimeter": 29.96,
    "conditions": "",
    "observationTime": "2026-05-28T20:00:00.000Z"
  },
  "ORD": {
    "raw": "METAR KORD 281951Z 03012KT 10SM FEW300 21/07 A3018 RMK AO2 SLP218 T02060072",
    "icao": "KORD",
    "flightCategory": "VFR",
    "windDir": 30,
    "windSpeed": 12,
    "windGust": null,
    "visibility": 10,
    "ceiling": null,
    "temp": 20.6,
    "dewpoint": 7.2,
    "altimeter": 30.18,
    "conditions": "",
    "observationTime": "2026-05-28T20:00:00.000Z"
  },
  "LHR": {
    "raw": "METAR EGLL 281920Z AUTO 21009KT 9999 //////CB 27/15 Q1019",
    "icao": "EGLL",
    "flightCategory": "UNKNOWN",
    "windDir": 210,
    "windSpeed": 9,
    "windGust": null,
    "visibility": 6,
    "ceiling": null,
    "temp": 27,
    "dewpoint": 15,
    "altimeter": 30.09,
    "conditions": "",
    "observationTime": "2026-05-28T19:20:00.000Z"
  },
  "SYD": {
    "raw": "METAR YSSY 281900Z AUTO 20021KT 9999 -RA FEW016 BKN049 OVC090 18/16 Q1003",
    "icao": "YSSY",
    "flightCategory": "VFR",
    "windDir": 200,
    "windSpeed": 21,
    "windGust": null,
    "visibility": 6,
    "ceiling": 4900,
    "temp": 18,
    "dewpoint": 16,
    "altimeter": 29.62,
    "conditions": "-RA",
    "observationTime": "2026-05-28T19:00:00.000Z"
  }
}