{
  "SYD": {
    "raw": "METAR YSSY 142100Z 15011KT 9999 FEW030 SCT045 BKN060 17/11 Q1033",
    "icao": "YSSY",
    "flightCategory": "VFR",
    "windDir": 150,
    "windSpeed": 11,
    "windGust": null,
    "visibility": 6,
    "ceiling": 6000,
    "temp": 17,
    "dewpoint": 11,
    "altimeter": 30.5,
    "conditions": "",
    "observationTime": "2026-06-14T21:00:00.000Z"
  },
  "LHR": {
    "raw": "METAR EGLL 142050Z AUTO 36003KT 330V040 9999 NCD 19/09 Q1018",
    "icao": "EGLL",
    "flightCategory": "VFR",
    "windDir": 360,
    "windSpeed": 3,
    "windGust": null,
    "visibility": 6,
    "ceiling": null,
    "temp": 19,
    "dewpoint": 9,
    "altimeter": 30.06,
    "conditions": "",
    "observationTime": "2026-06-14T21:00:00.000Z"
  },
  "LAS": {
    "raw": "METAR KLAS 142056Z 23021G31KT 10SM FEW120 FEW170 41/M02 A2987 RMK AO2 PK WND 23031/2055 SLP081 ACC DSNT NE-E T04061022 58013",
    "icao": "KLAS",
    "flightCategory": "VFR",
    "windDir": 230,
    "windSpeed": 21,
    "windGust": 31,
    "visibility": 10,
    "ceiling": null,
    "temp": 40.6,
    "dewpoint": -2.2,
    "altimeter": 29.87,
    "conditions": "",
    "observationTime": "2026-06-14T21:00:00.000Z"
  },
  "LAX": {
    "raw": "METAR KLAX 142053Z 25012KT 10SM FEW008 FEW011 SCT100 21/15 A2999 RMK AO2 SLP155 T02110150 58003 $",
    "icao": "KLAX",
    "flightCategory": "VFR",
    "windDir": 250,
    "windSpeed": 12,
    "windGust": null,
    "visibility": 10,
    "ceiling": null,
    "temp": 21.1,
    "dewpoint": 15,
    "altimeter": 29.99,
    "conditions": "",
    "observationTime": "2026-06-14T21:00:00.000Z"
  },
  "ORD": {
    "raw": "METAR KORD 142051Z 28011KT 10SM FEW039 BKN050 19/09 A2991 RMK AO2 PK WND 32027/2024 SLP125 T01890094 53020 $",
    "icao": "KORD",
    "flightCategory": "VFR",
    "windDir": 280,
    "windSpeed": 11,
    "windGust": null,
    "visibility": 10,
    "ceiling": 5000,
    "temp": 18.9,
    "dewpoint": 9.4,
    "altimeter": 29.91,
    "conditions": "",
    "observationTime": "2026-06-14T21:00:00.000Z"
  }
}