{
  "SYD": {
    "raw": "METAR YSSY 092130Z 31006KT CAVOK 22/17 Q1013",
    "icao": "YSSY",
    "flightCategory": "VFR",
    "windDir": 310,
    "windSpeed": 6,
    "windGust": null,
    "visibility": 6,
    "ceiling": null,
    "temp": 22,
    "dewpoint": 17,
    "altimeter": 29.91,
    "conditions": "",
    "observationTime": "2026-04-09T21:30:00.000Z"
  },
  "LAS": {
    "raw": "METAR KLAS 092156Z 22013G22KT 200V260 10SM FEW200 SCT250 31/M04 A2981 RMK AO2 SLP070 T03111044",
    "icao": "KLAS",
    "flightCategory": "VFR",
    "windDir": 220,
    "windSpeed": 13,
    "windGust": 22,
    "visibility": 10,
    "ceiling": null,
    "temp": 31.1,
    "dewpoint": -4.4,
    "altimeter": 29.81,
    "conditions": "",
    "observationTime": "2026-04-09T22:00:00.000Z"
  },
  "LAX": {
    "raw": "METAR KLAX 092153Z 25009KT 10SM FEW060 BKN250 21/16 A2994 RMK AO2 SLP138 T02060156 $",
    "icao": "KLAX",
    "flightCategory": "VFR",
    "windDir": 250,
    "windSpeed": 9,
    "windGust": null,
    "visibility": 10,
    "ceiling": 25000,
    "temp": 20.6,
    "dewpoint": 15.6,
    "altimeter": 29.94,
    "conditions": "",
    "observationTime": "2026-04-09T22:00:00.000Z"
  },
  "ORD": {
    "raw": "METAR KORD 092151Z 23008KT 10SM BKN075 OVC250 21/04 A3011 RMK AO2 SLP194 T02060039",
    "icao": "KORD",
    "flightCategory": "VFR",
    "windDir": 230,
    "windSpeed": 8,
    "windGust": null,
    "visibility": 10,
    "ceiling": 7500,
    "temp": 20.6,
    "dewpoint": 3.9,
    "altimeter": 30.11,
    "conditions": "",
    "observationTime": "2026-04-09T22:00:00.000Z"
  },
  "LHR": {
    "raw": "METAR EGLL 092150Z COR AUTO 28010KT 9999 NCD 08/00 Q1021 NOSIG",
    "icao": "EGLL",
    "flightCategory": "VFR",
    "windDir": 280,
    "windSpeed": 10,
    "windGust": null,
    "visibility": 6,
    "ceiling": null,
    "temp": 8,
    "dewpoint": 0,
    "altimeter": 30.15,
    "conditions": "",
    "observationTime": "2026-04-09T22:00:00.000Z"
  }
}