{
  "ORD": {
    "raw": "METAR KORD 291451Z 36008KT 10SM BKN025 BKN050 12/06 A2991 RMK AO2 SLP129 T01220061 58001",
    "icao": "KORD",
    "flightCategory": "MVFR",
    "windDir": 360,
    "windSpeed": 8,
    "windGust": null,
    "visibility": 10,
    "ceiling": 2500,
    "temp": 12.2,
    "dewpoint": 6.1,
    "altimeter": 29.91,
    "conditions": "",
    "observationTime": "2026-04-29T15:00:00.000Z"
  },
  "LHR": {
    "raw": "METAR EGLL 291420Z COR AUTO 06020KT 9999 NCD 18/01 Q1023 NOSIG",
    "icao": "EGLL",
    "flightCategory": "VFR",
    "windDir": 60,
    "windSpeed": 20,
    "windGust": null,
    "visibility": 6,
    "ceiling": null,
    "temp": 18,
    "dewpoint": 1,
    "altimeter": 30.21,
    "conditions": "",
    "observationTime": "2026-04-29T14:20:00.000Z"
  },
  "SYD": {
    "raw": "METAR YSSY 291400Z AUTO 34005KT 9999 // FEW039 OVC057 18/16 Q1030",
    "icao": "YSSY",
    "flightCategory": "VFR",
    "windDir": 340,
    "windSpeed": 5,
    "windGust": null,
    "visibility": 6,
    "ceiling": 5700,
    "temp": 18,
    "dewpoint": 16,
    "altimeter": 30.42,
    "conditions": "",
    "observationTime": "2026-04-29T14:00:00.000Z"
  },
  "LAS": {
    "raw": "METAR KLAS 291356Z 36007KT 10SM CLR 17/M02 A3005 RMK AO2 SLP159 T01721017",
    "icao": "KLAS",
    "flightCategory": "VFR",
    "windDir": 360,
    "windSpeed": 7,
    "windGust": null,
    "visibility": 10,
    "ceiling": null,
    "temp": 17.2,
    "dewpoint": -1.7,
    "altimeter": 30.05,
    "conditions": "",
    "observationTime": "2026-04-29T14:00:00.000Z"
  }
}