{
  "LHR": {
    "raw": "METAR EGLL 101250Z COR AUTO 05012KT 010V080 9999 OVC030 13/05 Q1016 NOSIG",
    "icao": "EGLL",
    "flightCategory": "MVFR",
    "windDir": 50,
    "windSpeed": 12,
    "windGust": null,
    "visibility": 6,
    "ceiling": 3000,
    "temp": 13,
    "dewpoint": 5,
    "altimeter": 30,
    "conditions": "",
    "observationTime": "2026-05-10T13:00:00.000Z"
  },
  "SYD": {
    "raw": "METAR YSSY 101300Z AUTO 23006KT 9999 // NCD 16/13 Q1031",
    "icao": "YSSY",
    "flightCategory": "VFR",
    "windDir": 230,
    "windSpeed": 6,
    "windGust": null,
    "visibility": 6,
    "ceiling": null,
    "temp": 16,
    "dewpoint": 13,
    "altimeter": 30.45,
    "conditions": "",
    "observationTime": "2026-05-10T13:00:00.000Z"
  },
  "LAS": {
    "raw": "METAR KLAS 101256Z 22004KT 10SM CLR 23/M06 A2994 RMK AO2 SLP110 T02331061",
    "icao": "KLAS",
    "flightCategory": "VFR",
    "windDir": 220,
    "windSpeed": 4,
    "windGust": null,
    "visibility": 10,
    "ceiling": null,
    "temp": 23.3,
    "dewpoint": -6.1,
    "altimeter": 29.94,
    "conditions": "",
    "observationTime": "2026-05-10T13:00:00.000Z"
  },
  "LAX": {
    "raw": "METAR KLAX 101253Z 11003KT 6SM BR OVC010 16/14 A2991 RMK AO2 SLP125 T01610139",
    "icao": "KLAX",
    "flightCategory": "MVFR",
    "windDir": 110,
    "windSpeed": 3,
    "windGust": null,
    "visibility": 6,
    "ceiling": 1000,
    "temp": 16.1,
    "dewpoint": 13.9,
    "altimeter": 29.91,
    "conditions": "BR",
    "observationTime": "2026-05-10T13:00:00.000Z"
  },
  "ORD": {
    "raw": "METAR KORD 101251Z 07003KT 10SM CLR 11/00 A3006 RMK AO2 SLP180 T01110000 $",
    "icao": "KORD",
    "flightCategory": "VFR",
    "windDir": 70,
    "windSpeed": 3,
    "windGust": null,
    "visibility": 10,
    "ceiling": null,
    "temp": 11.1,
    "dewpoint": 0,
    "altimeter": 30.06,
    "conditions": "",
    "observationTime": "2026-05-10T13:00:00.000Z"
  }
}