{
  "LHR": {
    "raw": "METAR EGLL 220950Z AUTO 16014KT 9999 NCD 24/13 Q1025",
    "icao": "EGLL",
    "flightCategory": "VFR",
    "windDir": 160,
    "windSpeed": 14,
    "windGust": null,
    "visibility": 6,
    "ceiling": null,
    "temp": 24,
    "dewpoint": 13,
    "altimeter": 30.27,
    "conditions": "",
    "observationTime": "2026-05-22T10:00:00.000Z"
  },
  "SYD": {
    "raw": "SPECI YSSY 220947Z AUTO 13009KT 6000 -SHRA FEW035 BKN042 OVC060 16/13 Q1027",
    "icao": "YSSY",
    "flightCategory": "MVFR",
    "windDir": 130,
    "windSpeed": 9,
    "windGust": null,
    "visibility": 3.73,
    "ceiling": 4200,
    "temp": 16,
    "dewpoint": 13,
    "altimeter": 30.33,
    "conditions": "-SHRA",
    "observationTime": "2026-05-22T09:47:00.000Z"
  },
  "LAX": {
    "raw": "METAR KLAX 220953Z 11004KT 9SM FEW010 OVC012 16/13 A2985 RMK AO2 SLP107 T01610128 $",
    "icao": "KLAX",
    "flightCategory": "MVFR",
    "windDir": 110,
    "windSpeed": 4,
    "windGust": null,
    "visibility": 9,
    "ceiling": 1200,
    "temp": 16.1,
    "dewpoint": 12.8,
    "altimeter": 29.85,
    "conditions": "",
    "observationTime": "2026-05-22T10:00:00.000Z"
  },
  "LAS": {
    "raw": "METAR KLAS 220956Z 19007KT 10SM CLR 24/M07 A2972 RMK AO2 SLP039 T02441072",
    "icao": "KLAS",
    "flightCategory": "VFR",
    "windDir": 190,
    "windSpeed": 7,
    "windGust": null,
    "visibility": 10,
    "ceiling": null,
    "temp": 24.4,
    "dewpoint": -7.2,
    "altimeter": 29.72,
    "conditions": "",
    "observationTime": "2026-05-22T10:00:00.000Z"
  },
  "ORD": {
    "raw": "METAR KORD 220951Z 07010KT 10SM OVC060 12/06 A3016 RMK AO2 SLP215 T01170056 $",
    "icao": "KORD",
    "flightCategory": "VFR",
    "windDir": 70,
    "windSpeed": 10,
    "windGust": null,
    "visibility": 10,
    "ceiling": 6000,
    "temp": 11.7,
    "dewpoint": 5.6,
    "altimeter": 30.16,
    "conditions": "",
    "observationTime": "2026-05-22T10:00:00.000Z"
  }
}