{
  "SYD": {
    "raw": "METAR YSSY 300300Z 21010KT 9999 FEW047 19/07 Q1006",
    "icao": "YSSY",
    "flightCategory": "VFR",
    "windDir": 210,
    "windSpeed": 10,
    "windGust": null,
    "visibility": 6,
    "ceiling": null,
    "temp": 19,
    "dewpoint": 7,
    "altimeter": 29.71,
    "conditions": "",
    "observationTime": "2026-05-30T03:00:00.000Z"
  },
  "LHR": {
    "raw": "METAR EGLL 300250Z AUTO 31003KT 9999 NCD 17/10 Q1022",
    "icao": "EGLL",
    "flightCategory": "VFR",
    "windDir": 310,
    "windSpeed": 3,
    "windGust": null,
    "visibility": 6,
    "ceiling": null,
    "temp": 17,
    "dewpoint": 10,
    "altimeter": 30.18,
    "conditions": "",
    "observationTime": "2026-05-30T03:00:00.000Z"
  },
  "LAS": {
    "raw": "METAR KLAS 300256Z 26011KT 10SM FEW100 25/00 A2985 RMK AO2 SLP091 T02500000 53005",
    "icao": "KLAS",
    "flightCategory": "VFR",
    "windDir": 260,
    "windSpeed": 11,
    "windGust": null,
    "visibility": 10,
    "ceiling": null,
    "temp": 25,
    "dewpoint": 0,
    "altimeter": 29.85,
    "conditions": "",
    "observationTime": "2026-05-30T03:00:00.000Z"
  },
  "LAX": {
    "raw": "METAR KLAX 300253Z 25008KT 10SM FEW019 FEW050 17/13 A3001 RMK AO2 SLP160 T01670133 53003 $",
    "icao": "KLAX",
    "flightCategory": "VFR",
    "windDir": 250,
    "windSpeed": 8,
    "windGust": null,
    "visibility": 10,
    "ceiling": null,
    "temp": 16.7,
    "dewpoint": 13.3,
    "altimeter": 30.01,
    "conditions": "",
    "observationTime": "2026-05-30T03:00:00.000Z"
  },
  "ORD": {
    "raw": "METAR KORD 300251Z 03010KT 10SM BKN250 19/11 A2996 RMK AO2 SLP141 T01940111 53006 $",
    "icao": "KORD",
    "flightCategory": "VFR",
    "windDir": 30,
    "windSpeed": 10,
    "windGust": null,
    "visibility": 10,
    "ceiling": 25000,
    "temp": 19.4,
    "dewpoint": 11.1,
    "altimeter": 29.96,
    "conditions": "",
    "observationTime": "2026-05-30T03:00:00.000Z"
  }
}