{
  "SYD": {
    "raw": "METAR YSSY 041400Z AUTO 27007KT 9999 // NCD 11/05 Q1029",
    "icao": "YSSY",
    "flightCategory": "VFR",
    "windDir": 270,
    "windSpeed": 7,
    "windGust": null,
    "visibility": 6,
    "ceiling": null,
    "temp": 11,
    "dewpoint": 5,
    "altimeter": 30.39,
    "conditions": "",
    "observationTime": "2026-07-04T14:00:00.000Z"
  },
  "LHR": {
    "raw": "METAR EGLL 041350Z AUTO 29011KT 250V320 9999 FEW046 26/14 Q1025",
    "icao": "EGLL",
    "flightCategory": "VFR",
    "windDir": 290,
    "windSpeed": 11,
    "windGust": null,
    "visibility": 6,
    "ceiling": null,
    "temp": 26,
    "dewpoint": 14,
    "altimeter": 30.27,
    "conditions": "",
    "observationTime": "2026-07-04T14:00:00.000Z"
  },
  "LAS": {
    "raw": "METAR KLAS 041356Z 12003KT 10SM FEW200 FEW250 28/M03 A3001 RMK AO2 SLP131 T02781033 $",
    "icao": "KLAS",
    "flightCategory": "VFR",
    "windDir": 120,
    "windSpeed": 3,
    "windGust": null,
    "visibility": 10,
    "ceiling": null,
    "temp": 27.8,
    "dewpoint": -3.3,
    "altimeter": 30.01,
    "conditions": "",
    "observationTime": "2026-07-04T14:00:00.000Z"
  },
  "LAX": {
    "raw": "METAR KLAX 041353Z 00000KT 10SM FEW011 SCT170 BKN220 BKN280 18/15 A3002 RMK AO2 SLP162 T01780150 $",
    "icao": "KLAX",
    "flightCategory": "VFR",
    "windDir": 0,
    "windSpeed": 0,
    "windGust": null,
    "visibility": 10,
    "ceiling": 22000,
    "temp": 17.8,
    "dewpoint": 15,
    "altimeter": 30.02,
    "conditions": "",
    "observationTime": "2026-07-04T14:00:00.000Z"
  },
  "ORD": {
    "raw": "METAR KORD 041351Z 27005KT 10SM FEW035 FEW065 BKN240 24/21 A2999 RMK AO2 SLP150 T02440211 $",
    "icao": "KORD",
    "flightCategory": "VFR",
    "windDir": 270,
    "windSpeed": 5,
    "windGust": null,
    "visibility": 10,
    "ceiling": 24000,
    "temp": 24.4,
    "dewpoint": 21.1,
    "altimeter": 29.99,
    "conditions": "",
    "observationTime": "2026-07-04T14:00:00.000Z"
  }
}