{
  "SYD": {
    "raw": "METAR YSSY 210000Z 20011KT 9999 VCSH FEW025 BKN060 19/14 Q1028 RESHGR",
    "icao": "YSSY",
    "flightCategory": "VFR",
    "windDir": 200,
    "windSpeed": 11,
    "windGust": null,
    "visibility": 6,
    "ceiling": 6000,
    "temp": 19,
    "dewpoint": 14,
    "altimeter": 30.36,
    "conditions": "VCSH",
    "observationTime": "2026-04-21T00:00:00.000Z"
  },
  "LAS": {
    "raw": "METAR KLAS 202356Z 20014G23KT 10SM FEW250 32/M06 A2984 RMK AO2 PK WND 21029/2330 SLP083 T03171061 10322 20267 56015",
    "icao": "KLAS",
    "flightCategory": "VFR",
    "windDir": 200,
    "windSpeed": 14,
    "windGust": 23,
    "visibility": 10,
    "ceiling": null,
    "temp": 31.7,
    "dewpoint": -6.1,
    "altimeter": 29.84,
    "conditions": "",
    "observationTime": "2026-04-21T00:00:00.000Z"
  },
  "LAX": {
    "raw": "METAR KLAX 202353Z 27014KT 10SM BKN250 18/12 A2996 RMK AO2 SLP145 T01830117 10211 20183 58015 $",
    "icao": "KLAX",
    "flightCategory": "VFR",
    "windDir": 270,
    "windSpeed": 14,
    "windGust": null,
    "visibility": 10,
    "ceiling": 25000,
    "temp": 18.3,
    "dewpoint": 11.7,
    "altimeter": 29.96,
    "conditions": "",
    "observationTime": "2026-04-21T00:00:00.000Z"
  },
  "ORD": {
    "raw": "METAR KORD 202351Z 18011KT 10SM SCT170 BKN250 13/M04 A3016 RMK AO2 SLP217 T01281044 10133 20100 58027 $",
    "icao": "KORD",
    "flightCategory": "VFR",
    "windDir": 180,
    "windSpeed": 11,
    "windGust": null,
    "visibility": 10,
    "ceiling": 25000,
    "temp": 12.8,
    "dewpoint": -4.4,
    "altimeter": 30.16,
    "conditions": "",
    "observationTime": "2026-04-21T00:00:00.000Z"
  }
}