{
  "LHR": {
    "raw": "METAR EGLL 182050Z COR AUTO 31006KT 9999 NCD 12/05 Q1024 NOSIG",
    "icao": "EGLL",
    "flightCategory": "VFR",
    "windDir": 310,
    "windSpeed": 6,
    "windGust": null,
    "visibility": 6,
    "ceiling": null,
    "temp": 12,
    "dewpoint": 5,
    "altimeter": 30.24,
    "conditions": "",
    "observationTime": "2026-04-18T21:00:00.000Z"
  },
  "LAS": {
    "raw": "METAR KLAS 182056Z VRB03G15KT 10SM SCT120 BKN250 22/M18 A3006 RMK AO2 SLP169 T02221178 58024",
    "icao": "KLAS",
    "flightCategory": "VFR",
    "windDir": null,
    "windSpeed": 3,
    "windGust": 15,
    "visibility": 10,
    "ceiling": 25000,
    "temp": 22.2,
    "dewpoint": -17.8,
    "altimeter": 30.06,
    "conditions": "",
    "observationTime": "2026-04-18T21:00:00.000Z"
  },
  "SYD": {
    "raw": "METAR YSSY 182030Z 31007KT 9999 FEW017 11/07 Q1021",
    "icao": "YSSY",
    "flightCategory": "VFR",
    "windDir": 310,
    "windSpeed": 7,
    "windGust": null,
    "visibility": 6,
    "ceiling": null,
    "temp": 11,
    "dewpoint": 7,
    "altimeter": 30.15,
    "conditions": "",
    "observationTime": "2026-04-18T20:30:00.000Z"
  },
  "LAX": {
    "raw": "METAR KLAX 182053Z 24009KT 10SM SCT300 24/14 A2994 RMK AO2 SLP139 T02390139 58011 $",
    "icao": "KLAX",
    "flightCategory": "VFR",
    "windDir": 240,
    "windSpeed": 9,
    "windGust": null,
    "visibility": 10,
    "ceiling": null,
    "temp": 23.9,
    "dewpoint": 13.9,
    "altimeter": 29.94,
    "conditions": "",
    "observationTime": "2026-04-18T21:00:00.000Z"
  },
  "ORD": {
    "raw": "METAR KORD 182051Z 28019G27KT 10SM BKN048 BKN250 09/M02 A2991 RMK AO2 PK WND 29034/2009 SLP130 T00941017 51008 $",
    "icao": "KORD",
    "flightCategory": "VFR",
    "windDir": 280,
    "windSpeed": 19,
    "windGust": 27,
    "visibility": 10,
    "ceiling": 4800,
    "temp": 9.4,
    "dewpoint": -1.7,
    "altimeter": 29.91,
    "conditions": "",
    "observationTime": "2026-04-18T21:00:00.000Z"
  }
}