{
  "LHR": {
    "raw": "METAR EGLL 042350Z AUTO 23026G39KT 9999 OVC020/// //////TCU 12/08 Q1006 NOSIG",
    "icao": "EGLL",
    "flightCategory": "MVFR",
    "windDir": 230,
    "windSpeed": 26,
    "windGust": 39,
    "visibility": 6,
    "ceiling": 2000,
    "temp": 12,
    "dewpoint": 8,
    "altimeter": 29.71,
    "conditions": "",
    "observationTime": "2026-04-05T00:00:00.000Z"
  },
  "SYD": {
    "raw": "METAR YSSY 050000Z 17006KT 9999 FEW018 SCT040 BKN050 19/14 Q1026",
    "icao": "YSSY",
    "flightCategory": "VFR",
    "windDir": 170,
    "windSpeed": 6,
    "windGust": null,
    "visibility": 6,
    "ceiling": 5000,
    "temp": 19,
    "dewpoint": 14,
    "altimeter": 30.3,
    "conditions": "",
    "observationTime": "2026-04-05T00:00:00.000Z"
  },
  "LAS": {
    "raw": "METAR KLAS 042356Z 05012KT 10SM BKN250 26/M14 A3009 RMK AO2 SLP176 T02561139 10256 20200 56027",
    "icao": "KLAS",
    "flightCategory": "VFR",
    "windDir": 50,
    "windSpeed": 12,
    "windGust": null,
    "visibility": 10,
    "ceiling": 25000,
    "temp": 25.6,
    "dewpoint": -13.9,
    "altimeter": 30.09,
    "conditions": "",
    "observationTime": "2026-04-05T00:00:00.000Z"
  },
  "LAX": {
    "raw": "METAR KLAX 042353Z 26013KT 10SM SCT230 SCT280 24/03 A2995 RMK AO2 SLP140 T02440028 10306 20228 56014 $",
    "icao": "KLAX",
    "flightCategory": "VFR",
    "windDir": 260,
    "windSpeed": 13,
    "windGust": null,
    "visibility": 10,
    "ceiling": null,
    "temp": 24.4,
    "dewpoint": 2.8,
    "altimeter": 29.95,
    "conditions": "",
    "observationTime": "2026-04-05T00:00:00.000Z"
  },
  "ORD": {
    "raw": "METAR KORD 042351Z 26020G29KT 10SM BKN030 BKN036 BKN045 06/M01 A2993 RMK AO2 PK WND 26033/2315 SLP137 T00611006 10094 20061 51020 $",
    "icao": "KORD",
    "flightCategory": "MVFR",
    "windDir": 260,
    "windSpeed": 20,
    "windGust": 29,
    "visibility": 10,
    "ceiling": 3000,
    "temp": 6.1,
    "dewpoint": -0.6,
    "altimeter": 29.93,
    "conditions": "",
    "observationTime": "2026-04-05T00:00:00.000Z"
  }
}