{
  "LHR": {
    "raw": "METAR EGLL 191150Z AUTO 35008KT 310V030 9999 SCT047 20/07 Q1025",
    "icao": "EGLL",
    "flightCategory": "VFR",
    "windDir": 350,
    "windSpeed": 8,
    "windGust": null,
    "visibility": 6,
    "ceiling": null,
    "temp": 20,
    "dewpoint": 7,
    "altimeter": 30.27,
    "conditions": "",
    "observationTime": "2026-07-19T12:00:00.000Z"
  },
  "SYD": {
    "raw": "METAR YSSY 191200Z AUTO 28006KT 9999 // OVC042 15/11 Q1033",
    "icao": "YSSY",
    "flightCategory": "VFR",
    "windDir": 280,
    "windSpeed": 6,
    "windGust": null,
    "visibility": 6,
    "ceiling": 4200,
    "temp": 15,
    "dewpoint": 11,
    "altimeter": 30.5,
    "conditions": "",
    "observationTime": "2026-07-19T12:00:00.000Z"
  },
  "LAS": {
    "raw": "METAR KLAS 191156Z 20005KT 10SM FEW130 SCT180 BKN250 32/11 A2991 RMK AO2 SLP095 T03220106 10361 20317 53007 $",
    "icao": "KLAS",
    "flightCategory": "VFR",
    "windDir": 200,
    "windSpeed": 5,
    "windGust": null,
    "visibility": 10,
    "ceiling": 25000,
    "temp": 32.2,
    "dewpoint": 10.6,
    "altimeter": 29.91,
    "conditions": "",
    "observationTime": "2026-07-19T12:00:00.000Z"
  },
  "LAX": {
    "raw": "METAR KLAX 191153Z 00000KT 9SM SCT008 OVC012 21/18 A2997 RMK AO2 SLP146 T02060178 10206 20200 56005 $",
    "icao": "KLAX",
    "flightCategory": "MVFR",
    "windDir": 0,
    "windSpeed": 0,
    "windGust": null,
    "visibility": 9,
    "ceiling": 1200,
    "temp": 20.6,
    "dewpoint": 17.8,
    "altimeter": 29.97,
    "conditions": "",
    "observationTime": "2026-07-19T12:00:00.000Z"
  },
  "ORD": {
    "raw": "METAR KORD 191151Z 04009KT 5SM FU FEW024 FEW160 BKN250 22/17 A3003 RMK AO2 SLP164 T02170167 10217 20206 51008 $",
    "icao": "KORD",
    "flightCategory": "MVFR",
    "windDir": 40,
    "windSpeed": 9,
    "windGust": null,
    "visibility": 5,
    "ceiling": 25000,
    "temp": 21.7,
    "dewpoint": 16.7,
    "altimeter": 30.03,
    "conditions": "FU",
    "observationTime": "2026-07-19T12:00:00.000Z"
  }
}