{
  "ORD": {
    "raw": "METAR KORD 040351Z 07008KT 10SM -RA SCT022 BKN070 BKN120 OVC250 04/02 A3004 RMK AO2 RAE18B36 TSE07 SLP177 P0002 T00440022",
    "icao": "KORD",
    "flightCategory": "VFR",
    "windDir": 70,
    "windSpeed": 8,
    "windGust": null,
    "visibility": 10,
    "ceiling": 7000,
    "temp": 4.4,
    "dewpoint": 2.2,
    "altimeter": 30.04,
    "conditions": "-RA",
    "observationTime": "2026-04-04T04:00:00.000Z"
  },
  "LHR": {
    "raw": "METAR EGLL 040350Z COR AUTO 24007KT 9999 NCD 09/06 Q1017 NOSIG",
    "icao": "EGLL",
    "flightCategory": "VFR",
    "windDir": 240,
    "windSpeed": 7,
    "windGust": null,
    "visibility": 6,
    "ceiling": null,
    "temp": 9,
    "dewpoint": 6,
    "altimeter": 30.03,
    "conditions": "",
    "observationTime": "2026-04-04T04:00:00.000Z"
  },
  "SYD": {
    "raw": "SPECI YSSY 040330Z 19018G28KT 9999 FEW016 SCT038 BKN045 19/16 Q1025",
    "icao": "YSSY",
    "flightCategory": "VFR",
    "windDir": 190,
    "windSpeed": 18,
    "windGust": 28,
    "visibility": 6,
    "ceiling": 4500,
    "temp": 19,
    "dewpoint": 16,
    "altimeter": 30.27,
    "conditions": "",
    "observationTime": "2026-04-04T03:30:00.000Z"
  },
  "LAS": {
    "raw": "METAR KLAS 040356Z 05008KT 10SM CLR 19/M11 A3020 RMK AO2 SLP214 T01891111",
    "icao": "KLAS",
    "flightCategory": "VFR",
    "windDir": 50,
    "windSpeed": 8,
    "windGust": null,
    "visibility": 10,
    "ceiling": null,
    "temp": 18.9,
    "dewpoint": -11.1,
    "altimeter": 30.2,
    "conditions": "",
    "observationTime": "2026-04-04T04:00:00.000Z"
  },
  "LAX": {
    "raw": "METAR KLAX 040353Z 00000KT 10SM FEW190 SCT240 SCT290 19/11 A3000 RMK AO2 SLP157 T01940111 $",
    "icao": "KLAX",
    "flightCategory": "VFR",
    "windDir": 0,
    "windSpeed": 0,
    "windGust": null,
    "visibility": 10,
    "ceiling": null,
    "temp": 19.4,
    "dewpoint": 11.1,
    "altimeter": 30,
    "conditions": "",
    "observationTime": "2026-04-04T04:00:00.000Z"
  }
}