{
  "SYD": {
    "raw": "METAR YSSY 040130Z 31006KT 9000 -RA NSC 20/16 Q1017",
    "icao": "YSSY",
    "flightCategory": "VFR",
    "windDir": 310,
    "windSpeed": 6,
    "windGust": null,
    "visibility": 5.59,
    "ceiling": null,
    "temp": 20,
    "dewpoint": 16,
    "altimeter": 30.03,
    "conditions": "-RA",
    "observationTime": "2026-05-04T01:30:00.000Z"
  },
  "LAS": {
    "raw": "METAR KLAS 040156Z 21012KT 10SM SCT100 BKN200 29/M04 A2966 RMK AO2 PK WND 20027/0100 SLP023 T02941044",
    "icao": "KLAS",
    "flightCategory": "VFR",
    "windDir": 210,
    "windSpeed": 12,
    "windGust": null,
    "visibility": 10,
    "ceiling": 20000,
    "temp": 29.4,
    "dewpoint": -4.4,
    "altimeter": 29.66,
    "conditions": "",
    "observationTime": "2026-05-04T02:00:00.000Z"
  },
  "LAX": {
    "raw": "METAR KLAX 040153Z 25014KT 10SM FEW020 OVC050 16/10 A2994 RMK AO2 SLP137 T01610100",
    "icao": "KLAX",
    "flightCategory": "VFR",
    "windDir": 250,
    "windSpeed": 14,
    "windGust": null,
    "visibility": 10,
    "ceiling": 5000,
    "temp": 16.1,
    "dewpoint": 10,
    "altimeter": 29.94,
    "conditions": "",
    "observationTime": "2026-05-04T02:00:00.000Z"
  },
  "ORD": {
    "raw": "METAR KORD 040151Z 21009KT 10SM FEW070 17/06 A2969 RMK AO2 SLP054 T01720056 $",
    "icao": "KORD",
    "flightCategory": "VFR",
    "windDir": 210,
    "windSpeed": 9,
    "windGust": null,
    "visibility": 10,
    "ceiling": null,
    "temp": 17.2,
    "dewpoint": 5.6,
    "altimeter": 29.69,
    "conditions": "",
    "observationTime": "2026-05-04T02:00:00.000Z"
  },
  "LHR": {
    "raw": "METAR EGLL 040120Z AUTO 28006KT 9999 FEW014 SCT039 BKN047 13/11 Q1011 TEMPO BKN014",
    "icao": "EGLL",
    "flightCategory": "VFR",
    "windDir": 280,
    "windSpeed": 6,
    "windGust": null,
    "visibility": 6,
    "ceiling": 4700,
    "temp": 13,
    "dewpoint": 11,
    "altimeter": 29.85,
    "conditions": "",
    "observationTime": "2026-05-04T01:20:00.000Z"
  }
}