{
  "SYD": {
    "raw": "METAR YSSY 101200Z AUTO 23008KT 9999 // NCD 17/13 Q1031",
    "icao": "YSSY",
    "flightCategory": "VFR",
    "windDir": 230,
    "windSpeed": 8,
    "windGust": null,
    "visibility": 6,
    "ceiling": null,
    "temp": 17,
    "dewpoint": 13,
    "altimeter": 30.45,
    "conditions": "",
    "observationTime": "2026-05-10T12:00:00.000Z"
  },
  "LHR": {
    "raw": "METAR EGLL 101150Z COR AUTO 06010KT 9999 OVC029 13/06 Q1017 NOSIG",
    "icao": "EGLL",
    "flightCategory": "MVFR",
    "windDir": 60,
    "windSpeed": 10,
    "windGust": null,
    "visibility": 6,
    "ceiling": 2900,
    "temp": 13,
    "dewpoint": 6,
    "altimeter": 30.03,
    "conditions": "",
    "observationTime": "2026-05-10T12:00:00.000Z"
  },
  "LAS": {
    "raw": "METAR KLAS 101156Z 12003KT 10SM CLR 27/M07 A2992 RMK AO2 SLP100 T02671067 10317 20267 51017",
    "icao": "KLAS",
    "flightCategory": "VFR",
    "windDir": 120,
    "windSpeed": 3,
    "windGust": null,
    "visibility": 10,
    "ceiling": null,
    "temp": 26.7,
    "dewpoint": -6.7,
    "altimeter": 29.92,
    "conditions": "",
    "observationTime": "2026-05-10T12:00:00.000Z"
  },
  "LAX": {
    "raw": "METAR KLAX 101153Z 11005KT 6SM BR OVC010 16/14 A2991 RMK AO2 SLP126 T01610139 10167 20144 55002",
    "icao": "KLAX",
    "flightCategory": "MVFR",
    "windDir": 110,
    "windSpeed": 5,
    "windGust": null,
    "visibility": 6,
    "ceiling": 1000,
    "temp": 16.1,
    "dewpoint": 13.9,
    "altimeter": 29.91,
    "conditions": "BR",
    "observationTime": "2026-05-10T12:00:00.000Z"
  },
  "ORD": {
    "raw": "METAR KORD 101151Z 00000KT 10SM CLR 08/01 A3003 RMK AO2 SLP169 T00780011 10106 20044 53018",
    "icao": "KORD",
    "flightCategory": "VFR",
    "windDir": 0,
    "windSpeed": 0,
    "windGust": null,
    "visibility": 10,
    "ceiling": null,
    "temp": 7.8,
    "dewpoint": 1.1,
    "altimeter": 30.03,
    "conditions": "",
    "observationTime": "2026-05-10T12:00:00.000Z"
  }
}