{
  "LHR": {
    "raw": "METAR EGLL 170450Z COR AUTO 18005KT 9999 NCD 11/09 Q1019 NOSIG",
    "icao": "EGLL",
    "flightCategory": "VFR",
    "windDir": 180,
    "windSpeed": 5,
    "windGust": null,
    "visibility": 6,
    "ceiling": null,
    "temp": 11,
    "dewpoint": 9,
    "altimeter": 30.09,
    "conditions": "",
    "observationTime": "2026-04-17T05:00:00.000Z"
  },
  "ORD": {
    "raw": "METAR KORD 170451Z 08005KT 1SM R10L/P6000FT BR BKN005 10/09 A2995 RMK AO2 SLP140 T01000094 $",
    "icao": "KORD",
    "flightCategory": "IFR",
    "windDir": 80,
    "windSpeed": 5,
    "windGust": null,
    "visibility": 1,
    "ceiling": 500,
    "temp": 10,
    "dewpoint": 9.4,
    "altimeter": 29.95,
    "conditions": "BR",
    "observationTime": "2026-04-17T05:00:00.000Z"
  },
  "SYD": {
    "raw": "METAR YSSY 170500Z 18003KT CAVOK 27/08 Q1009",
    "icao": "YSSY",
    "flightCategory": "VFR",
    "windDir": 180,
    "windSpeed": 3,
    "windGust": null,
    "visibility": 6,
    "ceiling": null,
    "temp": 27,
    "dewpoint": 8,
    "altimeter": 29.8,
    "conditions": "",
    "observationTime": "2026-04-17T05:00:00.000Z"
  },
  "LAS": {
    "raw": "METAR KLAS 170456Z 21011KT 10SM FEW250 22/M03 A2975 RMK AO2 SLP055 T02221028 $",
    "icao": "KLAS",
    "flightCategory": "VFR",
    "windDir": 210,
    "windSpeed": 11,
    "windGust": null,
    "visibility": 10,
    "ceiling": null,
    "temp": 22.2,
    "dewpoint": -2.8,
    "altimeter": 29.75,
    "conditions": "",
    "observationTime": "2026-04-17T05:00:00.000Z"
  },
  "LAX": {
    "raw": "METAR KLAX 170453Z 22003KT 10SM CLR 16/14 A2990 RMK AO2 SLP124 T01610139",
    "icao": "KLAX",
    "flightCategory": "VFR",
    "windDir": 220,
    "windSpeed": 3,
    "windGust": null,
    "visibility": 10,
    "ceiling": null,
    "temp": 16.1,
    "dewpoint": 13.9,
    "altimeter": 29.9,
    "conditions": "",
    "observationTime": "2026-04-17T05:00:00.000Z"
  }
}