{
  "LHR": {
    "raw": "METAR EGLL 070350Z AUTO 01003KT 330V040 9999 FEW014 07/05 Q1015 TEMPO BKN014",
    "icao": "EGLL",
    "flightCategory": "VFR",
    "windDir": 10,
    "windSpeed": 3,
    "windGust": null,
    "visibility": 6,
    "ceiling": null,
    "temp": 7,
    "dewpoint": 5,
    "altimeter": 29.97,
    "conditions": "",
    "observationTime": "2026-05-07T04:00:00.000Z"
  },
  "LAX": {
    "raw": "METAR KLAX 070353Z 26011KT 10SM FEW010 16/13 A3004 RMK AO2 SLP169 T01560128",
    "icao": "KLAX",
    "flightCategory": "VFR",
    "windDir": 260,
    "windSpeed": 11,
    "windGust": null,
    "visibility": 10,
    "ceiling": null,
    "temp": 15.6,
    "dewpoint": 12.8,
    "altimeter": 30.04,
    "conditions": "",
    "observationTime": "2026-05-07T04:00:00.000Z"
  },
  "SYD": {
    "raw": "METAR YSSY 070330Z 25027KT 9999 FEW045 18/M04 Q1014",
    "icao": "YSSY",
    "flightCategory": "VFR",
    "windDir": 250,
    "windSpeed": 27,
    "windGust": null,
    "visibility": 6,
    "ceiling": null,
    "temp": 18,
    "dewpoint": -4,
    "altimeter": 29.94,
    "conditions": "",
    "observationTime": "2026-05-07T03:30:00.000Z"
  },
  "LAS": {
    "raw": "METAR KLAS 070356Z 00000KT 10SM CLR 27/01 A2995 RMK AO2 SLP121 T02720006",
    "icao": "KLAS",
    "flightCategory": "VFR",
    "windDir": 0,
    "windSpeed": 0,
    "windGust": null,
    "visibility": 10,
    "ceiling": null,
    "temp": 27.2,
    "dewpoint": 0.6,
    "altimeter": 29.95,
    "conditions": "",
    "observationTime": "2026-05-07T04:00:00.000Z"
  },
  "ORD": {
    "raw": "METAR KORD 070351Z 30005KT 10SM CLR 07/M04 A2998 RMK AO2 SLP156 T00671044",
    "icao": "KORD",
    "flightCategory": "VFR",
    "windDir": 300,
    "windSpeed": 5,
    "windGust": null,
    "visibility": 10,
    "ceiling": null,
    "temp": 6.7,
    "dewpoint": -4.4,
    "altimeter": 29.98,
    "conditions": "",
    "observationTime": "2026-05-07T04:00:00.000Z"
  }
}