{
  "LHR": {
    "raw": "METAR EGLL 211250Z AUTO 18010KT 150V210 9999 BKN037 22/12 Q1025",
    "icao": "EGLL",
    "flightCategory": "VFR",
    "windDir": 180,
    "windSpeed": 10,
    "windGust": null,
    "visibility": 6,
    "ceiling": 3700,
    "temp": 22,
    "dewpoint": 12,
    "altimeter": 30.27,
    "conditions": "",
    "observationTime": "2026-05-21T13:00:00.000Z"
  },
  "SYD": {
    "raw": "METAR YSSY 211230Z AUTO 23012KT 9999 // SCT040 BKN049 OVC061 15/13 Q1027",
    "icao": "YSSY",
    "flightCategory": "VFR",
    "windDir": 230,
    "windSpeed": 12,
    "windGust": null,
    "visibility": 6,
    "ceiling": 4900,
    "temp": 15,
    "dewpoint": 13,
    "altimeter": 30.33,
    "conditions": "",
    "observationTime": "2026-05-21T12:30:00.000Z"
  },
  "LAS": {
    "raw": "METAR KLAS 211256Z 20005KT 10SM BKN250 19/M09 A2988 RMK AO2 SLP096 T01941094",
    "icao": "KLAS",
    "flightCategory": "VFR",
    "windDir": 200,
    "windSpeed": 5,
    "windGust": null,
    "visibility": 10,
    "ceiling": 25000,
    "temp": 19.4,
    "dewpoint": -9.4,
    "altimeter": 29.88,
    "conditions": "",
    "observationTime": "2026-05-21T13:00:00.000Z"
  },
  "LAX": {
    "raw": "SPECI KLAX 211243Z VRB03KT 10SM FEW008 FEW011 SCT220 SCT280 17/13 A2987 RMK AO2 T01670133",
    "icao": "KLAX",
    "flightCategory": "VFR",
    "windDir": null,
    "windSpeed": 3,
    "windGust": null,
    "visibility": 10,
    "ceiling": null,
    "temp": 16.7,
    "dewpoint": 13.3,
    "altimeter": 29.87,
    "conditions": "",
    "observationTime": "2026-05-21T12:43:00.000Z"
  },
  "ORD": {
    "raw": "METAR KORD 211251Z 04013KT 10SM BKN020 BKN031 BKN210 09/03 A3031 RMK AO2 SLP266 T00940033",
    "icao": "KORD",
    "flightCategory": "MVFR",
    "windDir": 40,
    "windSpeed": 13,
    "windGust": null,
    "visibility": 10,
    "ceiling": 2000,
    "temp": 9.4,
    "dewpoint": 3.3,
    "altimeter": 30.31,
    "conditions": "",
    "observationTime": "2026-05-21T13:00:00.000Z"
  }
}