{
  "ORD": {
    "raw": "METAR KORD 301851Z 19010G17KT 10SM FEW035 BKN300 33/24 A2991 RMK AO2 SLP121 T03330239",
    "icao": "KORD",
    "flightCategory": "VFR",
    "windDir": 190,
    "windSpeed": 10,
    "windGust": 17,
    "visibility": 10,
    "ceiling": 30000,
    "temp": 33.3,
    "dewpoint": 23.9,
    "altimeter": 29.91,
    "conditions": "",
    "observationTime": "2026-06-30T19:00:00.000Z"
  },
  "LHR": {
    "raw": "METAR EGLL 301820Z AUTO 23015G25KT 9999 NCD 22/12 Q1020",
    "icao": "EGLL",
    "flightCategory": "VFR",
    "windDir": 230,
    "windSpeed": 15,
    "windGust": 25,
    "visibility": 6,
    "ceiling": null,
    "temp": 22,
    "dewpoint": 12,
    "altimeter": 30.12,
    "conditions": "",
    "observationTime": "2026-06-30T18:20:00.000Z"
  },
  "SYD": {
    "raw": "METAR YSSY 301800Z AUTO 35008KT 9999 // NCD 14/12 Q1017",
    "icao": "YSSY",
    "flightCategory": "VFR",
    "windDir": 350,
    "windSpeed": 8,
    "windGust": null,
    "visibility": 6,
    "ceiling": null,
    "temp": 14,
    "dewpoint": 12,
    "altimeter": 30.03,
    "conditions": "",
    "observationTime": "2026-06-30T18:00:00.000Z"
  },
  "LAS": {
    "raw": "METAR KLAS 301756Z 10006KT 10SM FEW140 30/03 A2985 RMK AO2 SLP078 T03000033 10300 20233 51004",
    "icao": "KLAS",
    "flightCategory": "VFR",
    "windDir": 100,
    "windSpeed": 6,
    "windGust": null,
    "visibility": 10,
    "ceiling": null,
    "temp": 30,
    "dewpoint": 3.3,
    "altimeter": 29.85,
    "conditions": "",
    "observationTime": "2026-06-30T18:00:00.000Z"
  }
}