{
  "ORD": {
    "raw": "SPECI KORD 120408Z 28012G19KT 10SM SCT018 OVC250 21/18 A2973 RMK AO2 T02060183 $",
    "icao": "KORD",
    "flightCategory": "VFR",
    "windDir": 280,
    "windSpeed": 12,
    "windGust": 19,
    "visibility": 10,
    "ceiling": 25000,
    "temp": 20.6,
    "dewpoint": 18.3,
    "altimeter": 29.73,
    "conditions": "",
    "observationTime": "2026-06-12T04:08:00.000Z"
  },
  "LAX": {
    "raw": "SPECI KLAX 120443Z 25007KT 10SM FEW008 18/17 A2986 RMK AO2 T01830167",
    "icao": "KLAX",
    "flightCategory": "VFR",
    "windDir": 250,
    "windSpeed": 7,
    "windGust": null,
    "visibility": 10,
    "ceiling": null,
    "temp": 18.3,
    "dewpoint": 16.7,
    "altimeter": 29.86,
    "conditions": "",
    "observationTime": "2026-06-12T04:43:00.000Z"
  },
  "SYD": {
    "raw": "METAR YSSY 120400Z 17011KT 9999 SCT024 SCT060 19/16 Q1030",
    "icao": "YSSY",
    "flightCategory": "VFR",
    "windDir": 170,
    "windSpeed": 11,
    "windGust": null,
    "visibility": 6,
    "ceiling": null,
    "temp": 19,
    "dewpoint": 16,
    "altimeter": 30.42,
    "conditions": "",
    "observationTime": "2026-06-12T04:00:00.000Z"
  },
  "LHR": {
    "raw": "METAR EGLL 120420Z AUTO 27018KT 9999 OVC015 16/13 Q1018",
    "icao": "EGLL",
    "flightCategory": "MVFR",
    "windDir": 270,
    "windSpeed": 18,
    "windGust": null,
    "visibility": 6,
    "ceiling": 1500,
    "temp": 16,
    "dewpoint": 13,
    "altimeter": 30.06,
    "conditions": "",
    "observationTime": "2026-06-12T04:20:00.000Z"
  },
  "LAS": {
    "raw": "METAR KLAS 120356Z 10003KT 10SM FEW250 36/M01 A2979 RMK AO2 SLP056 T03611006",
    "icao": "KLAS",
    "flightCategory": "VFR",
    "windDir": 100,
    "windSpeed": 3,
    "windGust": null,
    "visibility": 10,
    "ceiling": null,
    "temp": 36.1,
    "dewpoint": -0.6,
    "altimeter": 29.79,
    "conditions": "",
    "observationTime": "2026-06-12T04:00:00.000Z"
  }
}