{
  "SYD": {
    "raw": "METAR YSSY 262300Z 28006KT 9999 FEW016 SCT060 BKN280 13/11 Q1030",
    "icao": "YSSY",
    "flightCategory": "VFR",
    "windDir": 280,
    "windSpeed": 6,
    "windGust": null,
    "visibility": 6,
    "ceiling": 28000,
    "temp": 13,
    "dewpoint": 11,
    "altimeter": 30.42,
    "conditions": "",
    "observationTime": "2026-06-26T23:00:00.000Z"
  },
  "LHR": {
    "raw": "METAR EGLL 262250Z AUTO 25009KT 9999 //////TCU 24/16 Q1017",
    "icao": "EGLL",
    "flightCategory": "UNKNOWN",
    "windDir": 250,
    "windSpeed": 9,
    "windGust": null,
    "visibility": 6,
    "ceiling": null,
    "temp": 24,
    "dewpoint": 16,
    "altimeter": 30.03,
    "conditions": "",
    "observationTime": "2026-06-26T23:00:00.000Z"
  },
  "LAS": {
    "raw": "METAR KLAS 262256Z 23021G31KT 10SM BKN180 BKN220 39/M07 A2971 RMK AO2 PK WND 21037/2224 SLP028 ACSL N-E T03891067",
    "icao": "KLAS",
    "flightCategory": "VFR",
    "windDir": 230,
    "windSpeed": 21,
    "windGust": 31,
    "visibility": 10,
    "ceiling": 18000,
    "temp": 38.9,
    "dewpoint": -6.7,
    "altimeter": 29.71,
    "conditions": "",
    "observationTime": "2026-06-26T23:00:00.000Z"
  },
  "LAX": {
    "raw": "METAR KLAX 262253Z 24013KT 10SM FEW012 FEW180 SCT220 21/14 A2994 RMK AO2 SLP136 T02110139",
    "icao": "KLAX",
    "flightCategory": "VFR",
    "windDir": 240,
    "windSpeed": 13,
    "windGust": null,
    "visibility": 10,
    "ceiling": null,
    "temp": 21.1,
    "dewpoint": 13.9,
    "altimeter": 29.94,
    "conditions": "",
    "observationTime": "2026-06-26T23:00:00.000Z"
  },
  "ORD": {
    "raw": "METAR KORD 262251Z 04008KT 10SM FEW010 SCT080 OVC100 17/14 A3004 RMK AO2 RAE26 SLP172 P0001 T01670144",
    "icao": "KORD",
    "flightCategory": "VFR",
    "windDir": 40,
    "windSpeed": 8,
    "windGust": null,
    "visibility": 10,
    "ceiling": 10000,
    "temp": 16.7,
    "dewpoint": 14.4,
    "altimeter": 30.04,
    "conditions": "",
    "observationTime": "2026-06-26T23:00:00.000Z"
  }
}