{
  "LHR": {
    "raw": "METAR EGLL 300550Z AUTO 36005KT 330V040 9999 NCD 17/08 Q1021",
    "icao": "EGLL",
    "flightCategory": "VFR",
    "windDir": 360,
    "windSpeed": 5,
    "windGust": null,
    "visibility": 6,
    "ceiling": null,
    "temp": 17,
    "dewpoint": 8,
    "altimeter": 30.15,
    "conditions": "",
    "observationTime": "2026-05-30T06:00:00.000Z"
  },
  "SYD": {
    "raw": "METAR YSSY 300600Z 29014KT CAVOK 20/05 Q1006",
    "icao": "YSSY",
    "flightCategory": "VFR",
    "windDir": 290,
    "windSpeed": 14,
    "windGust": null,
    "visibility": 6,
    "ceiling": null,
    "temp": 20,
    "dewpoint": 5,
    "altimeter": 29.71,
    "conditions": "",
    "observationTime": "2026-05-30T06:00:00.000Z"
  },
  "LAS": {
    "raw": "METAR KLAS 300556Z 20004KT 10SM CLR 23/M01 A2990 RMK AO2 SLP107 T02281006 10261 20228 51016",
    "icao": "KLAS",
    "flightCategory": "VFR",
    "windDir": 200,
    "windSpeed": 4,
    "windGust": null,
    "visibility": 10,
    "ceiling": null,
    "temp": 22.8,
    "dewpoint": -0.6,
    "altimeter": 29.9,
    "conditions": "",
    "observationTime": "2026-05-30T06:00:00.000Z"
  },
  "LAX": {
    "raw": "METAR KLAX 300553Z 23007KT 10SM CLR 17/13 A3003 RMK AO2 SLP166 T01670128 10189 20161 51006 $",
    "icao": "KLAX",
    "flightCategory": "VFR",
    "windDir": 230,
    "windSpeed": 7,
    "windGust": null,
    "visibility": 10,
    "ceiling": null,
    "temp": 16.7,
    "dewpoint": 12.8,
    "altimeter": 30.03,
    "conditions": "",
    "observationTime": "2026-05-30T06:00:00.000Z"
  },
  "ORD": {
    "raw": "METAR KORD 300551Z 00000KT 10SM BKN250 17/11 A2998 RMK AO2 SLP147 T01720111 10256 20167 402940094 51006 $",
    "icao": "KORD",
    "flightCategory": "VFR",
    "windDir": 0,
    "windSpeed": 0,
    "windGust": null,
    "visibility": 10,
    "ceiling": 25000,
    "temp": 17.2,
    "dewpoint": 11.1,
    "altimeter": 29.98,
    "conditions": "",
    "observationTime": "2026-05-30T06:00:00.000Z"
  }
}