{
  "LAX": {
    "raw": "METAR KLAX 201253Z 08004KT 10SM FEW012 14/13 A2996 RMK AO2 SLP144 FU FEW012 T01440133",
    "icao": "KLAX",
    "flightCategory": "VFR",
    "windDir": 80,
    "windSpeed": 4,
    "windGust": null,
    "visibility": 10,
    "ceiling": null,
    "temp": 14.4,
    "dewpoint": 13.3,
    "altimeter": 29.96,
    "conditions": "",
    "observationTime": "2026-06-20T13:00:00.000Z"
  },
  "ORD": {
    "raw": "METAR KORD 201251Z 27010G16KT 10SM FEW250 18/11 A2996 RMK AO2 SLP143 T01830111 $",
    "icao": "KORD",
    "flightCategory": "VFR",
    "windDir": 270,
    "windSpeed": 10,
    "windGust": 16,
    "visibility": 10,
    "ceiling": null,
    "temp": 18.3,
    "dewpoint": 11.1,
    "altimeter": 29.96,
    "conditions": "",
    "observationTime": "2026-06-20T13:00:00.000Z"
  },
  "LHR": {
    "raw": "METAR EGLL 201220Z AUTO 21011KT 170V250 9999 BKN026 OVC031 24/17 Q1019",
    "icao": "EGLL",
    "flightCategory": "MVFR",
    "windDir": 210,
    "windSpeed": 11,
    "windGust": null,
    "visibility": 6,
    "ceiling": 2600,
    "temp": 24,
    "dewpoint": 17,
    "altimeter": 30.09,
    "conditions": "",
    "observationTime": "2026-06-20T12:20:00.000Z"
  },
  "SYD": {
    "raw": "METAR YSSY 201230Z AUTO 29008KT 9999 // SCT072 15/07 Q1025",
    "icao": "YSSY",
    "flightCategory": "VFR",
    "windDir": 290,
    "windSpeed": 8,
    "windGust": null,
    "visibility": 6,
    "ceiling": null,
    "temp": 15,
    "dewpoint": 7,
    "altimeter": 30.27,
    "conditions": "",
    "observationTime": "2026-06-20T12:30:00.000Z"
  }
}