{
  "SYD": {
    "raw": "METAR YSSY 291130Z AUTO 25009KT 9999 // NCD 16/12 Q1006",
    "icao": "YSSY",
    "flightCategory": "VFR",
    "windDir": 250,
    "windSpeed": 9,
    "windGust": null,
    "visibility": 6,
    "ceiling": null,
    "temp": 16,
    "dewpoint": 12,
    "altimeter": 29.71,
    "conditions": "",
    "observationTime": "2026-05-29T11:30:00.000Z"
  },
  "LAS": {
    "raw": "METAR KLAS 291156Z 21012KT 10SM BKN120 OVC140 18/02 A2980 RMK AO2 SLP071 T01780017 10228 20178 53004",
    "icao": "KLAS",
    "flightCategory": "VFR",
    "windDir": 210,
    "windSpeed": 12,
    "windGust": null,
    "visibility": 10,
    "ceiling": 12000,
    "temp": 17.8,
    "dewpoint": 1.7,
    "altimeter": 29.8,
    "conditions": "",
    "observationTime": "2026-05-29T12:00:00.000Z"
  },
  "LAX": {
    "raw": "SPECI KLAX 291129Z 27005KT 10SM FEW019 SCT026 OVC065 16/11 A2996 RMK AO2 T01560111 $",
    "icao": "KLAX",
    "flightCategory": "VFR",
    "windDir": 270,
    "windSpeed": 5,
    "windGust": null,
    "visibility": 10,
    "ceiling": 6500,
    "temp": 15.6,
    "dewpoint": 11.1,
    "altimeter": 29.96,
    "conditions": "",
    "observationTime": "2026-05-29T11:29:00.000Z"
  },
  "ORD": {
    "raw": "METAR KORD 291151Z 00000KT 10SM BKN300 13/09 A3010 RMK AO2 SLP193 T01280089 10128 20094 53001",
    "icao": "KORD",
    "flightCategory": "VFR",
    "windDir": 0,
    "windSpeed": 0,
    "windGust": null,
    "visibility": 10,
    "ceiling": 30000,
    "temp": 12.8,
    "dewpoint": 8.9,
    "altimeter": 30.1,
    "conditions": "",
    "observationTime": "2026-05-29T12:00:00.000Z"
  },
  "LHR": {
    "raw": "METAR EGLL 291150Z AUTO 24005KT 180V340 9999 NCD 22/11 Q1022",
    "icao": "EGLL",
    "flightCategory": "VFR",
    "windDir": 240,
    "windSpeed": 5,
    "windGust": null,
    "visibility": 6,
    "ceiling": null,
    "temp": 22,
    "dewpoint": 11,
    "altimeter": 30.18,
    "conditions": "",
    "observationTime": "2026-05-29T12:00:00.000Z"
  }
}