{
  "ORD": {
    "raw": "METAR KORD 140251Z 20009KT 10SM FEW030 BKN085 BKN200 BKN250 24/20 A2981 RMK AO2 SLP090 CONS LTGIC DSNT W-N CB DSNT W-N MOV E T02440200 50007 $",
    "icao": "KORD",
    "flightCategory": "VFR",
    "windDir": 200,
    "windSpeed": 9,
    "windGust": null,
    "visibility": 10,
    "ceiling": 8500,
    "temp": 24.4,
    "dewpoint": 20,
    "altimeter": 29.81,
    "conditions": "",
    "observationTime": "2026-06-14T03:00:00.000Z"
  },
  "SYD": {
    "raw": "METAR YSSY 140300Z 13003KT CAVOK 18/16 Q1027",
    "icao": "YSSY",
    "flightCategory": "VFR",
    "windDir": 130,
    "windSpeed": 3,
    "windGust": null,
    "visibility": 6,
    "ceiling": null,
    "temp": 18,
    "dewpoint": 16,
    "altimeter": 30.33,
    "conditions": "",
    "observationTime": "2026-06-14T03:00:00.000Z"
  },
  "LHR": {
    "raw": "METAR EGLL 140250Z AUTO 31006KT 9999 NCD 12/08 Q1021",
    "icao": "EGLL",
    "flightCategory": "VFR",
    "windDir": 310,
    "windSpeed": 6,
    "windGust": null,
    "visibility": 6,
    "ceiling": null,
    "temp": 12,
    "dewpoint": 8,
    "altimeter": 30.15,
    "conditions": "",
    "observationTime": "2026-06-14T03:00:00.000Z"
  },
  "LAS": {
    "raw": "METAR KLAS 140256Z 22013G19KT 10SM SCT120 39/02 A2975 RMK AO2 SLP040 T03890017 53002",
    "icao": "KLAS",
    "flightCategory": "VFR",
    "windDir": 220,
    "windSpeed": 13,
    "windGust": 19,
    "visibility": 10,
    "ceiling": null,
    "temp": 38.9,
    "dewpoint": 1.7,
    "altimeter": 29.75,
    "conditions": "",
    "observationTime": "2026-06-14T03:00:00.000Z"
  },
  "LAX": {
    "raw": "METAR KLAX 140253Z 26012KT 5SM BR OVC005 18/16 A2990 RMK AO2 SLP122 VIS SW 3 T01780156 53001 $",
    "icao": "KLAX",
    "flightCategory": "IFR",
    "windDir": 260,
    "windSpeed": 12,
    "windGust": null,
    "visibility": 5,
    "ceiling": 500,
    "temp": 17.8,
    "dewpoint": 15.6,
    "altimeter": 29.9,
    "conditions": "BR",
    "observationTime": "2026-06-14T03:00:00.000Z"
  }
}