{
  "LAX": {
    "raw": "METAR KLAX 111553Z 24005KT 10SM FEW019 SCT032 SCT055 18/12 A3002 RMK AO2 SLP164 T01780122 $",
    "icao": "KLAX",
    "flightCategory": "VFR",
    "windDir": 240,
    "windSpeed": 5,
    "windGust": null,
    "visibility": 10,
    "ceiling": null,
    "temp": 17.8,
    "dewpoint": 12.2,
    "altimeter": 30.02,
    "conditions": "",
    "observationTime": "2026-04-11T16:00:00.000Z"
  },
  "ORD": {
    "raw": "METAR KORD 111551Z 12014KT 10SM FEW100 SCT150 BKN250 11/M03 A3043 RMK AO2 SLP310 T01061033 $",
    "icao": "KORD",
    "flightCategory": "VFR",
    "windDir": 120,
    "windSpeed": 14,
    "windGust": null,
    "visibility": 10,
    "ceiling": 25000,
    "temp": 10.6,
    "dewpoint": -3.3,
    "altimeter": 30.43,
    "conditions": "",
    "observationTime": "2026-04-11T16:00:00.000Z"
  },
  "LHR": {
    "raw": "METAR EGLL 111520Z AUTO 23023KT 9999 //////TCU 12/M02 Q1007 TEMPO SHRA",
    "icao": "EGLL",
    "flightCategory": "UNKNOWN",
    "windDir": 230,
    "windSpeed": 23,
    "windGust": null,
    "visibility": 6,
    "ceiling": null,
    "temp": 12,
    "dewpoint": -2,
    "altimeter": 29.74,
    "conditions": "",
    "observationTime": "2026-04-11T15:20:00.000Z"
  },
  "SYD": {
    "raw": "METAR YSSY 111500Z AUTO 28013KT 9999 // NCD 15/01 Q1011",
    "icao": "YSSY",
    "flightCategory": "VFR",
    "windDir": 280,
    "windSpeed": 13,
    "windGust": null,
    "visibility": 6,
    "ceiling": null,
    "temp": 15,
    "dewpoint": 1,
    "altimeter": 29.85,
    "conditions": "",
    "observationTime": "2026-04-11T15:00:00.000Z"
  }
}