{
  "SYD": {
    "raw": "METAR YSSY 231430Z AUTO 31004KT 250V330 9999 // NCD 10/05 Q1027",
    "icao": "YSSY",
    "flightCategory": "VFR",
    "windDir": 310,
    "windSpeed": 4,
    "windGust": null,
    "visibility": 6,
    "ceiling": null,
    "temp": 10,
    "dewpoint": 5,
    "altimeter": 30.33,
    "conditions": "",
    "observationTime": "2026-06-23T14:30:00.000Z"
  },
  "LAS": {
    "raw": "METAR KLAS 231456Z 31003KT 10SM FEW120 31/M05 A3002 RMK AO2 SLP134 T03061050 53016",
    "icao": "KLAS",
    "flightCategory": "VFR",
    "windDir": 310,
    "windSpeed": 3,
    "windGust": null,
    "visibility": 10,
    "ceiling": null,
    "temp": 30.6,
    "dewpoint": -5,
    "altimeter": 30.02,
    "conditions": "",
    "observationTime": "2026-06-23T15:00:00.000Z"
  },
  "LAX": {
    "raw": "SPECI KLAX 231427Z 08003KT 7SM FEW009 OVC015 18/14 A3003 RMK AO2 T01830144 $",
    "icao": "KLAX",
    "flightCategory": "MVFR",
    "windDir": 80,
    "windSpeed": 3,
    "windGust": null,
    "visibility": 7,
    "ceiling": 1500,
    "temp": 18.3,
    "dewpoint": 14.4,
    "altimeter": 30.03,
    "conditions": "",
    "observationTime": "2026-06-23T14:27:00.000Z"
  },
  "ORD": {
    "raw": "METAR KORD 231451Z 02008KT 10SM FEW070 FEW250 19/11 A3021 RMK AO2 SLP228 T01940106 50004",
    "icao": "KORD",
    "flightCategory": "VFR",
    "windDir": 20,
    "windSpeed": 8,
    "windGust": null,
    "visibility": 10,
    "ceiling": null,
    "temp": 19.4,
    "dewpoint": 10.6,
    "altimeter": 30.21,
    "conditions": "",
    "observationTime": "2026-06-23T15:00:00.000Z"
  },
  "LHR": {
    "raw": "METAR EGLL 231420Z AUTO 15008KT 120V180 9999 NCD 32/18 Q1017",
    "icao": "EGLL",
    "flightCategory": "VFR",
    "windDir": 150,
    "windSpeed": 8,
    "windGust": null,
    "visibility": 6,
    "ceiling": null,
    "temp": 32,
    "dewpoint": 18,
    "altimeter": 30.03,
    "conditions": "",
    "observationTime": "2026-06-23T14:20:00.000Z"
  }
}