{
  "LHR": {
    "raw": "METAR EGLL 290850Z COR AUTO 07020G30KT 9999 NCD 15/02 Q1024 NOSIG",
    "icao": "EGLL",
    "flightCategory": "VFR",
    "windDir": 70,
    "windSpeed": 20,
    "windGust": 30,
    "visibility": 6,
    "ceiling": null,
    "temp": 15,
    "dewpoint": 2,
    "altimeter": 30.24,
    "conditions": "",
    "observationTime": "2026-04-29T09:00:00.000Z"
  },
  "SYD": {
    "raw": "METAR YSSY 290830Z AUTO 08006KT 9999 // NCD 21/16 Q1029",
    "icao": "YSSY",
    "flightCategory": "VFR",
    "windDir": 80,
    "windSpeed": 6,
    "windGust": null,
    "visibility": 6,
    "ceiling": null,
    "temp": 21,
    "dewpoint": 16,
    "altimeter": 30.39,
    "conditions": "",
    "observationTime": "2026-04-29T08:30:00.000Z"
  },
  "LAS": {
    "raw": "METAR KLAS 290856Z 00000KT 10SM CLR 19/M05 A3000 RMK AO2 SLP141 T01891050 51006",
    "icao": "KLAS",
    "flightCategory": "VFR",
    "windDir": 0,
    "windSpeed": 0,
    "windGust": null,
    "visibility": 10,
    "ceiling": null,
    "temp": 18.9,
    "dewpoint": -5,
    "altimeter": 30,
    "conditions": "",
    "observationTime": "2026-04-29T09:00:00.000Z"
  },
  "LAX": {
    "raw": "METAR KLAX 290853Z 07003KT 10SM FEW250 14/11 A3003 RMK AO2 SLP167 T01440111 58004 $",
    "icao": "KLAX",
    "flightCategory": "VFR",
    "windDir": 70,
    "windSpeed": 3,
    "windGust": null,
    "visibility": 10,
    "ceiling": null,
    "temp": 14.4,
    "dewpoint": 11.1,
    "altimeter": 30.03,
    "conditions": "",
    "observationTime": "2026-04-29T09:00:00.000Z"
  },
  "ORD": {
    "raw": "METAR KORD 290851Z 34009KT 10SM BKN060 BKN075 OVC090 12/05 A2987 RMK AO2 SLP114 T01220050 58007 $",
    "icao": "KORD",
    "flightCategory": "VFR",
    "windDir": 340,
    "windSpeed": 9,
    "windGust": null,
    "visibility": 10,
    "ceiling": 6000,
    "temp": 12.2,
    "dewpoint": 5,
    "altimeter": 29.87,
    "conditions": "",
    "observationTime": "2026-04-29T09:00:00.000Z"
  }
}