{
  "SYD": {
    "raw": "METAR YSSY 122100Z 25015KT CAVOK 14/06 Q1017",
    "icao": "YSSY",
    "flightCategory": "VFR",
    "windDir": 250,
    "windSpeed": 15,
    "windGust": null,
    "visibility": 6,
    "ceiling": null,
    "temp": 14,
    "dewpoint": 6,
    "altimeter": 30.03,
    "conditions": "",
    "observationTime": "2026-04-12T21:00:00.000Z"
  },
  "LHR": {
    "raw": "METAR EGLL 122050Z COR AUTO 30002KT 9999 FEW045 07/03 Q1013 NOSIG",
    "icao": "EGLL",
    "flightCategory": "VFR",
    "windDir": 300,
    "windSpeed": 2,
    "windGust": null,
    "visibility": 6,
    "ceiling": null,
    "temp": 7,
    "dewpoint": 3,
    "altimeter": 29.91,
    "conditions": "",
    "observationTime": "2026-04-12T21:00:00.000Z"
  },
  "LAS": {
    "raw": "METAR KLAS 122056Z 23017G29KT 10SM FEW090 SCT150 22/01 A2985 RMK AO2 PK WND 21034/2037 SLP091 T02170011 55006",
    "icao": "KLAS",
    "flightCategory": "VFR",
    "windDir": 230,
    "windSpeed": 17,
    "windGust": 29,
    "visibility": 10,
    "ceiling": null,
    "temp": 21.7,
    "dewpoint": 1.1,
    "altimeter": 29.85,
    "conditions": "",
    "observationTime": "2026-04-12T21:00:00.000Z"
  },
  "LAX": {
    "raw": "METAR KLAX 122053Z 24014KT 10SM SCT065 SCT075 BKN095 20/04 A3000 RMK AO2 SLP156 60000 T02000039 58002 $",
    "icao": "KLAX",
    "flightCategory": "VFR",
    "windDir": 240,
    "windSpeed": 14,
    "windGust": null,
    "visibility": 10,
    "ceiling": 9500,
    "temp": 20,
    "dewpoint": 3.9,
    "altimeter": 30,
    "conditions": "",
    "observationTime": "2026-04-12T21:00:00.000Z"
  },
  "ORD": {
    "raw": "METAR KORD 122051Z 21014G35KT 10SM SCT065 SCT100 BKN150 BKN250 26/12 A2982 RMK AO2 PK WND 20039/2004 SLP094 T02610117 56024 $",
    "icao": "KORD",
    "flightCategory": "VFR",
    "windDir": 210,
    "windSpeed": 14,
    "windGust": 35,
    "visibility": 10,
    "ceiling": 15000,
    "temp": 26.1,
    "dewpoint": 11.7,
    "altimeter": 29.82,
    "conditions": "",
    "observationTime": "2026-04-12T21:00:00.000Z"
  }
}