{
  "LHR": {
    "raw": "METAR EGLL 071250Z COR AUTO 12013KT 9999 NCD 20/03 Q1022 NOSIG",
    "icao": "EGLL",
    "flightCategory": "VFR",
    "windDir": 120,
    "windSpeed": 13,
    "windGust": null,
    "visibility": 6,
    "ceiling": null,
    "temp": 20,
    "dewpoint": 3,
    "altimeter": 30.18,
    "conditions": "",
    "observationTime": "2026-04-07T13:00:00.000Z"
  },
  "SYD": {
    "raw": "METAR YSSY 071300Z AUTO 24002KT 9999 // NCD 21/17 Q1012",
    "icao": "YSSY",
    "flightCategory": "VFR",
    "windDir": 240,
    "windSpeed": 2,
    "windGust": null,
    "visibility": 6,
    "ceiling": null,
    "temp": 21,
    "dewpoint": 17,
    "altimeter": 29.88,
    "conditions": "",
    "observationTime": "2026-04-07T13:00:00.000Z"
  },
  "LAS": {
    "raw": "METAR KLAS 071256Z 23004KT 10SM CLR 17/M07 A2994 RMK AO2 SLP119 T01671072",
    "icao": "KLAS",
    "flightCategory": "VFR",
    "windDir": 230,
    "windSpeed": 4,
    "windGust": null,
    "visibility": 10,
    "ceiling": null,
    "temp": 16.7,
    "dewpoint": -7.2,
    "altimeter": 29.94,
    "conditions": "",
    "observationTime": "2026-04-07T13:00:00.000Z"
  },
  "LAX": {
    "raw": "METAR KLAX 071253Z 00000KT 10SM SCT011 15/13 A2999 RMK AO2 SLP154 T01500133 $",
    "icao": "KLAX",
    "flightCategory": "VFR",
    "windDir": 0,
    "windSpeed": 0,
    "windGust": null,
    "visibility": 10,
    "ceiling": null,
    "temp": 15,
    "dewpoint": 13.3,
    "altimeter": 29.99,
    "conditions": "",
    "observationTime": "2026-04-07T13:00:00.000Z"
  },
  "ORD": {
    "raw": "METAR KORD 071251Z 03013KT 10SM FEW035 FEW250 M01/M11 A3050 RMK AO2 SLP336 T10111106 $",
    "icao": "KORD",
    "flightCategory": "VFR",
    "windDir": 30,
    "windSpeed": 13,
    "windGust": null,
    "visibility": 10,
    "ceiling": null,
    "temp": -1.1,
    "dewpoint": -10.6,
    "altimeter": 30.5,
    "conditions": "",
    "observationTime": "2026-04-07T13:00:00.000Z"
  }
}