{
  "SYD": {
    "raw": "METAR YSSY 060700Z AUTO 15005KT 9999 // NCD 16/07 Q1025",
    "icao": "YSSY",
    "flightCategory": "VFR",
    "windDir": 150,
    "windSpeed": 5,
    "windGust": null,
    "visibility": 6,
    "ceiling": null,
    "temp": 16,
    "dewpoint": 7,
    "altimeter": 30.27,
    "conditions": "",
    "observationTime": "2026-06-06T07:00:00.000Z"
  },
  "LHR": {
    "raw": "METAR EGLL 060650Z AUTO 16014KT 9999 FEW023 SCT040 13/10 Q1006",
    "icao": "EGLL",
    "flightCategory": "VFR",
    "windDir": 160,
    "windSpeed": 14,
    "windGust": null,
    "visibility": 6,
    "ceiling": null,
    "temp": 13,
    "dewpoint": 10,
    "altimeter": 29.71,
    "conditions": "",
    "observationTime": "2026-06-06T07:00:00.000Z"
  },
  "LAS": {
    "raw": "METAR KLAS 060656Z 22012G18KT 10SM CLR 32/M03 A2971 RMK AO2 SLP027 T03221028",
    "icao": "KLAS",
    "flightCategory": "VFR",
    "windDir": 220,
    "windSpeed": 12,
    "windGust": 18,
    "visibility": 10,
    "ceiling": null,
    "temp": 32.2,
    "dewpoint": -2.8,
    "altimeter": 29.71,
    "conditions": "",
    "observationTime": "2026-06-06T07:00:00.000Z"
  },
  "LAX": {
    "raw": "METAR KLAX 060653Z 00000KT 10SM OVC014 18/15 A2986 RMK AO2 SLP108 T01830150 $",
    "icao": "KLAX",
    "flightCategory": "MVFR",
    "windDir": 0,
    "windSpeed": 0,
    "windGust": null,
    "visibility": 10,
    "ceiling": 1400,
    "temp": 18.3,
    "dewpoint": 15,
    "altimeter": 29.86,
    "conditions": "",
    "observationTime": "2026-06-06T07:00:00.000Z"
  },
  "ORD": {
    "raw": "SPECI KORD 060649Z 33007KT 10SM TS BKN020 BKN065CB BKN250 22/17 A2983 RMK AO2 TSB0556 CONS LTGICCC N-NE TS NW-E MOV SE WSHFT 0630",
    "icao": "KORD",
    "flightCategory": "MVFR",
    "windDir": 330,
    "windSpeed": 7,
    "windGust": null,
    "visibility": 10,
    "ceiling": 2000,
    "temp": 22,
    "dewpoint": 17,
    "altimeter": 29.83,
    "conditions": "TS",
    "observationTime": "2026-06-06T06:49:00.000Z"
  }
}