{
  "SYD": {
    "raw": "METAR YSSY 301430Z AUTO 31007KT 9999 // NCD 13/08 Q1008",
    "icao": "YSSY",
    "flightCategory": "VFR",
    "windDir": 310,
    "windSpeed": 7,
    "windGust": null,
    "visibility": 6,
    "ceiling": null,
    "temp": 13,
    "dewpoint": 8,
    "altimeter": 29.77,
    "conditions": "",
    "observationTime": "2026-05-30T14:30:00.000Z"
  },
  "LAS": {
    "raw": "METAR KLAS 301456Z 18009KT 10SM FEW250 22/03 A2997 RMK AO2 SLP130 T02170033 51012",
    "icao": "KLAS",
    "flightCategory": "VFR",
    "windDir": 180,
    "windSpeed": 9,
    "windGust": null,
    "visibility": 10,
    "ceiling": null,
    "temp": 21.7,
    "dewpoint": 3.3,
    "altimeter": 29.97,
    "conditions": "",
    "observationTime": "2026-05-30T15:00:00.000Z"
  },
  "LAX": {
    "raw": "METAR KLAX 301453Z VRB03KT 10SM FEW013 SCT016 17/13 A3003 RMK AO2 SLP167 T01720128 51006 $",
    "icao": "KLAX",
    "flightCategory": "VFR",
    "windDir": null,
    "windSpeed": 3,
    "windGust": null,
    "visibility": 10,
    "ceiling": null,
    "temp": 17.2,
    "dewpoint": 12.8,
    "altimeter": 30.03,
    "conditions": "",
    "observationTime": "2026-05-30T15:00:00.000Z"
  },
  "ORD": {
    "raw": "METAR KORD 301451Z 06011KT 10SM FEW210 BKN250 19/08 A3008 RMK AO2 SLP183 T01890083 51013 $",
    "icao": "KORD",
    "flightCategory": "VFR",
    "windDir": 60,
    "windSpeed": 11,
    "windGust": null,
    "visibility": 10,
    "ceiling": 25000,
    "temp": 18.9,
    "dewpoint": 8.3,
    "altimeter": 30.08,
    "conditions": "",
    "observationTime": "2026-05-30T15:00:00.000Z"
  },
  "LHR": {
    "raw": "METAR EGLL 301420Z AUTO 25008KT 200V270 9999 NCD 28/10 Q1017",
    "icao": "EGLL",
    "flightCategory": "VFR",
    "windDir": 250,
    "windSpeed": 8,
    "windGust": null,
    "visibility": 6,
    "ceiling": null,
    "temp": 28,
    "dewpoint": 10,
    "altimeter": 30.03,
    "conditions": "",
    "observationTime": "2026-05-30T14:20:00.000Z"
  }
}