{
  "LHR": {
    "raw": "METAR EGLL 132150Z COR AUTO 20007KT 9999 NCD 08/03 Q1015 NOSIG",
    "icao": "EGLL",
    "flightCategory": "VFR",
    "windDir": 200,
    "windSpeed": 7,
    "windGust": null,
    "visibility": 6,
    "ceiling": null,
    "temp": 8,
    "dewpoint": 3,
    "altimeter": 29.97,
    "conditions": "",
    "observationTime": "2026-04-13T22:00:00.000Z"
  },
  "SYD": {
    "raw": "METAR YSSY 132200Z 27007KT CAVOK 17/09 Q1020",
    "icao": "YSSY",
    "flightCategory": "VFR",
    "windDir": 270,
    "windSpeed": 7,
    "windGust": null,
    "visibility": 6,
    "ceiling": null,
    "temp": 17,
    "dewpoint": 9,
    "altimeter": 30.12,
    "conditions": "",
    "observationTime": "2026-04-13T22:00:00.000Z"
  },
  "LAS": {
    "raw": "METAR KLAS 132156Z 24009G18KT 10SM SCT070 SCT100 BKN200 20/M04 A2987 RMK AO2 SLP101 T02001039",
    "icao": "KLAS",
    "flightCategory": "VFR",
    "windDir": 240,
    "windSpeed": 9,
    "windGust": 18,
    "visibility": 10,
    "ceiling": 20000,
    "temp": 20,
    "dewpoint": -3.9,
    "altimeter": 29.87,
    "conditions": "",
    "observationTime": "2026-04-13T22:00:00.000Z"
  },
  "LAX": {
    "raw": "METAR KLAX 132153Z 27016KT 10SM FEW040 FEW070 SCT085 18/07 A3003 RMK AO2 LTG DSNT NE SLP167 TCU DSNT NE T01830072",
    "icao": "KLAX",
    "flightCategory": "VFR",
    "windDir": 270,
    "windSpeed": 16,
    "windGust": null,
    "visibility": 10,
    "ceiling": null,
    "temp": 18.3,
    "dewpoint": 7.2,
    "altimeter": 30.03,
    "conditions": "",
    "observationTime": "2026-04-13T22:00:00.000Z"
  },
  "ORD": {
    "raw": "METAR KORD 132151Z 19013G19KT 10SM FEW040 SCT110 BKN160 OVC250 26/16 A2983 RMK AO2 SLP097 T02560161",
    "icao": "KORD",
    "flightCategory": "VFR",
    "windDir": 190,
    "windSpeed": 13,
    "windGust": 19,
    "visibility": 10,
    "ceiling": 16000,
    "temp": 25.6,
    "dewpoint": 16.1,
    "altimeter": 29.83,
    "conditions": "",
    "observationTime": "2026-04-13T22:00:00.000Z"
  }
}