{
  "LAX": {
    "raw": "METAR KLAX 081953Z 26011KT 10SM FEW160 22/13 A2990 RMK AO2 SLP125 T02220128 $",
    "icao": "KLAX",
    "flightCategory": "VFR",
    "windDir": 260,
    "windSpeed": 11,
    "windGust": null,
    "visibility": 10,
    "ceiling": null,
    "temp": 22.2,
    "dewpoint": 12.8,
    "altimeter": 29.9,
    "conditions": "",
    "observationTime": "2026-06-08T20:00:00.000Z"
  },
  "ORD": {
    "raw": "METAR KORD 081951Z 15013G22KT 10SM SCT031 BKN048 BKN130 BKN160 OVC250 28/21 A2993 RMK AO2 SLP132 T02780211",
    "icao": "KORD",
    "flightCategory": "VFR",
    "windDir": 150,
    "windSpeed": 13,
    "windGust": 22,
    "visibility": 10,
    "ceiling": 4800,
    "temp": 27.8,
    "dewpoint": 21.1,
    "altimeter": 29.93,
    "conditions": "",
    "observationTime": "2026-06-08T20:00:00.000Z"
  },
  "LHR": {
    "raw": "METAR EGLL 081920Z AUTO 26012KT 9999 //////CB 16/07 Q1013",
    "icao": "EGLL",
    "flightCategory": "UNKNOWN",
    "windDir": 260,
    "windSpeed": 12,
    "windGust": null,
    "visibility": 6,
    "ceiling": null,
    "temp": 16,
    "dewpoint": 7,
    "altimeter": 29.91,
    "conditions": "",
    "observationTime": "2026-06-08T19:20:00.000Z"
  },
  "SYD": {
    "raw": "METAR YSSY 081900Z AUTO 34006KT 9999 // NCD 13/11 Q1030",
    "icao": "YSSY",
    "flightCategory": "VFR",
    "windDir": 340,
    "windSpeed": 6,
    "windGust": null,
    "visibility": 6,
    "ceiling": null,
    "temp": 13,
    "dewpoint": 11,
    "altimeter": 30.42,
    "conditions": "",
    "observationTime": "2026-06-08T19:00:00.000Z"
  }
}