{
  "SYD": {
    "raw": "METAR YSSY 081800Z AUTO 34010KT 9999 // SCT077 BKN092 11/10 Q1029",
    "icao": "YSSY",
    "flightCategory": "VFR",
    "windDir": 340,
    "windSpeed": 10,
    "windGust": null,
    "visibility": 6,
    "ceiling": 9200,
    "temp": 11,
    "dewpoint": 10,
    "altimeter": 30.39,
    "conditions": "",
    "observationTime": "2026-07-08T18:00:00.000Z"
  },
  "LHR": {
    "raw": "METAR EGLL 081750Z AUTO VRB03KT 9999 NCD 32/11 Q1018",
    "icao": "EGLL",
    "flightCategory": "VFR",
    "windDir": null,
    "windSpeed": 3,
    "windGust": null,
    "visibility": 6,
    "ceiling": null,
    "temp": 32,
    "dewpoint": 11,
    "altimeter": 30.06,
    "conditions": "",
    "observationTime": "2026-07-08T18:00:00.000Z"
  },
  "LAS": {
    "raw": "METAR KLAS 081756Z 22009G17KT 10SM CLR 39/02 A2996 RMK AO2 SLP110 T03890017 10389 20300 58004",
    "icao": "KLAS",
    "flightCategory": "VFR",
    "windDir": 220,
    "windSpeed": 9,
    "windGust": 17,
    "visibility": 10,
    "ceiling": null,
    "temp": 38.9,
    "dewpoint": 1.7,
    "altimeter": 29.96,
    "conditions": "",
    "observationTime": "2026-07-08T18:00:00.000Z"
  },
  "LAX": {
    "raw": "METAR KLAX 081753Z 25007KT 10SM FEW011 FEW045 22/16 A2998 RMK AO2 SLP148 T02170161 10222 20178 51004",
    "icao": "KLAX",
    "flightCategory": "VFR",
    "windDir": 250,
    "windSpeed": 7,
    "windGust": null,
    "visibility": 10,
    "ceiling": null,
    "temp": 21.7,
    "dewpoint": 16.1,
    "altimeter": 29.98,
    "conditions": "",
    "observationTime": "2026-07-08T18:00:00.000Z"
  },
  "ORD": {
    "raw": "METAR KORD 081751Z 28007KT 10SM FEW050 30/17 A3002 RMK AO2 SLP160 T03000167 10300 20228 58010",
    "icao": "KORD",
    "flightCategory": "VFR",
    "windDir": 280,
    "windSpeed": 7,
    "windGust": null,
    "visibility": 10,
    "ceiling": null,
    "temp": 30,
    "dewpoint": 16.7,
    "altimeter": 30.02,
    "conditions": "",
    "observationTime": "2026-07-08T18:00:00.000Z"
  }
}