{
  "LAS": {
    "raw": "METAR KLAS 200056Z VRB05KT 10SM FEW100 SCT150 40/12 A2980 RMK AO2 SLP057 T04000117 $",
    "icao": "KLAS",
    "flightCategory": "VFR",
    "windDir": null,
    "windSpeed": 5,
    "windGust": null,
    "visibility": 10,
    "ceiling": null,
    "temp": 40,
    "dewpoint": 11.7,
    "altimeter": 29.8,
    "conditions": "",
    "observationTime": "2026-07-20T01:00:00.000Z"
  },
  "LAX": {
    "raw": "METAR KLAX 200053Z 26017KT 10SM FEW010 23/19 A2987 RMK AO2 SLP112 T02330189 $",
    "icao": "KLAX",
    "flightCategory": "VFR",
    "windDir": 260,
    "windSpeed": 17,
    "windGust": null,
    "visibility": 10,
    "ceiling": null,
    "temp": 23.3,
    "dewpoint": 18.9,
    "altimeter": 29.87,
    "conditions": "",
    "observationTime": "2026-07-20T01:00:00.000Z"
  },
  "ORD": {
    "raw": "METAR KORD 200051Z 06006KT 8SM FEW250 23/13 A2999 RMK AO2 SLP152 T02280133 $",
    "icao": "KORD",
    "flightCategory": "VFR",
    "windDir": 60,
    "windSpeed": 6,
    "windGust": null,
    "visibility": 8,
    "ceiling": null,
    "temp": 22.8,
    "dewpoint": 13.3,
    "altimeter": 29.99,
    "conditions": "",
    "observationTime": "2026-07-20T01:00:00.000Z"
  },
  "LHR": {
    "raw": "METAR EGLL 200020Z AUTO 04005KT 9999 NCD 15/07 Q1026",
    "icao": "EGLL",
    "flightCategory": "VFR",
    "windDir": 40,
    "windSpeed": 5,
    "windGust": null,
    "visibility": 6,
    "ceiling": null,
    "temp": 15,
    "dewpoint": 7,
    "altimeter": 30.3,
    "conditions": "",
    "observationTime": "2026-07-20T00:20:00.000Z"
  },
  "SYD": {
    "raw": "METAR YSSY 200030Z AUTO 31007KT 9999 // SCT038 17/09 Q1033",
    "icao": "YSSY",
    "flightCategory": "VFR",
    "windDir": 310,
    "windSpeed": 7,
    "windGust": null,
    "visibility": 6,
    "ceiling": null,
    "temp": 17,
    "dewpoint": 9,
    "altimeter": 30.5,
    "conditions": "",
    "observationTime": "2026-07-20T00:30:00.000Z"
  }
}