{
  "ORD": {
    "raw": "SPECI KORD 150532Z 17013KT 1SM R10L/3500VP6000FT TSRA BR FEW020 BKN034CB OVC150 18/16 A2971 RMK AO2 FRQ LTGICCCCG OHD TS OHD MOV E P0048 T01780161",
    "icao": "KORD",
    "flightCategory": "IFR",
    "windDir": 170,
    "windSpeed": 13,
    "windGust": null,
    "visibility": 1,
    "ceiling": 3400,
    "temp": 17.8,
    "dewpoint": 16.1,
    "altimeter": 29.71,
    "conditions": "TSRA BR",
    "observationTime": "2026-04-15T05:32:00.000Z"
  },
  "SYD": {
    "raw": "METAR YSSY 150530Z 15009KT CAVOK 23/11 Q1017",
    "icao": "YSSY",
    "flightCategory": "VFR",
    "windDir": 150,
    "windSpeed": 9,
    "windGust": null,
    "visibility": 6,
    "ceiling": null,
    "temp": 23,
    "dewpoint": 11,
    "altimeter": 30.03,
    "conditions": "",
    "observationTime": "2026-04-15T05:30:00.000Z"
  },
  "LAS": {
    "raw": "METAR KLAS 150556Z 20004KT 10SM CLR 19/M08 A2997 RMK AO2 SLP135 T01891083 10239 20189 51009",
    "icao": "KLAS",
    "flightCategory": "VFR",
    "windDir": 200,
    "windSpeed": 4,
    "windGust": null,
    "visibility": 10,
    "ceiling": null,
    "temp": 18.9,
    "dewpoint": -8.3,
    "altimeter": 29.97,
    "conditions": "",
    "observationTime": "2026-04-15T06:00:00.000Z"
  },
  "LAX": {
    "raw": "METAR KLAX 150553Z COR 24006KT 10SM FEW012 16/13 A3004 RMK AO2 SLP170 T01610128 10194 20156 50004",
    "icao": "KLAX",
    "flightCategory": "VFR",
    "windDir": 240,
    "windSpeed": 6,
    "windGust": null,
    "visibility": 10,
    "ceiling": null,
    "temp": 16.1,
    "dewpoint": 12.8,
    "altimeter": 30.04,
    "conditions": "",
    "observationTime": "2026-04-15T06:00:00.000Z"
  },
  "LHR": {
    "raw": "METAR EGLL 150550Z COR AUTO 19009KT 180V240 9999 BKN007 BKN014 OVC018 12/11 Q1016 NOSIG",
    "icao": "EGLL",
    "flightCategory": "IFR",
    "windDir": 190,
    "windSpeed": 9,
    "windGust": null,
    "visibility": 6,
    "ceiling": 700,
    "temp": 12,
    "dewpoint": 11,
    "altimeter": 30,
    "conditions": "",
    "observationTime": "2026-04-15T06:00:00.000Z"
  }
}