{
  "SYD": {
    "raw": "METAR YSSY 011030Z AUTO 34009KT 9999 // NCD 15/06 Q1011",
    "icao": "YSSY",
    "flightCategory": "VFR",
    "windDir": 340,
    "windSpeed": 9,
    "windGust": null,
    "visibility": 6,
    "ceiling": null,
    "temp": 15,
    "dewpoint": 6,
    "altimeter": 29.85,
    "conditions": "",
    "observationTime": "2026-06-01T10:30:00.000Z"
  },
  "LAS": {
    "raw": "METAR KLAS 011056Z 22004KT 10SM CLR 24/M03 A2986 RMK AO2 SLP083 T02391028",
    "icao": "KLAS",
    "flightCategory": "VFR",
    "windDir": 220,
    "windSpeed": 4,
    "windGust": null,
    "visibility": 10,
    "ceiling": null,
    "temp": 23.9,
    "dewpoint": -2.8,
    "altimeter": 29.86,
    "conditions": "",
    "observationTime": "2026-06-01T11:00:00.000Z"
  },
  "LAX": {
    "raw": "METAR KLAX 011053Z 17003KT 8SM FEW007 BKN010 17/14 A2992 RMK AO2 SLP129 T01670144 $",
    "icao": "KLAX",
    "flightCategory": "MVFR",
    "windDir": 170,
    "windSpeed": 3,
    "windGust": null,
    "visibility": 8,
    "ceiling": 1000,
    "temp": 16.7,
    "dewpoint": 14.4,
    "altimeter": 29.92,
    "conditions": "",
    "observationTime": "2026-06-01T11:00:00.000Z"
  },
  "ORD": {
    "raw": "METAR KORD 011051Z 00000KT 10SM OVC065 13/09 A3003 RMK AO2 SLP168 T01280089 $",
    "icao": "KORD",
    "flightCategory": "VFR",
    "windDir": 0,
    "windSpeed": 0,
    "windGust": null,
    "visibility": 10,
    "ceiling": 6500,
    "temp": 12.8,
    "dewpoint": 8.9,
    "altimeter": 30.03,
    "conditions": "",
    "observationTime": "2026-06-01T11:00:00.000Z"
  },
  "LHR": {
    "raw": "METAR EGLL 011020Z AUTO 23012KT 9999 NCD 20/09 Q1015",
    "icao": "EGLL",
    "flightCategory": "VFR",
    "windDir": 230,
    "windSpeed": 12,
    "windGust": null,
    "visibility": 6,
    "ceiling": null,
    "temp": 20,
    "dewpoint": 9,
    "altimeter": 29.97,
    "conditions": "",
    "observationTime": "2026-06-01T10:20:00.000Z"
  }
}