{
  "SYD": {
    "raw": "METAR YSSY 211600Z AUTO 30007KT 9999 // NCD 11/07 Q1026",
    "icao": "YSSY",
    "flightCategory": "VFR",
    "windDir": 300,
    "windSpeed": 7,
    "windGust": null,
    "visibility": 6,
    "ceiling": null,
    "temp": 11,
    "dewpoint": 7,
    "altimeter": 30.3,
    "conditions": "",
    "observationTime": "2026-06-21T16:00:00.000Z"
  },
  "LHR": {
    "raw": "METAR EGLL 211620Z AUTO 08008KT 050V110 9999 NCD 30/17 Q1024",
    "icao": "EGLL",
    "flightCategory": "VFR",
    "windDir": 80,
    "windSpeed": 8,
    "windGust": null,
    "visibility": 6,
    "ceiling": null,
    "temp": 30,
    "dewpoint": 17,
    "altimeter": 30.24,
    "conditions": "",
    "observationTime": "2026-06-21T16:20:00.000Z"
  },
  "LAS": {
    "raw": "METAR KLAS 211556Z VRB03KT 10SM FEW210 30/M04 A2984 RMK A02 SLP073 T03001039",
    "icao": "KLAS",
    "flightCategory": "VFR",
    "windDir": null,
    "windSpeed": 3,
    "windGust": null,
    "visibility": 10,
    "ceiling": null,
    "temp": 30,
    "dewpoint": -3.9,
    "altimeter": 29.84,
    "conditions": "",
    "observationTime": "2026-06-21T16:00:00.000Z"
  },
  "LAX": {
    "raw": "METAR KLAX 211553Z VRB06KT 10SM FEW006 FEW008 BKN015 18/14 A2994 RMK AO2 SLP137 FU FEW006 T01830139",
    "icao": "KLAX",
    "flightCategory": "MVFR",
    "windDir": null,
    "windSpeed": 6,
    "windGust": null,
    "visibility": 10,
    "ceiling": 1500,
    "temp": 18.3,
    "dewpoint": 13.9,
    "altimeter": 29.94,
    "conditions": "",
    "observationTime": "2026-06-21T16:00:00.000Z"
  }
}