{
  "SYD": {
    "raw": "METAR YSSY 080930Z AUTO 25016KT 9999 // NCD 16/06 Q1020",
    "icao": "YSSY",
    "flightCategory": "VFR",
    "windDir": 250,
    "windSpeed": 16,
    "windGust": null,
    "visibility": 6,
    "ceiling": null,
    "temp": 16,
    "dewpoint": 6,
    "altimeter": 30.12,
    "conditions": "",
    "observationTime": "2026-05-08T09:30:00.000Z"
  },
  "LAS": {
    "raw": "METAR KLAS 080956Z 22003KT 10SM FEW250 26/M03 A2986 RMK AO2 SLP085 T02561033",
    "icao": "KLAS",
    "flightCategory": "VFR",
    "windDir": 220,
    "windSpeed": 3,
    "windGust": null,
    "visibility": 10,
    "ceiling": null,
    "temp": 25.6,
    "dewpoint": -3.3,
    "altimeter": 29.86,
    "conditions": "",
    "observationTime": "2026-05-08T10:00:00.000Z"
  },
  "LAX": {
    "raw": "METAR KLAX 080953Z 00000KT 10SM FEW008 BKN011 17/14 A2999 RMK AO2 SLP152 T01670139",
    "icao": "KLAX",
    "flightCategory": "MVFR",
    "windDir": 0,
    "windSpeed": 0,
    "windGust": null,
    "visibility": 10,
    "ceiling": 1100,
    "temp": 16.7,
    "dewpoint": 13.9,
    "altimeter": 29.99,
    "conditions": "",
    "observationTime": "2026-05-08T10:00:00.000Z"
  },
  "ORD": {
    "raw": "METAR KORD 080951Z 00000KT 7SM FEW110 05/03 A2985 RMK AO2 SLP112 T00500033",
    "icao": "KORD",
    "flightCategory": "VFR",
    "windDir": 0,
    "windSpeed": 0,
    "windGust": null,
    "visibility": 7,
    "ceiling": null,
    "temp": 5,
    "dewpoint": 3.3,
    "altimeter": 29.85,
    "conditions": "",
    "observationTime": "2026-05-08T10:00:00.000Z"
  },
  "LHR": {
    "raw": "METAR EGLL 080920Z COR AUTO 11009KT 9999 NCD 15/07 Q1017 NOSIG",
    "icao": "EGLL",
    "flightCategory": "VFR",
    "windDir": 110,
    "windSpeed": 9,
    "windGust": null,
    "visibility": 6,
    "ceiling": null,
    "temp": 15,
    "dewpoint": 7,
    "altimeter": 30.03,
    "conditions": "",
    "observationTime": "2026-05-08T09:20:00.000Z"
  }
}