{
  "SYD": {
    "raw": "METAR YSSY 180300Z 31007KT 9999 -SHRA FEW030 SCT090 BKN140 19/16 Q1017",
    "icao": "YSSY",
    "flightCategory": "VFR",
    "windDir": 310,
    "windSpeed": 7,
    "windGust": null,
    "visibility": 6,
    "ceiling": 14000,
    "temp": 19,
    "dewpoint": 16,
    "altimeter": 30.03,
    "conditions": "-SHRA",
    "observationTime": "2026-05-18T03:00:00.000Z"
  },
  "LHR": {
    "raw": "METAR EGLL 180250Z AUTO 22006KT 9999 -RA NCD 08/06 Q1011",
    "icao": "EGLL",
    "flightCategory": "VFR",
    "windDir": 220,
    "windSpeed": 6,
    "windGust": null,
    "visibility": 6,
    "ceiling": null,
    "temp": 8,
    "dewpoint": 6,
    "altimeter": 29.85,
    "conditions": "-RA",
    "observationTime": "2026-05-18T03:00:00.000Z"
  },
  "LAS": {
    "raw": "METAR KLAS 180256Z 33027G55KT 6SM BLDU FEW130 FEW200 23/M03 A2952 RMK AO2 PK WND 34055/0250 WSHFT 0215 SLP975 T02281028 53043",
    "icao": "KLAS",
    "flightCategory": "VFR",
    "windDir": 330,
    "windSpeed": 27,
    "windGust": 55,
    "visibility": 6,
    "ceiling": null,
    "temp": 22.8,
    "dewpoint": -2.8,
    "altimeter": 29.52,
    "conditions": "BLDU",
    "observationTime": "2026-05-18T03:00:00.000Z"
  },
  "LAX": {
    "raw": "METAR KLAX 180253Z 27007KT 8SM FEW050 16/13 A2974 RMK AO2 SLP071 T01610128 53001",
    "icao": "KLAX",
    "flightCategory": "VFR",
    "windDir": 270,
    "windSpeed": 7,
    "windGust": null,
    "visibility": 8,
    "ceiling": null,
    "temp": 16.1,
    "dewpoint": 12.8,
    "altimeter": 29.74,
    "conditions": "",
    "observationTime": "2026-05-18T03:00:00.000Z"
  },
  "ORD": {
    "raw": "METAR KORD 180251Z 19011G25KT 10SM FEW130 SCT170 BKN250 26/16 A2981 RMK AO2 PK WND 17028/0153 SLP089 T02560161 55000 $",
    "icao": "KORD",
    "flightCategory": "VFR",
    "windDir": 190,
    "windSpeed": 11,
    "windGust": 25,
    "visibility": 10,
    "ceiling": 25000,
    "temp": 25.6,
    "dewpoint": 16.1,
    "altimeter": 29.81,
    "conditions": "",
    "observationTime": "2026-05-18T03:00:00.000Z"
  }
}