{
  "SYD": {
    "raw": "METAR YSSY 251500Z AUTO 35004KT 9999 // NCD 17/14 Q1027",
    "icao": "YSSY",
    "flightCategory": "VFR",
    "windDir": 350,
    "windSpeed": 4,
    "windGust": null,
    "visibility": 6,
    "ceiling": null,
    "temp": 17,
    "dewpoint": 14,
    "altimeter": 30.33,
    "conditions": "",
    "observationTime": "2026-04-25T15:00:00.000Z"
  },
  "LHR": {
    "raw": "METAR EGLL 251450Z COR 29004KT 210V330 CAVOK 20/M07 Q1020 NOSIG",
    "icao": "EGLL",
    "flightCategory": "VFR",
    "windDir": 290,
    "windSpeed": 4,
    "windGust": null,
    "visibility": 6,
    "ceiling": null,
    "temp": 20,
    "dewpoint": -7,
    "altimeter": 30.12,
    "conditions": "",
    "observationTime": "2026-04-25T15:00:00.000Z"
  },
  "LAS": {
    "raw": "METAR KLAS 251456Z 17006KT 10SM SCT200 19/M01 A2973 RMK AO2 SLP048 T01891006 53015",
    "icao": "KLAS",
    "flightCategory": "VFR",
    "windDir": 170,
    "windSpeed": 6,
    "windGust": null,
    "visibility": 10,
    "ceiling": null,
    "temp": 18.9,
    "dewpoint": -0.6,
    "altimeter": 29.73,
    "conditions": "",
    "observationTime": "2026-04-25T15:00:00.000Z"
  },
  "LAX": {
    "raw": "METAR KLAX 251453Z 24009KT 10SM SCT019 BKN029 BKN045 BKN200 16/10 A2992 RMK AO2 SLP128 T01560100 53010",
    "icao": "KLAX",
    "flightCategory": "MVFR",
    "windDir": 240,
    "windSpeed": 9,
    "windGust": null,
    "visibility": 10,
    "ceiling": 2900,
    "temp": 15.6,
    "dewpoint": 10,
    "altimeter": 29.92,
    "conditions": "",
    "observationTime": "2026-04-25T15:00:00.000Z"
  },
  "ORD": {
    "raw": "METAR KORD 251451Z 02012KT 10SM SCT012 10/06 A2998 RMK AO2 SLP152 60000 T01000056 56001",
    "icao": "KORD",
    "flightCategory": "VFR",
    "windDir": 20,
    "windSpeed": 12,
    "windGust": null,
    "visibility": 10,
    "ceiling": null,
    "temp": 10,
    "dewpoint": 5.6,
    "altimeter": 29.98,
    "conditions": "",
    "observationTime": "2026-04-25T15:00:00.000Z"
  }
}