{
  "SYD": {
    "raw": "METAR YSSY 080300Z 18005KT 9999 SCT030 18/13 Q1031",
    "icao": "YSSY",
    "flightCategory": "VFR",
    "windDir": 180,
    "windSpeed": 5,
    "windGust": null,
    "visibility": 6,
    "ceiling": null,
    "temp": 18,
    "dewpoint": 13,
    "altimeter": 30.45,
    "conditions": "",
    "observationTime": "2026-06-08T03:00:00.000Z"
  },
  "LHR": {
    "raw": "METAR EGLL 080250Z AUTO 19010KT 9999 SCT046 14/12 Q1015",
    "icao": "EGLL",
    "flightCategory": "VFR",
    "windDir": 190,
    "windSpeed": 10,
    "windGust": null,
    "visibility": 6,
    "ceiling": null,
    "temp": 14,
    "dewpoint": 12,
    "altimeter": 29.97,
    "conditions": "",
    "observationTime": "2026-06-08T03:00:00.000Z"
  },
  "LAS": {
    "raw": "METAR KLAS 080256Z 25011KT 10SM CLR 33/M05 A2965 RMK AO2 SLP012 T03331050 53001 $",
    "icao": "KLAS",
    "flightCategory": "VFR",
    "windDir": 250,
    "windSpeed": 11,
    "windGust": null,
    "visibility": 10,
    "ceiling": null,
    "temp": 33.3,
    "dewpoint": -5,
    "altimeter": 29.65,
    "conditions": "",
    "observationTime": "2026-06-08T03:00:00.000Z"
  },
  "LAX": {
    "raw": "METAR KLAX 080253Z 27010KT 10SM FEW015 FEW250 17/13 A2983 RMK AO2 SLP100 T01720133 53006 $",
    "icao": "KLAX",
    "flightCategory": "VFR",
    "windDir": 270,
    "windSpeed": 10,
    "windGust": null,
    "visibility": 10,
    "ceiling": null,
    "temp": 17.2,
    "dewpoint": 13.3,
    "altimeter": 29.83,
    "conditions": "",
    "observationTime": "2026-06-08T03:00:00.000Z"
  },
  "ORD": {
    "raw": "METAR KORD 080251Z 06008KT 10SM FEW055 FEW075 SCT130 BKN180 OVC250 20/13 A2997 RMK AO2 SLP143 60000 T02000133 55003 $",
    "icao": "KORD",
    "flightCategory": "VFR",
    "windDir": 60,
    "windSpeed": 8,
    "windGust": null,
    "visibility": 10,
    "ceiling": 18000,
    "temp": 20,
    "dewpoint": 13.3,
    "altimeter": 29.97,
    "conditions": "",
    "observationTime": "2026-06-08T03:00:00.000Z"
  }
}