{
  "LAS": {
    "raw": "METAR KLAS 231956Z 09009G16KT 030V120 10SM CLR 42/10 A2991 RMK AO2 SLP093 T04170100",
    "icao": "KLAS",
    "flightCategory": "VFR",
    "windDir": 90,
    "windSpeed": 9,
    "windGust": 16,
    "visibility": 10,
    "ceiling": null,
    "temp": 41.7,
    "dewpoint": 10,
    "altimeter": 29.91,
    "conditions": "",
    "observationTime": "2026-07-23T20:00:00.000Z"
  },
  "LAX": {
    "raw": "METAR KLAX 231953Z 26013KT 10SM FEW110 FEW280 26/18 A2987 RMK AO2 SLP113 T02560183 $",
    "icao": "KLAX",
    "flightCategory": "VFR",
    "windDir": 260,
    "windSpeed": 13,
    "windGust": null,
    "visibility": 10,
    "ceiling": null,
    "temp": 25.6,
    "dewpoint": 18.3,
    "altimeter": 29.87,
    "conditions": "",
    "observationTime": "2026-07-23T20:00:00.000Z"
  },
  "ORD": {
    "raw": "METAR KORD 231951Z VRB03KT 10SM BKN070 24/08 A3018 RMK AO2 SLP218 T02440078 $",
    "icao": "KORD",
    "flightCategory": "VFR",
    "windDir": null,
    "windSpeed": 3,
    "windGust": null,
    "visibility": 10,
    "ceiling": 7000,
    "temp": 24.4,
    "dewpoint": 7.8,
    "altimeter": 30.18,
    "conditions": "",
    "observationTime": "2026-07-23T20:00:00.000Z"
  },
  "LHR": {
    "raw": "METAR EGLL 231920Z AUTO 22013KT 9999 NCD 24/13 Q1021",
    "icao": "EGLL",
    "flightCategory": "VFR",
    "windDir": 220,
    "windSpeed": 13,
    "windGust": null,
    "visibility": 6,
    "ceiling": null,
    "temp": 24,
    "dewpoint": 13,
    "altimeter": 30.15,
    "conditions": "",
    "observationTime": "2026-07-23T19:20:00.000Z"
  },
  "SYD": {
    "raw": "METAR YSSY 231930Z 26016KT CAVOK 08/M00 Q1023",
    "icao": "YSSY",
    "flightCategory": "VFR",
    "windDir": 260,
    "windSpeed": 16,
    "windGust": null,
    "visibility": 6,
    "ceiling": null,
    "temp": 8,
    "dewpoint": 0,
    "altimeter": 30.21,
    "conditions": "",
    "observationTime": "2026-07-23T19:30:00.000Z"
  }
}