{
  "SYD": {
    "raw": "METAR YSSY 041500Z AUTO 08008KT 9999 // FEW032 BKN045 BKN052 18/16 Q1025",
    "icao": "YSSY",
    "flightCategory": "VFR",
    "windDir": 80,
    "windSpeed": 8,
    "windGust": null,
    "visibility": 6,
    "ceiling": 4500,
    "temp": 18,
    "dewpoint": 16,
    "altimeter": 30.27,
    "conditions": "",
    "observationTime": "2026-04-04T15:00:00.000Z"
  },
  "LHR": {
    "raw": "METAR EGLL 041450Z COR AUTO 22020G30KT 190V250 9999 OVC029 14/07 Q1013 NOSIG",
    "icao": "EGLL",
    "flightCategory": "MVFR",
    "windDir": 220,
    "windSpeed": 20,
    "windGust": 30,
    "visibility": 6,
    "ceiling": 2900,
    "temp": 14,
    "dewpoint": 7,
    "altimeter": 29.91,
    "conditions": "",
    "observationTime": "2026-04-04T15:00:00.000Z"
  },
  "ORD": {
    "raw": "METAR KORD 041451Z 25015G28KT 2SM -RA BR BKN003 OVC009 12/11 A2981 RMK AO2 PK WND 25028/1448 RAB50 PRESRR SLP095 P0000 60001 T01170111 53003 $",
    "icao": "KORD",
    "flightCategory": "LIFR",
    "windDir": 250,
    "windSpeed": 15,
    "windGust": 28,
    "visibility": 2,
    "ceiling": 300,
    "temp": 11.7,
    "dewpoint": 11.1,
    "altimeter": 29.81,
    "conditions": "-RA BR",
    "observationTime": "2026-04-04T15:00:00.000Z"
  },
  "LAS": {
    "raw": "METAR KLAS 041456Z VRB03KT 10SM FEW250 15/M08 A3026 RMK AO2 SLP237 T01501083 52011",
    "icao": "KLAS",
    "flightCategory": "VFR",
    "windDir": null,
    "windSpeed": 3,
    "windGust": null,
    "visibility": 10,
    "ceiling": null,
    "temp": 15,
    "dewpoint": -8.3,
    "altimeter": 30.26,
    "conditions": "",
    "observationTime": "2026-04-04T15:00:00.000Z"
  },
  "LAX": {
    "raw": "METAR KLAX 041453Z 00000KT 10SM FEW190 FEW240 SCT290 17/09 A3002 RMK AO2 SLP166 T01670094 53016 $",
    "icao": "KLAX",
    "flightCategory": "VFR",
    "windDir": 0,
    "windSpeed": 0,
    "windGust": null,
    "visibility": 10,
    "ceiling": null,
    "temp": 16.7,
    "dewpoint": 9.4,
    "altimeter": 30.02,
    "conditions": "",
    "observationTime": "2026-04-04T15:00:00.000Z"
  }
}