{
  "SYD": {
    "raw": "METAR YSSY 031430Z AUTO 15013KT 9999 // SCT025 BKN033 21/16 Q1024",
    "icao": "YSSY",
    "flightCategory": "VFR",
    "windDir": 150,
    "windSpeed": 13,
    "windGust": null,
    "visibility": 6,
    "ceiling": 3300,
    "temp": 21,
    "dewpoint": 16,
    "altimeter": 30.24,
    "conditions": "",
    "observationTime": "2026-04-03T14:30:00.000Z"
  },
  "LAS": {
    "raw": "METAR KLAS 031456Z 35014G27KT 10SM CLR 13/M12 A3024 RMK AO2 PK WND 32027/1452 SLP231 T01281117 51031",
    "icao": "KLAS",
    "flightCategory": "VFR",
    "windDir": 350,
    "windSpeed": 14,
    "windGust": 27,
    "visibility": 10,
    "ceiling": null,
    "temp": 12.8,
    "dewpoint": -11.7,
    "altimeter": 30.24,
    "conditions": "",
    "observationTime": "2026-04-03T15:00:00.000Z"
  },
  "LAX": {
    "raw": "METAR KLAX 031453Z 06003KT 10SM FEW016 FEW160 SCT250 16/13 A3000 RMK AO2 SLP156 T01560128 53018 $",
    "icao": "KLAX",
    "flightCategory": "VFR",
    "windDir": 60,
    "windSpeed": 3,
    "windGust": null,
    "visibility": 10,
    "ceiling": null,
    "temp": 15.6,
    "dewpoint": 12.8,
    "altimeter": 30,
    "conditions": "",
    "observationTime": "2026-04-03T15:00:00.000Z"
  },
  "ORD": {
    "raw": "METAR KORD 031451Z 27007KT 10SM OVC014 08/05 A3005 RMK AO2 SLP177 T00830050 51025",
    "icao": "KORD",
    "flightCategory": "MVFR",
    "windDir": 270,
    "windSpeed": 7,
    "windGust": null,
    "visibility": 10,
    "ceiling": 1400,
    "temp": 8.3,
    "dewpoint": 5,
    "altimeter": 30.05,
    "conditions": "",
    "observationTime": "2026-04-03T15:00:00.000Z"
  },
  "LHR": {
    "raw": "METAR EGLL 031420Z COR AUTO 24018KT 9999 BKN021 BKN027 OVC032 15/11 Q1010 NOSIG",
    "icao": "EGLL",
    "flightCategory": "MVFR",
    "windDir": 240,
    "windSpeed": 18,
    "windGust": null,
    "visibility": 6,
    "ceiling": 2100,
    "temp": 15,
    "dewpoint": 11,
    "altimeter": 29.83,
    "conditions": "",
    "observationTime": "2026-04-03T14:20:00.000Z"
  }
}