{
  "ORD": {
    "raw": "METAR KORD 151051Z 26007KT 10SM -RA BKN055 BKN100 OVC250 20/17 A2976 RMK AO2 RAB14 SLP072 P0000 T02000172",
    "icao": "KORD",
    "flightCategory": "VFR",
    "windDir": 260,
    "windSpeed": 7,
    "windGust": null,
    "visibility": 10,
    "ceiling": 5500,
    "temp": 20,
    "dewpoint": 17.2,
    "altimeter": 29.76,
    "conditions": "-RA",
    "observationTime": "2026-04-15T11:00:00.000Z"
  },
  "LHR": {
    "raw": "METAR EGLL 151020Z COR AUTO 19011KT 160V240 4000 RA BKN007 OVC012 14/12 Q1015 NOSIG",
    "icao": "EGLL",
    "flightCategory": "IFR",
    "windDir": 190,
    "windSpeed": 11,
    "windGust": null,
    "visibility": 2.49,
    "ceiling": 700,
    "temp": 14,
    "dewpoint": 12,
    "altimeter": 29.97,
    "conditions": "RA",
    "observationTime": "2026-04-15T10:20:00.000Z"
  },
  "SYD": {
    "raw": "METAR YSSY 151000Z AUTO 12004KT 9999 // NCD 20/13 Q1019",
    "icao": "YSSY",
    "flightCategory": "VFR",
    "windDir": 120,
    "windSpeed": 4,
    "windGust": null,
    "visibility": 6,
    "ceiling": null,
    "temp": 20,
    "dewpoint": 13,
    "altimeter": 30.09,
    "conditions": "",
    "observationTime": "2026-04-15T10:00:00.000Z"
  },
  "LAS": {
    "raw": "METAR KLAS 150956Z 21005KT 10SM CLR 15/M07 A2998 RMK AO2 SLP137 T01501072",
    "icao": "KLAS",
    "flightCategory": "VFR",
    "windDir": 210,
    "windSpeed": 5,
    "windGust": null,
    "visibility": 10,
    "ceiling": null,
    "temp": 15,
    "dewpoint": -7.2,
    "altimeter": 29.98,
    "conditions": "",
    "observationTime": "2026-04-15T10:00:00.000Z"
  }
}