{
  "SYD": {
    "raw": "METAR YSSY 172100Z AUTO 25011KT 9999 // NCD 13/06 Q1018",
    "icao": "YSSY",
    "flightCategory": "VFR",
    "windDir": 250,
    "windSpeed": 11,
    "windGust": null,
    "visibility": 6,
    "ceiling": null,
    "temp": 13,
    "dewpoint": 6,
    "altimeter": 30.06,
    "conditions": "",
    "observationTime": "2026-04-17T21:00:00.000Z"
  },
  "LHR": {
    "raw": "METAR EGLL 172050Z COR AUTO 22011KT 9999 SCT047 13/08 Q1019 NOSIG",
    "icao": "EGLL",
    "flightCategory": "VFR",
    "windDir": 220,
    "windSpeed": 11,
    "windGust": null,
    "visibility": 6,
    "ceiling": null,
    "temp": 13,
    "dewpoint": 8,
    "altimeter": 30.09,
    "conditions": "",
    "observationTime": "2026-04-17T21:00:00.000Z"
  },
  "LAS": {
    "raw": "METAR KLAS 172056Z 03015G24KT 10SM CLR 18/M22 A3013 RMK AO2 PK WND 03028/2019 SLP193 T01781217 58021",
    "icao": "KLAS",
    "flightCategory": "VFR",
    "windDir": 30,
    "windSpeed": 15,
    "windGust": 24,
    "visibility": 10,
    "ceiling": null,
    "temp": 17.8,
    "dewpoint": -21.7,
    "altimeter": 30.13,
    "conditions": "",
    "observationTime": "2026-04-17T21:00:00.000Z"
  },
  "LAX": {
    "raw": "METAR KLAX 172053Z 24010KT 10SM CLR 22/12 A2998 RMK AO2 SLP150 T02220117 58011",
    "icao": "KLAX",
    "flightCategory": "VFR",
    "windDir": 240,
    "windSpeed": 10,
    "windGust": null,
    "visibility": 10,
    "ceiling": null,
    "temp": 22.2,
    "dewpoint": 11.7,
    "altimeter": 29.98,
    "conditions": "",
    "observationTime": "2026-04-17T21:00:00.000Z"
  },
  "ORD": {
    "raw": "METAR KORD 172051Z 18012G28KT 10SM SCT047 OVC250 27/16 A2971 RMK AO2 PK WND 17031/1959 SLP058 T02670156 56042 $",
    "icao": "KORD",
    "flightCategory": "VFR",
    "windDir": 180,
    "windSpeed": 12,
    "windGust": 28,
    "visibility": 10,
    "ceiling": 25000,
    "temp": 26.7,
    "dewpoint": 15.6,
    "altimeter": 29.71,
    "conditions": "",
    "observationTime": "2026-04-17T21:00:00.000Z"
  }
}