{
  "SYD": {
    "raw": "METAR YSSY 221730Z AUTO 35006KT 9999 // BKN061 15/11 Q1027",
    "icao": "YSSY",
    "flightCategory": "VFR",
    "windDir": 350,
    "windSpeed": 6,
    "windGust": null,
    "visibility": 6,
    "ceiling": 6100,
    "temp": 15,
    "dewpoint": 11,
    "altimeter": 30.33,
    "conditions": "",
    "observationTime": "2026-04-22T17:30:00.000Z"
  },
  "LAS": {
    "raw": "METAR KLAS 221756Z 18007KT 10SM FEW200 BKN250 19/M02 A3002 RMK AO2 SLP150 T01941022 10194 20133 50003",
    "icao": "KLAS",
    "flightCategory": "VFR",
    "windDir": 180,
    "windSpeed": 7,
    "windGust": null,
    "visibility": 10,
    "ceiling": 25000,
    "temp": 19.4,
    "dewpoint": -2.2,
    "altimeter": 30.02,
    "conditions": "",
    "observationTime": "2026-04-22T18:00:00.000Z"
  },
  "LAX": {
    "raw": "METAR KLAX 221753Z 26011KT 10SM FEW018 FEW025 SCT140 SCT250 19/09 A3016 RMK AO2 SLP213 T01890094 10189 20128 51007 $",
    "icao": "KLAX",
    "flightCategory": "VFR",
    "windDir": 260,
    "windSpeed": 11,
    "windGust": null,
    "visibility": 10,
    "ceiling": null,
    "temp": 18.9,
    "dewpoint": 9.4,
    "altimeter": 30.16,
    "conditions": "",
    "observationTime": "2026-04-22T18:00:00.000Z"
  },
  "ORD": {
    "raw": "METAR KORD 221751Z 11006KT 10SM FEW026 FEW250 21/14 A2995 RMK AO2 SLP141 T02110139 10211 20156 58001",
    "icao": "KORD",
    "flightCategory": "VFR",
    "windDir": 110,
    "windSpeed": 6,
    "windGust": null,
    "visibility": 10,
    "ceiling": null,
    "temp": 21.1,
    "dewpoint": 13.9,
    "altimeter": 29.95,
    "conditions": "",
    "observationTime": "2026-04-22T18:00:00.000Z"
  },
  "LHR": {
    "raw": "METAR EGLL 221720Z COR AUTO 10015KT 9999 NCD 14/M01 Q1026 NOSIG",
    "icao": "EGLL",
    "flightCategory": "VFR",
    "windDir": 100,
    "windSpeed": 15,
    "windGust": null,
    "visibility": 6,
    "ceiling": null,
    "temp": 14,
    "dewpoint": -1,
    "altimeter": 30.3,
    "conditions": "",
    "observationTime": "2026-04-22T17:20:00.000Z"
  }
}