{
  "SYD": {
    "raw": "METAR YSSY 151800Z AUTO 30006KT 9999 // NCD 15/14 Q1025",
    "icao": "YSSY",
    "flightCategory": "VFR",
    "windDir": 300,
    "windSpeed": 6,
    "windGust": null,
    "visibility": 6,
    "ceiling": null,
    "temp": 15,
    "dewpoint": 14,
    "altimeter": 30.27,
    "conditions": "",
    "observationTime": "2026-05-15T18:00:00.000Z"
  },
  "LHR": {
    "raw": "METAR EGLL 151820Z AUTO 33006KT 290V010 9999 NCD 13/M01 Q1007",
    "icao": "EGLL",
    "flightCategory": "VFR",
    "windDir": 330,
    "windSpeed": 6,
    "windGust": null,
    "visibility": 6,
    "ceiling": null,
    "temp": 13,
    "dewpoint": -1,
    "altimeter": 29.74,
    "conditions": "",
    "observationTime": "2026-05-15T18:20:00.000Z"
  },
  "LAS": {
    "raw": "METAR KLAS 151756Z 09003KT 10SM FEW120 32/02 A2983 RMK AO2 SLP072 T03220022 10328 20239 58003",
    "icao": "KLAS",
    "flightCategory": "VFR",
    "windDir": 90,
    "windSpeed": 3,
    "windGust": null,
    "visibility": 10,
    "ceiling": null,
    "temp": 32.2,
    "dewpoint": 2.2,
    "altimeter": 29.83,
    "conditions": "",
    "observationTime": "2026-05-15T18:00:00.000Z"
  }
}