{
  "LHR": {
    "raw": "METAR EGLL 111050Z 21013KT 190V250 8000 -RA FEW011 SCT016 BKN030 12/11 Q1020",
    "icao": "EGLL",
    "flightCategory": "MVFR",
    "windDir": 210,
    "windSpeed": 13,
    "windGust": null,
    "visibility": 4.97,
    "ceiling": 3000,
    "temp": 12,
    "dewpoint": 11,
    "altimeter": 30.12,
    "conditions": "-RA",
    "observationTime": "2026-06-11T11:00:00.000Z"
  },
  "SYD": {
    "raw": "METAR YSSY 111100Z AUTO 21007KT 9999 // SCT015 BKN028 OVC064 17/16 Q1032",
    "icao": "YSSY",
    "flightCategory": "MVFR",
    "windDir": 210,
    "windSpeed": 7,
    "windGust": null,
    "visibility": 6,
    "ceiling": 2800,
    "temp": 17,
    "dewpoint": 16,
    "altimeter": 30.47,
    "conditions": "",
    "observationTime": "2026-06-11T11:00:00.000Z"
  },
  "LAS": {
    "raw": "METAR KLAS 111056Z 04007KT 10SM CLR 30/02 A2977 RMK AO2 SLP048 T03000022",
    "icao": "KLAS",
    "flightCategory": "VFR",
    "windDir": 40,
    "windSpeed": 7,
    "windGust": null,
    "visibility": 10,
    "ceiling": null,
    "temp": 30,
    "dewpoint": 2.2,
    "altimeter": 29.77,
    "conditions": "",
    "observationTime": "2026-06-11T11:00:00.000Z"
  },
  "LAX": {
    "raw": "METAR KLAX 111053Z 09006KT 10SM OVC011 18/16 A2983 RMK AO2 SLP097 T01830156",
    "icao": "KLAX",
    "flightCategory": "MVFR",
    "windDir": 90,
    "windSpeed": 6,
    "windGust": null,
    "visibility": 10,
    "ceiling": 1100,
    "temp": 18.3,
    "dewpoint": 15.6,
    "altimeter": 29.83,
    "conditions": "",
    "observationTime": "2026-06-11T11:00:00.000Z"
  },
  "ORD": {
    "raw": "METAR KORD 111051Z 21008KT 10SM FEW010 FEW080 SCT160 BKN250 19/18 A2977 RMK AO2 SLP076 T01940183 $",
    "icao": "KORD",
    "flightCategory": "VFR",
    "windDir": 210,
    "windSpeed": 8,
    "windGust": null,
    "visibility": 10,
    "ceiling": 25000,
    "temp": 19.4,
    "dewpoint": 18.3,
    "altimeter": 29.77,
    "conditions": "",
    "observationTime": "2026-06-11T11:00:00.000Z"
  }
}