{
  "SYD": {
    "raw": "METAR YSSY 190730Z AUTO 35016KT 9999 // BKN066 20/10 Q1012",
    "icao": "YSSY",
    "flightCategory": "VFR",
    "windDir": 350,
    "windSpeed": 16,
    "windGust": null,
    "visibility": 6,
    "ceiling": 6600,
    "temp": 20,
    "dewpoint": 10,
    "altimeter": 29.88,
    "conditions": "",
    "observationTime": "2026-06-19T07:30:00.000Z"
  },
  "LAS": {
    "raw": "METAR KLAS 190756Z 16005KT 10SM FEW200 32/M01 A2983 RMK AO2 SLP069 T03171011 404110294",
    "icao": "KLAS",
    "flightCategory": "VFR",
    "windDir": 160,
    "windSpeed": 5,
    "windGust": null,
    "visibility": 10,
    "ceiling": null,
    "temp": 31.7,
    "dewpoint": -1.1,
    "altimeter": 29.83,
    "conditions": "",
    "observationTime": "2026-06-19T08:00:00.000Z"
  },
  "LAX": {
    "raw": "METAR KLAX 190753Z 31009G15KT 10SM FEW012 BKN018 17/14 A2998 RMK AO2 SLP148 T01720139 402110172 $",
    "icao": "KLAX",
    "flightCategory": "MVFR",
    "windDir": 310,
    "windSpeed": 9,
    "windGust": 15,
    "visibility": 10,
    "ceiling": 1800,
    "temp": 17.2,
    "dewpoint": 13.9,
    "altimeter": 29.98,
    "conditions": "",
    "observationTime": "2026-06-19T08:00:00.000Z"
  },
  "ORD": {
    "raw": "METAR KORD 190751Z 28004KT 10SM CLR 16/12 A2988 RMK AO2 SLP115 T01560122 $",
    "icao": "KORD",
    "flightCategory": "VFR",
    "windDir": 280,
    "windSpeed": 4,
    "windGust": null,
    "visibility": 10,
    "ceiling": null,
    "temp": 15.6,
    "dewpoint": 12.2,
    "altimeter": 29.88,
    "conditions": "",
    "observationTime": "2026-06-19T08:00:00.000Z"
  },
  "LHR": {
    "raw": "METAR EGLL 190720Z AUTO 24005KT 200V270 9999 NCD 20/15 Q1012",
    "icao": "EGLL",
    "flightCategory": "VFR",
    "windDir": 240,
    "windSpeed": 5,
    "windGust": null,
    "visibility": 6,
    "ceiling": null,
    "temp": 20,
    "dewpoint": 15,
    "altimeter": 29.88,
    "conditions": "",
    "observationTime": "2026-06-19T07:20:00.000Z"
  }
}