{
  "ORD": {
    "raw": "SPECI KORD 030219Z 19013G20KT 10SM -TSRA SCT026CB BKN080 BKN110 OVC160 17/13 A2964 RMK AO2 RAE0154B11 TSB19 OCNL LTGICCCCG SW-NW TS SW-NW MOV NE P0000 T01670133",
    "icao": "KORD",
    "flightCategory": "VFR",
    "windDir": 190,
    "windSpeed": 13,
    "windGust": 20,
    "visibility": 10,
    "ceiling": 8000,
    "temp": 16.7,
    "dewpoint": 13.3,
    "altimeter": 29.64,
    "conditions": "-TSRA",
    "observationTime": "2026-04-03T02:19:00.000Z"
  },
  "LAS": {
    "raw": "METAR KLAS 030256Z 21010KT 10SM CLR 22/03 A2981 RMK AO2 SLP078 T02170028 53012",
    "icao": "KLAS",
    "flightCategory": "VFR",
    "windDir": 210,
    "windSpeed": 10,
    "windGust": null,
    "visibility": 10,
    "ceiling": null,
    "temp": 21.7,
    "dewpoint": 2.8,
    "altimeter": 29.81,
    "conditions": "",
    "observationTime": "2026-04-03T03:00:00.000Z"
  },
  "LAX": {
    "raw": "METAR KLAX 030253Z 25008KT 10SM FEW015 FEW055 SCT250 17/13 A2992 RMK AO2 SLP131 T01670133 50001 $",
    "icao": "KLAX",
    "flightCategory": "VFR",
    "windDir": 250,
    "windSpeed": 8,
    "windGust": null,
    "visibility": 10,
    "ceiling": null,
    "temp": 16.7,
    "dewpoint": 13.3,
    "altimeter": 29.92,
    "conditions": "",
    "observationTime": "2026-04-03T03:00:00.000Z"
  },
  "LHR": {
    "raw": "METAR EGLL 030220Z COR AUTO 20008KT 9999 OVC041 09/05 Q1015 NOSIG",
    "icao": "EGLL",
    "flightCategory": "VFR",
    "windDir": 200,
    "windSpeed": 8,
    "windGust": null,
    "visibility": 6,
    "ceiling": 4100,
    "temp": 9,
    "dewpoint": 5,
    "altimeter": 29.97,
    "conditions": "",
    "observationTime": "2026-04-03T02:20:00.000Z"
  },
  "SYD": {
    "raw": "METAR YSSY 030230Z 19019KT 9999 FEW018 BKN035 23/18 Q1022",
    "icao": "YSSY",
    "flightCategory": "VFR",
    "windDir": 190,
    "windSpeed": 19,
    "windGust": null,
    "visibility": 6,
    "ceiling": 3500,
    "temp": 23,
    "dewpoint": 18,
    "altimeter": 30.18,
    "conditions": "",
    "observationTime": "2026-04-03T02:30:00.000Z"
  }
}