{
  "LHR": {
    "raw": "METAR EGLL 140350Z COR AUTO 07001KT 9999 NCD 03/02 Q1017 NOSIG",
    "icao": "EGLL",
    "flightCategory": "VFR",
    "windDir": 70,
    "windSpeed": 1,
    "windGust": null,
    "visibility": 6,
    "ceiling": null,
    "temp": 3,
    "dewpoint": 2,
    "altimeter": 30.03,
    "conditions": "",
    "observationTime": "2026-04-14T04:00:00.000Z"
  },
  "SYD": {
    "raw": "METAR YSSY 140400Z 13010KT CAVOK 23/09 Q1018",
    "icao": "YSSY",
    "flightCategory": "VFR",
    "windDir": 130,
    "windSpeed": 10,
    "windGust": null,
    "visibility": 6,
    "ceiling": null,
    "temp": 23,
    "dewpoint": 9,
    "altimeter": 30.06,
    "conditions": "",
    "observationTime": "2026-04-14T04:00:00.000Z"
  },
  "LAS": {
    "raw": "METAR KLAS 140356Z 24011KT 10SM SCT060 BKN100 16/00 A2991 RMK AO2 WSHFT 0307 SLP117 T01560000",
    "icao": "KLAS",
    "flightCategory": "VFR",
    "windDir": 240,
    "windSpeed": 11,
    "windGust": null,
    "visibility": 10,
    "ceiling": 10000,
    "temp": 15.6,
    "dewpoint": 0,
    "altimeter": 29.91,
    "conditions": "",
    "observationTime": "2026-04-14T04:00:00.000Z"
  },
  "LAX": {
    "raw": "METAR KLAX 140353Z 26018KT 10SM CLR 16/11 A3005 RMK AO2 SLP174 T01560106 $",
    "icao": "KLAX",
    "flightCategory": "VFR",
    "windDir": 260,
    "windSpeed": 18,
    "windGust": null,
    "visibility": 10,
    "ceiling": null,
    "temp": 15.6,
    "dewpoint": 10.6,
    "altimeter": 30.05,
    "conditions": "",
    "observationTime": "2026-04-14T04:00:00.000Z"
  },
  "ORD": {
    "raw": "METAR KORD 140351Z 19014G24KT 10SM SCT250 22/17 A2976 RMK AO2 PK WND 19029/0300 SLP075 T02220167",
    "icao": "KORD",
    "flightCategory": "VFR",
    "windDir": 190,
    "windSpeed": 14,
    "windGust": 24,
    "visibility": 10,
    "ceiling": null,
    "temp": 22.2,
    "dewpoint": 16.7,
    "altimeter": 29.76,
    "conditions": "",
    "observationTime": "2026-04-14T04:00:00.000Z"
  }
}