{
  "LAS": {
    "raw": "METAR KLAS 232356Z 21014G24KT 10SM FEW150 35/M04 A2983 RMK AO2 SLP072 T03501039 10350 20317 56011",
    "icao": "KLAS",
    "flightCategory": "VFR",
    "windDir": 210,
    "windSpeed": 14,
    "windGust": 24,
    "visibility": 10,
    "ceiling": null,
    "temp": 35,
    "dewpoint": -3.9,
    "altimeter": 29.83,
    "conditions": "",
    "observationTime": "2026-05-24T00:00:00.000Z"
  },
  "LAX": {
    "raw": "METAR KLAX 232353Z 27014KT 10SM BKN012 18/13 A2995 RMK AO2 SLP141 T01830133 10206 20178 55008",
    "icao": "KLAX",
    "flightCategory": "MVFR",
    "windDir": 270,
    "windSpeed": 14,
    "windGust": null,
    "visibility": 10,
    "ceiling": 1200,
    "temp": 18.3,
    "dewpoint": 13.3,
    "altimeter": 29.95,
    "conditions": "",
    "observationTime": "2026-05-24T00:00:00.000Z"
  },
  "ORD": {
    "raw": "METAR KORD 232351Z 08011KT 10SM FEW010 FEW060 SCT110 BKN250 16/12 A2999 RMK AO2 SLP155 T01610117 10222 20161 50007",
    "icao": "KORD",
    "flightCategory": "VFR",
    "windDir": 80,
    "windSpeed": 11,
    "windGust": null,
    "visibility": 10,
    "ceiling": 25000,
    "temp": 16.1,
    "dewpoint": 11.7,
    "altimeter": 29.99,
    "conditions": "",
    "observationTime": "2026-05-24T00:00:00.000Z"
  },
  "LHR": {
    "raw": "METAR EGLL 232320Z AUTO 10006KT 9999 NCD 19/14 Q1029",
    "icao": "EGLL",
    "flightCategory": "VFR",
    "windDir": 100,
    "windSpeed": 6,
    "windGust": null,
    "visibility": 6,
    "ceiling": null,
    "temp": 19,
    "dewpoint": 14,
    "altimeter": 30.39,
    "conditions": "",
    "observationTime": "2026-05-23T23:20:00.000Z"
  },
  "SYD": {
    "raw": "METAR YSSY 232330Z 30005KT 9999 FEW014 BKN060 18/16 Q1025",
    "icao": "YSSY",
    "flightCategory": "VFR",
    "windDir": 300,
    "windSpeed": 5,
    "windGust": null,
    "visibility": 6,
    "ceiling": 6000,
    "temp": 18,
    "dewpoint": 16,
    "altimeter": 30.27,
    "conditions": "",
    "observationTime": "2026-05-23T23:30:00.000Z"
  }
}