{
  "ORD": {
    "raw": "SPECI KORD 030113Z 19015G27KT 10SM TS BKN026CB BKN034 BKN060 BKN140 OVC200 20/16 A2965 RMK AO2 PK WND 21038/0056 TSB13 FRQ LTGICCCCG SW-W TS SW-W MOV NE T02000156",
    "icao": "KORD",
    "flightCategory": "MVFR",
    "windDir": 190,
    "windSpeed": 15,
    "windGust": 27,
    "visibility": 10,
    "ceiling": 2600,
    "temp": 20,
    "dewpoint": 15.6,
    "altimeter": 29.65,
    "conditions": "TS",
    "observationTime": "2026-04-03T01:13:00.000Z"
  },
  "LHR": {
    "raw": "METAR EGLL 030120Z COR AUTO 20009KT 9999 NCD 09/05 Q1016 NOSIG",
    "icao": "EGLL",
    "flightCategory": "VFR",
    "windDir": 200,
    "windSpeed": 9,
    "windGust": null,
    "visibility": 6,
    "ceiling": null,
    "temp": 9,
    "dewpoint": 5,
    "altimeter": 30,
    "conditions": "",
    "observationTime": "2026-04-03T01:20:00.000Z"
  },
  "SYD": {
    "raw": "METAR YSSY 030100Z 18016KT 9999 FEW015 23/19 Q1023",
    "icao": "YSSY",
    "flightCategory": "VFR",
    "windDir": 180,
    "windSpeed": 16,
    "windGust": null,
    "visibility": 6,
    "ceiling": null,
    "temp": 23,
    "dewpoint": 19,
    "altimeter": 30.21,
    "conditions": "",
    "observationTime": "2026-04-03T01:00:00.000Z"
  },
  "LAS": {
    "raw": "METAR KLAS 030056Z 18009KT 10SM FEW140 FEW200 23/03 A2977 RMK AO2 SLP066 T02330028",
    "icao": "KLAS",
    "flightCategory": "VFR",
    "windDir": 180,
    "windSpeed": 9,
    "windGust": null,
    "visibility": 10,
    "ceiling": null,
    "temp": 23.3,
    "dewpoint": 2.8,
    "altimeter": 29.77,
    "conditions": "",
    "observationTime": "2026-04-03T01:00:00.000Z"
  }
}