{
  "ORD": {
    "raw": "SPECI KORD 101235Z 35011KT 3SM -DZ BR OVC005 07/06 A3015 RMK AO2 RAE19DZB26 P0001 T00670056",
    "icao": "KORD",
    "flightCategory": "IFR",
    "windDir": 350,
    "windSpeed": 11,
    "windGust": null,
    "visibility": 3,
    "ceiling": 500,
    "temp": 6.7,
    "dewpoint": 5.6,
    "altimeter": 30.15,
    "conditions": "-DZ BR",
    "observationTime": "2026-04-10T12:35:00.000Z"
  },
  "LHR": {
    "raw": "METAR EGLL 101250Z COR AUTO VRB06KT 9999 NCD 12/M00 Q1018 NOSIG",
    "icao": "EGLL",
    "flightCategory": "VFR",
    "windDir": null,
    "windSpeed": 6,
    "windGust": null,
    "visibility": 6,
    "ceiling": null,
    "temp": 12,
    "dewpoint": 0,
    "altimeter": 30.06,
    "conditions": "",
    "observationTime": "2026-04-10T13:00:00.000Z"
  },
  "LAS": {
    "raw": "METAR KLAS 101256Z 13007KT 10SM FEW150 BKN200 21/06 A2984 RMK AO2 SLP084 T02060056",
    "icao": "KLAS",
    "flightCategory": "VFR",
    "windDir": 130,
    "windSpeed": 7,
    "windGust": null,
    "visibility": 10,
    "ceiling": 20000,
    "temp": 20.6,
    "dewpoint": 5.6,
    "altimeter": 29.84,
    "conditions": "",
    "observationTime": "2026-04-10T13:00:00.000Z"
  },
  "SYD": {
    "raw": "METAR YSSY 101300Z AUTO 27006KT 9999 // NCD 23/15 Q1008",
    "icao": "YSSY",
    "flightCategory": "VFR",
    "windDir": 270,
    "windSpeed": 6,
    "windGust": null,
    "visibility": 6,
    "ceiling": null,
    "temp": 23,
    "dewpoint": 15,
    "altimeter": 29.77,
    "conditions": "",
    "observationTime": "2026-04-10T13:00:00.000Z"
  },
  "LAX": {
    "raw": "SPECI KLAX 101243Z 00000KT 10SM FEW008 BKN014 15/13 A2993 RMK AO2 T01500133 $",
    "icao": "KLAX",
    "flightCategory": "MVFR",
    "windDir": 0,
    "windSpeed": 0,
    "windGust": null,
    "visibility": 10,
    "ceiling": 1400,
    "temp": 15,
    "dewpoint": 13.3,
    "altimeter": 29.93,
    "conditions": "",
    "observationTime": "2026-04-10T12:43:00.000Z"
  }
}