{
  "SYD": {
    "raw": "METAR YSSY 181630Z AUTO 33015KT 9999 // NCD 19/10 Q1013",
    "icao": "YSSY",
    "flightCategory": "VFR",
    "windDir": 330,
    "windSpeed": 15,
    "windGust": null,
    "visibility": 6,
    "ceiling": null,
    "temp": 19,
    "dewpoint": 10,
    "altimeter": 29.91,
    "conditions": "",
    "observationTime": "2026-06-18T16:30:00.000Z"
  },
  "LAS": {
    "raw": "METAR KLAS 181656Z VRB05KT 10SM FEW150 SCT200 36/01 A2985 RMK AO2 SLP073 FU SCT200 T03610011",
    "icao": "KLAS",
    "flightCategory": "VFR",
    "windDir": null,
    "windSpeed": 5,
    "windGust": null,
    "visibility": 10,
    "ceiling": null,
    "temp": 36.1,
    "dewpoint": 1.1,
    "altimeter": 29.85,
    "conditions": "",
    "observationTime": "2026-06-18T17:00:00.000Z"
  },
  "LAX": {
    "raw": "METAR KLAX 181653Z 24007KT 10SM FEW009 SCT016 OVC022 19/14 A2998 RMK AO2 SLP151 SCT V BKN T01890139 $",
    "icao": "KLAX",
    "flightCategory": "MVFR",
    "windDir": 240,
    "windSpeed": 7,
    "windGust": null,
    "visibility": 10,
    "ceiling": 2200,
    "temp": 18.9,
    "dewpoint": 13.9,
    "altimeter": 29.98,
    "conditions": "",
    "observationTime": "2026-06-18T17:00:00.000Z"
  },
  "ORD": {
    "raw": "METAR KORD 181651Z 34012G20KT 10SM BKN035 20/11 A2973 RMK AO2 SLP064 T02000111",
    "icao": "KORD",
    "flightCategory": "VFR",
    "windDir": 340,
    "windSpeed": 12,
    "windGust": 20,
    "visibility": 10,
    "ceiling": 3500,
    "temp": 20,
    "dewpoint": 11.1,
    "altimeter": 29.73,
    "conditions": "",
    "observationTime": "2026-06-18T17:00:00.000Z"
  },
  "LHR": {
    "raw": "METAR EGLL 181620Z AUTO 18011KT 160V250 9999 NCD 24/15 Q1015",
    "icao": "EGLL",
    "flightCategory": "VFR",
    "windDir": 180,
    "windSpeed": 11,
    "windGust": null,
    "visibility": 6,
    "ceiling": null,
    "temp": 24,
    "dewpoint": 15,
    "altimeter": 29.97,
    "conditions": "",
    "observationTime": "2026-06-18T16:20:00.000Z"
  }
}