{
  "LHR": {
    "raw": "METAR EGLL 091950Z COR AUTO 30015G25KT 9999 NCD 11/01 Q1020 NOSIG",
    "icao": "EGLL",
    "flightCategory": "VFR",
    "windDir": 300,
    "windSpeed": 15,
    "windGust": 25,
    "visibility": 6,
    "ceiling": null,
    "temp": 11,
    "dewpoint": 1,
    "altimeter": 30.12,
    "conditions": "",
    "observationTime": "2026-04-09T20:00:00.000Z"
  },
  "SYD": {
    "raw": "METAR YSSY 092000Z 31004KT CAVOK 21/17 Q1012",
    "icao": "YSSY",
    "flightCategory": "VFR",
    "windDir": 310,
    "windSpeed": 4,
    "windGust": null,
    "visibility": 6,
    "ceiling": null,
    "temp": 21,
    "dewpoint": 17,
    "altimeter": 29.88,
    "conditions": "",
    "observationTime": "2026-04-09T20:00:00.000Z"
  },
  "LAS": {
    "raw": "METAR KLAS 091956Z 16005KT 10SM FEW200 BKN250 29/M03 A2985 RMK AO2 SLP086 T02941028",
    "icao": "KLAS",
    "flightCategory": "VFR",
    "windDir": 160,
    "windSpeed": 5,
    "windGust": null,
    "visibility": 10,
    "ceiling": 25000,
    "temp": 29.4,
    "dewpoint": -2.8,
    "altimeter": 29.85,
    "conditions": "",
    "observationTime": "2026-04-09T20:00:00.000Z"
  },
  "LAX": {
    "raw": "METAR KLAX 091953Z 25009KT 10SM FEW025 SCT120 BKN160 OVC200 21/15 A2996 RMK AO2 SLP142 T02060150 $",
    "icao": "KLAX",
    "flightCategory": "VFR",
    "windDir": 250,
    "windSpeed": 9,
    "windGust": null,
    "visibility": 10,
    "ceiling": 16000,
    "temp": 20.6,
    "dewpoint": 15,
    "altimeter": 29.96,
    "conditions": "",
    "observationTime": "2026-04-09T20:00:00.000Z"
  },
  "ORD": {
    "raw": "METAR KORD 091951Z 25014G18KT 10SM SCT085 BKN250 21/03 A3012 RMK AO2 SLP198 T02060028",
    "icao": "KORD",
    "flightCategory": "VFR",
    "windDir": 250,
    "windSpeed": 14,
    "windGust": 18,
    "visibility": 10,
    "ceiling": 25000,
    "temp": 20.6,
    "dewpoint": 2.8,
    "altimeter": 30.12,
    "conditions": "",
    "observationTime": "2026-04-09T20:00:00.000Z"
  }
}