{
  "SYD": {
    "raw": "METAR YSSY 192300Z 33010KT CAVOK 17/08 Q1020",
    "icao": "YSSY",
    "flightCategory": "VFR",
    "windDir": 330,
    "windSpeed": 10,
    "windGust": null,
    "visibility": 6,
    "ceiling": null,
    "temp": 17,
    "dewpoint": 8,
    "altimeter": 30.12,
    "conditions": "",
    "observationTime": "2026-06-19T23:00:00.000Z"
  },
  "LHR": {
    "raw": "METAR EGLL 192320Z AUTO 25008KT 9999 NCD 19/16 Q1015",
    "icao": "EGLL",
    "flightCategory": "VFR",
    "windDir": 250,
    "windSpeed": 8,
    "windGust": null,
    "visibility": 6,
    "ceiling": null,
    "temp": 19,
    "dewpoint": 16,
    "altimeter": 29.97,
    "conditions": "",
    "observationTime": "2026-06-19T23:20:00.000Z"
  },
  "LAS": {
    "raw": "METAR KLAS 192256Z 20009KT 10SM CLR 38/M03 A2978 RMK AO2 SLP053 T03831028",
    "icao": "KLAS",
    "flightCategory": "VFR",
    "windDir": 200,
    "windSpeed": 9,
    "windGust": null,
    "visibility": 10,
    "ceiling": null,
    "temp": 38.3,
    "dewpoint": -2.8,
    "altimeter": 29.78,
    "conditions": "",
    "observationTime": "2026-06-19T23:00:00.000Z"
  },
  "LAX": {
    "raw": "METAR KLAX 192253Z 26016KT 10SM FEW007 FEW016 SCT030 20/14 A3000 RMK AO2 PK WND 27027/2239 SLP156 T02000139",
    "icao": "KLAX",
    "flightCategory": "VFR",
    "windDir": 260,
    "windSpeed": 16,
    "windGust": null,
    "visibility": 10,
    "ceiling": null,
    "temp": 20,
    "dewpoint": 13.9,
    "altimeter": 30,
    "conditions": "",
    "observationTime": "2026-06-19T23:00:00.000Z"
  }
}