{
  "SYD": {
    "raw": "METAR YSSY 062130Z 30007KT CAVOK 17/15 Q1012",
    "icao": "YSSY",
    "flightCategory": "VFR",
    "windDir": 300,
    "windSpeed": 7,
    "windGust": null,
    "visibility": 6,
    "ceiling": null,
    "temp": 17,
    "dewpoint": 15,
    "altimeter": 29.88,
    "conditions": "",
    "observationTime": "2026-04-06T21:30:00.000Z"
  },
  "LAS": {
    "raw": "METAR KLAS 062156Z 16007KT 10SM FEW100 SCT130 BKN200 29/M11 A2990 RMK AO2 SLP105 T02941106",
    "icao": "KLAS",
    "flightCategory": "VFR",
    "windDir": 160,
    "windSpeed": 7,
    "windGust": null,
    "visibility": 10,
    "ceiling": 20000,
    "temp": 29.4,
    "dewpoint": -10.6,
    "altimeter": 29.9,
    "conditions": "",
    "observationTime": "2026-04-06T22:00:00.000Z"
  },
  "LAX": {
    "raw": "METAR KLAX 062153Z 27014KT 10SM FEW015 FEW070 SCT250 21/14 A3000 RMK AO2 SLP157 T02060139 $",
    "icao": "KLAX",
    "flightCategory": "VFR",
    "windDir": 270,
    "windSpeed": 14,
    "windGust": null,
    "visibility": 10,
    "ceiling": null,
    "temp": 20.6,
    "dewpoint": 13.9,
    "altimeter": 30,
    "conditions": "",
    "observationTime": "2026-04-06T22:00:00.000Z"
  },
  "ORD": {
    "raw": "METAR KORD 062151Z 29012G21KT 10SM BKN055 10/M03 A3018 RMK AO2 SLP225 T01001028 $",
    "icao": "KORD",
    "flightCategory": "VFR",
    "windDir": 290,
    "windSpeed": 12,
    "windGust": 21,
    "visibility": 10,
    "ceiling": 5500,
    "temp": 10,
    "dewpoint": -2.8,
    "altimeter": 30.18,
    "conditions": "",
    "observationTime": "2026-04-06T22:00:00.000Z"
  },
  "LHR": {
    "raw": "METAR EGLL 062120Z COR AUTO 10005KT 9999 NCD 08/M02 Q1024 NOSIG",
    "icao": "EGLL",
    "flightCategory": "VFR",
    "windDir": 100,
    "windSpeed": 5,
    "windGust": null,
    "visibility": 6,
    "ceiling": null,
    "temp": 8,
    "dewpoint": -2,
    "altimeter": 30.24,
    "conditions": "",
    "observationTime": "2026-04-06T21:20:00.000Z"
  }
}