{
  "SYD": {
    "raw": "METAR YSSY 171900Z AUTO 34006KT 9999 // BKN052 11/10 Q1031",
    "icao": "YSSY",
    "flightCategory": "VFR",
    "windDir": 340,
    "windSpeed": 6,
    "windGust": null,
    "visibility": 6,
    "ceiling": 5200,
    "temp": 11,
    "dewpoint": 10,
    "altimeter": 30.45,
    "conditions": "",
    "observationTime": "2026-07-17T19:00:00.000Z"
  },
  "LHR": {
    "raw": "METAR EGLL 171850Z AUTO 35005KT 310V040 9999 NCD 27/08 Q1015",
    "icao": "EGLL",
    "flightCategory": "VFR",
    "windDir": 350,
    "windSpeed": 5,
    "windGust": null,
    "visibility": 6,
    "ceiling": null,
    "temp": 27,
    "dewpoint": 8,
    "altimeter": 29.97,
    "conditions": "",
    "observationTime": "2026-07-17T19:00:00.000Z"
  },
  "LAS": {
    "raw": "METAR KLAS 171856Z 08012KT 10SM FEW100 SCT120 BKN180 32/19 A2997 RMK AO2 SLP117 T03170189 $",
    "icao": "KLAS",
    "flightCategory": "VFR",
    "windDir": 80,
    "windSpeed": 12,
    "windGust": null,
    "visibility": 10,
    "ceiling": 18000,
    "temp": 31.7,
    "dewpoint": 18.9,
    "altimeter": 29.97,
    "conditions": "",
    "observationTime": "2026-07-17T19:00:00.000Z"
  },
  "LAX": {
    "raw": "METAR KLAX 171853Z 14009G17KT 10SM FEW110 SCT170 27/17 A2994 RMK AO2 SLP137 ACSL DSNT NE T02720172 $",
    "icao": "KLAX",
    "flightCategory": "VFR",
    "windDir": 140,
    "windSpeed": 9,
    "windGust": 17,
    "visibility": 10,
    "ceiling": null,
    "temp": 27.2,
    "dewpoint": 17.2,
    "altimeter": 29.94,
    "conditions": "",
    "observationTime": "2026-07-17T19:00:00.000Z"
  },
  "ORD": {
    "raw": "METAR KORD 171851Z 26009KT 8SM SCT045 SCT085 BKN110 32/21 A2999 RMK AO2 LTG DSNT W SLP148 T03220211",
    "icao": "KORD",
    "flightCategory": "VFR",
    "windDir": 260,
    "windSpeed": 9,
    "windGust": null,
    "visibility": 8,
    "ceiling": 11000,
    "temp": 32.2,
    "dewpoint": 21.1,
    "altimeter": 29.99,
    "conditions": "",
    "observationTime": "2026-07-17T19:00:00.000Z"
  }
}