{
  "LHR": {
    "raw": "METAR EGLL 131950Z COR AUTO 20006KT 170V270 9999 -RA NCD 10/03 Q1015 NOSIG",
    "icao": "EGLL",
    "flightCategory": "VFR",
    "windDir": 200,
    "windSpeed": 6,
    "windGust": null,
    "visibility": 6,
    "ceiling": null,
    "temp": 10,
    "dewpoint": 3,
    "altimeter": 29.97,
    "conditions": "-RA",
    "observationTime": "2026-04-13T20:00:00.000Z"
  },
  "SYD": {
    "raw": "METAR YSSY 132000Z 28013KT CAVOK 14/08 Q1020",
    "icao": "YSSY",
    "flightCategory": "VFR",
    "windDir": 280,
    "windSpeed": 13,
    "windGust": null,
    "visibility": 6,
    "ceiling": null,
    "temp": 14,
    "dewpoint": 8,
    "altimeter": 30.12,
    "conditions": "",
    "observationTime": "2026-04-13T20:00:00.000Z"
  },
  "LAS": {
    "raw": "METAR KLAS 131956Z 18009G16KT 150V210 10SM FEW070 SCT100 BKN200 19/M03 A2991 RMK AO2 SLP117 T01941028",
    "icao": "KLAS",
    "flightCategory": "VFR",
    "windDir": 180,
    "windSpeed": 9,
    "windGust": 16,
    "visibility": 10,
    "ceiling": 20000,
    "temp": 19.4,
    "dewpoint": -2.8,
    "altimeter": 29.91,
    "conditions": "",
    "observationTime": "2026-04-13T20:00:00.000Z"
  },
  "LAX": {
    "raw": "METAR KLAX 131953Z 27016G22KT 10SM FEW026 FEW065 SCT120 18/08 A3005 RMK AO2 SLP175 T01830083 $",
    "icao": "KLAX",
    "flightCategory": "VFR",
    "windDir": 270,
    "windSpeed": 16,
    "windGust": 22,
    "visibility": 10,
    "ceiling": null,
    "temp": 18.3,
    "dewpoint": 8.3,
    "altimeter": 30.05,
    "conditions": "",
    "observationTime": "2026-04-13T20:00:00.000Z"
  },
  "ORD": {
    "raw": "METAR KORD 131951Z 22008KT 10SM SCT028 BKN043 BKN150 OVC250 23/17 A2990 RMK AO2 SLP121 T02280172",
    "icao": "KORD",
    "flightCategory": "VFR",
    "windDir": 220,
    "windSpeed": 8,
    "windGust": null,
    "visibility": 10,
    "ceiling": 4300,
    "temp": 22.8,
    "dewpoint": 17.2,
    "altimeter": 29.9,
    "conditions": "",
    "observationTime": "2026-04-13T20:00:00.000Z"
  }
}