{
  "SYD": {
    "raw": "METAR YSSY 031400Z AUTO 35009KT 9999 // OVC067 15/07 Q1005",
    "icao": "YSSY",
    "flightCategory": "VFR",
    "windDir": 350,
    "windSpeed": 9,
    "windGust": null,
    "visibility": 6,
    "ceiling": 6700,
    "temp": 15,
    "dewpoint": 7,
    "altimeter": 29.68,
    "conditions": "",
    "observationTime": "2026-06-03T14:00:00.000Z"
  },
  "LHR": {
    "raw": "METAR EGLL 031350Z AUTO 22021KT 9999 SCT012 BKN017 BKN024 17/14 Q0999",
    "icao": "EGLL",
    "flightCategory": "MVFR",
    "windDir": 220,
    "windSpeed": 21,
    "windGust": null,
    "visibility": 6,
    "ceiling": 1700,
    "temp": 17,
    "dewpoint": 14,
    "altimeter": 29.5,
    "conditions": "",
    "observationTime": "2026-06-03T14:00:00.000Z"
  },
  "LAX": {
    "raw": "METAR KLAX 031353Z 00000KT 9SM OVC012 17/13 A2999 RMK AO2 SLP153 T01670128 $",
    "icao": "KLAX",
    "flightCategory": "MVFR",
    "windDir": 0,
    "windSpeed": 0,
    "windGust": null,
    "visibility": 9,
    "ceiling": 1200,
    "temp": 16.7,
    "dewpoint": 12.8,
    "altimeter": 29.99,
    "conditions": "",
    "observationTime": "2026-06-03T14:00:00.000Z"
  },
  "LAS": {
    "raw": "METAR KLAS 031356Z 00000KT 10SM FEW150 BKN250 27/00 A2995 RMK AO2 SLP112 T02670000 $",
    "icao": "KLAS",
    "flightCategory": "VFR",
    "windDir": 0,
    "windSpeed": 0,
    "windGust": null,
    "visibility": 10,
    "ceiling": 25000,
    "temp": 26.7,
    "dewpoint": 0,
    "altimeter": 29.95,
    "conditions": "",
    "observationTime": "2026-06-03T14:00:00.000Z"
  },
  "ORD": {
    "raw": "METAR KORD 031351Z 15003KT 10SM BKN250 21/07 A3035 RMK AO2 SLP277 T02110067",
    "icao": "KORD",
    "flightCategory": "VFR",
    "windDir": 150,
    "windSpeed": 3,
    "windGust": null,
    "visibility": 10,
    "ceiling": 25000,
    "temp": 21.1,
    "dewpoint": 6.7,
    "altimeter": 30.35,
    "conditions": "",
    "observationTime": "2026-06-03T14:00:00.000Z"
  }
}