{
  "LAX": {
    "raw": "METAR KLAX 080153Z 24009KT 10SM SCT009 17/13 A2995 RMK AO2 SLP139 T01720133",
    "icao": "KLAX",
    "flightCategory": "VFR",
    "windDir": 240,
    "windSpeed": 9,
    "windGust": null,
    "visibility": 10,
    "ceiling": null,
    "temp": 17.2,
    "dewpoint": 13.3,
    "altimeter": 29.95,
    "conditions": "",
    "observationTime": "2026-05-08T02:00:00.000Z"
  },
  "ORD": {
    "raw": "METAR KORD 080151Z 20003KT 10SM FEW070 13/02 A2982 RMK AO2 SLP099 T01280022",
    "icao": "KORD",
    "flightCategory": "VFR",
    "windDir": 200,
    "windSpeed": 3,
    "windGust": null,
    "visibility": 10,
    "ceiling": null,
    "temp": 12.8,
    "dewpoint": 2.2,
    "altimeter": 29.82,
    "conditions": "",
    "observationTime": "2026-05-08T02:00:00.000Z"
  },
  "LHR": {
    "raw": "METAR EGLL 080120Z COR AUTO 07002KT 9999 NCD 08/06 Q1016 NOSIG",
    "icao": "EGLL",
    "flightCategory": "VFR",
    "windDir": 70,
    "windSpeed": 2,
    "windGust": null,
    "visibility": 6,
    "ceiling": null,
    "temp": 8,
    "dewpoint": 6,
    "altimeter": 30,
    "conditions": "",
    "observationTime": "2026-05-08T01:20:00.000Z"
  },
  "SYD": {
    "raw": "METAR YSSY 080100Z 27019KT CAVOK 19/05 Q1017",
    "icao": "YSSY",
    "flightCategory": "VFR",
    "windDir": 270,
    "windSpeed": 19,
    "windGust": null,
    "visibility": 6,
    "ceiling": null,
    "temp": 19,
    "dewpoint": 5,
    "altimeter": 30.03,
    "conditions": "",
    "observationTime": "2026-05-08T01:00:00.000Z"
  }
}