{
  "SYD": {
    "raw": "METAR YSSY 311400Z AUTO 29005KT 9999 // SCT028 20/16 Q1023",
    "icao": "YSSY",
    "flightCategory": "VFR",
    "windDir": 290,
    "windSpeed": 5,
    "windGust": null,
    "visibility": 6,
    "ceiling": null,
    "temp": 20,
    "dewpoint": 16,
    "altimeter": 30.21,
    "conditions": "",
    "observationTime": "2026-03-31T14:00:00.000Z"
  },
  "LHR": {
    "raw": "METAR EGLL 311420Z COR AUTO 29005KT 260V350 9999 FEW034 17/10 Q1029 NOSIG",
    "icao": "EGLL",
    "flightCategory": "VFR",
    "windDir": 290,
    "windSpeed": 5,
    "windGust": null,
    "visibility": 6,
    "ceiling": null,
    "temp": 17,
    "dewpoint": 10,
    "altimeter": 30.39,
    "conditions": "",
    "observationTime": "2026-03-31T14:20:00.000Z"
  },
  "ORD": {
    "raw": "SPECI KORD 311413Z 21011G22KT 10SM FEW055 FEW110 SCT190 BKN250 19/13 A2974 RMK AO2 RAE02 TSE07 CB DSNT SE P0000 T01940128",
    "icao": "KORD",
    "flightCategory": "VFR",
    "windDir": 210,
    "windSpeed": 11,
    "windGust": 22,
    "visibility": 10,
    "ceiling": 25000,
    "temp": 19.4,
    "dewpoint": 12.8,
    "altimeter": 29.74,
    "conditions": "",
    "observationTime": "2026-03-31T14:13:00.000Z"
  },
  "LAX": {
    "raw": "METAR KLAX 311353Z 10009KT 10SM SCT022 BKN029 OVC180 18/14 A2995 RMK AO2 SLP141 T01830144",
    "icao": "KLAX",
    "flightCategory": "MVFR",
    "windDir": 100,
    "windSpeed": 9,
    "windGust": null,
    "visibility": 10,
    "ceiling": 2900,
    "temp": 18.3,
    "dewpoint": 14.4,
    "altimeter": 29.95,
    "conditions": "",
    "observationTime": "2026-03-31T14:00:00.000Z"
  },
  "LAS": {
    "raw": "METAR KLAS 311356Z 22012KT 10SM FEW100 BKN160 OVC200 22/M02 A2987 RMK AO2 SLP093 ACSL DSNT SE AND NW T02221017 $",
    "icao": "KLAS",
    "flightCategory": "VFR",
    "windDir": 220,
    "windSpeed": 12,
    "windGust": null,
    "visibility": 10,
    "ceiling": 16000,
    "temp": 22.2,
    "dewpoint": -1.7,
    "altimeter": 29.87,
    "conditions": "",
    "observationTime": "2026-03-31T14:00:00.000Z"
  }
}