{
  "SYD": {
    "raw": "METAR YSSY 301100Z AUTO 04006KT 9999 // NCD 21/13 Q1025",
    "icao": "YSSY",
    "flightCategory": "VFR",
    "windDir": 40,
    "windSpeed": 6,
    "windGust": null,
    "visibility": 6,
    "ceiling": null,
    "temp": 21,
    "dewpoint": 13,
    "altimeter": 30.27,
    "conditions": "",
    "observationTime": "2026-03-30T11:00:00.000Z"
  },
  "LAX": {
    "raw": "SPECI KLAX 301045Z 33003KT 1/8SM R25L/1400V3000FT FG VV001 14/13 A2994 RMK AO2 VIS SE 1/4 T01390133 $",
    "icao": "KLAX",
    "flightCategory": "LIFR",
    "windDir": 330,
    "windSpeed": 3,
    "windGust": null,
    "visibility": 0.13,
    "ceiling": 100,
    "temp": 13.9,
    "dewpoint": 13.3,
    "altimeter": 29.94,
    "conditions": "FG",
    "observationTime": "2026-03-30T10:45:00.000Z"
  },
  "LHR": {
    "raw": "METAR EGLL 301050Z COR AUTO 30011KT 270V340 9999 SCT044 11/02 Q1024 NOSIG",
    "icao": "EGLL",
    "flightCategory": "VFR",
    "windDir": 300,
    "windSpeed": 11,
    "windGust": null,
    "visibility": 6,
    "ceiling": null,
    "temp": 11,
    "dewpoint": 2,
    "altimeter": 30.24,
    "conditions": "",
    "observationTime": "2026-03-30T11:00:00.000Z"
  },
  "LAS": {
    "raw": "METAR KLAS 301056Z 21010G17KT 10SM CLR 23/M11 A2988 RMK AO2 SLP094 T02281111 $",
    "icao": "KLAS",
    "flightCategory": "VFR",
    "windDir": 210,
    "windSpeed": 10,
    "windGust": 17,
    "visibility": 10,
    "ceiling": null,
    "temp": 22.8,
    "dewpoint": -11.1,
    "altimeter": 29.88,
    "conditions": "",
    "observationTime": "2026-03-30T11:00:00.000Z"
  },
  "ORD": {
    "raw": "METAR KORD 301051Z 21008KT 10SM FEW070 FEW250 12/03 A2994 RMK AO2 SLP136 T01170033 $",
    "icao": "KORD",
    "flightCategory": "VFR",
    "windDir": 210,
    "windSpeed": 8,
    "windGust": null,
    "visibility": 10,
    "ceiling": null,
    "temp": 11.7,
    "dewpoint": 3.3,
    "altimeter": 29.94,
    "conditions": "",
    "observationTime": "2026-03-30T11:00:00.000Z"
  }
}