{
  "SYD": {
    "raw": "METAR YSSY 211430Z AUTO 19007KT 9999 // FEW037 OVC053 18/13 Q1026",
    "icao": "YSSY",
    "flightCategory": "VFR",
    "windDir": 190,
    "windSpeed": 7,
    "windGust": null,
    "visibility": 6,
    "ceiling": 5300,
    "temp": 18,
    "dewpoint": 13,
    "altimeter": 30.3,
    "conditions": "",
    "observationTime": "2026-04-21T14:30:00.000Z"
  },
  "LAS": {
    "raw": "METAR KLAS 211456Z 14006KT 10SM FEW220 22/M03 A2991 RMK AO2 SLP107 T02171028 51008",
    "icao": "KLAS",
    "flightCategory": "VFR",
    "windDir": 140,
    "windSpeed": 6,
    "windGust": null,
    "visibility": 10,
    "ceiling": null,
    "temp": 21.7,
    "dewpoint": -2.8,
    "altimeter": 29.91,
    "conditions": "",
    "observationTime": "2026-04-21T15:00:00.000Z"
  },
  "LAX": {
    "raw": "SPECI KLAX 211417Z 09007KT 10SM FEW017 SCT025 BKN160 14/12 A3002 RMK AO2 T01440122 $",
    "icao": "KLAX",
    "flightCategory": "VFR",
    "windDir": 90,
    "windSpeed": 7,
    "windGust": null,
    "visibility": 10,
    "ceiling": 16000,
    "temp": 14.4,
    "dewpoint": 12.2,
    "altimeter": 30.02,
    "conditions": "",
    "observationTime": "2026-04-21T14:17:00.000Z"
  },
  "ORD": {
    "raw": "METAR KORD 211451Z 23015G30KT 10SM FEW180 SCT250 18/06 A2993 RMK AO2 PK WND 22030/1450 SLP134 T01780061 58018 $",
    "icao": "KORD",
    "flightCategory": "VFR",
    "windDir": 230,
    "windSpeed": 15,
    "windGust": 30,
    "visibility": 10,
    "ceiling": null,
    "temp": 17.8,
    "dewpoint": 6.1,
    "altimeter": 29.93,
    "conditions": "",
    "observationTime": "2026-04-21T15:00:00.000Z"
  },
  "LHR": {
    "raw": "METAR EGLL 211420Z COR AUTO 07014KT 050V110 9999 BKN040 BKN049 14/04 Q1024 NOSIG",
    "icao": "EGLL",
    "flightCategory": "VFR",
    "windDir": 70,
    "windSpeed": 14,
    "windGust": null,
    "visibility": 6,
    "ceiling": 4000,
    "temp": 14,
    "dewpoint": 4,
    "altimeter": 30.24,
    "conditions": "",
    "observationTime": "2026-04-21T14:20:00.000Z"
  }
}