{
  "SYD": {
    "raw": "METAR YSSY 130730Z AUTO 05005KT 9999 // NCD 20/08 Q1017",
    "icao": "YSSY",
    "flightCategory": "VFR",
    "windDir": 50,
    "windSpeed": 5,
    "windGust": null,
    "visibility": 6,
    "ceiling": null,
    "temp": 20,
    "dewpoint": 8,
    "altimeter": 30.03,
    "conditions": "",
    "observationTime": "2026-04-13T07:30:00.000Z"
  },
  "LAS": {
    "raw": "METAR KLAS 130756Z 23013G21KT 10SM FEW120 15/M04 A2993 RMK AO2 SLP122 T01501044 402330150",
    "icao": "KLAS",
    "flightCategory": "VFR",
    "windDir": 230,
    "windSpeed": 13,
    "windGust": 21,
    "visibility": 10,
    "ceiling": null,
    "temp": 15,
    "dewpoint": -4.4,
    "altimeter": 29.93,
    "conditions": "",
    "observationTime": "2026-04-13T08:00:00.000Z"
  },
  "LAX": {
    "raw": "METAR KLAX 130753Z VRB05KT 10SM FEW014 FEW028 SCT060 BKN160 15/08 A3005 RMK AO2 SLP175 T01500078 402060144 $",
    "icao": "KLAX",
    "flightCategory": "VFR",
    "windDir": null,
    "windSpeed": 5,
    "windGust": null,
    "visibility": 10,
    "ceiling": 16000,
    "temp": 15,
    "dewpoint": 7.8,
    "altimeter": 30.05,
    "conditions": "",
    "observationTime": "2026-04-13T08:00:00.000Z"
  },
  "ORD": {
    "raw": "SPECI KORD 130722Z 23013G23KT 10SM OVC011 17/16 A2979 RMK AO2 T01720156 $",
    "icao": "KORD",
    "flightCategory": "MVFR",
    "windDir": 230,
    "windSpeed": 13,
    "windGust": 23,
    "visibility": 10,
    "ceiling": 1100,
    "temp": 17.2,
    "dewpoint": 15.6,
    "altimeter": 29.79,
    "conditions": "",
    "observationTime": "2026-04-13T07:22:00.000Z"
  },
  "LHR": {
    "raw": "METAR EGLL 130720Z COR AUTO VRB01KT 9999 NCD 07/05 Q1014 NOSIG",
    "icao": "EGLL",
    "flightCategory": "VFR",
    "windDir": null,
    "windSpeed": 1,
    "windGust": null,
    "visibility": 6,
    "ceiling": null,
    "temp": 7,
    "dewpoint": 5,
    "altimeter": 29.94,
    "conditions": "",
    "observationTime": "2026-04-13T07:20:00.000Z"
  }
}