{
  "LAS": {
    "raw": "METAR KLAS 212056Z 10013G20KT 10SM FEW100 BKN120 BKN190 39/13 A2992 RMK AO2 SLP096 T03890133 58006 $",
    "icao": "KLAS",
    "flightCategory": "VFR",
    "windDir": 100,
    "windSpeed": 13,
    "windGust": 20,
    "visibility": 10,
    "ceiling": 12000,
    "temp": 38.9,
    "dewpoint": 13.3,
    "altimeter": 29.92,
    "conditions": "",
    "observationTime": "2026-07-21T21:00:00.000Z"
  },
  "LAX": {
    "raw": "METAR KLAX 212053Z 25013KT 10SM FEW025 FEW100 SCT190 27/15 A2999 RMK AO2 SLP153 T02670150 57002",
    "icao": "KLAX",
    "flightCategory": "VFR",
    "windDir": 250,
    "windSpeed": 13,
    "windGust": null,
    "visibility": 10,
    "ceiling": null,
    "temp": 26.7,
    "dewpoint": 15,
    "altimeter": 29.99,
    "conditions": "",
    "observationTime": "2026-07-21T21:00:00.000Z"
  },
  "ORD": {
    "raw": "METAR KORD 212051Z 30014G22KT 10SM SCT055 30/15 A2974 RMK AO2 PK WND 33028/1957 SLP064 T03000150 51005 $",
    "icao": "KORD",
    "flightCategory": "VFR",
    "windDir": 300,
    "windSpeed": 14,
    "windGust": 22,
    "visibility": 10,
    "ceiling": null,
    "temp": 30,
    "dewpoint": 15,
    "altimeter": 29.74,
    "conditions": "",
    "observationTime": "2026-07-21T21:00:00.000Z"
  },
  "LHR": {
    "raw": "METAR EGLL 212020Z AUTO 12008KT 9999 NCD 20/12 Q1027",
    "icao": "EGLL",
    "flightCategory": "VFR",
    "windDir": 120,
    "windSpeed": 8,
    "windGust": null,
    "visibility": 6,
    "ceiling": null,
    "temp": 20,
    "dewpoint": 12,
    "altimeter": 30.33,
    "conditions": "",
    "observationTime": "2026-07-21T20:20:00.000Z"
  },
  "SYD": {
    "raw": "METAR YSSY 212030Z 32009KT CAVOK 10/08 Q1023",
    "icao": "YSSY",
    "flightCategory": "VFR",
    "windDir": 320,
    "windSpeed": 9,
    "windGust": null,
    "visibility": 6,
    "ceiling": null,
    "temp": 10,
    "dewpoint": 8,
    "altimeter": 30.21,
    "conditions": "",
    "observationTime": "2026-07-21T20:30:00.000Z"
  }
}