{
  "SYD": {
    "raw": "METAR YSSY 041800Z AUTO 16007KT 120V180 9999 // SCT025 BKN033 OVC059 17/15 Q1024",
    "icao": "YSSY",
    "flightCategory": "VFR",
    "windDir": 160,
    "windSpeed": 7,
    "windGust": null,
    "visibility": 6,
    "ceiling": 3300,
    "temp": 17,
    "dewpoint": 15,
    "altimeter": 30.24,
    "conditions": "",
    "observationTime": "2026-04-04T18:00:00.000Z"
  },
  "LHR": {
    "raw": "METAR EGLL 041750Z COR AUTO 22021KT 9999 SCT028 SCT033 14/08 Q1009 NOSIG",
    "icao": "EGLL",
    "flightCategory": "VFR",
    "windDir": 220,
    "windSpeed": 21,
    "windGust": null,
    "visibility": 6,
    "ceiling": null,
    "temp": 14,
    "dewpoint": 8,
    "altimeter": 29.8,
    "conditions": "",
    "observationTime": "2026-04-04T18:00:00.000Z"
  },
  "ORD": {
    "raw": "METAR KORD 041751Z 25016G25KT 10SM OVC009 08/06 A2985 RMK AO2 PK WND 25027/1738 SLP111 60003 T00780061 10133 20078 51015 $",
    "icao": "KORD",
    "flightCategory": "IFR",
    "windDir": 250,
    "windSpeed": 16,
    "windGust": 25,
    "visibility": 10,
    "ceiling": 900,
    "temp": 7.8,
    "dewpoint": 6.1,
    "altimeter": 29.85,
    "conditions": "",
    "observationTime": "2026-04-04T18:00:00.000Z"
  },
  "LAS": {
    "raw": "METAR KLAS 041756Z 03010G17KT 10SM FEW250 20/M09 A3025 RMK AO2 SLP231 T02001094 10200 20122 58004",
    "icao": "KLAS",
    "flightCategory": "VFR",
    "windDir": 30,
    "windSpeed": 10,
    "windGust": 17,
    "visibility": 10,
    "ceiling": null,
    "temp": 20,
    "dewpoint": -9.4,
    "altimeter": 30.25,
    "conditions": "",
    "observationTime": "2026-04-04T18:00:00.000Z"
  },
  "LAX": {
    "raw": "METAR KLAX 041753Z VRB03KT 10SM FEW260 FEW300 26/M07 A3003 RMK AO2 SLP169 T02611067 10261 20139 51005 $",
    "icao": "KLAX",
    "flightCategory": "VFR",
    "windDir": null,
    "windSpeed": 3,
    "windGust": null,
    "visibility": 10,
    "ceiling": null,
    "temp": 26.1,
    "dewpoint": -6.7,
    "altimeter": 30.03,
    "conditions": "",
    "observationTime": "2026-04-04T18:00:00.000Z"
  }
}