{
  "SYD": {
    "raw": "METAR YSSY 212300Z 21014KT 9999 FEW015 SCT030 16/14 Q1027",
    "icao": "YSSY",
    "flightCategory": "VFR",
    "windDir": 210,
    "windSpeed": 14,
    "windGust": null,
    "visibility": 6,
    "ceiling": null,
    "temp": 16,
    "dewpoint": 14,
    "altimeter": 30.33,
    "conditions": "",
    "observationTime": "2026-05-21T23:00:00.000Z"
  },
  "LHR": {
    "raw": "METAR EGLL 212250Z AUTO 15004KT 9999 NCD 16/09 Q1025",
    "icao": "EGLL",
    "flightCategory": "VFR",
    "windDir": 150,
    "windSpeed": 4,
    "windGust": null,
    "visibility": 6,
    "ceiling": null,
    "temp": 16,
    "dewpoint": 9,
    "altimeter": 30.27,
    "conditions": "",
    "observationTime": "2026-05-21T23:00:00.000Z"
  },
  "LAS": {
    "raw": "METAR KLAS 212256Z 18007KT 10SM FEW120 33/M09 A2976 RMK AO2 SLP055 T03331089",
    "icao": "KLAS",
    "flightCategory": "VFR",
    "windDir": 180,
    "windSpeed": 7,
    "windGust": null,
    "visibility": 10,
    "ceiling": null,
    "temp": 33.3,
    "dewpoint": -8.9,
    "altimeter": 29.76,
    "conditions": "",
    "observationTime": "2026-05-21T23:00:00.000Z"
  },
  "LAX": {
    "raw": "METAR KLAX 212253Z 24010KT 10SM FEW010 FEW090 19/13 A2985 RMK AO2 SLP106 T01940133 $",
    "icao": "KLAX",
    "flightCategory": "VFR",
    "windDir": 240,
    "windSpeed": 10,
    "windGust": null,
    "visibility": 10,
    "ceiling": null,
    "temp": 19.4,
    "dewpoint": 13.3,
    "altimeter": 29.85,
    "conditions": "",
    "observationTime": "2026-05-21T23:00:00.000Z"
  },
  "ORD": {
    "raw": "METAR KORD 212251Z 04016G22KT 10SM FEW130 BKN250 13/04 A3023 RMK AO2 SLP237 T01280039 $",
    "icao": "KORD",
    "flightCategory": "VFR",
    "windDir": 40,
    "windSpeed": 16,
    "windGust": 22,
    "visibility": 10,
    "ceiling": 25000,
    "temp": 12.8,
    "dewpoint": 3.9,
    "altimeter": 30.23,
    "conditions": "",
    "observationTime": "2026-05-21T23:00:00.000Z"
  }
}