{
  "SYD": {
    "raw": "METAR YSSY 152030Z 31003KT 9999 FEW008 SCT280 15/14 Q1025",
    "icao": "YSSY",
    "flightCategory": "VFR",
    "windDir": 310,
    "windSpeed": 3,
    "windGust": null,
    "visibility": 6,
    "ceiling": null,
    "temp": 15,
    "dewpoint": 14,
    "altimeter": 30.27,
    "conditions": "",
    "observationTime": "2026-05-15T20:30:00.000Z"
  },
  "LAS": {
    "raw": "METAR KLAS 152056Z 19010G20KT 10SM FEW120 36/M02 A2977 RMK AO2 SLP049 T03611022 58021",
    "icao": "KLAS",
    "flightCategory": "VFR",
    "windDir": 190,
    "windSpeed": 10,
    "windGust": 20,
    "visibility": 10,
    "ceiling": null,
    "temp": 36.1,
    "dewpoint": -2.2,
    "altimeter": 29.77,
    "conditions": "",
    "observationTime": "2026-05-15T21:00:00.000Z"
  },
  "LAX": {
    "raw": "SPECI KLAX 152032Z 26005KT 10SM OVC027 19/13 A2999 RMK AO2 T01890133",
    "icao": "KLAX",
    "flightCategory": "MVFR",
    "windDir": 260,
    "windSpeed": 5,
    "windGust": null,
    "visibility": 10,
    "ceiling": 2700,
    "temp": 18.9,
    "dewpoint": 13.3,
    "altimeter": 29.99,
    "conditions": "",
    "observationTime": "2026-05-15T20:32:00.000Z"
  },
  "ORD": {
    "raw": "METAR KORD 152051Z 18013G22KT 10SM CLR 23/10 A2984 RMK AO2 SLP101 T02280100 58019",
    "icao": "KORD",
    "flightCategory": "VFR",
    "windDir": 180,
    "windSpeed": 13,
    "windGust": 22,
    "visibility": 10,
    "ceiling": null,
    "temp": 22.8,
    "dewpoint": 10,
    "altimeter": 29.84,
    "conditions": "",
    "observationTime": "2026-05-15T21:00:00.000Z"
  },
  "LHR": {
    "raw": "METAR EGLL 152020Z AUTO 31003KT 9999 NCD 13/M01 Q1008",
    "icao": "EGLL",
    "flightCategory": "VFR",
    "windDir": 310,
    "windSpeed": 3,
    "windGust": null,
    "visibility": 6,
    "ceiling": null,
    "temp": 13,
    "dewpoint": -1,
    "altimeter": 29.77,
    "conditions": "",
    "observationTime": "2026-05-15T20:20:00.000Z"
  }
}