{
  "SYD": {
    "raw": "METAR YSSY 181830Z AUTO 34016KT 9999 // NCD 19/09 Q1012",
    "icao": "YSSY",
    "flightCategory": "VFR",
    "windDir": 340,
    "windSpeed": 16,
    "windGust": null,
    "visibility": 6,
    "ceiling": null,
    "temp": 19,
    "dewpoint": 9,
    "altimeter": 29.88,
    "conditions": "",
    "observationTime": "2026-06-18T18:30:00.000Z"
  },
  "LAS": {
    "raw": "METAR KLAS 181856Z 19012G20KT 10SM FEW150 SCT200 39/M02 A2984 RMK AO2 SLP069 FU SCT200 T03891022",
    "icao": "KLAS",
    "flightCategory": "VFR",
    "windDir": 190,
    "windSpeed": 12,
    "windGust": 20,
    "visibility": 10,
    "ceiling": null,
    "temp": 38.9,
    "dewpoint": -2.2,
    "altimeter": 29.84,
    "conditions": "",
    "observationTime": "2026-06-18T19:00:00.000Z"
  },
  "LAX": {
    "raw": "METAR KLAX 181853Z 27009KT 10SM FEW010 BKN025 BKN031 20/14 A2999 RMK AO2 SLP154 T02000139 $",
    "icao": "KLAX",
    "flightCategory": "MVFR",
    "windDir": 270,
    "windSpeed": 9,
    "windGust": null,
    "visibility": 10,
    "ceiling": 2500,
    "temp": 20,
    "dewpoint": 13.9,
    "altimeter": 29.99,
    "conditions": "",
    "observationTime": "2026-06-18T19:00:00.000Z"
  },
  "ORD": {
    "raw": "METAR KORD 181851Z 31006G16KT 10SM BKN045 22/11 A2976 RMK AO2 SLP075 T02170111",
    "icao": "KORD",
    "flightCategory": "VFR",
    "windDir": 310,
    "windSpeed": 6,
    "windGust": 16,
    "visibility": 10,
    "ceiling": 4500,
    "temp": 21.7,
    "dewpoint": 11.1,
    "altimeter": 29.76,
    "conditions": "",
    "observationTime": "2026-06-18T19:00:00.000Z"
  },
  "LHR": {
    "raw": "METAR EGLL 181820Z AUTO 17008KT 130V230 9999 NCD 24/16 Q1014",
    "icao": "EGLL",
    "flightCategory": "VFR",
    "windDir": 170,
    "windSpeed": 8,
    "windGust": null,
    "visibility": 6,
    "ceiling": null,
    "temp": 24,
    "dewpoint": 16,
    "altimeter": 29.94,
    "conditions": "",
    "observationTime": "2026-06-18T18:20:00.000Z"
  }
}