{
  "LHR": {
    "raw": "METAR EGLL 162150Z AUTO 21009KT 9999 FEW029 BKN035 11/10 Q1008",
    "icao": "EGLL",
    "flightCategory": "VFR",
    "windDir": 210,
    "windSpeed": 9,
    "windGust": null,
    "visibility": 6,
    "ceiling": 3500,
    "temp": 11,
    "dewpoint": 10,
    "altimeter": 29.77,
    "conditions": "",
    "observationTime": "2026-05-16T22:00:00.000Z"
  },
  "SYD": {
    "raw": "METAR YSSY 162200Z 34004KT 9999 FEW017 BKN022 BKN260 18/17 Q1022",
    "icao": "YSSY",
    "flightCategory": "MVFR",
    "windDir": 340,
    "windSpeed": 4,
    "windGust": null,
    "visibility": 6,
    "ceiling": 2200,
    "temp": 18,
    "dewpoint": 17,
    "altimeter": 30.18,
    "conditions": "",
    "observationTime": "2026-05-16T22:00:00.000Z"
  },
  "LAS": {
    "raw": "METAR KLAS 162156Z 19008G17KT 10SM FEW120 FEW200 33/M01 A2962 RMK AO2 SLP003 T03281011",
    "icao": "KLAS",
    "flightCategory": "VFR",
    "windDir": 190,
    "windSpeed": 8,
    "windGust": 17,
    "visibility": 10,
    "ceiling": null,
    "temp": 32.8,
    "dewpoint": -1.1,
    "altimeter": 29.62,
    "conditions": "",
    "observationTime": "2026-05-16T22:00:00.000Z"
  },
  "LAX": {
    "raw": "METAR KLAX 162153Z 24014G22KT 10SM SCT014 SCT037 BKN230 19/13 A2989 RMK AO2 SLP120 T01890133",
    "icao": "KLAX",
    "flightCategory": "VFR",
    "windDir": 240,
    "windSpeed": 14,
    "windGust": 22,
    "visibility": 10,
    "ceiling": 23000,
    "temp": 18.9,
    "dewpoint": 13.3,
    "altimeter": 29.89,
    "conditions": "",
    "observationTime": "2026-05-16T22:00:00.000Z"
  },
  "ORD": {
    "raw": "METAR KORD 162151Z 22008KT 10SM FEW060 BKN250 28/16 A2984 RMK AO2 SLP100 T02780156",
    "icao": "KORD",
    "flightCategory": "VFR",
    "windDir": 220,
    "windSpeed": 8,
    "windGust": null,
    "visibility": 10,
    "ceiling": 25000,
    "temp": 27.8,
    "dewpoint": 15.6,
    "altimeter": 29.84,
    "conditions": "",
    "observationTime": "2026-05-16T22:00:00.000Z"
  }
}