{
  "SYD": {
    "raw": "METAR YSSY 161830Z AUTO 00000KT 9999 // SCT015 BKN032 16/15 Q1021",
    "icao": "YSSY",
    "flightCategory": "VFR",
    "windDir": 0,
    "windSpeed": 0,
    "windGust": null,
    "visibility": 6,
    "ceiling": 3200,
    "temp": 16,
    "dewpoint": 15,
    "altimeter": 30.15,
    "conditions": "",
    "observationTime": "2026-05-16T18:30:00.000Z"
  },
  "LAS": {
    "raw": "METAR KLAS 161856Z 21009G16KT 10SM CLR 31/M04 A2969 RMK AO2 SLP025 T03111044",
    "icao": "KLAS",
    "flightCategory": "VFR",
    "windDir": 210,
    "windSpeed": 9,
    "windGust": 16,
    "visibility": 10,
    "ceiling": null,
    "temp": 31.1,
    "dewpoint": -4.4,
    "altimeter": 29.69,
    "conditions": "",
    "observationTime": "2026-05-16T19:00:00.000Z"
  },
  "LAX": {
    "raw": "METAR KLAX 161853Z 25009KT 10SM FEW022 FEW037 21/13 A2992 RMK AO2 SLP130 T02060128",
    "icao": "KLAX",
    "flightCategory": "VFR",
    "windDir": 250,
    "windSpeed": 9,
    "windGust": null,
    "visibility": 10,
    "ceiling": null,
    "temp": 20.6,
    "dewpoint": 12.8,
    "altimeter": 29.92,
    "conditions": "",
    "observationTime": "2026-05-16T19:00:00.000Z"
  },
  "ORD": {
    "raw": "METAR KORD 161851Z 22008KT 10SM FEW042 BKN250 27/15 A2988 RMK AO2 SLP113 T02720150",
    "icao": "KORD",
    "flightCategory": "VFR",
    "windDir": 220,
    "windSpeed": 8,
    "windGust": null,
    "visibility": 10,
    "ceiling": 25000,
    "temp": 27.2,
    "dewpoint": 15,
    "altimeter": 29.88,
    "conditions": "",
    "observationTime": "2026-05-16T19:00:00.000Z"
  },
  "LHR": {
    "raw": "METAR EGLL 161820Z AUTO 22010G20KT 180V240 9999 -RA NCD 12/09 Q1008",
    "icao": "EGLL",
    "flightCategory": "VFR",
    "windDir": 220,
    "windSpeed": 10,
    "windGust": 20,
    "visibility": 6,
    "ceiling": null,
    "temp": 12,
    "dewpoint": 9,
    "altimeter": 29.77,
    "conditions": "-RA",
    "observationTime": "2026-05-16T18:20:00.000Z"
  }
}