{
  "LAS": {
    "raw": "METAR KLAS 300456Z 23007KT 10SM FEW130 BKN200 27/M11 A2987 RMK AO2 SLP094 T02671111 $",
    "icao": "KLAS",
    "flightCategory": "VFR",
    "windDir": 230,
    "windSpeed": 7,
    "windGust": null,
    "visibility": 10,
    "ceiling": 20000,
    "temp": 26.7,
    "dewpoint": -11.1,
    "altimeter": 29.87,
    "conditions": "",
    "observationTime": "2026-03-30T05:00:00.000Z"
  },
  "LAX": {
    "raw": "SPECI KLAX 300412Z 29007KT 6SM BR OVC006 16/14 A2994 RMK AO2 T01560144 $",
    "icao": "KLAX",
    "flightCategory": "IFR",
    "windDir": 290,
    "windSpeed": 7,
    "windGust": null,
    "visibility": 6,
    "ceiling": 600,
    "temp": 15.6,
    "dewpoint": 14.4,
    "altimeter": 29.94,
    "conditions": "BR",
    "observationTime": "2026-03-30T04:12:00.000Z"
  },
  "ORD": {
    "raw": "METAR KORD 300451Z 18006KT 10SM CLR 12/00 A3000 RMK AO2 SLP158 T01170000 $",
    "icao": "KORD",
    "flightCategory": "VFR",
    "windDir": 180,
    "windSpeed": 6,
    "windGust": null,
    "visibility": 10,
    "ceiling": null,
    "temp": 11.7,
    "dewpoint": 0,
    "altimeter": 30,
    "conditions": "",
    "observationTime": "2026-03-30T05:00:00.000Z"
  },
  "LHR": {
    "raw": "METAR EGLL 300420Z COR AUTO 27007KT 9999 OVC046 05/03 Q1022 NOSIG",
    "icao": "EGLL",
    "flightCategory": "VFR",
    "windDir": 270,
    "windSpeed": 7,
    "windGust": null,
    "visibility": 6,
    "ceiling": 4600,
    "temp": 5,
    "dewpoint": 3,
    "altimeter": 30.18,
    "conditions": "",
    "observationTime": "2026-03-30T04:20:00.000Z"
  },
  "SYD": {
    "raw": "METAR YSSY 300400Z 09011KT 9999 FEW032 24/14 Q1023",
    "icao": "YSSY",
    "flightCategory": "VFR",
    "windDir": 90,
    "windSpeed": 11,
    "windGust": null,
    "visibility": 6,
    "ceiling": null,
    "temp": 24,
    "dewpoint": 14,
    "altimeter": 30.21,
    "conditions": "",
    "observationTime": "2026-03-30T04:00:00.000Z"
  }
}