{
  "SYD": {
    "raw": "METAR YSSY 061300Z AUTO 31005KT 9999 // NCD 13/08 Q1029",
    "icao": "YSSY",
    "flightCategory": "VFR",
    "windDir": 310,
    "windSpeed": 5,
    "windGust": null,
    "visibility": 6,
    "ceiling": null,
    "temp": 13,
    "dewpoint": 8,
    "altimeter": 30.39,
    "conditions": "",
    "observationTime": "2026-06-06T13:00:00.000Z"
  },
  "LHR": {
    "raw": "METAR EGLL 061250Z AUTO 19020KT 9999 -RA BKN016/// BKN022/// OVC029/// //////TCU 15/12 Q1005",
    "icao": "EGLL",
    "flightCategory": "MVFR",
    "windDir": 190,
    "windSpeed": 20,
    "windGust": null,
    "visibility": 6,
    "ceiling": 1600,
    "temp": 15,
    "dewpoint": 12,
    "altimeter": 29.68,
    "conditions": "-RA",
    "observationTime": "2026-06-06T13:00:00.000Z"
  },
  "ORD": {
    "raw": "SPECI KORD 061241Z 27003KT 9SM BKN015 BKN110 23/22 A2985 RMK AO2 T02330217 $",
    "icao": "KORD",
    "flightCategory": "MVFR",
    "windDir": 270,
    "windSpeed": 3,
    "windGust": null,
    "visibility": 9,
    "ceiling": 1500,
    "temp": 23.3,
    "dewpoint": 21.7,
    "altimeter": 29.85,
    "conditions": "",
    "observationTime": "2026-06-06T12:41:00.000Z"
  },
  "LAS": {
    "raw": "METAR KLAS 061256Z 22019G29KT 10SM CLR 28/02 A2972 RMK AO2 PK WND 22029/1251 SLP032 T02780022",
    "icao": "KLAS",
    "flightCategory": "VFR",
    "windDir": 220,
    "windSpeed": 19,
    "windGust": 29,
    "visibility": 10,
    "ceiling": null,
    "temp": 27.8,
    "dewpoint": 2.2,
    "altimeter": 29.72,
    "conditions": "",
    "observationTime": "2026-06-06T13:00:00.000Z"
  },
  "LAX": {
    "raw": "METAR KLAX 061253Z 18005KT 10SM FEW012 OVC019 18/14 A2985 RMK AO2 SLP105 T01830139 $",
    "icao": "KLAX",
    "flightCategory": "MVFR",
    "windDir": 180,
    "windSpeed": 5,
    "windGust": null,
    "visibility": 10,
    "ceiling": 1900,
    "temp": 18.3,
    "dewpoint": 13.9,
    "altimeter": 29.85,
    "conditions": "",
    "observationTime": "2026-06-06T13:00:00.000Z"
  }
}