{
  "SYD": {
    "raw": "METAR YSSY 040800Z AUTO 02010KT 9999 // BKN105 OVC125 22/16 Q1014",
    "icao": "YSSY",
    "flightCategory": "VFR",
    "windDir": 20,
    "windSpeed": 10,
    "windGust": null,
    "visibility": 6,
    "ceiling": 10500,
    "temp": 22,
    "dewpoint": 16,
    "altimeter": 29.94,
    "conditions": "",
    "observationTime": "2026-05-04T08:00:00.000Z"
  },
  "LHR": {
    "raw": "METAR EGLL 040750Z AUTO 03007KT 340V060 9999 BKN008 12/10 Q1014 BECMG BKN010",
    "icao": "EGLL",
    "flightCategory": "IFR",
    "windDir": 30,
    "windSpeed": 7,
    "windGust": null,
    "visibility": 6,
    "ceiling": 800,
    "temp": 12,
    "dewpoint": 10,
    "altimeter": 29.94,
    "conditions": "",
    "observationTime": "2026-05-04T08:00:00.000Z"
  },
  "LAS": {
    "raw": "METAR KLAS 040756Z 19008G18KT 10SM FEW100 FEW150 BKN200 23/M02 A2974 RMK AO2 SLP046 T02331017 403280172",
    "icao": "KLAS",
    "flightCategory": "VFR",
    "windDir": 190,
    "windSpeed": 8,
    "windGust": 18,
    "visibility": 10,
    "ceiling": 20000,
    "temp": 23.3,
    "dewpoint": -1.7,
    "altimeter": 29.74,
    "conditions": "",
    "observationTime": "2026-05-04T08:00:00.000Z"
  },
  "LAX": {
    "raw": "METAR KLAX 040753Z 27011KT 10SM FEW020 BKN060 16/10 A2999 RMK AO2 SLP152 T01560100 401940150",
    "icao": "KLAX",
    "flightCategory": "VFR",
    "windDir": 270,
    "windSpeed": 11,
    "windGust": null,
    "visibility": 10,
    "ceiling": 6000,
    "temp": 15.6,
    "dewpoint": 10,
    "altimeter": 29.99,
    "conditions": "",
    "observationTime": "2026-05-04T08:00:00.000Z"
  },
  "ORD": {
    "raw": "METAR KORD 040751Z 22005KT 10SM CLR 12/06 A2964 RMK AO2 SLP035 T01170056 $",
    "icao": "KORD",
    "flightCategory": "VFR",
    "windDir": 220,
    "windSpeed": 5,
    "windGust": null,
    "visibility": 10,
    "ceiling": null,
    "temp": 11.7,
    "dewpoint": 5.6,
    "altimeter": 29.64,
    "conditions": "",
    "observationTime": "2026-05-04T08:00:00.000Z"
  }
}