{
  "SYD": {
    "raw": "METAR YSSY 161230Z AUTO 31005KT 9999 // NCD 20/16 Q1014",
    "icao": "YSSY",
    "flightCategory": "VFR",
    "windDir": 310,
    "windSpeed": 5,
    "windGust": null,
    "visibility": 6,
    "ceiling": null,
    "temp": 20,
    "dewpoint": 16,
    "altimeter": 29.94,
    "conditions": "",
    "observationTime": "2026-04-16T12:30:00.000Z"
  },
  "LAS": {
    "raw": "METAR KLAS 161256Z 17007G15KT 10SM SCT200 BKN250 18/01 A2982 RMK AO2 SLP080 T01830006",
    "icao": "KLAS",
    "flightCategory": "VFR",
    "windDir": 170,
    "windSpeed": 7,
    "windGust": 15,
    "visibility": 10,
    "ceiling": 25000,
    "temp": 18.3,
    "dewpoint": 0.6,
    "altimeter": 29.82,
    "conditions": "",
    "observationTime": "2026-04-16T13:00:00.000Z"
  },
  "LAX": {
    "raw": "METAR KLAX 161253Z 24003KT 10SM FEW009 FEW012 BKN200 BKN250 15/13 A2991 RMK AO2 SLP127 T01500128",
    "icao": "KLAX",
    "flightCategory": "VFR",
    "windDir": 240,
    "windSpeed": 3,
    "windGust": null,
    "visibility": 10,
    "ceiling": 20000,
    "temp": 15,
    "dewpoint": 12.8,
    "altimeter": 29.91,
    "conditions": "",
    "observationTime": "2026-04-16T13:00:00.000Z"
  },
  "ORD": {
    "raw": "SPECI KORD 161218Z 20009KT 10SM OVC013 16/14 A2973 RMK AO2 T01610144 $",
    "icao": "KORD",
    "flightCategory": "MVFR",
    "windDir": 200,
    "windSpeed": 9,
    "windGust": null,
    "visibility": 10,
    "ceiling": 1300,
    "temp": 16.1,
    "dewpoint": 14.4,
    "altimeter": 29.73,
    "conditions": "",
    "observationTime": "2026-04-16T12:18:00.000Z"
  },
  "LHR": {
    "raw": "METAR EGLL 161220Z COR AUTO 24013KT 9999 FEW041 16/07 Q1019 NOSIG",
    "icao": "EGLL",
    "flightCategory": "VFR",
    "windDir": 240,
    "windSpeed": 13,
    "windGust": null,
    "visibility": 6,
    "ceiling": null,
    "temp": 16,
    "dewpoint": 7,
    "altimeter": 30.09,
    "conditions": "",
    "observationTime": "2026-04-16T12:20:00.000Z"
  }
}