{
  "LAS": {
    "raw": "METAR KLAS 060056Z 16010G14KT 10SM FEW120 FEW250 24/M02 A2978 RMK AO2 SLP068 T02391017",
    "icao": "KLAS",
    "flightCategory": "VFR",
    "windDir": 160,
    "windSpeed": 10,
    "windGust": 14,
    "visibility": 10,
    "ceiling": null,
    "temp": 23.9,
    "dewpoint": -1.7,
    "altimeter": 29.78,
    "conditions": "",
    "observationTime": "2026-05-06T01:00:00.000Z"
  },
  "LAX": {
    "raw": "METAR KLAX 060053Z 26008KT 10SM FEW010 FEW060 SCT075 17/08 A2996 RMK AO2 SLP143 T01720083",
    "icao": "KLAX",
    "flightCategory": "VFR",
    "windDir": 260,
    "windSpeed": 8,
    "windGust": null,
    "visibility": 10,
    "ceiling": null,
    "temp": 17.2,
    "dewpoint": 8.3,
    "altimeter": 29.96,
    "conditions": "",
    "observationTime": "2026-05-06T01:00:00.000Z"
  },
  "ORD": {
    "raw": "METAR KORD 060051Z 31009KT 10SM BKN120 BKN170 OVC250 12/M04 A2977 RMK AO2 SLP083 T01221039",
    "icao": "KORD",
    "flightCategory": "VFR",
    "windDir": 310,
    "windSpeed": 9,
    "windGust": null,
    "visibility": 10,
    "ceiling": 12000,
    "temp": 12.2,
    "dewpoint": -3.9,
    "altimeter": 29.77,
    "conditions": "",
    "observationTime": "2026-05-06T01:00:00.000Z"
  },
  "LHR": {
    "raw": "METAR EGLL 060020Z COR AUTO 04007KT 010V080 9999 FEW021 11/06 Q1013 NOSIG",
    "icao": "EGLL",
    "flightCategory": "VFR",
    "windDir": 40,
    "windSpeed": 7,
    "windGust": null,
    "visibility": 6,
    "ceiling": null,
    "temp": 11,
    "dewpoint": 6,
    "altimeter": 29.91,
    "conditions": "",
    "observationTime": "2026-05-06T00:20:00.000Z"
  },
  "SYD": {
    "raw": "METAR YSSY 060030Z AUTO 31006KT 9999 // NCD 22/10 Q1020",
    "icao": "YSSY",
    "flightCategory": "VFR",
    "windDir": 310,
    "windSpeed": 6,
    "windGust": null,
    "visibility": 6,
    "ceiling": null,
    "temp": 22,
    "dewpoint": 10,
    "altimeter": 30.12,
    "conditions": "",
    "observationTime": "2026-05-06T00:30:00.000Z"
  }
}