{
  "SYD": {
    "raw": "METAR YSSY 170000Z 33005KT CAVOK 17/12 Q1027",
    "icao": "YSSY",
    "flightCategory": "VFR",
    "windDir": 330,
    "windSpeed": 5,
    "windGust": null,
    "visibility": 6,
    "ceiling": null,
    "temp": 17,
    "dewpoint": 12,
    "altimeter": 30.33,
    "conditions": "",
    "observationTime": "2026-06-17T00:00:00.000Z"
  },
  "LHR": {
    "raw": "METAR EGLL 170020Z AUTO 22007KT 9999 NCD 17/14 Q1016",
    "icao": "EGLL",
    "flightCategory": "VFR",
    "windDir": 220,
    "windSpeed": 7,
    "windGust": null,
    "visibility": 6,
    "ceiling": null,
    "temp": 17,
    "dewpoint": 14,
    "altimeter": 30,
    "conditions": "",
    "observationTime": "2026-06-17T00:20:00.000Z"
  },
  "LAS": {
    "raw": "METAR KLAS 162356Z 20008G18KT 10SM FEW130 SCT200 42/00 A2977 RMK AO2 SLP047 FU SCT200 T04170000 10428 20383 56021",
    "icao": "KLAS",
    "flightCategory": "VFR",
    "windDir": 200,
    "windSpeed": 8,
    "windGust": 18,
    "visibility": 10,
    "ceiling": null,
    "temp": 41.7,
    "dewpoint": 0,
    "altimeter": 29.77,
    "conditions": "",
    "observationTime": "2026-06-17T00:00:00.000Z"
  },
  "LAX": {
    "raw": "METAR KLAX 162353Z 27014KT 10SM BKN011 BKN090 19/15 A2993 RMK AO2 SLP133 TCU DSNT E T01940150 10211 20194 57014 $",
    "icao": "KLAX",
    "flightCategory": "MVFR",
    "windDir": 270,
    "windSpeed": 14,
    "windGust": null,
    "visibility": 10,
    "ceiling": 1100,
    "temp": 19.4,
    "dewpoint": 15,
    "altimeter": 29.93,
    "conditions": "",
    "observationTime": "2026-06-17T00:00:00.000Z"
  }
}