{
  "SYD": {
    "raw": "METAR YSSY 231930Z 33004KT 9999 FEW030 BKN052 15/15 Q1024",
    "icao": "YSSY",
    "flightCategory": "VFR",
    "windDir": 330,
    "windSpeed": 4,
    "windGust": null,
    "visibility": 6,
    "ceiling": 5200,
    "temp": 15,
    "dewpoint": 15,
    "altimeter": 30.24,
    "conditions": "",
    "observationTime": "2026-05-23T19:30:00.000Z"
  },
  "LAS": {
    "raw": "METAR KLAS 231956Z VRB06G15KT 10SM FEW200 33/M06 A2988 RMK AO2 SLP089 T03331056",
    "icao": "KLAS",
    "flightCategory": "VFR",
    "windDir": null,
    "windSpeed": 6,
    "windGust": 15,
    "visibility": 10,
    "ceiling": null,
    "temp": 33.3,
    "dewpoint": -5.6,
    "altimeter": 29.88,
    "conditions": "",
    "observationTime": "2026-05-23T20:00:00.000Z"
  },
  "LAX": {
    "raw": "METAR KLAX 231953Z 26011KT 10SM BKN027 19/13 A2998 RMK AO2 SLP153 T01940128",
    "icao": "KLAX",
    "flightCategory": "MVFR",
    "windDir": 260,
    "windSpeed": 11,
    "windGust": null,
    "visibility": 10,
    "ceiling": 2700,
    "temp": 19.4,
    "dewpoint": 12.8,
    "altimeter": 29.98,
    "conditions": "",
    "observationTime": "2026-05-23T20:00:00.000Z"
  },
  "ORD": {
    "raw": "METAR KORD 231951Z 05006KT 10SM FEW019 FEW060 SCT250 21/14 A2996 RMK AO2 SLP145 T02110139",
    "icao": "KORD",
    "flightCategory": "VFR",
    "windDir": 50,
    "windSpeed": 6,
    "windGust": null,
    "visibility": 10,
    "ceiling": null,
    "temp": 21.1,
    "dewpoint": 13.9,
    "altimeter": 29.96,
    "conditions": "",
    "observationTime": "2026-05-23T20:00:00.000Z"
  },
  "LHR": {
    "raw": "METAR EGLL 231920Z AUTO 30006KT 270V330 9999 NCD 26/12 Q1027",
    "icao": "EGLL",
    "flightCategory": "VFR",
    "windDir": 300,
    "windSpeed": 6,
    "windGust": null,
    "visibility": 6,
    "ceiling": null,
    "temp": 26,
    "dewpoint": 12,
    "altimeter": 30.33,
    "conditions": "",
    "observationTime": "2026-05-23T19:20:00.000Z"
  }
}