{
  "SYD": {
    "raw": "METAR YSSY 021700Z AUTO 31006KT 9999 // NCD 19/15 Q1022",
    "icao": "YSSY",
    "flightCategory": "VFR",
    "windDir": 310,
    "windSpeed": 6,
    "windGust": null,
    "visibility": 6,
    "ceiling": null,
    "temp": 19,
    "dewpoint": 15,
    "altimeter": 30.18,
    "conditions": "",
    "observationTime": "2026-05-02T17:00:00.000Z"
  },
  "LHR": {
    "raw": "METAR EGLL 021650Z AUTO 20010KT 6000 -RA //////CB 15/12 Q1013 TEMPO 4000 +SHRA",
    "icao": "EGLL",
    "flightCategory": "UNKNOWN",
    "windDir": 200,
    "windSpeed": 10,
    "windGust": null,
    "visibility": 3.73,
    "ceiling": null,
    "temp": 15,
    "dewpoint": 12,
    "altimeter": 29.91,
    "conditions": "-RA",
    "observationTime": "2026-05-02T17:00:00.000Z"
  },
  "LAS": {
    "raw": "METAR KLAS 021656Z 07006KT 10SM BKN250 25/M09 A3004 RMK AO2 SLP152 T02501089",
    "icao": "KLAS",
    "flightCategory": "VFR",
    "windDir": 70,
    "windSpeed": 6,
    "windGust": null,
    "visibility": 10,
    "ceiling": 25000,
    "temp": 25,
    "dewpoint": -8.9,
    "altimeter": 30.04,
    "conditions": "",
    "observationTime": "2026-05-02T17:00:00.000Z"
  },
  "LAX": {
    "raw": "METAR KLAX 021653Z 00000KT 7SM OVC012 17/13 A2998 RMK AO2 SLP152 T01670133",
    "icao": "KLAX",
    "flightCategory": "MVFR",
    "windDir": 0,
    "windSpeed": 0,
    "windGust": null,
    "visibility": 7,
    "ceiling": 1200,
    "temp": 16.7,
    "dewpoint": 13.3,
    "altimeter": 29.98,
    "conditions": "",
    "observationTime": "2026-05-02T17:00:00.000Z"
  },
  "ORD": {
    "raw": "METAR KORD 021651Z 29009G16KT 10SM SCT065 11/M05 A3010 RMK AO2 SLP196 T01061050 $",
    "icao": "KORD",
    "flightCategory": "VFR",
    "windDir": 290,
    "windSpeed": 9,
    "windGust": 16,
    "visibility": 10,
    "ceiling": null,
    "temp": 10.6,
    "dewpoint": -5,
    "altimeter": 30.1,
    "conditions": "",
    "observationTime": "2026-05-02T17:00:00.000Z"
  }
}