{
  "SYD": {
    "raw": "METAR YSSY 250030Z 27004KT 230V330 9999 FEW030 21/15 Q1031",
    "icao": "YSSY",
    "flightCategory": "VFR",
    "windDir": 270,
    "windSpeed": 4,
    "windGust": null,
    "visibility": 6,
    "ceiling": null,
    "temp": 21,
    "dewpoint": 15,
    "altimeter": 30.45,
    "conditions": "",
    "observationTime": "2026-04-25T00:30:00.000Z"
  },
  "LAS": {
    "raw": "METAR KLAS 250056Z 22012G23KT 10SM FEW140 BKN170 BKN200 27/M13 A2969 RMK AO2 PK WND 25027/0006 SLP034 T02671133",
    "icao": "KLAS",
    "flightCategory": "VFR",
    "windDir": 220,
    "windSpeed": 12,
    "windGust": 23,
    "visibility": 10,
    "ceiling": 17000,
    "temp": 26.7,
    "dewpoint": -13.3,
    "altimeter": 29.69,
    "conditions": "",
    "observationTime": "2026-04-25T01:00:00.000Z"
  },
  "LAX": {
    "raw": "METAR KLAX 250053Z 26009KT 10SM FEW012 FEW080 SCT160 SCT270 18/13 A2986 RMK AO2 SLP110 T01780128 $",
    "icao": "KLAX",
    "flightCategory": "VFR",
    "windDir": 260,
    "windSpeed": 9,
    "windGust": null,
    "visibility": 10,
    "ceiling": null,
    "temp": 17.8,
    "dewpoint": 12.8,
    "altimeter": 29.86,
    "conditions": "",
    "observationTime": "2026-04-25T01:00:00.000Z"
  },
  "ORD": {
    "raw": "METAR KORD 250051Z 30006KT 10SM FEW043 BKN250 19/11 A2975 RMK AO2 SLP072 T01940106",
    "icao": "KORD",
    "flightCategory": "VFR",
    "windDir": 300,
    "windSpeed": 6,
    "windGust": null,
    "visibility": 10,
    "ceiling": 25000,
    "temp": 19.4,
    "dewpoint": 10.6,
    "altimeter": 29.75,
    "conditions": "",
    "observationTime": "2026-04-25T01:00:00.000Z"
  },
  "LHR": {
    "raw": "METAR EGLL 250020Z COR AUTO 08002KT 9999 NCD 07/03 Q1023 NOSIG",
    "icao": "EGLL",
    "flightCategory": "VFR",
    "windDir": 80,
    "windSpeed": 2,
    "windGust": null,
    "visibility": 6,
    "ceiling": null,
    "temp": 7,
    "dewpoint": 3,
    "altimeter": 30.21,
    "conditions": "",
    "observationTime": "2026-04-25T00:20:00.000Z"
  }
}