{
  "SYD": {
    "raw": "METAR YSSY 122300Z 28004KT 250V310 CAVOK 15/04 Q1019",
    "icao": "YSSY",
    "flightCategory": "VFR",
    "windDir": 280,
    "windSpeed": 4,
    "windGust": null,
    "visibility": 6,
    "ceiling": null,
    "temp": 15,
    "dewpoint": 4,
    "altimeter": 30.09,
    "conditions": "",
    "observationTime": "2026-07-12T23:00:00.000Z"
  },
  "LHR": {
    "raw": "METAR EGLL 122250Z AUTO 06013KT 9999 NCD 20/09 Q1024",
    "icao": "EGLL",
    "flightCategory": "VFR",
    "windDir": 60,
    "windSpeed": 13,
    "windGust": null,
    "visibility": 6,
    "ceiling": null,
    "temp": 20,
    "dewpoint": 9,
    "altimeter": 30.24,
    "conditions": "",
    "observationTime": "2026-07-12T23:00:00.000Z"
  },
  "LAS": {
    "raw": "METAR KLAS 122256Z 19008KT 10SM FEW130 SCT180 BKN250 41/10 A2987 RMK AO2 SLP080 T04060100 $",
    "icao": "KLAS",
    "flightCategory": "VFR",
    "windDir": 190,
    "windSpeed": 8,
    "windGust": null,
    "visibility": 10,
    "ceiling": 25000,
    "temp": 40.6,
    "dewpoint": 10,
    "altimeter": 29.87,
    "conditions": "",
    "observationTime": "2026-07-12T23:00:00.000Z"
  },
  "LAX": {
    "raw": "METAR KLAX 122253Z 28008KT 10SM FEW012 FEW090 SCT120 OVC180 22/18 A2992 RMK AO2 SLP129 T02170178 $",
    "icao": "KLAX",
    "flightCategory": "VFR",
    "windDir": 280,
    "windSpeed": 8,
    "windGust": null,
    "visibility": 10,
    "ceiling": 18000,
    "temp": 21.7,
    "dewpoint": 17.8,
    "altimeter": 29.92,
    "conditions": "",
    "observationTime": "2026-07-12T23:00:00.000Z"
  },
  "ORD": {
    "raw": "METAR KORD 122251Z 06006KT 10SM CLR 29/13 A3015 RMK AO2 SLP206 T02890133 $",
    "icao": "KORD",
    "flightCategory": "VFR",
    "windDir": 60,
    "windSpeed": 6,
    "windGust": null,
    "visibility": 10,
    "ceiling": null,
    "temp": 28.9,
    "dewpoint": 13.3,
    "altimeter": 30.15,
    "conditions": "",
    "observationTime": "2026-07-12T23:00:00.000Z"
  }
}