{
  "LAX": {
    "raw": "METAR KLAX 242253Z 25013KT 10SM FEW012 FEW025 SCT060 21/14 A2997 RMK AO2 SLP147 T02060144 $",
    "icao": "KLAX",
    "flightCategory": "VFR",
    "windDir": 250,
    "windSpeed": 13,
    "windGust": null,
    "visibility": 10,
    "ceiling": null,
    "temp": 20.6,
    "dewpoint": 14.4,
    "altimeter": 29.97,
    "conditions": "",
    "observationTime": "2026-06-24T23:00:00.000Z"
  },
  "ORD": {
    "raw": "SPECI KORD 242211Z 13008KT 10SM BKN060 BKN130 BKN250 21/17 A2996 RMK AO2 T02060167 $",
    "icao": "KORD",
    "flightCategory": "VFR",
    "windDir": 130,
    "windSpeed": 8,
    "windGust": null,
    "visibility": 10,
    "ceiling": 6000,
    "temp": 20.6,
    "dewpoint": 16.7,
    "altimeter": 29.96,
    "conditions": "",
    "observationTime": "2026-06-24T22:11:00.000Z"
  },
  "LHR": {
    "raw": "METAR EGLL 242220Z AUTO 08005KT 9999 NCD 25/19 Q1019",
    "icao": "EGLL",
    "flightCategory": "VFR",
    "windDir": 80,
    "windSpeed": 5,
    "windGust": null,
    "visibility": 6,
    "ceiling": null,
    "temp": 25,
    "dewpoint": 19,
    "altimeter": 30.09,
    "conditions": "",
    "observationTime": "2026-06-24T22:20:00.000Z"
  },
  "SYD": {
    "raw": "SPECI YSSY 242200Z 17011KT 4000 SHRA SCT012 SCT020 BKN030 14/11 Q1033",
    "icao": "YSSY",
    "flightCategory": "IFR",
    "windDir": 170,
    "windSpeed": 11,
    "windGust": null,
    "visibility": 2.49,
    "ceiling": 3000,
    "temp": 14,
    "dewpoint": 11,
    "altimeter": 30.5,
    "conditions": "SHRA",
    "observationTime": "2026-06-24T22:00:00.000Z"
  },
  "LAS": {
    "raw": "METAR KLAS 242156Z 05009KT 10SM SCT085 SCT120 BKN200 35/12 A2995 RMK AO2 SLP110 VIRGA DSNT E-S T03500122",
    "icao": "KLAS",
    "flightCategory": "VFR",
    "windDir": 50,
    "windSpeed": 9,
    "windGust": null,
    "visibility": 10,
    "ceiling": 20000,
    "temp": 35,
    "dewpoint": 12.2,
    "altimeter": 29.95,
    "conditions": "",
    "observationTime": "2026-06-24T22:00:00.000Z"
  }
}