{
  "LHR": {
    "raw": "METAR EGLL 091050Z COR AUTO 28011KT 9999 NCD 20/10 Q1017 NOSIG",
    "icao": "EGLL",
    "flightCategory": "VFR",
    "windDir": 280,
    "windSpeed": 11,
    "windGust": null,
    "visibility": 6,
    "ceiling": null,
    "temp": 20,
    "dewpoint": 10,
    "altimeter": 30.03,
    "conditions": "",
    "observationTime": "2026-04-09T11:00:00.000Z"
  },
  "SYD": {
    "raw": "METAR YSSY 091100Z AUTO 02009KT 9999 // NCD 25/20 Q1014",
    "icao": "YSSY",
    "flightCategory": "VFR",
    "windDir": 20,
    "windSpeed": 9,
    "windGust": null,
    "visibility": 6,
    "ceiling": null,
    "temp": 25,
    "dewpoint": 20,
    "altimeter": 29.94,
    "conditions": "",
    "observationTime": "2026-04-09T11:00:00.000Z"
  },
  "LAS": {
    "raw": "METAR KLAS 091056Z 19007KT 10SM BKN250 23/M03 A2982 RMK AO2 SLP074 T02281033",
    "icao": "KLAS",
    "flightCategory": "VFR",
    "windDir": 190,
    "windSpeed": 7,
    "windGust": null,
    "visibility": 10,
    "ceiling": 25000,
    "temp": 22.8,
    "dewpoint": -3.3,
    "altimeter": 29.82,
    "conditions": "",
    "observationTime": "2026-04-09T11:00:00.000Z"
  },
  "LAX": {
    "raw": "METAR KLAX 091053Z 06003KT 10SM FEW011 BKN250 16/14 A2991 RMK AO2 SLP126 T01610139 $",
    "icao": "KLAX",
    "flightCategory": "VFR",
    "windDir": 60,
    "windSpeed": 3,
    "windGust": null,
    "visibility": 10,
    "ceiling": 25000,
    "temp": 16.1,
    "dewpoint": 13.9,
    "altimeter": 29.91,
    "conditions": "",
    "observationTime": "2026-04-09T11:00:00.000Z"
  },
  "ORD": {
    "raw": "METAR KORD 091051Z 23003KT 10SM BKN100 OVC120 13/07 A3007 RMK AO2 SLP180 T01330072 $",
    "icao": "KORD",
    "flightCategory": "VFR",
    "windDir": 230,
    "windSpeed": 3,
    "windGust": null,
    "visibility": 10,
    "ceiling": 10000,
    "temp": 13.3,
    "dewpoint": 7.2,
    "altimeter": 30.07,
    "conditions": "",
    "observationTime": "2026-04-09T11:00:00.000Z"
  }
}