{
  "SYD": {
    "raw": "METAR YSSY 211230Z AUTO 16015KT 9999 // OVC052 18/12 Q1026",
    "icao": "YSSY",
    "flightCategory": "VFR",
    "windDir": 160,
    "windSpeed": 15,
    "windGust": null,
    "visibility": 6,
    "ceiling": 5200,
    "temp": 18,
    "dewpoint": 12,
    "altimeter": 30.3,
    "conditions": "",
    "observationTime": "2026-04-21T12:30:00.000Z"
  },
  "LAS": {
    "raw": "METAR KLAS 211256Z 18006KT 10SM FEW200 BKN250 21/M02 A2989 RMK AO2 SLP101 T02061022",
    "icao": "KLAS",
    "flightCategory": "VFR",
    "windDir": 180,
    "windSpeed": 6,
    "windGust": null,
    "visibility": 10,
    "ceiling": 25000,
    "temp": 20.6,
    "dewpoint": -2.2,
    "altimeter": 29.89,
    "conditions": "",
    "observationTime": "2026-04-21T13:00:00.000Z"
  },
  "LAX": {
    "raw": "METAR KLAX 211253Z 08004KT 10SM FEW010 FEW019 SCT070 SCT160 14/12 A3001 RMK AO2 SLP159 T01390117 $",
    "icao": "KLAX",
    "flightCategory": "VFR",
    "windDir": 80,
    "windSpeed": 4,
    "windGust": null,
    "visibility": 10,
    "ceiling": null,
    "temp": 13.9,
    "dewpoint": 11.7,
    "altimeter": 30.01,
    "conditions": "",
    "observationTime": "2026-04-21T13:00:00.000Z"
  },
  "ORD": {
    "raw": "METAR KORD 211251Z 21009KT 10SM SCT180 BKN250 13/04 A2997 RMK AO2 SLP149 T01280044 $",
    "icao": "KORD",
    "flightCategory": "VFR",
    "windDir": 210,
    "windSpeed": 9,
    "windGust": null,
    "visibility": 10,
    "ceiling": 25000,
    "temp": 12.8,
    "dewpoint": 4.4,
    "altimeter": 29.97,
    "conditions": "",
    "observationTime": "2026-04-21T13:00:00.000Z"
  },
  "LHR": {
    "raw": "METAR EGLL 211220Z COR AUTO 08014KT 9999 BKN044 13/03 Q1025 NOSIG",
    "icao": "EGLL",
    "flightCategory": "VFR",
    "windDir": 80,
    "windSpeed": 14,
    "windGust": null,
    "visibility": 6,
    "ceiling": 4400,
    "temp": 13,
    "dewpoint": 3,
    "altimeter": 30.27,
    "conditions": "",
    "observationTime": "2026-04-21T12:20:00.000Z"
  }
}