{
  "SYD": {
    "raw": "METAR YSSY 300430Z 08013KT 9999 VCSH FEW025 SCT100 23/16 Q1028",
    "icao": "YSSY",
    "flightCategory": "VFR",
    "windDir": 80,
    "windSpeed": 13,
    "windGust": null,
    "visibility": 6,
    "ceiling": null,
    "temp": 23,
    "dewpoint": 16,
    "altimeter": 30.36,
    "conditions": "VCSH",
    "observationTime": "2026-04-30T04:30:00.000Z"
  },
  "LAS": {
    "raw": "METAR KLAS 300456Z 23004KT 10SM FEW120 23/M03 A2992 RMK AO2 SLP115 T02331028",
    "icao": "KLAS",
    "flightCategory": "VFR",
    "windDir": 230,
    "windSpeed": 4,
    "windGust": null,
    "visibility": 10,
    "ceiling": null,
    "temp": 23.3,
    "dewpoint": -2.8,
    "altimeter": 29.92,
    "conditions": "",
    "observationTime": "2026-04-30T05:00:00.000Z"
  },
  "LAX": {
    "raw": "METAR KLAX 300453Z 25005KT 10SM CLR 16/13 A2999 RMK AO2 SLP155 T01610133",
    "icao": "KLAX",
    "flightCategory": "VFR",
    "windDir": 250,
    "windSpeed": 5,
    "windGust": null,
    "visibility": 10,
    "ceiling": null,
    "temp": 16.1,
    "dewpoint": 13.3,
    "altimeter": 29.99,
    "conditions": "",
    "observationTime": "2026-04-30T05:00:00.000Z"
  },
  "ORD": {
    "raw": "METAR KORD 300451Z 00000KT 10SM FEW090 05/04 A3002 RMK AO2 SLP167 T00500039",
    "icao": "KORD",
    "flightCategory": "VFR",
    "windDir": 0,
    "windSpeed": 0,
    "windGust": null,
    "visibility": 10,
    "ceiling": null,
    "temp": 5,
    "dewpoint": 3.9,
    "altimeter": 30.02,
    "conditions": "",
    "observationTime": "2026-04-30T05:00:00.000Z"
  },
  "LHR": {
    "raw": "METAR EGLL 300420Z COR AUTO 08008KT 9999 NCD 11/04 Q1022 NOSIG",
    "icao": "EGLL",
    "flightCategory": "VFR",
    "windDir": 80,
    "windSpeed": 8,
    "windGust": null,
    "visibility": 6,
    "ceiling": null,
    "temp": 11,
    "dewpoint": 4,
    "altimeter": 30.18,
    "conditions": "",
    "observationTime": "2026-04-30T04:20:00.000Z"
  }
}