{
  "LHR": {
    "raw": "METAR EGLL 300750Z AUTO 22003KT 170V280 9999 NCD 18/12 Q1023",
    "icao": "EGLL",
    "flightCategory": "VFR",
    "windDir": 220,
    "windSpeed": 3,
    "windGust": null,
    "visibility": 6,
    "ceiling": null,
    "temp": 18,
    "dewpoint": 12,
    "altimeter": 30.21,
    "conditions": "",
    "observationTime": "2026-06-30T08:00:00.000Z"
  },
  "SYD": {
    "raw": "METAR YSSY 300730Z AUTO 03011KT 9999 // OVC115 18/12 Q1018",
    "icao": "YSSY",
    "flightCategory": "VFR",
    "windDir": 30,
    "windSpeed": 11,
    "windGust": null,
    "visibility": 6,
    "ceiling": 11500,
    "temp": 18,
    "dewpoint": 12,
    "altimeter": 30.06,
    "conditions": "",
    "observationTime": "2026-06-30T07:30:00.000Z"
  },
  "LAS": {
    "raw": "METAR KLAS 300756Z 18005KT 10SM CLR 28/M04 A2974 RMK AO2 SLP045 T02781044 403390217",
    "icao": "KLAS",
    "flightCategory": "VFR",
    "windDir": 180,
    "windSpeed": 5,
    "windGust": null,
    "visibility": 10,
    "ceiling": null,
    "temp": 27.8,
    "dewpoint": -4.4,
    "altimeter": 29.74,
    "conditions": "",
    "observationTime": "2026-06-30T08:00:00.000Z"
  },
  "LAX": {
    "raw": "METAR KLAX 300753Z 26008KT 10SM FEW016 BKN022 18/14 A2992 RMK AO2 SLP131 T01830144 402280167 $",
    "icao": "KLAX",
    "flightCategory": "MVFR",
    "windDir": 260,
    "windSpeed": 8,
    "windGust": null,
    "visibility": 10,
    "ceiling": 2200,
    "temp": 18.3,
    "dewpoint": 14.4,
    "altimeter": 29.92,
    "conditions": "",
    "observationTime": "2026-06-30T08:00:00.000Z"
  },
  "ORD": {
    "raw": "METAR KORD 300751Z 21009KT 10SM CLR 27/24 A2991 RMK AO2 SLP122 T02670239 $",
    "icao": "KORD",
    "flightCategory": "VFR",
    "windDir": 210,
    "windSpeed": 9,
    "windGust": null,
    "visibility": 10,
    "ceiling": null,
    "temp": 26.7,
    "dewpoint": 23.9,
    "altimeter": 29.91,
    "conditions": "",
    "observationTime": "2026-06-30T08:00:00.000Z"
  }
}