{
  "SYD": {
    "raw": "METAR YSSY 060700Z AUTO 08009KT 9999 // NCD 20/14 Q1016",
    "icao": "YSSY",
    "flightCategory": "VFR",
    "windDir": 80,
    "windSpeed": 9,
    "windGust": null,
    "visibility": 6,
    "ceiling": null,
    "temp": 20,
    "dewpoint": 14,
    "altimeter": 30,
    "conditions": "",
    "observationTime": "2026-05-06T07:00:00.000Z"
  },
  "LHR": {
    "raw": "METAR EGLL 060650Z COR AUTO 36006KT 310V030 9999 OVC020 09/04 Q1013 NOSIG",
    "icao": "EGLL",
    "flightCategory": "MVFR",
    "windDir": 360,
    "windSpeed": 6,
    "windGust": null,
    "visibility": 6,
    "ceiling": 2000,
    "temp": 9,
    "dewpoint": 4,
    "altimeter": 29.91,
    "conditions": "",
    "observationTime": "2026-05-06T07:00:00.000Z"
  },
  "LAS": {
    "raw": "METAR KLAS 060656Z 20006KT 10SM FEW250 19/M01 A2989 RMK AO2 SLP104 T01941011",
    "icao": "KLAS",
    "flightCategory": "VFR",
    "windDir": 200,
    "windSpeed": 6,
    "windGust": null,
    "visibility": 10,
    "ceiling": null,
    "temp": 19.4,
    "dewpoint": -1.1,
    "altimeter": 29.89,
    "conditions": "",
    "observationTime": "2026-05-06T07:00:00.000Z"
  },
  "LAX": {
    "raw": "METAR KLAX 060653Z 19007KT 10SM FEW020 FEW050 SCT150 16/12 A3004 RMK AO2 SLP172 T01560122",
    "icao": "KLAX",
    "flightCategory": "VFR",
    "windDir": 190,
    "windSpeed": 7,
    "windGust": null,
    "visibility": 10,
    "ceiling": null,
    "temp": 15.6,
    "dewpoint": 12.2,
    "altimeter": 30.04,
    "conditions": "",
    "observationTime": "2026-05-06T07:00:00.000Z"
  },
  "ORD": {
    "raw": "METAR KORD 060651Z 02009KT 10SM FEW140 SCT250 08/M02 A2984 RMK AO2 SLP107 T00831017",
    "icao": "KORD",
    "flightCategory": "VFR",
    "windDir": 20,
    "windSpeed": 9,
    "windGust": null,
    "visibility": 10,
    "ceiling": null,
    "temp": 8.3,
    "dewpoint": -1.7,
    "altimeter": 29.84,
    "conditions": "",
    "observationTime": "2026-05-06T07:00:00.000Z"
  }
}