{
  "SYD": {
    "raw": "METAR YSSY 300900Z AUTO 04005KT 9999 // OVC087 21/14 Q1029",
    "icao": "YSSY",
    "flightCategory": "VFR",
    "windDir": 40,
    "windSpeed": 5,
    "windGust": null,
    "visibility": 6,
    "ceiling": 8700,
    "temp": 21,
    "dewpoint": 14,
    "altimeter": 30.39,
    "conditions": "",
    "observationTime": "2026-04-30T09:00:00.000Z"
  },
  "LHR": {
    "raw": "METAR EGLL 300920Z COR AUTO 09013KT 9999 NCD 17/03 Q1022 NOSIG",
    "icao": "EGLL",
    "flightCategory": "VFR",
    "windDir": 90,
    "windSpeed": 13,
    "windGust": null,
    "visibility": 6,
    "ceiling": null,
    "temp": 17,
    "dewpoint": 3,
    "altimeter": 30.18,
    "conditions": "",
    "observationTime": "2026-04-30T09:20:00.000Z"
  },
  "LAS": {
    "raw": "METAR KLAS 300856Z 23005KT 10SM CLR 18/M06 A2991 RMK AO2 SLP109 T01831061 58005",
    "icao": "KLAS",
    "flightCategory": "VFR",
    "windDir": 230,
    "windSpeed": 5,
    "windGust": null,
    "visibility": 10,
    "ceiling": null,
    "temp": 18.3,
    "dewpoint": -6.1,
    "altimeter": 29.91,
    "conditions": "",
    "observationTime": "2026-04-30T09:00:00.000Z"
  },
  "LAX": {
    "raw": "METAR KLAX 300853Z 25007KT 10SM FEW009 BKN012 16/13 A2996 RMK AO2 SLP144 T01610133 56008",
    "icao": "KLAX",
    "flightCategory": "MVFR",
    "windDir": 250,
    "windSpeed": 7,
    "windGust": null,
    "visibility": 10,
    "ceiling": 1200,
    "temp": 16.1,
    "dewpoint": 13.3,
    "altimeter": 29.96,
    "conditions": "",
    "observationTime": "2026-04-30T09:00:00.000Z"
  },
  "ORD": {
    "raw": "METAR KORD 300851Z 21003KT 10SM CLR 04/03 A3001 RMK AO2 SLP165 T00390028 55004",
    "icao": "KORD",
    "flightCategory": "VFR",
    "windDir": 210,
    "windSpeed": 3,
    "windGust": null,
    "visibility": 10,
    "ceiling": null,
    "temp": 3.9,
    "dewpoint": 2.8,
    "altimeter": 30.01,
    "conditions": "",
    "observationTime": "2026-04-30T09:00:00.000Z"
  }
}