{
  "ORD": {
    "raw": "SPECI KORD 181143Z 27013G23KT 10SM OVC017 08/04 A2973 RMK AO2 T00830044 $",
    "icao": "KORD",
    "flightCategory": "MVFR",
    "windDir": 270,
    "windSpeed": 13,
    "windGust": 23,
    "visibility": 10,
    "ceiling": 1700,
    "temp": 8.3,
    "dewpoint": 4.4,
    "altimeter": 29.73,
    "conditions": "",
    "observationTime": "2026-04-18T11:43:00.000Z"
  },
  "LHR": {
    "raw": "METAR EGLL 181120Z COR AUTO 31006KT 9999 FEW038 SCT044 15/05 Q1022 NOSIG",
    "icao": "EGLL",
    "flightCategory": "VFR",
    "windDir": 310,
    "windSpeed": 6,
    "windGust": null,
    "visibility": 6,
    "ceiling": null,
    "temp": 15,
    "dewpoint": 5,
    "altimeter": 30.18,
    "conditions": "",
    "observationTime": "2026-04-18T11:20:00.000Z"
  },
  "SYD": {
    "raw": "METAR YSSY 181100Z AUTO 26009KT 9999 // NCD 15/08 Q1020",
    "icao": "YSSY",
    "flightCategory": "VFR",
    "windDir": 260,
    "windSpeed": 9,
    "windGust": null,
    "visibility": 6,
    "ceiling": null,
    "temp": 15,
    "dewpoint": 8,
    "altimeter": 30.12,
    "conditions": "",
    "observationTime": "2026-04-18T11:00:00.000Z"
  },
  "LAS": {
    "raw": "METAR KLAS 181056Z 00000KT 10SM CLR 11/M16 A3009 RMK AO2 SLP180 T01111161",
    "icao": "KLAS",
    "flightCategory": "VFR",
    "windDir": 0,
    "windSpeed": 0,
    "windGust": null,
    "visibility": 10,
    "ceiling": null,
    "temp": 11.1,
    "dewpoint": -16.1,
    "altimeter": 30.09,
    "conditions": "",
    "observationTime": "2026-04-18T11:00:00.000Z"
  }
}