{
  "LHR": {
    "raw": "METAR EGLL 250550Z COR AUTO VRB02KT 9999 NCD 04/02 Q1022 NOSIG",
    "icao": "EGLL",
    "flightCategory": "VFR",
    "windDir": null,
    "windSpeed": 2,
    "windGust": null,
    "visibility": 6,
    "ceiling": null,
    "temp": 4,
    "dewpoint": 2,
    "altimeter": 30.18,
    "conditions": "",
    "observationTime": "2026-04-25T06:00:00.000Z"
  },
  "SYD": {
    "raw": "METAR YSSY 250600Z 05015KT 9999 FEW037 24/14 Q1027",
    "icao": "YSSY",
    "flightCategory": "VFR",
    "windDir": 50,
    "windSpeed": 15,
    "windGust": null,
    "visibility": 6,
    "ceiling": null,
    "temp": 24,
    "dewpoint": 14,
    "altimeter": 30.33,
    "conditions": "",
    "observationTime": "2026-04-25T06:00:00.000Z"
  },
  "LAS": {
    "raw": "METAR KLAS 250556Z 24012KT 10SM CLR 23/M05 A2970 RMK AO2 SLP039 T02281050 10272 20228 51007",
    "icao": "KLAS",
    "flightCategory": "VFR",
    "windDir": 240,
    "windSpeed": 12,
    "windGust": null,
    "visibility": 10,
    "ceiling": null,
    "temp": 22.8,
    "dewpoint": -5,
    "altimeter": 29.7,
    "conditions": "",
    "observationTime": "2026-04-25T06:00:00.000Z"
  },
  "LAX": {
    "raw": "METAR KLAX 250553Z 23008KT 10SM FEW012 FEW220 SCT280 16/12 A2990 RMK AO2 SLP121 T01560122 10194 20156 50012 $",
    "icao": "KLAX",
    "flightCategory": "VFR",
    "windDir": 230,
    "windSpeed": 8,
    "windGust": null,
    "visibility": 10,
    "ceiling": null,
    "temp": 15.6,
    "dewpoint": 12.2,
    "altimeter": 29.9,
    "conditions": "",
    "observationTime": "2026-04-25T06:00:00.000Z"
  },
  "ORD": {
    "raw": "SPECI KORD 250538Z 03013KT 10SM SCT009 SCT250 09/06 A2986 RMK AO2 T00940061",
    "icao": "KORD",
    "flightCategory": "VFR",
    "windDir": 30,
    "windSpeed": 13,
    "windGust": null,
    "visibility": 10,
    "ceiling": null,
    "temp": 9.4,
    "dewpoint": 6.1,
    "altimeter": 29.86,
    "conditions": "",
    "observationTime": "2026-04-25T05:38:00.000Z"
  }
}