{
  "LAS": {
    "raw": "METAR KLAS 011956Z 04007G16KT 10SM FEW130 28/M07 A2996 RMK AO2 SLP122 T02781067",
    "icao": "KLAS",
    "flightCategory": "VFR",
    "windDir": 40,
    "windSpeed": 7,
    "windGust": 16,
    "visibility": 10,
    "ceiling": null,
    "temp": 27.8,
    "dewpoint": -6.7,
    "altimeter": 29.96,
    "conditions": "",
    "observationTime": "2026-05-01T20:00:00.000Z"
  },
  "SYD": {
    "raw": "METAR YSSY 011930Z 32004KT 9999 FEW035 BKN055 18/16 Q1025",
    "icao": "YSSY",
    "flightCategory": "VFR",
    "windDir": 320,
    "windSpeed": 4,
    "windGust": null,
    "visibility": 6,
    "ceiling": 5500,
    "temp": 18,
    "dewpoint": 16,
    "altimeter": 30.27,
    "conditions": "",
    "observationTime": "2026-05-01T19:30:00.000Z"
  },
  "LAX": {
    "raw": "METAR KLAX 011953Z 24011KT 10SM FEW030 FEW070 21/13 A2995 RMK AO2 SLP139 T02060128",
    "icao": "KLAX",
    "flightCategory": "VFR",
    "windDir": 240,
    "windSpeed": 11,
    "windGust": null,
    "visibility": 10,
    "ceiling": null,
    "temp": 20.6,
    "dewpoint": 12.8,
    "altimeter": 29.95,
    "conditions": "",
    "observationTime": "2026-05-01T20:00:00.000Z"
  },
  "ORD": {
    "raw": "METAR KORD 011951Z 04009KT 10SM FEW060 SCT070 OVC090 07/00 A3004 RMK AO2 SLP176 VCSH T00720000 $",
    "icao": "KORD",
    "flightCategory": "VFR",
    "windDir": 40,
    "windSpeed": 9,
    "windGust": null,
    "visibility": 10,
    "ceiling": 9000,
    "temp": 7.2,
    "dewpoint": 0,
    "altimeter": 30.04,
    "conditions": "",
    "observationTime": "2026-05-01T20:00:00.000Z"
  },
  "LHR": {
    "raw": "METAR EGLL 011920Z COR AUTO 23010KT 9999 NCD 19/11 Q1019 NOSIG",
    "icao": "EGLL",
    "flightCategory": "VFR",
    "windDir": 230,
    "windSpeed": 10,
    "windGust": null,
    "visibility": 6,
    "ceiling": null,
    "temp": 19,
    "dewpoint": 11,
    "altimeter": 30.09,
    "conditions": "",
    "observationTime": "2026-05-01T19:20:00.000Z"
  }
}