{
  "SYD": {
    "raw": "METAR YSSY 091500Z AUTO 29009KT 9999 // SCT064 10/09 Q1027",
    "icao": "YSSY",
    "flightCategory": "VFR",
    "windDir": 290,
    "windSpeed": 9,
    "windGust": null,
    "visibility": 6,
    "ceiling": null,
    "temp": 10,
    "dewpoint": 9,
    "altimeter": 30.33,
    "conditions": "",
    "observationTime": "2026-07-09T15:00:00.000Z"
  },
  "LHR": {
    "raw": "METAR EGLL 091450Z AUTO VRB05KT 9999 NCD 34/13 Q1016",
    "icao": "EGLL",
    "flightCategory": "VFR",
    "windDir": null,
    "windSpeed": 5,
    "windGust": null,
    "visibility": 6,
    "ceiling": null,
    "temp": 34,
    "dewpoint": 13,
    "altimeter": 30,
    "conditions": "",
    "observationTime": "2026-07-09T15:00:00.000Z"
  },
  "LAS": {
    "raw": "METAR KLAS 091456Z 29005KT 10SM CLR 32/M03 A2989 RMK AO2 SLP088 T03221033 51016",
    "icao": "KLAS",
    "flightCategory": "VFR",
    "windDir": 290,
    "windSpeed": 5,
    "windGust": null,
    "visibility": 10,
    "ceiling": null,
    "temp": 32.2,
    "dewpoint": -3.3,
    "altimeter": 29.89,
    "conditions": "",
    "observationTime": "2026-07-09T15:00:00.000Z"
  },
  "LAX": {
    "raw": "METAR KLAX 091453Z 00000KT 6SM HZ FEW009 FEW018 20/17 A2989 RMK AO2 SLP117 T02000167 53003 $",
    "icao": "KLAX",
    "flightCategory": "VFR",
    "windDir": 0,
    "windSpeed": 0,
    "windGust": null,
    "visibility": 6,
    "ceiling": null,
    "temp": 20,
    "dewpoint": 16.7,
    "altimeter": 29.89,
    "conditions": "HZ",
    "observationTime": "2026-07-09T15:00:00.000Z"
  },
  "ORD": {
    "raw": "METAR KORD 091451Z 24007KT 10SM FEW070 SCT130 BKN160 OVC250 27/20 A2989 RMK AO2 SLP116 T02720200 50000 $",
    "icao": "KORD",
    "flightCategory": "VFR",
    "windDir": 240,
    "windSpeed": 7,
    "windGust": null,
    "visibility": 10,
    "ceiling": 16000,
    "temp": 27.2,
    "dewpoint": 20,
    "altimeter": 29.89,
    "conditions": "",
    "observationTime": "2026-07-09T15:00:00.000Z"
  }
}