{
  "SYD": {
    "raw": "METAR YSSY 230400Z 18014KT 9999 -SHRA FEW012 BKN022 BKN030 18/16 Q1025",
    "icao": "YSSY",
    "flightCategory": "MVFR",
    "windDir": 180,
    "windSpeed": 14,
    "windGust": null,
    "visibility": 6,
    "ceiling": 2200,
    "temp": 18,
    "dewpoint": 16,
    "altimeter": 30.27,
    "conditions": "-SHRA",
    "observationTime": "2026-05-23T04:00:00.000Z"
  },
  "LAS": {
    "raw": "METAR KLAS 230356Z 16009G19KT 10SM FEW150 31/M06 A2973 RMK AO2 SLP041 T03111061",
    "icao": "KLAS",
    "flightCategory": "VFR",
    "windDir": 160,
    "windSpeed": 9,
    "windGust": 19,
    "visibility": 10,
    "ceiling": null,
    "temp": 31.1,
    "dewpoint": -6.1,
    "altimeter": 29.73,
    "conditions": "",
    "observationTime": "2026-05-23T04:00:00.000Z"
  },
  "LHR": {
    "raw": "METAR EGLL 230350Z AUTO 28004KT 240V310 9999 NCD 18/14 Q1024",
    "icao": "EGLL",
    "flightCategory": "VFR",
    "windDir": 280,
    "windSpeed": 4,
    "windGust": null,
    "visibility": 6,
    "ceiling": null,
    "temp": 18,
    "dewpoint": 14,
    "altimeter": 30.24,
    "conditions": "",
    "observationTime": "2026-05-23T04:00:00.000Z"
  },
  "LAX": {
    "raw": "METAR KLAX 230353Z 26007KT 10SM SCT014 16/12 A2989 RMK AO2 SLP121 T01560122",
    "icao": "KLAX",
    "flightCategory": "VFR",
    "windDir": 260,
    "windSpeed": 7,
    "windGust": null,
    "visibility": 10,
    "ceiling": null,
    "temp": 15.6,
    "dewpoint": 12.2,
    "altimeter": 29.89,
    "conditions": "",
    "observationTime": "2026-05-23T04:00:00.000Z"
  },
  "ORD": {
    "raw": "METAR KORD 230351Z 09007KT 10SM BKN035 OVC042 17/10 A2998 RMK AO2 SLP152 T01720100",
    "icao": "KORD",
    "flightCategory": "VFR",
    "windDir": 90,
    "windSpeed": 7,
    "windGust": null,
    "visibility": 10,
    "ceiling": 3500,
    "temp": 17.2,
    "dewpoint": 10,
    "altimeter": 29.98,
    "conditions": "",
    "observationTime": "2026-05-23T04:00:00.000Z"
  }
}