{
  "LHR": {
    "raw": "METAR EGLL 060950Z COR AUTO 01008KT 320V050 9999 FEW035 13/02 Q1013 NOSIG",
    "icao": "EGLL",
    "flightCategory": "VFR",
    "windDir": 10,
    "windSpeed": 8,
    "windGust": null,
    "visibility": 6,
    "ceiling": null,
    "temp": 13,
    "dewpoint": 2,
    "altimeter": 29.91,
    "conditions": "",
    "observationTime": "2026-05-06T10:00:00.000Z"
  },
  "SYD": {
    "raw": "METAR YSSY 060930Z AUTO 03004KT 9999 // NCD 19/14 Q1016",
    "icao": "YSSY",
    "flightCategory": "VFR",
    "windDir": 30,
    "windSpeed": 4,
    "windGust": null,
    "visibility": 6,
    "ceiling": null,
    "temp": 19,
    "dewpoint": 14,
    "altimeter": 30,
    "conditions": "",
    "observationTime": "2026-05-06T09:30:00.000Z"
  },
  "LAS": {
    "raw": "METAR KLAS 060956Z 20007KT 10SM FEW220 18/01 A2990 RMK AO2 SLP107 T01830011",
    "icao": "KLAS",
    "flightCategory": "VFR",
    "windDir": 200,
    "windSpeed": 7,
    "windGust": null,
    "visibility": 10,
    "ceiling": null,
    "temp": 18.3,
    "dewpoint": 1.1,
    "altimeter": 29.9,
    "conditions": "",
    "observationTime": "2026-05-06T10:00:00.000Z"
  },
  "LAX": {
    "raw": "METAR KLAX 060953Z 08004KT 10SM FEW020 14/11 A3004 RMK AO2 SLP171 T01440111",
    "icao": "KLAX",
    "flightCategory": "VFR",
    "windDir": 80,
    "windSpeed": 4,
    "windGust": null,
    "visibility": 10,
    "ceiling": null,
    "temp": 14.4,
    "dewpoint": 11.1,
    "altimeter": 30.04,
    "conditions": "",
    "observationTime": "2026-05-06T10:00:00.000Z"
  },
  "ORD": {
    "raw": "METAR KORD 060951Z 36003KT 10SM FEW110 BKN210 06/M02 A2986 RMK AO2 SLP115 T00561022 $",
    "icao": "KORD",
    "flightCategory": "VFR",
    "windDir": 360,
    "windSpeed": 3,
    "windGust": null,
    "visibility": 10,
    "ceiling": 21000,
    "temp": 5.6,
    "dewpoint": -2.2,
    "altimeter": 29.86,
    "conditions": "",
    "observationTime": "2026-05-06T10:00:00.000Z"
  }
}