{
  "LHR": {
    "raw": "METAR EGLL 220450Z COR AUTO 05006KT 9999 NCD 06/04 Q1025 NOSIG",
    "icao": "EGLL",
    "flightCategory": "VFR",
    "windDir": 50,
    "windSpeed": 6,
    "windGust": null,
    "visibility": 6,
    "ceiling": null,
    "temp": 6,
    "dewpoint": 4,
    "altimeter": 30.27,
    "conditions": "",
    "observationTime": "2026-04-22T05:00:00.000Z"
  },
  "SYD": {
    "raw": "METAR YSSY 220500Z 16012KT 9999 FEW037 20/12 Q1026",
    "icao": "YSSY",
    "flightCategory": "VFR",
    "windDir": 160,
    "windSpeed": 12,
    "windGust": null,
    "visibility": 6,
    "ceiling": null,
    "temp": 20,
    "dewpoint": 12,
    "altimeter": 30.3,
    "conditions": "",
    "observationTime": "2026-04-22T05:00:00.000Z"
  },
  "LAS": {
    "raw": "METAR KLAS 220456Z 23015G30KT 10SM FEW120 19/02 A2989 RMK AO2 PK WND 20030/0432 SLP103 T01940022",
    "icao": "KLAS",
    "flightCategory": "VFR",
    "windDir": 230,
    "windSpeed": 15,
    "windGust": 30,
    "visibility": 10,
    "ceiling": null,
    "temp": 19.4,
    "dewpoint": 2.2,
    "altimeter": 29.89,
    "conditions": "",
    "observationTime": "2026-04-22T05:00:00.000Z"
  },
  "LAX": {
    "raw": "METAR KLAX 220453Z 27010KT 10SM FEW018 16/12 A3010 RMK AO2 SLP191 T01610117 $",
    "icao": "KLAX",
    "flightCategory": "VFR",
    "windDir": 270,
    "windSpeed": 10,
    "windGust": null,
    "visibility": 10,
    "ceiling": null,
    "temp": 16.1,
    "dewpoint": 11.7,
    "altimeter": 30.1,
    "conditions": "",
    "observationTime": "2026-04-22T05:00:00.000Z"
  },
  "ORD": {
    "raw": "METAR KORD 220451Z 24006KT 10SM CLR 18/12 A2988 RMK AO2 SLP115 T01830122 $",
    "icao": "KORD",
    "flightCategory": "VFR",
    "windDir": 240,
    "windSpeed": 6,
    "windGust": null,
    "visibility": 10,
    "ceiling": null,
    "temp": 18.3,
    "dewpoint": 12.2,
    "altimeter": 29.88,
    "conditions": "",
    "observationTime": "2026-04-22T05:00:00.000Z"
  }
}