{
  "SYD": {
    "raw": "METAR YSSY 091600Z AUTO 32003KT 9999 // FEW088 SCT100 14/12 Q1028",
    "icao": "YSSY",
    "flightCategory": "VFR",
    "windDir": 320,
    "windSpeed": 3,
    "windGust": null,
    "visibility": 6,
    "ceiling": null,
    "temp": 14,
    "dewpoint": 12,
    "altimeter": 30.36,
    "conditions": "",
    "observationTime": "2026-06-09T16:00:00.000Z"
  },
  "LHR": {
    "raw": "METAR EGLL 091550Z AUTO 26022KT 9999 NCD 19/03 Q1014",
    "icao": "EGLL",
    "flightCategory": "VFR",
    "windDir": 260,
    "windSpeed": 22,
    "windGust": null,
    "visibility": 6,
    "ceiling": null,
    "temp": 19,
    "dewpoint": 3,
    "altimeter": 29.94,
    "conditions": "",
    "observationTime": "2026-06-09T16:00:00.000Z"
  },
  "ORD": {
    "raw": "METAR KORD 091551Z 20009KT 10SM BKN013 BKN025 26/23 A2991 RMK AO2 SLP123 T02560228",
    "icao": "KORD",
    "flightCategory": "MVFR",
    "windDir": 200,
    "windSpeed": 9,
    "windGust": null,
    "visibility": 10,
    "ceiling": 1300,
    "temp": 25.6,
    "dewpoint": 22.8,
    "altimeter": 29.91,
    "conditions": "",
    "observationTime": "2026-06-09T16:00:00.000Z"
  },
  "LAS": {
    "raw": "METAR KLAS 091556Z 19007KT 150V220 10SM CLR 28/M02 A2984 RMK AO2 SLP077 T02831017",
    "icao": "KLAS",
    "flightCategory": "VFR",
    "windDir": 190,
    "windSpeed": 7,
    "windGust": null,
    "visibility": 10,
    "ceiling": null,
    "temp": 28.3,
    "dewpoint": -1.7,
    "altimeter": 29.84,
    "conditions": "",
    "observationTime": "2026-06-09T16:00:00.000Z"
  },
  "LAX": {
    "raw": "METAR KLAX 091553Z 24006KT 10SM SCT014 19/14 A2991 RMK AO2 SLP126 T01940144 $",
    "icao": "KLAX",
    "flightCategory": "VFR",
    "windDir": 240,
    "windSpeed": 6,
    "windGust": null,
    "visibility": 10,
    "ceiling": null,
    "temp": 19.4,
    "dewpoint": 14.4,
    "altimeter": 29.91,
    "conditions": "",
    "observationTime": "2026-06-09T16:00:00.000Z"
  }
}