{
  "SYD": {
    "raw": "METAR YSSY 300500Z 08009KT 9999 FEW033 24/13 Q1023",
    "icao": "YSSY",
    "flightCategory": "VFR",
    "windDir": 80,
    "windSpeed": 9,
    "windGust": null,
    "visibility": 6,
    "ceiling": null,
    "temp": 24,
    "dewpoint": 13,
    "altimeter": 30.21,
    "conditions": "",
    "observationTime": "2026-03-30T05:00:00.000Z"
  },
  "LAX": {
    "raw": "METAR KLAX 300453Z 26005KT 7SM BKN005 15/14 A2995 RMK AO2 SLP141 T01500139 $",
    "icao": "KLAX",
    "flightCategory": "IFR",
    "windDir": 260,
    "windSpeed": 5,
    "windGust": null,
    "visibility": 7,
    "ceiling": 500,
    "temp": 15,
    "dewpoint": 13.9,
    "altimeter": 29.95,
    "conditions": "",
    "observationTime": "2026-03-30T05:00:00.000Z"
  },
  "LHR": {
    "raw": "METAR EGLL 300450Z COR AUTO 25009KT 9999 BKN043 07/04 Q1021 NOSIG",
    "icao": "EGLL",
    "flightCategory": "VFR",
    "windDir": 250,
    "windSpeed": 9,
    "windGust": null,
    "visibility": 6,
    "ceiling": 4300,
    "temp": 7,
    "dewpoint": 4,
    "altimeter": 30.15,
    "conditions": "",
    "observationTime": "2026-03-30T05:00:00.000Z"
  },
  "LAS": {
    "raw": "METAR KLAS 300456Z 23007KT 10SM FEW130 BKN200 27/M11 A2987 RMK AO2 SLP094 T02671111 $",
    "icao": "KLAS",
    "flightCategory": "VFR",
    "windDir": 230,
    "windSpeed": 7,
    "windGust": null,
    "visibility": 10,
    "ceiling": 20000,
    "temp": 26.7,
    "dewpoint": -11.1,
    "altimeter": 29.87,
    "conditions": "",
    "observationTime": "2026-03-30T05:00:00.000Z"
  },
  "ORD": {
    "raw": "METAR KORD 300451Z 18006KT 10SM CLR 12/00 A3000 RMK AO2 SLP158 T01170000 $",
    "icao": "KORD",
    "flightCategory": "VFR",
    "windDir": 180,
    "windSpeed": 6,
    "windGust": null,
    "visibility": 10,
    "ceiling": null,
    "temp": 11.7,
    "dewpoint": 0,
    "altimeter": 30,
    "conditions": "",
    "observationTime": "2026-03-30T05:00:00.000Z"
  }
}