{
  "LAS": {
    "raw": "METAR KLAS 291656Z 00000KT 10SM FEW120 21/M01 A3005 RMK AO2 SLP158 T02111006",
    "icao": "KLAS",
    "flightCategory": "VFR",
    "windDir": 0,
    "windSpeed": 0,
    "windGust": null,
    "visibility": 10,
    "ceiling": null,
    "temp": 21.1,
    "dewpoint": -0.6,
    "altimeter": 30.05,
    "conditions": "",
    "observationTime": "2026-04-29T17:00:00.000Z"
  },
  "LAX": {
    "raw": "METAR KLAX 291653Z 00000KT 10SM CLR 19/09 A3003 RMK AO2 SLP169 T01890094",
    "icao": "KLAX",
    "flightCategory": "VFR",
    "windDir": 0,
    "windSpeed": 0,
    "windGust": null,
    "visibility": 10,
    "ceiling": null,
    "temp": 18.9,
    "dewpoint": 9.4,
    "altimeter": 30.03,
    "conditions": "",
    "observationTime": "2026-04-29T17:00:00.000Z"
  },
  "ORD": {
    "raw": "METAR KORD 291651Z 02010KT 10SM BKN030 BKN043 OVC090 12/07 A2991 RMK AO2 SLP130 T01170067",
    "icao": "KORD",
    "flightCategory": "MVFR",
    "windDir": 20,
    "windSpeed": 10,
    "windGust": null,
    "visibility": 10,
    "ceiling": 3000,
    "temp": 11.7,
    "dewpoint": 6.7,
    "altimeter": 29.91,
    "conditions": "",
    "observationTime": "2026-04-29T17:00:00.000Z"
  },
  "LHR": {
    "raw": "METAR EGLL 291620Z COR AUTO 06018G29KT 9999 NCD 16/00 Q1022 NOSIG",
    "icao": "EGLL",
    "flightCategory": "VFR",
    "windDir": 60,
    "windSpeed": 18,
    "windGust": 29,
    "visibility": 6,
    "ceiling": null,
    "temp": 16,
    "dewpoint": 0,
    "altimeter": 30.18,
    "conditions": "",
    "observationTime": "2026-04-29T16:20:00.000Z"
  },
  "SYD": {
    "raw": "METAR YSSY 291630Z AUTO 30005KT 9999 // FEW066 SCT079 OVC105 18/16 Q1030",
    "icao": "YSSY",
    "flightCategory": "VFR",
    "windDir": 300,
    "windSpeed": 5,
    "windGust": null,
    "visibility": 6,
    "ceiling": 10500,
    "temp": 18,
    "dewpoint": 16,
    "altimeter": 30.42,
    "conditions": "",
    "observationTime": "2026-04-29T16:30:00.000Z"
  }
}