{
  "LHR": {
    "raw": "METAR EGLL 060950Z AUTO 18012KT 150V220 6000 -RA BKN014 BKN024 BKN042 15/12 Q1005",
    "icao": "EGLL",
    "flightCategory": "MVFR",
    "windDir": 180,
    "windSpeed": 12,
    "windGust": null,
    "visibility": 3.73,
    "ceiling": 1400,
    "temp": 15,
    "dewpoint": 12,
    "altimeter": 29.68,
    "conditions": "-RA",
    "observationTime": "2026-06-06T10:00:00.000Z"
  },
  "SYD": {
    "raw": "METAR YSSY 060930Z AUTO 30004KT 9999 // NCD 15/08 Q1027",
    "icao": "YSSY",
    "flightCategory": "VFR",
    "windDir": 300,
    "windSpeed": 4,
    "windGust": null,
    "visibility": 6,
    "ceiling": null,
    "temp": 15,
    "dewpoint": 8,
    "altimeter": 30.33,
    "conditions": "",
    "observationTime": "2026-06-06T09:30:00.000Z"
  },
  "LAS": {
    "raw": "METAR KLAS 060956Z 21010KT 10SM CLR 30/00 A2972 RMK AO2 SLP030 T03000000",
    "icao": "KLAS",
    "flightCategory": "VFR",
    "windDir": 210,
    "windSpeed": 10,
    "windGust": null,
    "visibility": 10,
    "ceiling": null,
    "temp": 30,
    "dewpoint": 0,
    "altimeter": 29.72,
    "conditions": "",
    "observationTime": "2026-06-06T10:00:00.000Z"
  },
  "LAX": {
    "raw": "METAR KLAX 060953Z 18003KT 10SM BKN013 OVC017 18/14 A2984 RMK AO2 SLP103 T01830144 $",
    "icao": "KLAX",
    "flightCategory": "MVFR",
    "windDir": 180,
    "windSpeed": 3,
    "windGust": null,
    "visibility": 10,
    "ceiling": 1300,
    "temp": 18.3,
    "dewpoint": 14.4,
    "altimeter": 29.84,
    "conditions": "",
    "observationTime": "2026-06-06T10:00:00.000Z"
  },
  "ORD": {
    "raw": "SPECI KORD 060944Z 18004KT 10SM SCT022 BKN045 BKN250 22/20 A2980 RMK AO2 RAE22 TSE40 CB DSNT E MOV E P0003 T02170200 $",
    "icao": "KORD",
    "flightCategory": "VFR",
    "windDir": 180,
    "windSpeed": 4,
    "windGust": null,
    "visibility": 10,
    "ceiling": 4500,
    "temp": 21.7,
    "dewpoint": 20,
    "altimeter": 29.8,
    "conditions": "",
    "observationTime": "2026-06-06T09:44:00.000Z"
  }
}