{
  "LHR": {
    "raw": "METAR EGLL 081050Z COR AUTO 14008KT 9999 FEW042 16/06 Q1017 NOSIG",
    "icao": "EGLL",
    "flightCategory": "VFR",
    "windDir": 140,
    "windSpeed": 8,
    "windGust": null,
    "visibility": 6,
    "ceiling": null,
    "temp": 16,
    "dewpoint": 6,
    "altimeter": 30.03,
    "conditions": "",
    "observationTime": "2026-05-08T11:00:00.000Z"
  },
  "SYD": {
    "raw": "METAR YSSY 081100Z AUTO 25018KT 9999 // OVC084 16/06 Q1021",
    "icao": "YSSY",
    "flightCategory": "VFR",
    "windDir": 250,
    "windSpeed": 18,
    "windGust": null,
    "visibility": 6,
    "ceiling": 8400,
    "temp": 16,
    "dewpoint": 6,
    "altimeter": 30.15,
    "conditions": "",
    "observationTime": "2026-05-08T11:00:00.000Z"
  },
  "LAS": {
    "raw": "METAR KLAS 081056Z 00000KT 10SM CLR 23/M03 A2987 RMK AO2 SLP089 T02331028",
    "icao": "KLAS",
    "flightCategory": "VFR",
    "windDir": 0,
    "windSpeed": 0,
    "windGust": null,
    "visibility": 10,
    "ceiling": null,
    "temp": 23.3,
    "dewpoint": -2.8,
    "altimeter": 29.87,
    "conditions": "",
    "observationTime": "2026-05-08T11:00:00.000Z"
  },
  "LAX": {
    "raw": "METAR KLAX 081053Z 15008KT 9SM FEW008 OVC012 17/13 A2999 RMK AO2 SLP152 T01670133",
    "icao": "KLAX",
    "flightCategory": "MVFR",
    "windDir": 150,
    "windSpeed": 8,
    "windGust": null,
    "visibility": 9,
    "ceiling": 1200,
    "temp": 16.7,
    "dewpoint": 13.3,
    "altimeter": 29.99,
    "conditions": "",
    "observationTime": "2026-05-08T11:00:00.000Z"
  },
  "ORD": {
    "raw": "METAR KORD 081051Z 00000KT 6SM BR SCT120 05/03 A2985 RMK AO2 SLP109 T00500033",
    "icao": "KORD",
    "flightCategory": "VFR",
    "windDir": 0,
    "windSpeed": 0,
    "windGust": null,
    "visibility": 6,
    "ceiling": null,
    "temp": 5,
    "dewpoint": 3.3,
    "altimeter": 29.85,
    "conditions": "BR",
    "observationTime": "2026-05-08T11:00:00.000Z"
  }
}