{
  "LAS": {
    "raw": "METAR KLAS 051756Z 01008KT 10SM FEW200 24/M08 A3014 RMK AO2 SLP191 T02391078 10239 20128 58002",
    "icao": "KLAS",
    "flightCategory": "VFR",
    "windDir": 10,
    "windSpeed": 8,
    "windGust": null,
    "visibility": 10,
    "ceiling": null,
    "temp": 23.9,
    "dewpoint": -7.8,
    "altimeter": 30.14,
    "conditions": "",
    "observationTime": "2026-04-05T18:00:00.000Z"
  },
  "LAX": {
    "raw": "METAR KLAX 051753Z 26009KT 10SM FEW220 SCT270 BKN300 24/11 A3001 RMK AO2 SLP160 T02390111 10256 20139 53008 $",
    "icao": "KLAX",
    "flightCategory": "VFR",
    "windDir": 260,
    "windSpeed": 9,
    "windGust": null,
    "visibility": 10,
    "ceiling": 30000,
    "temp": 23.9,
    "dewpoint": 11.1,
    "altimeter": 30.01,
    "conditions": "",
    "observationTime": "2026-04-05T18:00:00.000Z"
  },
  "ORD": {
    "raw": "METAR KORD 051751Z 29015G21KT 10SM FEW032 08/M04 A3016 RMK AO2 SLP216 T00831039 10083 20028 51013 $",
    "icao": "KORD",
    "flightCategory": "VFR",
    "windDir": 290,
    "windSpeed": 15,
    "windGust": 21,
    "visibility": 10,
    "ceiling": null,
    "temp": 8.3,
    "dewpoint": -3.9,
    "altimeter": 30.16,
    "conditions": "",
    "observationTime": "2026-04-05T18:00:00.000Z"
  },
  "LHR": {
    "raw": "METAR EGLL 051720Z COR AUTO 27015KT 9999 NCD 11/M01 Q1021 NOSIG",
    "icao": "EGLL",
    "flightCategory": "VFR",
    "windDir": 270,
    "windSpeed": 15,
    "windGust": null,
    "visibility": 6,
    "ceiling": null,
    "temp": 11,
    "dewpoint": -1,
    "altimeter": 30.15,
    "conditions": "",
    "observationTime": "2026-04-05T17:20:00.000Z"
  },
  "SYD": {
    "raw": "METAR YSSY 051700Z AUTO 34005KT 9999 // OVC045 17/15 Q1021",
    "icao": "YSSY",
    "flightCategory": "VFR",
    "windDir": 340,
    "windSpeed": 5,
    "windGust": null,
    "visibility": 6,
    "ceiling": 4500,
    "temp": 17,
    "dewpoint": 15,
    "altimeter": 30.15,
    "conditions": "",
    "observationTime": "2026-04-05T17:00:00.000Z"
  }
}