{
  "LAS": {
    "raw": "METAR KLAS 171156Z 19006KT 10SM CLR 31/04 A2977 RMK AO2 SLP044 T03110039 10367 20311 53003",
    "icao": "KLAS",
    "flightCategory": "VFR",
    "windDir": 190,
    "windSpeed": 6,
    "windGust": null,
    "visibility": 10,
    "ceiling": null,
    "temp": 31.1,
    "dewpoint": 3.9,
    "altimeter": 29.77,
    "conditions": "",
    "observationTime": "2026-06-17T12:00:00.000Z"
  },
  "LAX": {
    "raw": "METAR KLAX 171153Z 15005KT 9SM OVC006 17/15 A2992 RMK AO2 SLP129 T01670150 10167 20161 55002 $",
    "icao": "KLAX",
    "flightCategory": "IFR",
    "windDir": 150,
    "windSpeed": 5,
    "windGust": null,
    "visibility": 9,
    "ceiling": 600,
    "temp": 16.7,
    "dewpoint": 15,
    "altimeter": 29.92,
    "conditions": "",
    "observationTime": "2026-06-17T12:00:00.000Z"
  },
  "ORD": {
    "raw": "METAR KORD 171151Z 19006KT 10SM FEW100 BKN140 BKN190 OVC250 16/11 A2963 RMK AO2 SLP031 T01560106 10161 20150 50000",
    "icao": "KORD",
    "flightCategory": "VFR",
    "windDir": 190,
    "windSpeed": 6,
    "windGust": null,
    "visibility": 10,
    "ceiling": 14000,
    "temp": 15.6,
    "dewpoint": 10.6,
    "altimeter": 29.63,
    "conditions": "",
    "observationTime": "2026-06-17T12:00:00.000Z"
  },
  "LHR": {
    "raw": "METAR EGLL 171120Z AUTO 22014KT 190V250 9999 NCD 23/14 Q1017",
    "icao": "EGLL",
    "flightCategory": "VFR",
    "windDir": 220,
    "windSpeed": 14,
    "windGust": null,
    "visibility": 6,
    "ceiling": null,
    "temp": 23,
    "dewpoint": 14,
    "altimeter": 30.03,
    "conditions": "",
    "observationTime": "2026-06-17T11:20:00.000Z"
  },
  "SYD": {
    "raw": "METAR YSSY 171130Z AUTO 26002KT 9999 // NCD 16/13 Q1024",
    "icao": "YSSY",
    "flightCategory": "VFR",
    "windDir": 260,
    "windSpeed": 2,
    "windGust": null,
    "visibility": 6,
    "ceiling": null,
    "temp": 16,
    "dewpoint": 13,
    "altimeter": 30.24,
    "conditions": "",
    "observationTime": "2026-06-17T11:30:00.000Z"
  }
}