{
  "SYD": {
    "raw": "METAR YSSY 061130Z AUTO 33005KT 9999 // NCD 18/14 Q1015",
    "icao": "YSSY",
    "flightCategory": "VFR",
    "windDir": 330,
    "windSpeed": 5,
    "windGust": null,
    "visibility": 6,
    "ceiling": null,
    "temp": 18,
    "dewpoint": 14,
    "altimeter": 29.97,
    "conditions": "",
    "observationTime": "2026-05-06T11:30:00.000Z"
  },
  "LAS": {
    "raw": "METAR KLAS 061156Z 19007KT 10SM FEW220 17/02 A2993 RMK AO2 SLP120 T01670022 10200 20167 53014",
    "icao": "KLAS",
    "flightCategory": "VFR",
    "windDir": 190,
    "windSpeed": 7,
    "windGust": null,
    "visibility": 10,
    "ceiling": null,
    "temp": 16.7,
    "dewpoint": 2.2,
    "altimeter": 29.93,
    "conditions": "",
    "observationTime": "2026-05-06T12:00:00.000Z"
  },
  "LAX": {
    "raw": "METAR KLAX 061153Z VRB03KT 10SM FEW016 FEW025 14/11 A3004 RMK AO2 SLP172 T01390106 10156 20128 55003",
    "icao": "KLAX",
    "flightCategory": "VFR",
    "windDir": null,
    "windSpeed": 3,
    "windGust": null,
    "visibility": 10,
    "ceiling": null,
    "temp": 13.9,
    "dewpoint": 10.6,
    "altimeter": 30.04,
    "conditions": "",
    "observationTime": "2026-05-06T12:00:00.000Z"
  },
  "ORD": {
    "raw": "METAR KORD 061151Z 00000KT 10SM FEW200 BKN250 07/00 A2990 RMK AO2 SLP126 70002 T00720000 10094 20050 53010",
    "icao": "KORD",
    "flightCategory": "VFR",
    "windDir": 0,
    "windSpeed": 0,
    "windGust": null,
    "visibility": 10,
    "ceiling": 25000,
    "temp": 7.2,
    "dewpoint": 0,
    "altimeter": 29.9,
    "conditions": "",
    "observationTime": "2026-05-06T12:00:00.000Z"
  },
  "LHR": {
    "raw": "METAR EGLL 061120Z COR AUTO 03011KT 330V050 9999 FEW035 13/03 Q1013 NOSIG",
    "icao": "EGLL",
    "flightCategory": "VFR",
    "windDir": 30,
    "windSpeed": 11,
    "windGust": null,
    "visibility": 6,
    "ceiling": null,
    "temp": 13,
    "dewpoint": 3,
    "altimeter": 29.91,
    "conditions": "",
    "observationTime": "2026-05-06T11:20:00.000Z"
  }
}