{
  "LAS": {
    "raw": "METAR KLAS 242056Z 18012G22KT 10SM FEW130 FEW250 33/02 A2992 RMK AO2 SLP103 T03330022 58019",
    "icao": "KLAS",
    "flightCategory": "VFR",
    "windDir": 180,
    "windSpeed": 12,
    "windGust": 22,
    "visibility": 10,
    "ceiling": null,
    "temp": 33.3,
    "dewpoint": 2.2,
    "altimeter": 29.92,
    "conditions": "",
    "observationTime": "2026-05-24T21:00:00.000Z"
  },
  "LAX": {
    "raw": "SPECI KLAX 242014Z 24012KT 10SM SCT024 BKN036 19/12 A3003 RMK AO2 T01890117 $",
    "icao": "KLAX",
    "flightCategory": "VFR",
    "windDir": 240,
    "windSpeed": 12,
    "windGust": null,
    "visibility": 10,
    "ceiling": 3600,
    "temp": 18.9,
    "dewpoint": 11.7,
    "altimeter": 30.03,
    "conditions": "",
    "observationTime": "2026-05-24T20:14:00.000Z"
  },
  "ORD": {
    "raw": "METAR KORD 242051Z 34009KT 10SM FEW046 FEW110 24/08 A3002 RMK AO2 SLP162 T02440078 56010 $",
    "icao": "KORD",
    "flightCategory": "VFR",
    "windDir": 340,
    "windSpeed": 9,
    "windGust": null,
    "visibility": 10,
    "ceiling": null,
    "temp": 24.4,
    "dewpoint": 7.8,
    "altimeter": 30.02,
    "conditions": "",
    "observationTime": "2026-05-24T21:00:00.000Z"
  },
  "LHR": {
    "raw": "METAR EGLL 242020Z AUTO 09005KT 9999 NCD 25/17 Q1029",
    "icao": "EGLL",
    "flightCategory": "VFR",
    "windDir": 90,
    "windSpeed": 5,
    "windGust": null,
    "visibility": 6,
    "ceiling": null,
    "temp": 25,
    "dewpoint": 17,
    "altimeter": 30.39,
    "conditions": "",
    "observationTime": "2026-05-24T20:20:00.000Z"
  },
  "SYD": {
    "raw": "METAR YSSY 242030Z 32005KT 9000 -SHRA SCT020 BKN025 BKN030 17/17 Q1021",
    "icao": "YSSY",
    "flightCategory": "MVFR",
    "windDir": 320,
    "windSpeed": 5,
    "windGust": null,
    "visibility": 5.59,
    "ceiling": 2500,
    "temp": 17,
    "dewpoint": 17,
    "altimeter": 30.15,
    "conditions": "-SHRA",
    "observationTime": "2026-05-24T20:30:00.000Z"
  }
}