{
  "LAS": {
    "raw": "METAR KLAS 250656Z 20005KT 10SM CLR 26/M07 A2986 RMK AO2 SLP085 T02561067",
    "icao": "KLAS",
    "flightCategory": "VFR",
    "windDir": 200,
    "windSpeed": 5,
    "windGust": null,
    "visibility": 10,
    "ceiling": null,
    "temp": 25.6,
    "dewpoint": -6.7,
    "altimeter": 29.86,
    "conditions": "",
    "observationTime": "2026-05-25T07:00:00.000Z"
  },
  "LAX": {
    "raw": "METAR KLAX 250653Z 25010KT 10SM CLR 16/11 A2998 RMK AO2 SLP150 T01610111 $",
    "icao": "KLAX",
    "flightCategory": "VFR",
    "windDir": 250,
    "windSpeed": 10,
    "windGust": null,
    "visibility": 10,
    "ceiling": null,
    "temp": 16.1,
    "dewpoint": 11.1,
    "altimeter": 29.98,
    "conditions": "",
    "observationTime": "2026-05-25T07:00:00.000Z"
  },
  "ORD": {
    "raw": "METAR KORD 250651Z 18004KT 9SM CLR 16/12 A3008 RMK AO2 SLP183 T01610122 $",
    "icao": "KORD",
    "flightCategory": "VFR",
    "windDir": 180,
    "windSpeed": 4,
    "windGust": null,
    "visibility": 9,
    "ceiling": null,
    "temp": 16.1,
    "dewpoint": 12.2,
    "altimeter": 30.08,
    "conditions": "",
    "observationTime": "2026-05-25T07:00:00.000Z"
  },
  "LHR": {
    "raw": "METAR EGLL 250620Z AUTO 06003KT 010V100 9999 NCD 21/15 Q1031",
    "icao": "EGLL",
    "flightCategory": "VFR",
    "windDir": 60,
    "windSpeed": 3,
    "windGust": null,
    "visibility": 6,
    "ceiling": null,
    "temp": 21,
    "dewpoint": 15,
    "altimeter": 30.45,
    "conditions": "",
    "observationTime": "2026-05-25T06:20:00.000Z"
  },
  "SYD": {
    "raw": "SPECI YSSY 250620Z AUTO 12005KT 9999 // SCT033 SCT051 OVC090 19/18 Q1019",
    "icao": "YSSY",
    "flightCategory": "VFR",
    "windDir": 120,
    "windSpeed": 5,
    "windGust": null,
    "visibility": 6,
    "ceiling": 9000,
    "temp": 19,
    "dewpoint": 18,
    "altimeter": 30.09,
    "conditions": "",
    "observationTime": "2026-05-25T06:20:00.000Z"
  }
}