{
  "SYD": {
    "raw": "METAR YSSY 171830Z AUTO 32006KT 9999 // NCD 14/13 Q1021",
    "icao": "YSSY",
    "flightCategory": "VFR",
    "windDir": 320,
    "windSpeed": 6,
    "windGust": null,
    "visibility": 6,
    "ceiling": null,
    "temp": 14,
    "dewpoint": 13,
    "altimeter": 30.15,
    "conditions": "",
    "observationTime": "2026-06-17T18:30:00.000Z"
  },
  "LAS": {
    "raw": "METAR KLAS 171856Z 30005KT 10SM FEW130 SCT200 41/02 A2977 RMK AO2 SLP046 FU SCT200 T04060017",
    "icao": "KLAS",
    "flightCategory": "VFR",
    "windDir": 300,
    "windSpeed": 5,
    "windGust": null,
    "visibility": 10,
    "ceiling": null,
    "temp": 40.6,
    "dewpoint": 1.7,
    "altimeter": 29.77,
    "conditions": "",
    "observationTime": "2026-06-17T19:00:00.000Z"
  },
  "LAX": {
    "raw": "METAR KLAX 171853Z 25008KT 10SM FEW016 SCT022 21/14 A2995 RMK AO2 SLP140 T02110144 $",
    "icao": "KLAX",
    "flightCategory": "VFR",
    "windDir": 250,
    "windSpeed": 8,
    "windGust": null,
    "visibility": 10,
    "ceiling": null,
    "temp": 21.1,
    "dewpoint": 14.4,
    "altimeter": 29.95,
    "conditions": "",
    "observationTime": "2026-06-17T19:00:00.000Z"
  },
  "ORD": {
    "raw": "METAR KORD 171851Z 18021G35KT 6SM RA BR FEW050 OVC095 14/13 A2946 RMK AO2 PK WND 19035/1843 SLP976 P0012 T01390128",
    "icao": "KORD",
    "flightCategory": "VFR",
    "windDir": 180,
    "windSpeed": 21,
    "windGust": 35,
    "visibility": 6,
    "ceiling": 9500,
    "temp": 13.9,
    "dewpoint": 12.8,
    "altimeter": 29.46,
    "conditions": "RA BR",
    "observationTime": "2026-06-17T19:00:00.000Z"
  },
  "LHR": {
    "raw": "METAR EGLL 171820Z AUTO 25014KT 9999 BKN024 22/16 Q1017",
    "icao": "EGLL",
    "flightCategory": "MVFR",
    "windDir": 250,
    "windSpeed": 14,
    "windGust": null,
    "visibility": 6,
    "ceiling": 2400,
    "temp": 22,
    "dewpoint": 16,
    "altimeter": 30.03,
    "conditions": "",
    "observationTime": "2026-06-17T18:20:00.000Z"
  }
}