{
  "LAS": {
    "raw": "METAR KLAS 252156Z 20018G29KT 10SM SCT120 BKN200 23/M01 A2967 RMK AO2 PK WND 21029/2155 SLP029 T02281006",
    "icao": "KLAS",
    "flightCategory": "VFR",
    "windDir": 200,
    "windSpeed": 18,
    "windGust": 29,
    "visibility": 10,
    "ceiling": 20000,
    "temp": 22.8,
    "dewpoint": -0.6,
    "altimeter": 29.67,
    "conditions": "",
    "observationTime": "2026-04-25T22:00:00.000Z"
  },
  "LAX": {
    "raw": "METAR KLAX 252153Z 22012G18KT 10SM FEW023 SCT040 BKN120 BKN200 17/09 A2989 RMK AO2 SLP121 T01670094",
    "icao": "KLAX",
    "flightCategory": "VFR",
    "windDir": 220,
    "windSpeed": 12,
    "windGust": 18,
    "visibility": 10,
    "ceiling": 12000,
    "temp": 16.7,
    "dewpoint": 9.4,
    "altimeter": 29.89,
    "conditions": "",
    "observationTime": "2026-04-25T22:00:00.000Z"
  },
  "ORD": {
    "raw": "METAR KORD 252151Z 03011KT 10SM FEW008 BKN250 12/06 A3000 RMK AO2 SLP159 T01170056",
    "icao": "KORD",
    "flightCategory": "VFR",
    "windDir": 30,
    "windSpeed": 11,
    "windGust": null,
    "visibility": 10,
    "ceiling": 25000,
    "temp": 11.7,
    "dewpoint": 5.6,
    "altimeter": 30,
    "conditions": "",
    "observationTime": "2026-04-25T22:00:00.000Z"
  },
  "LHR": {
    "raw": "METAR EGLL 252120Z COR AUTO 19007KT 9999 NCD 14/02 Q1022 NOSIG",
    "icao": "EGLL",
    "flightCategory": "VFR",
    "windDir": 190,
    "windSpeed": 7,
    "windGust": null,
    "visibility": 6,
    "ceiling": null,
    "temp": 14,
    "dewpoint": 2,
    "altimeter": 30.18,
    "conditions": "",
    "observationTime": "2026-04-25T21:20:00.000Z"
  },
  "SYD": {
    "raw": "METAR YSSY 252130Z 35005KT 9999 FEW030 16/14 Q1026",
    "icao": "YSSY",
    "flightCategory": "VFR",
    "windDir": 350,
    "windSpeed": 5,
    "windGust": null,
    "visibility": 6,
    "ceiling": null,
    "temp": 16,
    "dewpoint": 14,
    "altimeter": 30.3,
    "conditions": "",
    "observationTime": "2026-04-25T21:30:00.000Z"
  }
}