{
  "LHR": {
    "raw": "METAR EGLL 181850Z AUTO 04007KT 360V080 9999 NCD 21/09 Q1020",
    "icao": "EGLL",
    "flightCategory": "VFR",
    "windDir": 40,
    "windSpeed": 7,
    "windGust": null,
    "visibility": 6,
    "ceiling": null,
    "temp": 21,
    "dewpoint": 9,
    "altimeter": 30.12,
    "conditions": "",
    "observationTime": "2026-07-18T19:00:00.000Z"
  },
  "SYD": {
    "raw": "METAR YSSY 181830Z AUTO 11006KT 9999 // BKN045 OVC052 15/09 Q1031",
    "icao": "YSSY",
    "flightCategory": "VFR",
    "windDir": 110,
    "windSpeed": 6,
    "windGust": null,
    "visibility": 6,
    "ceiling": 4500,
    "temp": 15,
    "dewpoint": 9,
    "altimeter": 30.45,
    "conditions": "",
    "observationTime": "2026-07-18T18:30:00.000Z"
  },
  "LAS": {
    "raw": "METAR KLAS 181856Z VRB03KT 10SM FEW090 FEW180 SCT250 34/16 A3000 RMK AO2 SLP129 TCU DSNT N AND W T03440161 $",
    "icao": "KLAS",
    "flightCategory": "VFR",
    "windDir": null,
    "windSpeed": 3,
    "windGust": null,
    "visibility": 10,
    "ceiling": null,
    "temp": 34.4,
    "dewpoint": 16.1,
    "altimeter": 30,
    "conditions": "",
    "observationTime": "2026-07-18T19:00:00.000Z"
  },
  "LAX": {
    "raw": "METAR KLAX 181853Z 26008KT 10SM FEW014 FEW170 25/18 A2999 RMK AO2 SLP153 ACSL DSNT NE T02500183 $",
    "icao": "KLAX",
    "flightCategory": "VFR",
    "windDir": 260,
    "windSpeed": 8,
    "windGust": null,
    "visibility": 10,
    "ceiling": null,
    "temp": 25,
    "dewpoint": 18.3,
    "altimeter": 29.99,
    "conditions": "",
    "observationTime": "2026-07-18T19:00:00.000Z"
  },
  "ORD": {
    "raw": "METAR KORD 181851Z 32011G19KT 10SM SCT041 BKN065 BKN080 BKN250 31/22 A2987 RMK AO2 SLP107 T03060217 $",
    "icao": "KORD",
    "flightCategory": "VFR",
    "windDir": 320,
    "windSpeed": 11,
    "windGust": 19,
    "visibility": 10,
    "ceiling": 6500,
    "temp": 30.6,
    "dewpoint": 21.7,
    "altimeter": 29.87,
    "conditions": "",
    "observationTime": "2026-07-18T19:00:00.000Z"
  }
}