{
  "LHR": {
    "raw": "METAR EGLL 101550Z COR AUTO 19013KT 160V230 9999 NCD 12/M02 Q1016 NOSIG",
    "icao": "EGLL",
    "flightCategory": "VFR",
    "windDir": 190,
    "windSpeed": 13,
    "windGust": null,
    "visibility": 6,
    "ceiling": null,
    "temp": 12,
    "dewpoint": -2,
    "altimeter": 30,
    "conditions": "",
    "observationTime": "2026-04-10T16:00:00.000Z"
  },
  "SYD": {
    "raw": "METAR YSSY 101600Z AUTO 24007KT 9999 // NCD 22/16 Q1007",
    "icao": "YSSY",
    "flightCategory": "VFR",
    "windDir": 240,
    "windSpeed": 7,
    "windGust": null,
    "visibility": 6,
    "ceiling": null,
    "temp": 22,
    "dewpoint": 16,
    "altimeter": 29.74,
    "conditions": "",
    "observationTime": "2026-04-10T16:00:00.000Z"
  },
  "LAS": {
    "raw": "METAR KLAS 101556Z 21017G24KT 10SM FEW150 FEW200 23/04 A2989 RMK AO2 PK WND 22026/1537 SLP100 ACSL DSNT NW T02280044",
    "icao": "KLAS",
    "flightCategory": "VFR",
    "windDir": 210,
    "windSpeed": 17,
    "windGust": 24,
    "visibility": 10,
    "ceiling": null,
    "temp": 22.8,
    "dewpoint": 4.4,
    "altimeter": 29.89,
    "conditions": "",
    "observationTime": "2026-04-10T16:00:00.000Z"
  },
  "LAX": {
    "raw": "SPECI KLAX 101540Z COR 26006KT 9SM FEW010 BKN013 BKN110 BKN250 17/14 A2997 RMK AO2 T01670139",
    "icao": "KLAX",
    "flightCategory": "MVFR",
    "windDir": 260,
    "windSpeed": 6,
    "windGust": null,
    "visibility": 9,
    "ceiling": 1300,
    "temp": 16.7,
    "dewpoint": 13.9,
    "altimeter": 29.97,
    "conditions": "",
    "observationTime": "2026-04-10T15:40:00.000Z"
  },
  "ORD": {
    "raw": "METAR KORD 101551Z 36012KT 10SM OVC010 08/05 A3024 RMK AO2 SLP241 T00780050",
    "icao": "KORD",
    "flightCategory": "MVFR",
    "windDir": 360,
    "windSpeed": 12,
    "windGust": null,
    "visibility": 10,
    "ceiling": 1000,
    "temp": 7.8,
    "dewpoint": 5,
    "altimeter": 30.24,
    "conditions": "",
    "observationTime": "2026-04-10T16:00:00.000Z"
  }
}