{
  "SYD": {
    "raw": "METAR YSSY 081100Z AUTO 16003KT 9999 // FEW014 22/20 Q1017",
    "icao": "YSSY",
    "flightCategory": "VFR",
    "windDir": 160,
    "windSpeed": 3,
    "windGust": null,
    "visibility": 6,
    "ceiling": null,
    "temp": 22,
    "dewpoint": 20,
    "altimeter": 30.03,
    "conditions": "",
    "observationTime": "2026-04-08T11:00:00.000Z"
  },
  "LHR": {
    "raw": "METAR EGLL 081050Z COR AUTO 14003KT 100V200 9999 NCD 19/08 Q1023 NOSIG",
    "icao": "EGLL",
    "flightCategory": "VFR",
    "windDir": 140,
    "windSpeed": 3,
    "windGust": null,
    "visibility": 6,
    "ceiling": null,
    "temp": 19,
    "dewpoint": 8,
    "altimeter": 30.21,
    "conditions": "",
    "observationTime": "2026-04-08T11:00:00.000Z"
  },
  "LAS": {
    "raw": "METAR KLAS 081056Z VRB06KT 10SM FEW250 22/M07 A2986 RMK AO2 SLP088 T02171072",
    "icao": "KLAS",
    "flightCategory": "VFR",
    "windDir": null,
    "windSpeed": 6,
    "windGust": null,
    "visibility": 10,
    "ceiling": null,
    "temp": 21.7,
    "dewpoint": -7.2,
    "altimeter": 29.86,
    "conditions": "",
    "observationTime": "2026-04-08T11:00:00.000Z"
  },
  "LAX": {
    "raw": "METAR KLAX 081053Z COR 00000KT 10SM FEW007 FEW014 16/14 A2990 RMK AO2 SLP124 T01560139 $",
    "icao": "KLAX",
    "flightCategory": "VFR",
    "windDir": 0,
    "windSpeed": 0,
    "windGust": null,
    "visibility": 10,
    "ceiling": null,
    "temp": 15.6,
    "dewpoint": 13.9,
    "altimeter": 29.9,
    "conditions": "",
    "observationTime": "2026-04-08T11:00:00.000Z"
  },
  "ORD": {
    "raw": "METAR KORD 081051Z 14010KT 10SM BKN085 OVC140 03/M04 A3028 RMK AO2 SLP259 T00281039 $",
    "icao": "KORD",
    "flightCategory": "VFR",
    "windDir": 140,
    "windSpeed": 10,
    "windGust": null,
    "visibility": 10,
    "ceiling": 8500,
    "temp": 2.8,
    "dewpoint": -3.9,
    "altimeter": 30.28,
    "conditions": "",
    "observationTime": "2026-04-08T11:00:00.000Z"
  }
}