{
  "SYD": {
    "raw": "METAR YSSY 090900Z AUTO 16006KT 9999 // NCD 17/11 Q1025",
    "icao": "YSSY",
    "flightCategory": "VFR",
    "windDir": 160,
    "windSpeed": 6,
    "windGust": null,
    "visibility": 6,
    "ceiling": null,
    "temp": 17,
    "dewpoint": 11,
    "altimeter": 30.27,
    "conditions": "",
    "observationTime": "2026-05-09T09:00:00.000Z"
  },
  "LHR": {
    "raw": "METAR EGLL 090850Z COR AUTO 07007KT 040V110 9999 NCD 16/08 Q1018 NOSIG",
    "icao": "EGLL",
    "flightCategory": "VFR",
    "windDir": 70,
    "windSpeed": 7,
    "windGust": null,
    "visibility": 6,
    "ceiling": null,
    "temp": 16,
    "dewpoint": 8,
    "altimeter": 30.06,
    "conditions": "",
    "observationTime": "2026-05-09T09:00:00.000Z"
  },
  "LAS": {
    "raw": "METAR KLAS 090856Z 19006KT 10SM CLR 28/M01 A2983 RMK AO2 SLP069 T02781006 50003",
    "icao": "KLAS",
    "flightCategory": "VFR",
    "windDir": 190,
    "windSpeed": 6,
    "windGust": null,
    "visibility": 10,
    "ceiling": null,
    "temp": 27.8,
    "dewpoint": -0.6,
    "altimeter": 29.83,
    "conditions": "",
    "observationTime": "2026-05-09T09:00:00.000Z"
  },
  "LAX": {
    "raw": "METAR KLAX 090853Z 00000KT 6SM BR OVC010 16/14 A2994 RMK AO2 SLP137 T01610139 58007",
    "icao": "KLAX",
    "flightCategory": "MVFR",
    "windDir": 0,
    "windSpeed": 0,
    "windGust": null,
    "visibility": 6,
    "ceiling": 1000,
    "temp": 16.1,
    "dewpoint": 13.9,
    "altimeter": 29.94,
    "conditions": "BR",
    "observationTime": "2026-05-09T09:00:00.000Z"
  },
  "ORD": {
    "raw": "METAR KORD 090851Z 21008KT 10SM BKN250 12/09 A2964 RMK AO2 SLP035 T01170094 56014",
    "icao": "KORD",
    "flightCategory": "VFR",
    "windDir": 210,
    "windSpeed": 8,
    "windGust": null,
    "visibility": 10,
    "ceiling": 25000,
    "temp": 11.7,
    "dewpoint": 9.4,
    "altimeter": 29.64,
    "conditions": "",
    "observationTime": "2026-05-09T09:00:00.000Z"
  }
}