{
  "LHR": {
    "raw": "METAR EGLL 232250Z AUTO 26009KT 9999 NCD 20/13 Q1021",
    "icao": "EGLL",
    "flightCategory": "VFR",
    "windDir": 260,
    "windSpeed": 9,
    "windGust": null,
    "visibility": 6,
    "ceiling": null,
    "temp": 20,
    "dewpoint": 13,
    "altimeter": 30.15,
    "conditions": "",
    "observationTime": "2026-07-23T23:00:00.000Z"
  },
  "SYD": {
    "raw": "METAR YSSY 232300Z 25016KT CAVOK 11/M01 Q1025",
    "icao": "YSSY",
    "flightCategory": "VFR",
    "windDir": 250,
    "windSpeed": 16,
    "windGust": null,
    "visibility": 6,
    "ceiling": null,
    "temp": 11,
    "dewpoint": -1,
    "altimeter": 30.27,
    "conditions": "",
    "observationTime": "2026-07-23T23:00:00.000Z"
  },
  "LAS": {
    "raw": "METAR KLAS 232256Z 07009KT 10SM FEW140 43/10 A2983 RMK AO2 SLP065 T04330100",
    "icao": "KLAS",
    "flightCategory": "VFR",
    "windDir": 70,
    "windSpeed": 9,
    "windGust": null,
    "visibility": 10,
    "ceiling": null,
    "temp": 43.3,
    "dewpoint": 10,
    "altimeter": 29.83,
    "conditions": "",
    "observationTime": "2026-07-23T23:00:00.000Z"
  },
  "LAX": {
    "raw": "METAR KLAX 232253Z 26016KT 10SM FEW110 FEW250 26/16 A2983 RMK AO2 SLP099 T02610161 $",
    "icao": "KLAX",
    "flightCategory": "VFR",
    "windDir": 260,
    "windSpeed": 16,
    "windGust": null,
    "visibility": 10,
    "ceiling": null,
    "temp": 26.1,
    "dewpoint": 16.1,
    "altimeter": 29.83,
    "conditions": "",
    "observationTime": "2026-07-23T23:00:00.000Z"
  },
  "ORD": {
    "raw": "METAR KORD 232251Z 13008KT 10SM SCT070 BKN250 24/09 A3015 RMK AO2 SLP207 T02440089 $",
    "icao": "KORD",
    "flightCategory": "VFR",
    "windDir": 130,
    "windSpeed": 8,
    "windGust": null,
    "visibility": 10,
    "ceiling": 25000,
    "temp": 24.4,
    "dewpoint": 8.9,
    "altimeter": 30.15,
    "conditions": "",
    "observationTime": "2026-07-23T23:00:00.000Z"
  }
}