{
  "SYD": {
    "raw": "METAR YSSY 011900Z AUTO 34004KT 9999 // BKN045 OVC056 18/16 Q1025",
    "icao": "YSSY",
    "flightCategory": "VFR",
    "windDir": 340,
    "windSpeed": 4,
    "windGust": null,
    "visibility": 6,
    "ceiling": 4500,
    "temp": 18,
    "dewpoint": 16,
    "altimeter": 30.27,
    "conditions": "",
    "observationTime": "2026-05-01T19:00:00.000Z"
  },
  "LHR": {
    "raw": "METAR EGLL 011850Z COR AUTO 22011KT 9999 NCD 19/11 Q1019 NOSIG",
    "icao": "EGLL",
    "flightCategory": "VFR",
    "windDir": 220,
    "windSpeed": 11,
    "windGust": null,
    "visibility": 6,
    "ceiling": null,
    "temp": 19,
    "dewpoint": 11,
    "altimeter": 30.09,
    "conditions": "",
    "observationTime": "2026-05-01T19:00:00.000Z"
  },
  "LAS": {
    "raw": "METAR KLAS 011856Z 03007KT 10SM FEW130 27/M07 A2998 RMK AO2 SLP130 T02671067",
    "icao": "KLAS",
    "flightCategory": "VFR",
    "windDir": 30,
    "windSpeed": 7,
    "windGust": null,
    "visibility": 10,
    "ceiling": null,
    "temp": 26.7,
    "dewpoint": -6.7,
    "altimeter": 29.98,
    "conditions": "",
    "observationTime": "2026-05-01T19:00:00.000Z"
  },
  "LAX": {
    "raw": "METAR KLAX 011853Z 25009KT 9SM SCT027 21/13 A2996 RMK AO2 SLP144 T02060133",
    "icao": "KLAX",
    "flightCategory": "VFR",
    "windDir": 250,
    "windSpeed": 9,
    "windGust": null,
    "visibility": 9,
    "ceiling": null,
    "temp": 20.6,
    "dewpoint": 13.3,
    "altimeter": 29.96,
    "conditions": "",
    "observationTime": "2026-05-01T19:00:00.000Z"
  },
  "ORD": {
    "raw": "METAR KORD 011851Z 06012KT 10SM FEW044 BKN060 OVC080 07/00 A3003 RMK AO2 SLP173 T00720000 $",
    "icao": "KORD",
    "flightCategory": "VFR",
    "windDir": 60,
    "windSpeed": 12,
    "windGust": null,
    "visibility": 10,
    "ceiling": 6000,
    "temp": 7.2,
    "dewpoint": 0,
    "altimeter": 30.03,
    "conditions": "",
    "observationTime": "2026-05-01T19:00:00.000Z"
  }
}