{
  "SYD": {
    "raw": "METAR YSSY 131800Z AUTO 28004KT 9999 // NCD 16/13 Q1025",
    "icao": "YSSY",
    "flightCategory": "VFR",
    "windDir": 280,
    "windSpeed": 4,
    "windGust": null,
    "visibility": 6,
    "ceiling": null,
    "temp": 16,
    "dewpoint": 13,
    "altimeter": 30.27,
    "conditions": "",
    "observationTime": "2026-06-13T18:00:00.000Z"
  },
  "LHR": {
    "raw": "METAR EGLL 131750Z AUTO 29014KT 260V320 9999 NCD 21/07 Q1020",
    "icao": "EGLL",
    "flightCategory": "VFR",
    "windDir": 290,
    "windSpeed": 14,
    "windGust": null,
    "visibility": 6,
    "ceiling": null,
    "temp": 21,
    "dewpoint": 7,
    "altimeter": 30.12,
    "conditions": "",
    "observationTime": "2026-06-13T18:00:00.000Z"
  },
  "LAS": {
    "raw": "METAR KLAS 131756Z 23005KT 10SM FEW110 FEW160 FEW220 38/03 A2984 RMK AO2 SLP071 T03830028 10383 20311 50000",
    "icao": "KLAS",
    "flightCategory": "VFR",
    "windDir": 230,
    "windSpeed": 5,
    "windGust": null,
    "visibility": 10,
    "ceiling": null,
    "temp": 38.3,
    "dewpoint": 2.8,
    "altimeter": 29.84,
    "conditions": "",
    "observationTime": "2026-06-13T18:00:00.000Z"
  },
  "LAX": {
    "raw": "METAR KLAX 131753Z 25008KT 10SM SCT010 21/16 A2992 RMK AO2 SLP132 T02110161 10211 20178 53013 $",
    "icao": "KLAX",
    "flightCategory": "VFR",
    "windDir": 250,
    "windSpeed": 8,
    "windGust": null,
    "visibility": 10,
    "ceiling": null,
    "temp": 21.1,
    "dewpoint": 16.1,
    "altimeter": 29.92,
    "conditions": "",
    "observationTime": "2026-06-13T18:00:00.000Z"
  },
  "ORD": {
    "raw": "METAR KORD 131751Z 20016G25KT 10SM FEW050 FEW100 BKN250 28/16 A2990 RMK AO2 PK WND 20028/1655 SLP119 T02780156 10278 20194 58002 $",
    "icao": "KORD",
    "flightCategory": "VFR",
    "windDir": 200,
    "windSpeed": 16,
    "windGust": 25,
    "visibility": 10,
    "ceiling": 25000,
    "temp": 27.8,
    "dewpoint": 15.6,
    "altimeter": 29.9,
    "conditions": "",
    "observationTime": "2026-06-13T18:00:00.000Z"
  }
}