{
  "HND": {
    "raw": "METAR RJTT 121530Z 15005KT 130V210 9999 FEW030 17/14 Q1010 NOSIG",
    "icao": "RJTT",
    "flightCategory": "VFR",
    "windDir": 150,
    "windSpeed": 5,
    "windGust": null,
    "visibility": 6,
    "ceiling": null,
    "temp": 17,
    "dewpoint": 14,
    "altimeter": 29.83,
    "conditions": "",
    "observationTime": "2026-05-12T15:30:00.000Z"
  },
  "LAS": {
    "raw": "METAR KLAS 121556Z 07004KT 10SM CLR 32/M05 A3000 RMK AO2 SLP126 T03171050",
    "icao": "KLAS",
    "flightCategory": "VFR",
    "windDir": 70,
    "windSpeed": 4,
    "windGust": null,
    "visibility": 10,
    "ceiling": null,
    "temp": 31.7,
    "dewpoint": -5,
    "altimeter": 30,
    "conditions": "",
    "observationTime": "2026-05-12T16:00:00.000Z"
  },
  "LAX": {
    "raw": "METAR KLAX 121553Z 18004KT 5SM HZ FEW007 OVC011 16/12 A2999 RMK AO2 SLP155 T01560122",
    "icao": "KLAX",
    "flightCategory": "MVFR",
    "windDir": 180,
    "windSpeed": 4,
    "windGust": null,
    "visibility": 5,
    "ceiling": 1100,
    "temp": 15.6,
    "dewpoint": 12.2,
    "altimeter": 29.99,
    "conditions": "HZ",
    "observationTime": "2026-05-12T16:00:00.000Z"
  },
  "ORD": {
    "raw": "METAR KORD 121551Z 18011G21KT 10SM FEW110 SCT180 OVC250 17/02 A3001 RMK AO2 SLP164 T01670017 $",
    "icao": "KORD",
    "flightCategory": "VFR",
    "windDir": 180,
    "windSpeed": 11,
    "windGust": 21,
    "visibility": 10,
    "ceiling": 25000,
    "temp": 16.7,
    "dewpoint": 1.7,
    "altimeter": 30.01,
    "conditions": "",
    "observationTime": "2026-05-12T16:00:00.000Z"
  },
  "LHR": {
    "raw": "METAR EGLL 121550Z COR AUTO 29012KT 9999 BKN041 BKN047 15/05 Q1012 NOSIG",
    "icao": "EGLL",
    "flightCategory": "VFR",
    "windDir": 290,
    "windSpeed": 12,
    "windGust": null,
    "visibility": 6,
    "ceiling": 4100,
    "temp": 15,
    "dewpoint": 5,
    "altimeter": 29.88,
    "conditions": "",
    "observationTime": "2026-05-12T16:00:00.000Z"
  }
}