{
  "LHR": {
    "raw": "METAR EGLL 211750Z COR AUTO 08013KT 9999 NCD 12/M00 Q1024 NOSIG",
    "icao": "EGLL",
    "flightCategory": "VFR",
    "windDir": 80,
    "windSpeed": 13,
    "windGust": null,
    "visibility": 6,
    "ceiling": null,
    "temp": 12,
    "dewpoint": 0,
    "altimeter": 30.24,
    "conditions": "",
    "observationTime": "2026-04-21T18:00:00.000Z"
  },
  "LAS": {
    "raw": "METAR KLAS 211756Z VRB06G15KT 10SM CLR 27/M02 A2990 RMK AO2 SLP104 T02671022 10267 20194 58003",
    "icao": "KLAS",
    "flightCategory": "VFR",
    "windDir": null,
    "windSpeed": 6,
    "windGust": 15,
    "visibility": 10,
    "ceiling": null,
    "temp": 26.7,
    "dewpoint": -2.2,
    "altimeter": 29.9,
    "conditions": "",
    "observationTime": "2026-04-21T18:00:00.000Z"
  },
  "SYD": {
    "raw": "METAR YSSY 211730Z AUTO 15015KT 9999 // FEW034 OVC061 18/12 Q1025",
    "icao": "YSSY",
    "flightCategory": "VFR",
    "windDir": 150,
    "windSpeed": 15,
    "windGust": null,
    "visibility": 6,
    "ceiling": 6100,
    "temp": 18,
    "dewpoint": 12,
    "altimeter": 30.27,
    "conditions": "",
    "observationTime": "2026-04-21T17:30:00.000Z"
  },
  "LAX": {
    "raw": "SPECI KLAX 211735Z COR 16003KT 6SM -RA BR FEW014 BKN038 OVC048 18/11 A3006 RMK AO2 RAB30 P0000 T01780106 $",
    "icao": "KLAX",
    "flightCategory": "VFR",
    "windDir": 160,
    "windSpeed": 3,
    "windGust": null,
    "visibility": 6,
    "ceiling": 3800,
    "temp": 17.8,
    "dewpoint": 10.6,
    "altimeter": 30.06,
    "conditions": "-RA BR",
    "observationTime": "2026-04-21T17:35:00.000Z"
  },
  "ORD": {
    "raw": "METAR KORD 211751Z 21014G23KT 10SM FEW060 FEW110 SCT200 BKN300 22/09 A2986 RMK AO2 PK WND 23027/1703 SLP111 CB DSNT N MOV SE T02220094 10222 20111 58022 $",
    "icao": "KORD",
    "flightCategory": "VFR",
    "windDir": 210,
    "windSpeed": 14,
    "windGust": 23,
    "visibility": 10,
    "ceiling": 30000,
    "temp": 22.2,
    "dewpoint": 9.4,
    "altimeter": 29.86,
    "conditions": "",
    "observationTime": "2026-04-21T18:00:00.000Z"
  }
}