{
  "SYD": {
    "raw": "METAR YSSY 230830Z AUTO 16008KT 9999 // FEW049 19/11 Q1029",
    "icao": "YSSY",
    "flightCategory": "VFR",
    "windDir": 160,
    "windSpeed": 8,
    "windGust": null,
    "visibility": 6,
    "ceiling": null,
    "temp": 19,
    "dewpoint": 11,
    "altimeter": 30.39,
    "conditions": "",
    "observationTime": "2026-04-23T08:30:00.000Z"
  },
  "LAS": {
    "raw": "METAR KLAS 230856Z 33012G22KT 10SM CLR 18/M06 A2993 RMK AO2 PK WND 31027/0803 SLP117 T01781061 52013",
    "icao": "KLAS",
    "flightCategory": "VFR",
    "windDir": 330,
    "windSpeed": 12,
    "windGust": 22,
    "visibility": 10,
    "ceiling": null,
    "temp": 17.8,
    "dewpoint": -6.1,
    "altimeter": 29.93,
    "conditions": "",
    "observationTime": "2026-04-23T09:00:00.000Z"
  },
  "LAX": {
    "raw": "METAR KLAX 230853Z 36004KT 10SM FEW250 15/12 A3001 RMK AO2 SLP161 T01500117 58008 $",
    "icao": "KLAX",
    "flightCategory": "VFR",
    "windDir": 360,
    "windSpeed": 4,
    "windGust": null,
    "visibility": 10,
    "ceiling": null,
    "temp": 15,
    "dewpoint": 11.7,
    "altimeter": 30.01,
    "conditions": "",
    "observationTime": "2026-04-23T09:00:00.000Z"
  },
  "ORD": {
    "raw": "METAR KORD 230851Z 00000KT 10SM FEW250 11/06 A2991 RMK AO2 SLP128 T01110061 56010",
    "icao": "KORD",
    "flightCategory": "VFR",
    "windDir": 0,
    "windSpeed": 0,
    "windGust": null,
    "visibility": 10,
    "ceiling": null,
    "temp": 11.1,
    "dewpoint": 6.1,
    "altimeter": 29.91,
    "conditions": "",
    "observationTime": "2026-04-23T09:00:00.000Z"
  },
  "LHR": {
    "raw": "METAR EGLL 230820Z COR AUTO 08009KT 040V100 9999 BKN011 10/06 Q1031 NOSIG",
    "icao": "EGLL",
    "flightCategory": "MVFR",
    "windDir": 80,
    "windSpeed": 9,
    "windGust": null,
    "visibility": 6,
    "ceiling": 1100,
    "temp": 10,
    "dewpoint": 6,
    "altimeter": 30.45,
    "conditions": "",
    "observationTime": "2026-04-23T08:20:00.000Z"
  }
}