{
  "SYD": {
    "raw": "METAR YSSY 151030Z AUTO 00000KT 9999 // NCD 20/14 Q1019",
    "icao": "YSSY",
    "flightCategory": "VFR",
    "windDir": 0,
    "windSpeed": 0,
    "windGust": null,
    "visibility": 6,
    "ceiling": null,
    "temp": 20,
    "dewpoint": 14,
    "altimeter": 30.09,
    "conditions": "",
    "observationTime": "2026-04-15T10:30:00.000Z"
  },
  "LAS": {
    "raw": "METAR KLAS 151056Z 22007KT 10SM CLR 15/M07 A2998 RMK AO2 SLP138 T01501072",
    "icao": "KLAS",
    "flightCategory": "VFR",
    "windDir": 220,
    "windSpeed": 7,
    "windGust": null,
    "visibility": 10,
    "ceiling": null,
    "temp": 15,
    "dewpoint": -7.2,
    "altimeter": 29.98,
    "conditions": "",
    "observationTime": "2026-04-15T11:00:00.000Z"
  },
  "LAX": {
    "raw": "METAR KLAX 151053Z 07003KT 10SM FEW008 13/12 A3001 RMK AO2 SLP160 T01280117",
    "icao": "KLAX",
    "flightCategory": "VFR",
    "windDir": 70,
    "windSpeed": 3,
    "windGust": null,
    "visibility": 10,
    "ceiling": null,
    "temp": 12.8,
    "dewpoint": 11.7,
    "altimeter": 30.01,
    "conditions": "",
    "observationTime": "2026-04-15T11:00:00.000Z"
  },
  "ORD": {
    "raw": "METAR KORD 151051Z 26007KT 10SM -RA BKN055 BKN100 OVC250 20/17 A2976 RMK AO2 RAB14 SLP072 P0000 T02000172",
    "icao": "KORD",
    "flightCategory": "VFR",
    "windDir": 260,
    "windSpeed": 7,
    "windGust": null,
    "visibility": 10,
    "ceiling": 5500,
    "temp": 20,
    "dewpoint": 17.2,
    "altimeter": 29.76,
    "conditions": "-RA",
    "observationTime": "2026-04-15T11:00:00.000Z"
  },
  "LHR": {
    "raw": "METAR EGLL 151050Z COR 20011KT 160V230 5000 -RA SCT006 BKN010 OVC015 14/13 Q1015 RERA NOSIG",
    "icao": "EGLL",
    "flightCategory": "MVFR",
    "windDir": 200,
    "windSpeed": 11,
    "windGust": null,
    "visibility": 3.11,
    "ceiling": 1000,
    "temp": 14,
    "dewpoint": 13,
    "altimeter": 29.97,
    "conditions": "-RA",
    "observationTime": "2026-04-15T11:00:00.000Z"
  }
}