{
  "SYD": {
    "raw": "METAR YSSY 300330Z 04008KT CAVOK 17/12 Q1019",
    "icao": "YSSY",
    "flightCategory": "VFR",
    "windDir": 40,
    "windSpeed": 8,
    "windGust": null,
    "visibility": 6,
    "ceiling": null,
    "temp": 17,
    "dewpoint": 12,
    "altimeter": 30.09,
    "conditions": "",
    "observationTime": "2026-06-30T03:30:00.000Z"
  },
  "LAS": {
    "raw": "METAR KLAS 300356Z 15009G16KT 10SM CLR 32/M03 A2971 RMK AO2 SLP036 T03171033",
    "icao": "KLAS",
    "flightCategory": "VFR",
    "windDir": 150,
    "windSpeed": 9,
    "windGust": 16,
    "visibility": 10,
    "ceiling": null,
    "temp": 31.7,
    "dewpoint": -3.3,
    "altimeter": 29.71,
    "conditions": "",
    "observationTime": "2026-06-30T04:00:00.000Z"
  },
  "LAX": {
    "raw": "METAR KLAX 300353Z 27010KT 10SM FEW014 FEW030 18/15 A2990 RMK AO2 SLP124 T01830150 $",
    "icao": "KLAX",
    "flightCategory": "VFR",
    "windDir": 270,
    "windSpeed": 10,
    "windGust": null,
    "visibility": 10,
    "ceiling": null,
    "temp": 18.3,
    "dewpoint": 15,
    "altimeter": 29.9,
    "conditions": "",
    "observationTime": "2026-06-30T04:00:00.000Z"
  },
  "ORD": {
    "raw": "METAR KORD 300351Z 17009KT 10SM FEW040 FEW250 29/24 A2991 RMK AO2 SLP121 T02890244 $",
    "icao": "KORD",
    "flightCategory": "VFR",
    "windDir": 170,
    "windSpeed": 9,
    "windGust": null,
    "visibility": 10,
    "ceiling": null,
    "temp": 28.9,
    "dewpoint": 24.4,
    "altimeter": 29.91,
    "conditions": "",
    "observationTime": "2026-06-30T04:00:00.000Z"
  },
  "LHR": {
    "raw": "METAR EGLL 300320Z AUTO 17004KT 9999 -RA NCD 17/12 Q1023",
    "icao": "EGLL",
    "flightCategory": "VFR",
    "windDir": 170,
    "windSpeed": 4,
    "windGust": null,
    "visibility": 6,
    "ceiling": null,
    "temp": 17,
    "dewpoint": 12,
    "altimeter": 30.21,
    "conditions": "-RA",
    "observationTime": "2026-06-30T03:20:00.000Z"
  }
}