{
  "ORD": {
    "raw": "SPECI KORD 012336Z 05016G24KT 10SM SCT026 BKN065 OVC250 03/M01 A3016 RMK AO2 T00331006",
    "icao": "KORD",
    "flightCategory": "VFR",
    "windDir": 50,
    "windSpeed": 16,
    "windGust": 24,
    "visibility": 10,
    "ceiling": 6500,
    "temp": 3.3,
    "dewpoint": -0.6,
    "altimeter": 30.16,
    "conditions": "",
    "observationTime": "2026-04-01T23:36:00.000Z"
  },
  "LHR": {
    "raw": "METAR EGLL 012320Z COR AUTO 27008KT 9999 BKN046 10/07 Q1020 NOSIG",
    "icao": "EGLL",
    "flightCategory": "VFR",
    "windDir": 270,
    "windSpeed": 8,
    "windGust": null,
    "visibility": 6,
    "ceiling": 4600,
    "temp": 10,
    "dewpoint": 7,
    "altimeter": 30.12,
    "conditions": "",
    "observationTime": "2026-04-01T23:20:00.000Z"
  },
  "SYD": {
    "raw": "METAR YSSY 012300Z 30006KT 9999 FEW030 SCT250 23/17 Q1024",
    "icao": "YSSY",
    "flightCategory": "VFR",
    "windDir": 300,
    "windSpeed": 6,
    "windGust": null,
    "visibility": 6,
    "ceiling": null,
    "temp": 23,
    "dewpoint": 17,
    "altimeter": 30.24,
    "conditions": "",
    "observationTime": "2026-04-01T23:00:00.000Z"
  },
  "LAS": {
    "raw": "METAR KLAS 012256Z VRB05G15KT 10SM FEW080 FEW200 24/M01 A2978 RMK AO2 SLP068 T02441006",
    "icao": "KLAS",
    "flightCategory": "VFR",
    "windDir": null,
    "windSpeed": 5,
    "windGust": 15,
    "visibility": 10,
    "ceiling": null,
    "temp": 24.4,
    "dewpoint": -0.6,
    "altimeter": 29.78,
    "conditions": "",
    "observationTime": "2026-04-01T23:00:00.000Z"
  }
}