{
  "SYD": {
    "raw": "METAR YSSY 042300Z 26016KT CAVOK 14/07 Q1010",
    "icao": "YSSY",
    "flightCategory": "VFR",
    "windDir": 260,
    "windSpeed": 16,
    "windGust": null,
    "visibility": 6,
    "ceiling": null,
    "temp": 14,
    "dewpoint": 7,
    "altimeter": 29.83,
    "conditions": "",
    "observationTime": "2026-06-04T23:00:00.000Z"
  },
  "LHR": {
    "raw": "METAR EGLL 042250Z AUTO 25013KT 9999 NCD 14/10 Q1005",
    "icao": "EGLL",
    "flightCategory": "VFR",
    "windDir": 250,
    "windSpeed": 13,
    "windGust": null,
    "visibility": 6,
    "ceiling": null,
    "temp": 14,
    "dewpoint": 10,
    "altimeter": 29.68,
    "conditions": "",
    "observationTime": "2026-06-04T23:00:00.000Z"
  },
  "LAS": {
    "raw": "METAR KLAS 042256Z 21010G15KT 10SM CLR 40/M06 A2975 RMK AO2 SLP043 T04001061",
    "icao": "KLAS",
    "flightCategory": "VFR",
    "windDir": 210,
    "windSpeed": 10,
    "windGust": 15,
    "visibility": 10,
    "ceiling": null,
    "temp": 40,
    "dewpoint": -6.1,
    "altimeter": 29.75,
    "conditions": "",
    "observationTime": "2026-06-04T23:00:00.000Z"
  },
  "LAX": {
    "raw": "METAR KLAX 042253Z 26011KT 10SM SCT010 22/15 A2988 RMK AO2 SLP116 T02170150 $",
    "icao": "KLAX",
    "flightCategory": "VFR",
    "windDir": 260,
    "windSpeed": 11,
    "windGust": null,
    "visibility": 10,
    "ceiling": null,
    "temp": 21.7,
    "dewpoint": 15,
    "altimeter": 29.88,
    "conditions": "",
    "observationTime": "2026-06-04T23:00:00.000Z"
  },
  "ORD": {
    "raw": "METAR KORD 042251Z 20012G18KT 10SM FEW200 BKN300 31/10 A2996 RMK AO2 SLP139 T03060100",
    "icao": "KORD",
    "flightCategory": "VFR",
    "windDir": 200,
    "windSpeed": 12,
    "windGust": 18,
    "visibility": 10,
    "ceiling": 30000,
    "temp": 30.6,
    "dewpoint": 10,
    "altimeter": 29.96,
    "conditions": "",
    "observationTime": "2026-06-04T23:00:00.000Z"
  }
}