{
  "LHR": {
    "raw": "METAR EGLL 021150Z COR AUTO 04004KT 330V120 9999 OVC030 08/01 Q1022 NOSIG",
    "icao": "EGLL",
    "flightCategory": "MVFR",
    "windDir": 40,
    "windSpeed": 4,
    "windGust": null,
    "visibility": 6,
    "ceiling": 3000,
    "temp": 8,
    "dewpoint": 1,
    "altimeter": 30.18,
    "conditions": "",
    "observationTime": "2026-04-02T12:00:00.000Z"
  },
  "ORD": {
    "raw": "SPECI KORD 021145Z 08009KT 4SM BR OVC005 04/03 A2990 RMK AO2 RAB10E22 P0002",
    "icao": "KORD",
    "flightCategory": "IFR",
    "windDir": 80,
    "windSpeed": 9,
    "windGust": null,
    "visibility": 4,
    "ceiling": 500,
    "temp": 4,
    "dewpoint": 3,
    "altimeter": 29.9,
    "conditions": "BR",
    "observationTime": "2026-04-02T11:45:00.000Z"
  },
  "SYD": {
    "raw": "METAR YSSY 021200Z AUTO 01008KT 9999 // NCD 23/18 Q1022",
    "icao": "YSSY",
    "flightCategory": "VFR",
    "windDir": 10,
    "windSpeed": 8,
    "windGust": null,
    "visibility": 6,
    "ceiling": null,
    "temp": 23,
    "dewpoint": 18,
    "altimeter": 30.18,
    "conditions": "",
    "observationTime": "2026-04-02T12:00:00.000Z"
  },
  "LAS": {
    "raw": "METAR KLAS 021156Z 22018G28KT 10SM FEW070 FEW250 15/04 A2973 RMK AO2 PK WND 21032/1142 SLP050 T01500044 10189 20150 56004",
    "icao": "KLAS",
    "flightCategory": "VFR",
    "windDir": 220,
    "windSpeed": 18,
    "windGust": 28,
    "visibility": 10,
    "ceiling": null,
    "temp": 15,
    "dewpoint": 4.4,
    "altimeter": 29.73,
    "conditions": "",
    "observationTime": "2026-04-02T12:00:00.000Z"
  },
  "LAX": {
    "raw": "METAR KLAX 021153Z 27009KT 10SM FEW012 FEW021 SCT042 BKN250 16/12 A2996 RMK AO2 SLP142 T01560122 10167 20150 56015 $",
    "icao": "KLAX",
    "flightCategory": "VFR",
    "windDir": 270,
    "windSpeed": 9,
    "windGust": null,
    "visibility": 10,
    "ceiling": 25000,
    "temp": 15.6,
    "dewpoint": 12.2,
    "altimeter": 29.96,
    "conditions": "",
    "observationTime": "2026-04-02T12:00:00.000Z"
  }
}