{
  "SYD": {
    "raw": "METAR YSSY 251830Z AUTO 35005KT 9999 // NCD 15/13 Q1025",
    "icao": "YSSY",
    "flightCategory": "VFR",
    "windDir": 350,
    "windSpeed": 5,
    "windGust": null,
    "visibility": 6,
    "ceiling": null,
    "temp": 15,
    "dewpoint": 13,
    "altimeter": 30.27,
    "conditions": "",
    "observationTime": "2026-04-25T18:30:00.000Z"
  },
  "LAS": {
    "raw": "METAR KLAS 251856Z 18011G25KT 10SM BKN200 24/M01 A2971 RMK AO2 SLP041 T02391011",
    "icao": "KLAS",
    "flightCategory": "VFR",
    "windDir": 180,
    "windSpeed": 11,
    "windGust": 25,
    "visibility": 10,
    "ceiling": 20000,
    "temp": 23.9,
    "dewpoint": -1.1,
    "altimeter": 29.71,
    "conditions": "",
    "observationTime": "2026-04-25T19:00:00.000Z"
  },
  "LAX": {
    "raw": "METAR KLAX 251853Z 21008KT 10SM FEW022 SCT026 BKN042 BKN200 18/09 A2991 RMK AO2 SLP127 T01780089",
    "icao": "KLAX",
    "flightCategory": "VFR",
    "windDir": 210,
    "windSpeed": 8,
    "windGust": null,
    "visibility": 10,
    "ceiling": 4200,
    "temp": 17.8,
    "dewpoint": 8.9,
    "altimeter": 29.91,
    "conditions": "",
    "observationTime": "2026-04-25T19:00:00.000Z"
  },
  "ORD": {
    "raw": "METAR KORD 251851Z 04011G18KT 10SM FEW008 FEW030 FEW250 11/06 A3000 RMK AO2 SLP160 T01110056",
    "icao": "KORD",
    "flightCategory": "VFR",
    "windDir": 40,
    "windSpeed": 11,
    "windGust": 18,
    "visibility": 10,
    "ceiling": null,
    "temp": 11.1,
    "dewpoint": 5.6,
    "altimeter": 30,
    "conditions": "",
    "observationTime": "2026-04-25T19:00:00.000Z"
  },
  "LHR": {
    "raw": "METAR EGLL 251820Z COR AUTO VRB02KT 9999 NCD 20/M06 Q1020 NOSIG",
    "icao": "EGLL",
    "flightCategory": "VFR",
    "windDir": null,
    "windSpeed": 2,
    "windGust": null,
    "visibility": 6,
    "ceiling": null,
    "temp": 20,
    "dewpoint": -6,
    "altimeter": 30.12,
    "conditions": "",
    "observationTime": "2026-04-25T18:20:00.000Z"
  }
}