{
  "SYD": {
    "raw": "METAR YSSY 212100Z 16011KT 9999 FEW030 BKN060 19/11 Q1026",
    "icao": "YSSY",
    "flightCategory": "VFR",
    "windDir": 160,
    "windSpeed": 11,
    "windGust": null,
    "visibility": 6,
    "ceiling": 6000,
    "temp": 19,
    "dewpoint": 11,
    "altimeter": 30.3,
    "conditions": "",
    "observationTime": "2026-04-21T21:00:00.000Z"
  },
  "LHR": {
    "raw": "METAR EGLL 212050Z COR AUTO 06011KT 9999 NCD 09/00 Q1025 NOSIG",
    "icao": "EGLL",
    "flightCategory": "VFR",
    "windDir": 60,
    "windSpeed": 11,
    "windGust": null,
    "visibility": 6,
    "ceiling": null,
    "temp": 9,
    "dewpoint": 0,
    "altimeter": 30.27,
    "conditions": "",
    "observationTime": "2026-04-21T21:00:00.000Z"
  },
  "LAS": {
    "raw": "METAR KLAS 212056Z 20015G35KT 10SM FEW200 30/M10 A2982 RMK AO2 PK WND 20035/2003 SLP074 T03001100 56027",
    "icao": "KLAS",
    "flightCategory": "VFR",
    "windDir": 200,
    "windSpeed": 15,
    "windGust": 35,
    "visibility": 10,
    "ceiling": null,
    "temp": 30,
    "dewpoint": -10,
    "altimeter": 29.82,
    "conditions": "",
    "observationTime": "2026-04-21T21:00:00.000Z"
  },
  "LAX": {
    "raw": "METAR KLAX 212053Z 21010G15KT 10SM SCT010 BKN032 BKN140 BKN180 21/12 A3005 RMK AO2 SLP175 60000 T02110117 56004 $",
    "icao": "KLAX",
    "flightCategory": "VFR",
    "windDir": 210,
    "windSpeed": 10,
    "windGust": 15,
    "visibility": 10,
    "ceiling": 3200,
    "temp": 21.1,
    "dewpoint": 11.7,
    "altimeter": 30.05,
    "conditions": "",
    "observationTime": "2026-04-21T21:00:00.000Z"
  },
  "ORD": {
    "raw": "METAR KORD 212051Z 27011KT 10SM BKN055 BKN095 BKN250 23/11 A2985 RMK AO2 RAB1959E08 TSE28 SLP105 P0000 60000 T02280106 58005 $",
    "icao": "KORD",
    "flightCategory": "VFR",
    "windDir": 270,
    "windSpeed": 11,
    "windGust": null,
    "visibility": 10,
    "ceiling": 5500,
    "temp": 22.8,
    "dewpoint": 10.6,
    "altimeter": 29.85,
    "conditions": "",
    "observationTime": "2026-04-21T21:00:00.000Z"
  }
}