{
  "LHR": {
    "raw": "METAR EGLL 131450Z AUTO 27015KT 9999 NCD 21/08 Q1021",
    "icao": "EGLL",
    "flightCategory": "VFR",
    "windDir": 270,
    "windSpeed": 15,
    "windGust": null,
    "visibility": 6,
    "ceiling": null,
    "temp": 21,
    "dewpoint": 8,
    "altimeter": 30.15,
    "conditions": "",
    "observationTime": "2026-06-13T15:00:00.000Z"
  },
  "LAX": {
    "raw": "METAR KLAX 131453Z 21004KT 6SM HZ BKN009 19/16 A2989 RMK AO2 SLP118 T01890161 51007 $",
    "icao": "KLAX",
    "flightCategory": "IFR",
    "windDir": 210,
    "windSpeed": 4,
    "windGust": null,
    "visibility": 6,
    "ceiling": 900,
    "temp": 18.9,
    "dewpoint": 16.1,
    "altimeter": 29.89,
    "conditions": "HZ",
    "observationTime": "2026-06-13T15:00:00.000Z"
  },
  "SYD": {
    "raw": "METAR YSSY 131500Z AUTO 25001KT 9999 // NCD 17/14 Q1026",
    "icao": "YSSY",
    "flightCategory": "VFR",
    "windDir": 250,
    "windSpeed": 1,
    "windGust": null,
    "visibility": 6,
    "ceiling": null,
    "temp": 17,
    "dewpoint": 14,
    "altimeter": 30.3,
    "conditions": "",
    "observationTime": "2026-06-13T15:00:00.000Z"
  },
  "LAS": {
    "raw": "METAR KLAS 131456Z 31005KT 10SM FEW160 32/04 A2984 RMK AO2 SLP072 T03220044 51021",
    "icao": "KLAS",
    "flightCategory": "VFR",
    "windDir": 310,
    "windSpeed": 5,
    "windGust": null,
    "visibility": 10,
    "ceiling": null,
    "temp": 32.2,
    "dewpoint": 4.4,
    "altimeter": 29.84,
    "conditions": "",
    "observationTime": "2026-06-13T15:00:00.000Z"
  },
  "ORD": {
    "raw": "METAR KORD 131451Z 20015G21KT 10SM FEW250 26/14 A2990 RMK AO2 SLP121 T02560139 57016 $",
    "icao": "KORD",
    "flightCategory": "VFR",
    "windDir": 200,
    "windSpeed": 15,
    "windGust": 21,
    "visibility": 10,
    "ceiling": null,
    "temp": 25.6,
    "dewpoint": 13.9,
    "altimeter": 29.9,
    "conditions": "",
    "observationTime": "2026-06-13T15:00:00.000Z"
  }
}