{
  "SYD": {
    "raw": "METAR YSSY 271430Z AUTO 04003KT 9999 // FEW051 16/13 Q1026",
    "icao": "YSSY",
    "flightCategory": "VFR",
    "windDir": 40,
    "windSpeed": 3,
    "windGust": null,
    "visibility": 6,
    "ceiling": null,
    "temp": 16,
    "dewpoint": 13,
    "altimeter": 30.3,
    "conditions": "",
    "observationTime": "2026-04-27T14:30:00.000Z"
  },
  "LAS": {
    "raw": "METAR KLAS 271456Z 21007KT 10SM FEW065 FEW250 13/01 A2989 RMK AO2 SLP110 T01330011 53018",
    "icao": "KLAS",
    "flightCategory": "VFR",
    "windDir": 210,
    "windSpeed": 7,
    "windGust": null,
    "visibility": 10,
    "ceiling": null,
    "temp": 13.3,
    "dewpoint": 1.1,
    "altimeter": 29.89,
    "conditions": "",
    "observationTime": "2026-04-27T15:00:00.000Z"
  },
  "LAX": {
    "raw": "METAR KLAX 271453Z 27008KT 10SM FEW010 SCT026 BKN070 15/08 A3000 RMK AO2 SLP159 T01500083 53008",
    "icao": "KLAX",
    "flightCategory": "VFR",
    "windDir": 270,
    "windSpeed": 8,
    "windGust": null,
    "visibility": 10,
    "ceiling": 7000,
    "temp": 15,
    "dewpoint": 8.3,
    "altimeter": 30,
    "conditions": "",
    "observationTime": "2026-04-27T15:00:00.000Z"
  },
  "ORD": {
    "raw": "METAR KORD 271451Z 14010KT 5SM -RA SCT070 OVC095 14/11 A2981 RMK AO2 RAB1353 SLP097 P0002 60002 T01390111 56022 $",
    "icao": "KORD",
    "flightCategory": "MVFR",
    "windDir": 140,
    "windSpeed": 10,
    "windGust": null,
    "visibility": 5,
    "ceiling": 9500,
    "temp": 13.9,
    "dewpoint": 11.1,
    "altimeter": 29.81,
    "conditions": "-RA",
    "observationTime": "2026-04-27T15:00:00.000Z"
  },
  "LHR": {
    "raw": "METAR EGLL 271420Z AUTO VRB06KT 9999 NCD 21/02 Q1022",
    "icao": "EGLL",
    "flightCategory": "VFR",
    "windDir": null,
    "windSpeed": 6,
    "windGust": null,
    "visibility": 6,
    "ceiling": null,
    "temp": 21,
    "dewpoint": 2,
    "altimeter": 30.18,
    "conditions": "",
    "observationTime": "2026-04-27T14:20:00.000Z"
  }
}