{
  "LAS": {
    "raw": "METAR KLAS 132056Z 18006KT 10SM FEW070 SCT100 BKN200 20/M03 A2989 RMK AO2 SLP108 T02001033 58021",
    "icao": "KLAS",
    "flightCategory": "VFR",
    "windDir": 180,
    "windSpeed": 6,
    "windGust": null,
    "visibility": 10,
    "ceiling": 20000,
    "temp": 20,
    "dewpoint": -3.3,
    "altimeter": 29.89,
    "conditions": "",
    "observationTime": "2026-04-13T21:00:00.000Z"
  },
  "LAX": {
    "raw": "METAR KLAX 132053Z 26017G24KT 10SM FEW027 FEW070 SCT140 18/08 A3004 RMK AO2 LTG DSNT N SLP171 CB DSNT N T01830083 58009",
    "icao": "KLAX",
    "flightCategory": "VFR",
    "windDir": 260,
    "windSpeed": 17,
    "windGust": 24,
    "visibility": 10,
    "ceiling": null,
    "temp": 18.3,
    "dewpoint": 8.3,
    "altimeter": 30.04,
    "conditions": "",
    "observationTime": "2026-04-13T21:00:00.000Z"
  },
  "ORD": {
    "raw": "METAR KORD 132051Z 20009KT 10SM FEW040 FEW130 BKN190 BKN250 25/17 A2984 RMK AO2 SLP101 CB DSNT SW MOV NE T02500167 58023",
    "icao": "KORD",
    "flightCategory": "VFR",
    "windDir": 200,
    "windSpeed": 9,
    "windGust": null,
    "visibility": 10,
    "ceiling": 19000,
    "temp": 25,
    "dewpoint": 16.7,
    "altimeter": 29.84,
    "conditions": "",
    "observationTime": "2026-04-13T21:00:00.000Z"
  },
  "LHR": {
    "raw": "METAR EGLL 132020Z COR AUTO 22007KT 9999 NCD 10/04 Q1015 NOSIG",
    "icao": "EGLL",
    "flightCategory": "VFR",
    "windDir": 220,
    "windSpeed": 7,
    "windGust": null,
    "visibility": 6,
    "ceiling": null,
    "temp": 10,
    "dewpoint": 4,
    "altimeter": 29.97,
    "conditions": "",
    "observationTime": "2026-04-13T20:20:00.000Z"
  },
  "SYD": {
    "raw": "METAR YSSY 132030Z 27011KT CAVOK 14/08 Q1020",
    "icao": "YSSY",
    "flightCategory": "VFR",
    "windDir": 270,
    "windSpeed": 11,
    "windGust": null,
    "visibility": 6,
    "ceiling": null,
    "temp": 14,
    "dewpoint": 8,
    "altimeter": 30.12,
    "conditions": "",
    "observationTime": "2026-04-13T20:30:00.000Z"
  }
}