{
  "SYD": {
    "raw": "METAR YSSY 060030Z 28007KT 9999 SCT035 BKN100 BKN250 22/12 Q1020",
    "icao": "YSSY",
    "flightCategory": "VFR",
    "windDir": 280,
    "windSpeed": 7,
    "windGust": null,
    "visibility": 6,
    "ceiling": 10000,
    "temp": 22,
    "dewpoint": 12,
    "altimeter": 30.12,
    "conditions": "",
    "observationTime": "2026-04-06T00:30:00.000Z"
  },
  "LAS": {
    "raw": "METAR KLAS 060056Z 30003KT 10SM SCT250 28/M11 A2998 RMK AO2 SLP135 T02831106",
    "icao": "KLAS",
    "flightCategory": "VFR",
    "windDir": 300,
    "windSpeed": 3,
    "windGust": null,
    "visibility": 10,
    "ceiling": null,
    "temp": 28.3,
    "dewpoint": -10.6,
    "altimeter": 29.98,
    "conditions": "",
    "observationTime": "2026-04-06T01:00:00.000Z"
  },
  "LAX": {
    "raw": "METAR KLAX 060053Z 25011KT 10SM FEW150 SCT250 21/11 A2996 RMK AO2 SLP145 T02110111 $",
    "icao": "KLAX",
    "flightCategory": "VFR",
    "windDir": 250,
    "windSpeed": 11,
    "windGust": null,
    "visibility": 10,
    "ceiling": null,
    "temp": 21.1,
    "dewpoint": 11.1,
    "altimeter": 29.96,
    "conditions": "",
    "observationTime": "2026-04-06T01:00:00.000Z"
  },
  "ORD": {
    "raw": "METAR KORD 060051Z 24008KT 10SM FEW250 09/M03 A3015 RMK AO2 SLP213 T00941028 $",
    "icao": "KORD",
    "flightCategory": "VFR",
    "windDir": 240,
    "windSpeed": 8,
    "windGust": null,
    "visibility": 10,
    "ceiling": null,
    "temp": 9.4,
    "dewpoint": -2.8,
    "altimeter": 30.15,
    "conditions": "",
    "observationTime": "2026-04-06T01:00:00.000Z"
  },
  "LHR": {
    "raw": "METAR EGLL 060020Z COR AUTO 26004KT 9999 NCD 06/01 Q1026 NOSIG",
    "icao": "EGLL",
    "flightCategory": "VFR",
    "windDir": 260,
    "windSpeed": 4,
    "windGust": null,
    "visibility": 6,
    "ceiling": null,
    "temp": 6,
    "dewpoint": 1,
    "altimeter": 30.3,
    "conditions": "",
    "observationTime": "2026-04-06T00:20:00.000Z"
  }
}