{
  "LAX": {
    "raw": "METAR KLAX 101053Z 24004KT 10SM BKN009 BKN012 16/13 A2993 RMK AO2 SLP135 T01560133 $",
    "icao": "KLAX",
    "flightCategory": "IFR",
    "windDir": 240,
    "windSpeed": 4,
    "windGust": null,
    "visibility": 10,
    "ceiling": 900,
    "temp": 15.6,
    "dewpoint": 13.3,
    "altimeter": 29.93,
    "conditions": "",
    "observationTime": "2026-04-10T11:00:00.000Z"
  },
  "SYD": {
    "raw": "METAR YSSY 101100Z AUTO 01011KT 9999 // NCD 26/14 Q1008",
    "icao": "YSSY",
    "flightCategory": "VFR",
    "windDir": 10,
    "windSpeed": 11,
    "windGust": null,
    "visibility": 6,
    "ceiling": null,
    "temp": 26,
    "dewpoint": 14,
    "altimeter": 29.77,
    "conditions": "",
    "observationTime": "2026-04-10T11:00:00.000Z"
  },
  "LHR": {
    "raw": "METAR EGLL 101050Z COR AUTO 22006KT 150V270 9999 NCD 11/M01 Q1020 NOSIG",
    "icao": "EGLL",
    "flightCategory": "VFR",
    "windDir": 220,
    "windSpeed": 6,
    "windGust": null,
    "visibility": 6,
    "ceiling": null,
    "temp": 11,
    "dewpoint": -1,
    "altimeter": 30.12,
    "conditions": "",
    "observationTime": "2026-04-10T11:00:00.000Z"
  },
  "ORD": {
    "raw": "METAR KORD 101051Z 36008KT 7SM OVC005 07/06 A3010 RMK AO2 SLP193 T00720061",
    "icao": "KORD",
    "flightCategory": "IFR",
    "windDir": 360,
    "windSpeed": 8,
    "windGust": null,
    "visibility": 7,
    "ceiling": 500,
    "temp": 7.2,
    "dewpoint": 6.1,
    "altimeter": 30.1,
    "conditions": "",
    "observationTime": "2026-04-10T11:00:00.000Z"
  },
  "LAS": {
    "raw": "METAR KLAS 101056Z 24013KT 10SM FEW150 BKN200 21/06 A2983 RMK AO2 SLP079 T02110056",
    "icao": "KLAS",
    "flightCategory": "VFR",
    "windDir": 240,
    "windSpeed": 13,
    "windGust": null,
    "visibility": 10,
    "ceiling": 20000,
    "temp": 21.1,
    "dewpoint": 5.6,
    "altimeter": 29.83,
    "conditions": "",
    "observationTime": "2026-04-10T11:00:00.000Z"
  }
}