{
  "SYD": {
    "raw": "SPECI YSSY 011811Z AUTO 30004KT 9000 // FEW008 SCT014 BKN033 18/16 Q1025",
    "icao": "YSSY",
    "flightCategory": "VFR",
    "windDir": 300,
    "windSpeed": 4,
    "windGust": null,
    "visibility": 5.59,
    "ceiling": 3300,
    "temp": 18,
    "dewpoint": 16,
    "altimeter": 30.27,
    "conditions": "",
    "observationTime": "2026-05-01T18:11:00.000Z"
  },
  "LAS": {
    "raw": "SPECI KLAS 011813Z 01009KT 10SM FEW130 26/M07 A2999 RMK AO2 T02611072",
    "icao": "KLAS",
    "flightCategory": "VFR",
    "windDir": 10,
    "windSpeed": 9,
    "windGust": null,
    "visibility": 10,
    "ceiling": null,
    "temp": 26.1,
    "dewpoint": -7.2,
    "altimeter": 29.99,
    "conditions": "",
    "observationTime": "2026-05-01T18:13:00.000Z"
  },
  "LAX": {
    "raw": "SPECI KLAX 011840Z 26009KT 10SM SCT027 21/13 A2997 RMK AO2 T02060128",
    "icao": "KLAX",
    "flightCategory": "VFR",
    "windDir": 260,
    "windSpeed": 9,
    "windGust": null,
    "visibility": 10,
    "ceiling": null,
    "temp": 20.6,
    "dewpoint": 12.8,
    "altimeter": 29.97,
    "conditions": "",
    "observationTime": "2026-05-01T18:40:00.000Z"
  },
  "ORD": {
    "raw": "METAR KORD 011851Z 06012KT 10SM FEW044 BKN060 OVC080 07/00 A3003 RMK AO2 SLP173 T00720000 $",
    "icao": "KORD",
    "flightCategory": "VFR",
    "windDir": 60,
    "windSpeed": 12,
    "windGust": null,
    "visibility": 10,
    "ceiling": 6000,
    "temp": 7.2,
    "dewpoint": 0,
    "altimeter": 30.03,
    "conditions": "",
    "observationTime": "2026-05-01T19:00:00.000Z"
  },
  "LHR": {
    "raw": "METAR EGLL 011820Z COR AUTO 21011KT 9999 FEW035 20/11 Q1019 NOSIG",
    "icao": "EGLL",
    "flightCategory": "VFR",
    "windDir": 210,
    "windSpeed": 11,
    "windGust": null,
    "visibility": 6,
    "ceiling": null,
    "temp": 20,
    "dewpoint": 11,
    "altimeter": 30.09,
    "conditions": "",
    "observationTime": "2026-05-01T18:20:00.000Z"
  }
}