{
  "LAS": {
    "raw": "METAR KLAS 210956Z 16006KT 10SM BKN180 BKN220 34/09 A2986 RMK AO2 SLP077 T03440094 $",
    "icao": "KLAS",
    "flightCategory": "VFR",
    "windDir": 160,
    "windSpeed": 6,
    "windGust": null,
    "visibility": 10,
    "ceiling": 18000,
    "temp": 34.4,
    "dewpoint": 9.4,
    "altimeter": 29.86,
    "conditions": "",
    "observationTime": "2026-07-21T10:00:00.000Z"
  },
  "LAX": {
    "raw": "SPECI KLAX 210951Z 24005KT 10SM FEW008 SCT200 22/19 A2992 RMK AO2 $",
    "icao": "KLAX",
    "flightCategory": "VFR",
    "windDir": 240,
    "windSpeed": 5,
    "windGust": null,
    "visibility": 10,
    "ceiling": null,
    "temp": 22,
    "dewpoint": 19,
    "altimeter": 29.92,
    "conditions": "",
    "observationTime": "2026-07-21T09:51:00.000Z"
  },
  "ORD": {
    "raw": "SPECI KORD 210907Z 26007KT 10SM SCT046 BKN095 OVC150 24/21 A2966 RMK AO2 TSE02 T02440211",
    "icao": "KORD",
    "flightCategory": "VFR",
    "windDir": 260,
    "windSpeed": 7,
    "windGust": null,
    "visibility": 10,
    "ceiling": 9500,
    "temp": 24.4,
    "dewpoint": 21.1,
    "altimeter": 29.66,
    "conditions": "",
    "observationTime": "2026-07-21T09:07:00.000Z"
  },
  "LHR": {
    "raw": "METAR EGLL 210920Z AUTO 03008KT 340V060 9999 SCT031 19/11 Q1029",
    "icao": "EGLL",
    "flightCategory": "VFR",
    "windDir": 30,
    "windSpeed": 8,
    "windGust": null,
    "visibility": 6,
    "ceiling": null,
    "temp": 19,
    "dewpoint": 11,
    "altimeter": 30.39,
    "conditions": "",
    "observationTime": "2026-07-21T09:20:00.000Z"
  },
  "SYD": {
    "raw": "METAR YSSY 210900Z AUTO 03010KT 9999 // NCD 17/12 Q1027",
    "icao": "YSSY",
    "flightCategory": "VFR",
    "windDir": 30,
    "windSpeed": 10,
    "windGust": null,
    "visibility": 6,
    "ceiling": null,
    "temp": 17,
    "dewpoint": 12,
    "altimeter": 30.33,
    "conditions": "",
    "observationTime": "2026-07-21T09:00:00.000Z"
  }
}