{
  "SYD": {
    "raw": "METAR YSSY 050730Z AUTO 14007KT 9999 // FEW060 19/13 Q1023",
    "icao": "YSSY",
    "flightCategory": "VFR",
    "windDir": 140,
    "windSpeed": 7,
    "windGust": null,
    "visibility": 6,
    "ceiling": null,
    "temp": 19,
    "dewpoint": 13,
    "altimeter": 30.21,
    "conditions": "",
    "observationTime": "2026-04-05T07:30:00.000Z"
  },
  "LAS": {
    "raw": "METAR KLAS 050756Z 22004KT 10SM FEW250 17/M11 A3012 RMK AO2 SLP185 T01671106 402610122",
    "icao": "KLAS",
    "flightCategory": "VFR",
    "windDir": 220,
    "windSpeed": 4,
    "windGust": null,
    "visibility": 10,
    "ceiling": null,
    "temp": 16.7,
    "dewpoint": -10.6,
    "altimeter": 30.12,
    "conditions": "",
    "observationTime": "2026-04-05T08:00:00.000Z"
  },
  "LAX": {
    "raw": "METAR KLAX 050753Z 10005KT 10SM CLR 17/09 A3000 RMK AO2 SLP155 T01670094 403060133 $",
    "icao": "KLAX",
    "flightCategory": "VFR",
    "windDir": 100,
    "windSpeed": 5,
    "windGust": null,
    "visibility": 10,
    "ceiling": null,
    "temp": 16.7,
    "dewpoint": 9.4,
    "altimeter": 30,
    "conditions": "",
    "observationTime": "2026-04-05T08:00:00.000Z"
  },
  "ORD": {
    "raw": "METAR KORD 050751Z 26014G22KT 10SM FEW035 BKN055 04/M03 A2997 RMK AO2 SLP152 T00441028 $",
    "icao": "KORD",
    "flightCategory": "VFR",
    "windDir": 260,
    "windSpeed": 14,
    "windGust": 22,
    "visibility": 10,
    "ceiling": 5500,
    "temp": 4.4,
    "dewpoint": -2.8,
    "altimeter": 29.97,
    "conditions": "",
    "observationTime": "2026-04-05T08:00:00.000Z"
  },
  "LHR": {
    "raw": "METAR EGLL 050720Z AUTO 24015KT 9999 BKN030/// //////TCU 09/04 Q1013 NOSIG",
    "icao": "EGLL",
    "flightCategory": "MVFR",
    "windDir": 240,
    "windSpeed": 15,
    "windGust": null,
    "visibility": 6,
    "ceiling": 3000,
    "temp": 9,
    "dewpoint": 4,
    "altimeter": 29.91,
    "conditions": "",
    "observationTime": "2026-04-05T07:20:00.000Z"
  }
}