{
  "LHR": {
    "raw": "METAR EGLL 100150Z AUTO 24008KT 9999 NCD 10/07 Q1016",
    "icao": "EGLL",
    "flightCategory": "VFR",
    "windDir": 240,
    "windSpeed": 8,
    "windGust": null,
    "visibility": 6,
    "ceiling": null,
    "temp": 10,
    "dewpoint": 7,
    "altimeter": 30,
    "conditions": "",
    "observationTime": "2026-06-10T02:00:00.000Z"
  },
  "SYD": {
    "raw": "METAR YSSY 100130Z 01011KT CAVOK 22/12 Q1027",
    "icao": "YSSY",
    "flightCategory": "VFR",
    "windDir": 10,
    "windSpeed": 11,
    "windGust": null,
    "visibility": 6,
    "ceiling": null,
    "temp": 22,
    "dewpoint": 12,
    "altimeter": 30.33,
    "conditions": "",
    "observationTime": "2026-06-10T01:30:00.000Z"
  },
  "LAS": {
    "raw": "METAR KLAS 100156Z 22011KT 10SM CLR 36/02 A2972 RMK AO2 SLP034 T03560022",
    "icao": "KLAS",
    "flightCategory": "VFR",
    "windDir": 220,
    "windSpeed": 11,
    "windGust": null,
    "visibility": 10,
    "ceiling": null,
    "temp": 35.6,
    "dewpoint": 2.2,
    "altimeter": 29.72,
    "conditions": "",
    "observationTime": "2026-06-10T02:00:00.000Z"
  },
  "LAX": {
    "raw": "METAR KLAX 100153Z 27008KT 10SM CLR 21/14 A2984 RMK AO2 SLP102 T02060144",
    "icao": "KLAX",
    "flightCategory": "VFR",
    "windDir": 270,
    "windSpeed": 8,
    "windGust": null,
    "visibility": 10,
    "ceiling": null,
    "temp": 20.6,
    "dewpoint": 14.4,
    "altimeter": 29.84,
    "conditions": "",
    "observationTime": "2026-06-10T02:00:00.000Z"
  },
  "ORD": {
    "raw": "METAR KORD 100151Z 00000KT 10SM FEW038 FEW250 28/22 A2983 RMK AO2 SLP095 T02780217",
    "icao": "KORD",
    "flightCategory": "VFR",
    "windDir": 0,
    "windSpeed": 0,
    "windGust": null,
    "visibility": 10,
    "ceiling": null,
    "temp": 27.8,
    "dewpoint": 21.7,
    "altimeter": 29.83,
    "conditions": "",
    "observationTime": "2026-06-10T02:00:00.000Z"
  }
}