{
  "SYD": {
    "raw": "SPECI YSSY 280430Z 19014KT 6000 SHRA BKN013 BKN018 20/18 Q1008",
    "icao": "YSSY",
    "flightCategory": "MVFR",
    "windDir": 190,
    "windSpeed": 14,
    "windGust": null,
    "visibility": 3.73,
    "ceiling": 1300,
    "temp": 20,
    "dewpoint": 18,
    "altimeter": 29.77,
    "conditions": "SHRA",
    "observationTime": "2026-05-28T04:30:00.000Z"
  },
  "LHR": {
    "raw": "METAR EGLL 280450Z AUTO 07007KT 9999 NCD 16/12 Q1022",
    "icao": "EGLL",
    "flightCategory": "VFR",
    "windDir": 70,
    "windSpeed": 7,
    "windGust": null,
    "visibility": 6,
    "ceiling": null,
    "temp": 16,
    "dewpoint": 12,
    "altimeter": 30.18,
    "conditions": "",
    "observationTime": "2026-05-28T05:00:00.000Z"
  },
  "LAS": {
    "raw": "METAR KLAS 280456Z 18010G24KT 10SM FEW200 23/M05 A2968 RMK AO2 SLP032 T02331050",
    "icao": "KLAS",
    "flightCategory": "VFR",
    "windDir": 180,
    "windSpeed": 10,
    "windGust": 24,
    "visibility": 10,
    "ceiling": null,
    "temp": 23.3,
    "dewpoint": -5,
    "altimeter": 29.68,
    "conditions": "",
    "observationTime": "2026-05-28T05:00:00.000Z"
  },
  "LAX": {
    "raw": "METAR KLAX 280453Z 26010KT 10SM FEW024 FEW030 15/09 A2992 RMK AO2 SLP130 T01500089 $",
    "icao": "KLAX",
    "flightCategory": "VFR",
    "windDir": 260,
    "windSpeed": 10,
    "windGust": null,
    "visibility": 10,
    "ceiling": null,
    "temp": 15,
    "dewpoint": 8.9,
    "altimeter": 29.92,
    "conditions": "",
    "observationTime": "2026-05-28T05:00:00.000Z"
  },
  "ORD": {
    "raw": "METAR KORD 280451Z 36007KT 10SM FEW250 FEW300 17/08 A3006 RMK AO2 SLP175 T01670078 $",
    "icao": "KORD",
    "flightCategory": "VFR",
    "windDir": 360,
    "windSpeed": 7,
    "windGust": null,
    "visibility": 10,
    "ceiling": null,
    "temp": 16.7,
    "dewpoint": 7.8,
    "altimeter": 30.06,
    "conditions": "",
    "observationTime": "2026-05-28T05:00:00.000Z"
  }
}