{
  "LAS": {
    "raw": "METAR KLAS 161956Z 22016G26KT 10SM FEW120 SCT150 BKN210 25/M06 A2980 RMK AO2 PK WND 23030/1938 SLP072 ACSL DSNT E T02501061",
    "icao": "KLAS",
    "flightCategory": "VFR",
    "windDir": 220,
    "windSpeed": 16,
    "windGust": 26,
    "visibility": 10,
    "ceiling": 21000,
    "temp": 25,
    "dewpoint": -6.1,
    "altimeter": 29.8,
    "conditions": "",
    "observationTime": "2026-04-16T20:00:00.000Z"
  },
  "LAX": {
    "raw": "METAR KLAX 161953Z 27009KT 10SM FEW009 FEW035 SCT100 BKN160 21/12 A2993 RMK AO2 SLP135 T02060117",
    "icao": "KLAX",
    "flightCategory": "VFR",
    "windDir": 270,
    "windSpeed": 9,
    "windGust": null,
    "visibility": 10,
    "ceiling": 16000,
    "temp": 20.6,
    "dewpoint": 11.7,
    "altimeter": 29.93,
    "conditions": "",
    "observationTime": "2026-04-16T20:00:00.000Z"
  },
  "ORD": {
    "raw": "METAR KORD 161951Z 28010G16KT 10SM BKN045TCU BKN060 22/13 A2980 RMK AO2 SLP090 TCU NE-E T02220133 $",
    "icao": "KORD",
    "flightCategory": "VFR",
    "windDir": 280,
    "windSpeed": 10,
    "windGust": 16,
    "visibility": 10,
    "ceiling": 4500,
    "temp": 22.2,
    "dewpoint": 13.3,
    "altimeter": 29.8,
    "conditions": "",
    "observationTime": "2026-04-16T20:00:00.000Z"
  },
  "LHR": {
    "raw": "METAR EGLL 161920Z COR AUTO 20010KT 160V220 9999 NCD 13/09 Q1020 NOSIG",
    "icao": "EGLL",
    "flightCategory": "VFR",
    "windDir": 200,
    "windSpeed": 10,
    "windGust": null,
    "visibility": 6,
    "ceiling": null,
    "temp": 13,
    "dewpoint": 9,
    "altimeter": 30.12,
    "conditions": "",
    "observationTime": "2026-04-16T19:20:00.000Z"
  },
  "SYD": {
    "raw": "METAR YSSY 161930Z AUTO 31004KT 9999 // NCD 15/10 Q1012",
    "icao": "YSSY",
    "flightCategory": "VFR",
    "windDir": 310,
    "windSpeed": 4,
    "windGust": null,
    "visibility": 6,
    "ceiling": null,
    "temp": 15,
    "dewpoint": 10,
    "altimeter": 29.88,
    "conditions": "",
    "observationTime": "2026-04-16T19:30:00.000Z"
  }
}