{
  "ORD": {
    "raw": "METAR KORD 061351Z 30013G20KT 10SM SCT020 06/02 A3021 RMK AO2 SLP232 T00610017",
    "icao": "KORD",
    "flightCategory": "VFR",
    "windDir": 300,
    "windSpeed": 13,
    "windGust": 20,
    "visibility": 10,
    "ceiling": null,
    "temp": 6.1,
    "dewpoint": 1.7,
    "altimeter": 30.21,
    "conditions": "",
    "observationTime": "2026-04-06T14:00:00.000Z"
  },
  "SYD": {
    "raw": "METAR YSSY 061400Z AUTO 33007KT 9999 // NCD 17/14 Q1013",
    "icao": "YSSY",
    "flightCategory": "VFR",
    "windDir": 330,
    "windSpeed": 7,
    "windGust": null,
    "visibility": 6,
    "ceiling": null,
    "temp": 17,
    "dewpoint": 14,
    "altimeter": 29.91,
    "conditions": "",
    "observationTime": "2026-04-06T14:00:00.000Z"
  },
  "LHR": {
    "raw": "METAR EGLL 061350Z COR AUTO 17010KT 9999 NCD 15/01 Q1025 NOSIG",
    "icao": "EGLL",
    "flightCategory": "VFR",
    "windDir": 170,
    "windSpeed": 10,
    "windGust": null,
    "visibility": 6,
    "ceiling": null,
    "temp": 15,
    "dewpoint": 1,
    "altimeter": 30.27,
    "conditions": "",
    "observationTime": "2026-04-06T14:00:00.000Z"
  },
  "LAS": {
    "raw": "METAR KLAS 061356Z 21003KT 10SM SCT130 OVC200 18/M07 A2996 RMK AO2 SLP127 T01831072",
    "icao": "KLAS",
    "flightCategory": "VFR",
    "windDir": 210,
    "windSpeed": 3,
    "windGust": null,
    "visibility": 10,
    "ceiling": 20000,
    "temp": 18.3,
    "dewpoint": -7.2,
    "altimeter": 29.96,
    "conditions": "",
    "observationTime": "2026-04-06T14:00:00.000Z"
  },
  "LAX": {
    "raw": "METAR KLAX 061353Z 08003KT 10SM FEW008 FEW120 BKN140 OVC160 17/15 A2999 RMK AO2 SLP152 T01720150 $",
    "icao": "KLAX",
    "flightCategory": "VFR",
    "windDir": 80,
    "windSpeed": 3,
    "windGust": null,
    "visibility": 10,
    "ceiling": 14000,
    "temp": 17.2,
    "dewpoint": 15,
    "altimeter": 29.99,
    "conditions": "",
    "observationTime": "2026-04-06T14:00:00.000Z"
  }
}