{
  "SYD": {
    "raw": "METAR YSSY 141430Z AUTO 35006KT 9999 // NCD 17/12 Q1019",
    "icao": "YSSY",
    "flightCategory": "VFR",
    "windDir": 350,
    "windSpeed": 6,
    "windGust": null,
    "visibility": 6,
    "ceiling": null,
    "temp": 17,
    "dewpoint": 12,
    "altimeter": 30.09,
    "conditions": "",
    "observationTime": "2026-04-14T14:30:00.000Z"
  },
  "LAS": {
    "raw": "METAR KLAS 141456Z VRB04KT 10SM CLR 15/01 A3002 RMK AO2 SLP157 T01500011 53015",
    "icao": "KLAS",
    "flightCategory": "VFR",
    "windDir": null,
    "windSpeed": 4,
    "windGust": null,
    "visibility": 10,
    "ceiling": null,
    "temp": 15,
    "dewpoint": 1.1,
    "altimeter": 30.02,
    "conditions": "",
    "observationTime": "2026-04-14T15:00:00.000Z"
  },
  "LAX": {
    "raw": "METAR KLAX 141453Z 05005KT 10SM FEW014 FEW025 14/08 A3011 RMK AO2 SLP194 T01440083 53012",
    "icao": "KLAX",
    "flightCategory": "VFR",
    "windDir": 50,
    "windSpeed": 5,
    "windGust": null,
    "visibility": 10,
    "ceiling": null,
    "temp": 14.4,
    "dewpoint": 8.3,
    "altimeter": 30.11,
    "conditions": "",
    "observationTime": "2026-04-14T15:00:00.000Z"
  },
  "ORD": {
    "raw": "METAR KORD 141451Z 18008KT 10SM FEW050 SCT200 BKN250 19/15 A2982 RMK AO2 SLP096 60001 T01890150 58003",
    "icao": "KORD",
    "flightCategory": "VFR",
    "windDir": 180,
    "windSpeed": 8,
    "windGust": null,
    "visibility": 10,
    "ceiling": 25000,
    "temp": 18.9,
    "dewpoint": 15,
    "altimeter": 29.82,
    "conditions": "",
    "observationTime": "2026-04-14T15:00:00.000Z"
  },
  "LHR": {
    "raw": "METAR EGLL 141420Z COR AUTO 21016KT 9999 OVC045 15/05 Q1017 NOSIG",
    "icao": "EGLL",
    "flightCategory": "VFR",
    "windDir": 210,
    "windSpeed": 16,
    "windGust": null,
    "visibility": 6,
    "ceiling": 4500,
    "temp": 15,
    "dewpoint": 5,
    "altimeter": 30.03,
    "conditions": "",
    "observationTime": "2026-04-14T14:20:00.000Z"
  }
}