{
  "SYD": {
    "raw": "SPECI YSSY 252252Z 01003KT 8000 -SHRA SCT014 SCT025 BKN060 19/18 Q1020",
    "icao": "YSSY",
    "flightCategory": "MVFR",
    "windDir": 10,
    "windSpeed": 3,
    "windGust": null,
    "visibility": 4.97,
    "ceiling": 6000,
    "temp": 19,
    "dewpoint": 18,
    "altimeter": 30.12,
    "conditions": "-SHRA",
    "observationTime": "2026-05-25T22:52:00.000Z"
  },
  "LHR": {
    "raw": "METAR EGLL 252250Z AUTO 08004KT 9999 NCD 23/15 Q1029",
    "icao": "EGLL",
    "flightCategory": "VFR",
    "windDir": 80,
    "windSpeed": 4,
    "windGust": null,
    "visibility": 6,
    "ceiling": null,
    "temp": 23,
    "dewpoint": 15,
    "altimeter": 30.39,
    "conditions": "",
    "observationTime": "2026-05-25T23:00:00.000Z"
  },
  "LAS": {
    "raw": "METAR KLAS 252256Z VRB03KT 10SM FEW120 FEW250 34/M04 A2970 RMK AO2 SLP031 T03441039",
    "icao": "KLAS",
    "flightCategory": "VFR",
    "windDir": null,
    "windSpeed": 3,
    "windGust": null,
    "visibility": 10,
    "ceiling": null,
    "temp": 34.4,
    "dewpoint": -3.9,
    "altimeter": 29.7,
    "conditions": "",
    "observationTime": "2026-05-25T23:00:00.000Z"
  },
  "LAX": {
    "raw": "METAR KLAX 252253Z 26014KT 10SM FEW019 19/12 A2991 RMK AO2 SLP126 T01940117 $",
    "icao": "KLAX",
    "flightCategory": "VFR",
    "windDir": 260,
    "windSpeed": 14,
    "windGust": null,
    "visibility": 10,
    "ceiling": null,
    "temp": 19.4,
    "dewpoint": 11.7,
    "altimeter": 29.91,
    "conditions": "",
    "observationTime": "2026-05-25T23:00:00.000Z"
  },
  "ORD": {
    "raw": "METAR KORD 252251Z 17011G16KT 10SM FEW075 FEW110 FEW250 28/11 A3004 RMK AO2 SLP168 T02780111 $",
    "icao": "KORD",
    "flightCategory": "VFR",
    "windDir": 170,
    "windSpeed": 11,
    "windGust": 16,
    "visibility": 10,
    "ceiling": null,
    "temp": 27.8,
    "dewpoint": 11.1,
    "altimeter": 30.04,
    "conditions": "",
    "observationTime": "2026-05-25T23:00:00.000Z"
  }
}