{
  "SYD": {
    "raw": "METAR YSSY 150230Z 29010KT CAVOK 25/10 Q1018",
    "icao": "YSSY",
    "flightCategory": "VFR",
    "windDir": 290,
    "windSpeed": 10,
    "windGust": null,
    "visibility": 6,
    "ceiling": null,
    "temp": 25,
    "dewpoint": 10,
    "altimeter": 30.06,
    "conditions": "",
    "observationTime": "2026-04-15T02:30:00.000Z"
  },
  "LAS": {
    "raw": "METAR KLAS 150256Z 24007KT 10SM FEW250 22/M09 A2994 RMK AO2 SLP125 T02221094 55002",
    "icao": "KLAS",
    "flightCategory": "VFR",
    "windDir": 240,
    "windSpeed": 7,
    "windGust": null,
    "visibility": 10,
    "ceiling": null,
    "temp": 22.2,
    "dewpoint": -9.4,
    "altimeter": 29.94,
    "conditions": "",
    "observationTime": "2026-04-15T03:00:00.000Z"
  },
  "LAX": {
    "raw": "METAR KLAX 150253Z 24011KT 10SM FEW250 16/12 A3002 RMK AO2 SLP166 T01610117 55005",
    "icao": "KLAX",
    "flightCategory": "VFR",
    "windDir": 240,
    "windSpeed": 11,
    "windGust": null,
    "visibility": 10,
    "ceiling": null,
    "temp": 16.1,
    "dewpoint": 11.7,
    "altimeter": 30.02,
    "conditions": "",
    "observationTime": "2026-04-15T03:00:00.000Z"
  },
  "ORD": {
    "raw": "SPECI KORD 150249Z 19019G28KT 10SM TS SCT048CB BKN080 BKN150 OVC240 26/18 A2964 RMK AO2 PK WND 19028/0249 TSB48 LTGICCCCG W-N TS W-N MOV E",
    "icao": "KORD",
    "flightCategory": "VFR",
    "windDir": 190,
    "windSpeed": 19,
    "windGust": 28,
    "visibility": 10,
    "ceiling": 8000,
    "temp": 26,
    "dewpoint": 18,
    "altimeter": 29.64,
    "conditions": "TS",
    "observationTime": "2026-04-15T02:49:00.000Z"
  },
  "LHR": {
    "raw": "METAR EGLL 150220Z COR AUTO 18010KT 9999 OVC011 13/10 Q1016 NOSIG",
    "icao": "EGLL",
    "flightCategory": "MVFR",
    "windDir": 180,
    "windSpeed": 10,
    "windGust": null,
    "visibility": 6,
    "ceiling": 1100,
    "temp": 13,
    "dewpoint": 10,
    "altimeter": 30,
    "conditions": "",
    "observationTime": "2026-04-15T02:20:00.000Z"
  }
}