{
  "SYD": {
    "raw": "METAR YSSY 220600Z 18012KT 9999 FEW040 16/09 Q1024",
    "icao": "YSSY",
    "flightCategory": "VFR",
    "windDir": 180,
    "windSpeed": 12,
    "windGust": null,
    "visibility": 6,
    "ceiling": null,
    "temp": 16,
    "dewpoint": 9,
    "altimeter": 30.24,
    "conditions": "",
    "observationTime": "2026-06-22T06:00:00.000Z"
  },
  "LHR": {
    "raw": "METAR EGLL 220620Z AUTO 07007KT 040V100 9999 FEW011 19/15 Q1027",
    "icao": "EGLL",
    "flightCategory": "VFR",
    "windDir": 70,
    "windSpeed": 7,
    "windGust": null,
    "visibility": 6,
    "ceiling": null,
    "temp": 19,
    "dewpoint": 15,
    "altimeter": 30.33,
    "conditions": "",
    "observationTime": "2026-06-22T06:20:00.000Z"
  },
  "LAS": {
    "raw": "METAR KLAS 220556Z 19007KT 10SM CLR 32/M11 A2977 RMK SLP050 T03221111 10394 20322 51018",
    "icao": "KLAS",
    "flightCategory": "VFR",
    "windDir": 190,
    "windSpeed": 7,
    "windGust": null,
    "visibility": 10,
    "ceiling": null,
    "temp": 32.2,
    "dewpoint": -11.1,
    "altimeter": 29.77,
    "conditions": "",
    "observationTime": "2026-06-22T06:00:00.000Z"
  },
  "LAX": {
    "raw": "METAR KLAX 220553Z 25007KT 10SM FEW015 17/14 A2991 RMK AO2 SLP125 T01720144 10211 20172 50009 $",
    "icao": "KLAX",
    "flightCategory": "VFR",
    "windDir": 250,
    "windSpeed": 7,
    "windGust": null,
    "visibility": 10,
    "ceiling": null,
    "temp": 17.2,
    "dewpoint": 14.4,
    "altimeter": 29.91,
    "conditions": "",
    "observationTime": "2026-06-22T06:00:00.000Z"
  },
  "ORD": {
    "raw": "METAR KORD 220551Z 05013KT 8SM -RA BKN008 BKN015 OVC070 15/14 A2988 RMK AO2 SLP117 P0001 60017 T01500139 10156 20144 402170144 50006 $",
    "icao": "KORD",
    "flightCategory": "IFR",
    "windDir": 50,
    "windSpeed": 13,
    "windGust": null,
    "visibility": 8,
    "ceiling": 800,
    "temp": 15,
    "dewpoint": 13.9,
    "altimeter": 29.88,
    "conditions": "-RA",
    "observationTime": "2026-06-22T06:00:00.000Z"
  }
}