{
  "SYD": {
    "raw": "SPECI YSSY 162126Z AUTO 26006KT 9999 -SHRA FEW007 SCT023 OVC049 13/13 Q1034",
    "icao": "YSSY",
    "flightCategory": "VFR",
    "windDir": 260,
    "windSpeed": 6,
    "windGust": null,
    "visibility": 6,
    "ceiling": 4900,
    "temp": 13,
    "dewpoint": 13,
    "altimeter": 30.53,
    "conditions": "-SHRA",
    "observationTime": "2026-07-16T21:26:00.000Z"
  },
  "LAS": {
    "raw": "METAR KLAS 162156Z 13009G17KT 10SM FEW120 SCT170 BKN220 41/11 A2977 RMK AO2 SLP045 CB DSNT N-E-S T04110106 $",
    "icao": "KLAS",
    "flightCategory": "VFR",
    "windDir": 130,
    "windSpeed": 9,
    "windGust": 17,
    "visibility": 10,
    "ceiling": 22000,
    "temp": 41.1,
    "dewpoint": 10.6,
    "altimeter": 29.77,
    "conditions": "",
    "observationTime": "2026-07-16T22:00:00.000Z"
  },
  "LAX": {
    "raw": "METAR KLAX 162153Z 25010KT 10SM FEW090 26/19 A2981 RMK AO2 SLP093 T02610189 $",
    "icao": "KLAX",
    "flightCategory": "VFR",
    "windDir": 250,
    "windSpeed": 10,
    "windGust": null,
    "visibility": 10,
    "ceiling": null,
    "temp": 26.1,
    "dewpoint": 18.9,
    "altimeter": 29.81,
    "conditions": "",
    "observationTime": "2026-07-16T22:00:00.000Z"
  },
  "ORD": {
    "raw": "METAR KORD 162151Z 04011KT 3/4SM R10L/4000V5500FT FU VV019 31/16 A3003 RMK AO2 SLP163 T03060156",
    "icao": "KORD",
    "flightCategory": "LIFR",
    "windDir": 40,
    "windSpeed": 11,
    "windGust": null,
    "visibility": 0.75,
    "ceiling": 1900,
    "temp": 30.6,
    "dewpoint": 15.6,
    "altimeter": 30.03,
    "conditions": "FU",
    "observationTime": "2026-07-16T22:00:00.000Z"
  },
  "LHR": {
    "raw": "METAR EGLL 162120Z AUTO 09005KT 9999 NCD 21/11 Q1018",
    "icao": "EGLL",
    "flightCategory": "VFR",
    "windDir": 90,
    "windSpeed": 5,
    "windGust": null,
    "visibility": 6,
    "ceiling": null,
    "temp": 21,
    "dewpoint": 11,
    "altimeter": 30.06,
    "conditions": "",
    "observationTime": "2026-07-16T21:20:00.000Z"
  }
}