{
  "LHR": {
    "raw": "METAR EGLL 121950Z AUTO 28011KT 9999 NCD 17/11 Q1021",
    "icao": "EGLL",
    "flightCategory": "VFR",
    "windDir": 280,
    "windSpeed": 11,
    "windGust": null,
    "visibility": 6,
    "ceiling": null,
    "temp": 17,
    "dewpoint": 11,
    "altimeter": 30.15,
    "conditions": "",
    "observationTime": "2026-06-12T20:00:00.000Z"
  },
  "SYD": {
    "raw": "METAR YSSY 121930Z AUTO 34007KT 9999 // NCD 15/14 Q1029",
    "icao": "YSSY",
    "flightCategory": "VFR",
    "windDir": 340,
    "windSpeed": 7,
    "windGust": null,
    "visibility": 6,
    "ceiling": null,
    "temp": 15,
    "dewpoint": 14,
    "altimeter": 30.39,
    "conditions": "",
    "observationTime": "2026-06-12T19:30:00.000Z"
  },
  "LAS": {
    "raw": "METAR KLAS 121956Z COR VRB04KT 10SM FEW120 FEW200 SCT250 40/02 A2982 RMK AO2 SLP064 T04000022",
    "icao": "KLAS",
    "flightCategory": "VFR",
    "windDir": null,
    "windSpeed": 4,
    "windGust": null,
    "visibility": 10,
    "ceiling": null,
    "temp": 40,
    "dewpoint": 2.2,
    "altimeter": 29.82,
    "conditions": "",
    "observationTime": "2026-06-12T20:00:00.000Z"
  },
  "LAX": {
    "raw": "METAR KLAX 121953Z 27011KT 10SM FEW010 SCT045 22/17 A2986 RMK AO2 SLP111 T02220167",
    "icao": "KLAX",
    "flightCategory": "VFR",
    "windDir": 270,
    "windSpeed": 11,
    "windGust": null,
    "visibility": 10,
    "ceiling": null,
    "temp": 22.2,
    "dewpoint": 16.7,
    "altimeter": 29.86,
    "conditions": "",
    "observationTime": "2026-06-12T20:00:00.000Z"
  },
  "ORD": {
    "raw": "METAR KORD 121951Z 25012G19KT 10SM SCT055 27/13 A2990 RMK AO2 PK WND 24026/1933 SLP122 T02670133",
    "icao": "KORD",
    "flightCategory": "VFR",
    "windDir": 250,
    "windSpeed": 12,
    "windGust": 19,
    "visibility": 10,
    "ceiling": null,
    "temp": 26.7,
    "dewpoint": 13.3,
    "altimeter": 29.9,
    "conditions": "",
    "observationTime": "2026-06-12T20:00:00.000Z"
  }
}