{
  "LHR": {
    "raw": "METAR EGLL 192250Z AUTO 25010KT 9999 NCD 20/16 Q1015",
    "icao": "EGLL",
    "flightCategory": "VFR",
    "windDir": 250,
    "windSpeed": 10,
    "windGust": null,
    "visibility": 6,
    "ceiling": null,
    "temp": 20,
    "dewpoint": 16,
    "altimeter": 29.97,
    "conditions": "",
    "observationTime": "2026-06-19T23:00:00.000Z"
  },
  "SYD": {
    "raw": "METAR YSSY 192230Z 31008KT CAVOK 16/08 Q1020",
    "icao": "YSSY",
    "flightCategory": "VFR",
    "windDir": 310,
    "windSpeed": 8,
    "windGust": null,
    "visibility": 6,
    "ceiling": null,
    "temp": 16,
    "dewpoint": 8,
    "altimeter": 30.12,
    "conditions": "",
    "observationTime": "2026-06-19T22:30:00.000Z"
  },
  "LAS": {
    "raw": "METAR KLAS 192256Z 20009KT 10SM CLR 38/M03 A2978 RMK AO2 SLP053 T03831028",
    "icao": "KLAS",
    "flightCategory": "VFR",
    "windDir": 200,
    "windSpeed": 9,
    "windGust": null,
    "visibility": 10,
    "ceiling": null,
    "temp": 38.3,
    "dewpoint": -2.8,
    "altimeter": 29.78,
    "conditions": "",
    "observationTime": "2026-06-19T23:00:00.000Z"
  },
  "LAX": {
    "raw": "METAR KLAX 192253Z 26016KT 10SM FEW007 FEW016 SCT030 20/14 A3000 RMK AO2 PK WND 27027/2239 SLP156 T02000139",
    "icao": "KLAX",
    "flightCategory": "VFR",
    "windDir": 260,
    "windSpeed": 16,
    "windGust": null,
    "visibility": 10,
    "ceiling": null,
    "temp": 20,
    "dewpoint": 13.9,
    "altimeter": 30,
    "conditions": "",
    "observationTime": "2026-06-19T23:00:00.000Z"
  },
  "ORD": {
    "raw": "METAR KORD 192251Z 26013G23KT 10SM FEW060 BKN180 BKN250 24/09 A2996 RMK AO2 SLP143 T02390089 $",
    "icao": "KORD",
    "flightCategory": "VFR",
    "windDir": 260,
    "windSpeed": 13,
    "windGust": 23,
    "visibility": 10,
    "ceiling": 18000,
    "temp": 23.9,
    "dewpoint": 8.9,
    "altimeter": 29.96,
    "conditions": "",
    "observationTime": "2026-06-19T23:00:00.000Z"
  }
}