{
  "ORD": {
    "raw": "METAR KORD 120051Z 06011KT 4SM R10L/3500VP6000FT +TSRA BR FEW020 SCT035CB BKN055 OVC130 22/19 A2958 RMK AO2 RAB41 TSB36 PRESFR SLP013 CONS LTGICCG OHD TS OHD MOV NE P0009 T02170194 $",
    "icao": "KORD",
    "flightCategory": "MVFR",
    "windDir": 60,
    "windSpeed": 11,
    "windGust": null,
    "visibility": 4,
    "ceiling": 5500,
    "temp": 21.7,
    "dewpoint": 19.4,
    "altimeter": 29.58,
    "conditions": "+TSRA BR",
    "observationTime": "2026-06-12T01:00:00.000Z"
  },
  "LAX": {
    "raw": "METAR KLAX 120053Z 26010KT 10SM FEW011 FEW250 21/17 A2984 RMK AO2 SLP103 T02110167",
    "icao": "KLAX",
    "flightCategory": "VFR",
    "windDir": 260,
    "windSpeed": 10,
    "windGust": null,
    "visibility": 10,
    "ceiling": null,
    "temp": 21.1,
    "dewpoint": 16.7,
    "altimeter": 29.84,
    "conditions": "",
    "observationTime": "2026-06-12T01:00:00.000Z"
  },
  "SYD": {
    "raw": "METAR YSSY 120100Z AUTO 19009KT 9999 // BKN025 BKN035 OVC100 19/16 Q1033",
    "icao": "YSSY",
    "flightCategory": "MVFR",
    "windDir": 190,
    "windSpeed": 9,
    "windGust": null,
    "visibility": 6,
    "ceiling": 2500,
    "temp": 19,
    "dewpoint": 16,
    "altimeter": 30.5,
    "conditions": "",
    "observationTime": "2026-06-12T01:00:00.000Z"
  },
  "LHR": {
    "raw": "METAR EGLL 120120Z AUTO 26017KT 9999 OVC011 16/14 Q1018",
    "icao": "EGLL",
    "flightCategory": "MVFR",
    "windDir": 260,
    "windSpeed": 17,
    "windGust": null,
    "visibility": 6,
    "ceiling": 1100,
    "temp": 16,
    "dewpoint": 14,
    "altimeter": 30.06,
    "conditions": "",
    "observationTime": "2026-06-12T01:20:00.000Z"
  },
  "LAS": {
    "raw": "METAR KLAS 120056Z 35003KT 10SM FEW250 38/M02 A2978 RMK AO2 SLP051 T03831017",
    "icao": "KLAS",
    "flightCategory": "VFR",
    "windDir": 350,
    "windSpeed": 3,
    "windGust": null,
    "visibility": 10,
    "ceiling": null,
    "temp": 38.3,
    "dewpoint": -1.7,
    "altimeter": 29.78,
    "conditions": "",
    "observationTime": "2026-06-12T01:00:00.000Z"
  }
}