{
  "SYD": {
    "raw": "METAR YSSY 112130Z 29013KT 9999 FEW044 SCT055 BKN070 11/06 Q1012",
    "icao": "YSSY",
    "flightCategory": "VFR",
    "windDir": 290,
    "windSpeed": 13,
    "windGust": null,
    "visibility": 6,
    "ceiling": 7000,
    "temp": 11,
    "dewpoint": 6,
    "altimeter": 29.88,
    "conditions": "",
    "observationTime": "2026-07-11T21:30:00.000Z"
  },
  "LAS": {
    "raw": "METAR KLAS 112156Z 10012KT 10SM FEW200 BKN250 42/07 A2988 RMK AO2 SLP082 T04170072",
    "icao": "KLAS",
    "flightCategory": "VFR",
    "windDir": 100,
    "windSpeed": 12,
    "windGust": null,
    "visibility": 10,
    "ceiling": 25000,
    "temp": 41.7,
    "dewpoint": 7.2,
    "altimeter": 29.88,
    "conditions": "",
    "observationTime": "2026-07-11T22:00:00.000Z"
  },
  "LAX": {
    "raw": "METAR KLAX 112153Z 26008KT 10SM FEW011 FEW220 BKN280 23/16 A2992 RMK AO2 SLP129 T02280156 $",
    "icao": "KLAX",
    "flightCategory": "VFR",
    "windDir": 260,
    "windSpeed": 8,
    "windGust": null,
    "visibility": 10,
    "ceiling": 28000,
    "temp": 22.8,
    "dewpoint": 15.6,
    "altimeter": 29.92,
    "conditions": "",
    "observationTime": "2026-07-11T22:00:00.000Z"
  },
  "ORD": {
    "raw": "METAR KORD 112151Z 02014G22KT 10SM FEW050 BKN250 28/17 A3007 RMK AO2 SLP178 T02780172 $",
    "icao": "KORD",
    "flightCategory": "VFR",
    "windDir": 20,
    "windSpeed": 14,
    "windGust": 22,
    "visibility": 10,
    "ceiling": 25000,
    "temp": 27.8,
    "dewpoint": 17.2,
    "altimeter": 30.07,
    "conditions": "",
    "observationTime": "2026-07-11T22:00:00.000Z"
  },
  "LHR": {
    "raw": "METAR EGLL 112120Z AUTO 07011KT 9999 NCD 21/16 Q1022",
    "icao": "EGLL",
    "flightCategory": "VFR",
    "windDir": 70,
    "windSpeed": 11,
    "windGust": null,
    "visibility": 6,
    "ceiling": null,
    "temp": 21,
    "dewpoint": 16,
    "altimeter": 30.18,
    "conditions": "",
    "observationTime": "2026-07-11T21:20:00.000Z"
  }
}