{
  "SYD": {
    "raw": "METAR YSSY 110200Z 25009KT CAVOK 23/05 Q1008",
    "icao": "YSSY",
    "flightCategory": "VFR",
    "windDir": 250,
    "windSpeed": 9,
    "windGust": null,
    "visibility": 6,
    "ceiling": null,
    "temp": 23,
    "dewpoint": 5,
    "altimeter": 29.77,
    "conditions": "",
    "observationTime": "2026-04-11T02:00:00.000Z"
  },
  "LHR": {
    "raw": "METAR EGLL 110150Z COR AUTO 14012KT 9999 NCD 10/03 Q1006 NOSIG",
    "icao": "EGLL",
    "flightCategory": "VFR",
    "windDir": 140,
    "windSpeed": 12,
    "windGust": null,
    "visibility": 6,
    "ceiling": null,
    "temp": 10,
    "dewpoint": 3,
    "altimeter": 29.71,
    "conditions": "",
    "observationTime": "2026-04-11T02:00:00.000Z"
  },
  "LAS": {
    "raw": "METAR KLAS 110156Z 22014G23KT 10SM BKN090 BKN110 BKN250 27/M01 A2977 RMK AO2 SLP060 VIRGA S-W-N CB DSNT NE AND S-SW T02671006",
    "icao": "KLAS",
    "flightCategory": "VFR",
    "windDir": 220,
    "windSpeed": 14,
    "windGust": 23,
    "visibility": 10,
    "ceiling": 9000,
    "temp": 26.7,
    "dewpoint": -0.6,
    "altimeter": 29.77,
    "conditions": "",
    "observationTime": "2026-04-11T02:00:00.000Z"
  },
  "LAX": {
    "raw": "METAR KLAX 110153Z 27013KT 10SM SCT013 SCT065 BKN200 BKN240 17/13 A2993 RMK AO2 SLP133 T01720133 $",
    "icao": "KLAX",
    "flightCategory": "VFR",
    "windDir": 270,
    "windSpeed": 13,
    "windGust": null,
    "visibility": 10,
    "ceiling": 20000,
    "temp": 17.2,
    "dewpoint": 13.3,
    "altimeter": 29.93,
    "conditions": "",
    "observationTime": "2026-04-11T02:00:00.000Z"
  },
  "ORD": {
    "raw": "METAR KORD 110151Z 09006KT 10SM FEW045 05/01 A3037 RMK AO2 SLP289 T00500006 $",
    "icao": "KORD",
    "flightCategory": "VFR",
    "windDir": 90,
    "windSpeed": 6,
    "windGust": null,
    "visibility": 10,
    "ceiling": null,
    "temp": 5,
    "dewpoint": 0.6,
    "altimeter": 30.37,
    "conditions": "",
    "observationTime": "2026-04-11T02:00:00.000Z"
  }
}