{
  "LHR": {
    "raw": "METAR EGLL 110550Z AUTO 05006KT 9999 NCD 19/15 Q1020",
    "icao": "EGLL",
    "flightCategory": "VFR",
    "windDir": 50,
    "windSpeed": 6,
    "windGust": null,
    "visibility": 6,
    "ceiling": null,
    "temp": 19,
    "dewpoint": 15,
    "altimeter": 30.12,
    "conditions": "",
    "observationTime": "2026-07-11T06:00:00.000Z"
  },
  "SYD": {
    "raw": "METAR YSSY 110600Z 03008KT 9999 FEW036 17/10 Q1015",
    "icao": "YSSY",
    "flightCategory": "VFR",
    "windDir": 30,
    "windSpeed": 8,
    "windGust": null,
    "visibility": 6,
    "ceiling": null,
    "temp": 17,
    "dewpoint": 10,
    "altimeter": 29.97,
    "conditions": "",
    "observationTime": "2026-07-11T06:00:00.000Z"
  },
  "LAS": {
    "raw": "METAR KLAS 110556Z 21004KT 10SM CLR 36/M03 A2980 RMK AO2 SLP055 T03561028 10433 20356 50012",
    "icao": "KLAS",
    "flightCategory": "VFR",
    "windDir": 210,
    "windSpeed": 4,
    "windGust": null,
    "visibility": 10,
    "ceiling": null,
    "temp": 35.6,
    "dewpoint": -2.8,
    "altimeter": 29.8,
    "conditions": "",
    "observationTime": "2026-07-11T06:00:00.000Z"
  },
  "LAX": {
    "raw": "METAR KLAX 110553Z 26005KT 9SM SCT008 OVC010 19/17 A2989 RMK AO2 SLP118 T01940167 10228 20189 51013 $",
    "icao": "KLAX",
    "flightCategory": "MVFR",
    "windDir": 260,
    "windSpeed": 5,
    "windGust": null,
    "visibility": 9,
    "ceiling": 1000,
    "temp": 19.4,
    "dewpoint": 16.7,
    "altimeter": 29.89,
    "conditions": "",
    "observationTime": "2026-07-11T06:00:00.000Z"
  },
  "ORD": {
    "raw": "METAR KORD 110551Z 01006KT 10SM BKN250 20/17 A2998 RMK AO2 SLP148 T02000167 10239 20194 402720194 58005",
    "icao": "KORD",
    "flightCategory": "VFR",
    "windDir": 10,
    "windSpeed": 6,
    "windGust": null,
    "visibility": 10,
    "ceiling": 25000,
    "temp": 20,
    "dewpoint": 16.7,
    "altimeter": 29.98,
    "conditions": "",
    "observationTime": "2026-07-11T06:00:00.000Z"
  }
}