{
  "SYD": {
    "raw": "METAR YSSY 142300Z 27011KT CAVOK 20/10 Q1019",
    "icao": "YSSY",
    "flightCategory": "VFR",
    "windDir": 270,
    "windSpeed": 11,
    "windGust": null,
    "visibility": 6,
    "ceiling": null,
    "temp": 20,
    "dewpoint": 10,
    "altimeter": 30.09,
    "conditions": "",
    "observationTime": "2026-04-14T23:00:00.000Z"
  },
  "LHR": {
    "raw": "METAR EGLL 142250Z COR AUTO 20009KT 9999 -RADZ SCT015 OVC020 13/10 Q1017 NOSIG",
    "icao": "EGLL",
    "flightCategory": "MVFR",
    "windDir": 200,
    "windSpeed": 9,
    "windGust": null,
    "visibility": 6,
    "ceiling": 2000,
    "temp": 13,
    "dewpoint": 10,
    "altimeter": 30.03,
    "conditions": "-RA -DZ",
    "observationTime": "2026-04-14T23:00:00.000Z"
  },
  "LAS": {
    "raw": "METAR KLAS 142256Z COR VRB03KT 10SM FEW100 FEW250 23/M03 A2996 RMK AO2 SLP132 T02281033",
    "icao": "KLAS",
    "flightCategory": "VFR",
    "windDir": null,
    "windSpeed": 3,
    "windGust": null,
    "visibility": 10,
    "ceiling": null,
    "temp": 22.8,
    "dewpoint": -3.3,
    "altimeter": 29.96,
    "conditions": "",
    "observationTime": "2026-04-14T23:00:00.000Z"
  },
  "LAX": {
    "raw": "METAR KLAX 142253Z 24013G23KT 10SM FEW015 FEW070 20/12 A3005 RMK AO2 SLP175 T02000122",
    "icao": "KLAX",
    "flightCategory": "VFR",
    "windDir": 240,
    "windSpeed": 13,
    "windGust": 23,
    "visibility": 10,
    "ceiling": null,
    "temp": 20,
    "dewpoint": 12.2,
    "altimeter": 30.05,
    "conditions": "",
    "observationTime": "2026-04-14T23:00:00.000Z"
  },
  "ORD": {
    "raw": "METAR KORD 142251Z 21020G30KT 10SM SCT039 SCT140 BKN250 27/19 A2968 RMK AO2 PK WND 21031/2247 SLP046 T02670189",
    "icao": "KORD",
    "flightCategory": "VFR",
    "windDir": 210,
    "windSpeed": 20,
    "windGust": 30,
    "visibility": 10,
    "ceiling": 25000,
    "temp": 26.7,
    "dewpoint": 18.9,
    "altimeter": 29.68,
    "conditions": "",
    "observationTime": "2026-04-14T23:00:00.000Z"
  }
}