{
  "LAX": {
    "raw": "METAR KLAX 181953Z 26008KT 10SM FEW010 BKN026 BKN032 20/14 A2999 RMK AO2 SLP153 T02000139 $",
    "icao": "KLAX",
    "flightCategory": "MVFR",
    "windDir": 260,
    "windSpeed": 8,
    "windGust": null,
    "visibility": 10,
    "ceiling": 2600,
    "temp": 20,
    "dewpoint": 13.9,
    "altimeter": 29.99,
    "conditions": "",
    "observationTime": "2026-06-18T20:00:00.000Z"
  },
  "ORD": {
    "raw": "METAR KORD 181951Z 26007KT 10SM BKN048 22/11 A2978 RMK AO2 SLP081 T02220106",
    "icao": "KORD",
    "flightCategory": "VFR",
    "windDir": 260,
    "windSpeed": 7,
    "windGust": null,
    "visibility": 10,
    "ceiling": 4800,
    "temp": 22.2,
    "dewpoint": 10.6,
    "altimeter": 29.78,
    "conditions": "",
    "observationTime": "2026-06-18T20:00:00.000Z"
  },
  "LHR": {
    "raw": "METAR EGLL 181920Z AUTO 19008KT 160V250 9999 NCD 23/16 Q1014",
    "icao": "EGLL",
    "flightCategory": "VFR",
    "windDir": 190,
    "windSpeed": 8,
    "windGust": null,
    "visibility": 6,
    "ceiling": null,
    "temp": 23,
    "dewpoint": 16,
    "altimeter": 29.94,
    "conditions": "",
    "observationTime": "2026-06-18T19:20:00.000Z"
  },
  "SYD": {
    "raw": "METAR YSSY 181900Z AUTO 34014KT 9999 // FEW120 19/09 Q1012",
    "icao": "YSSY",
    "flightCategory": "VFR",
    "windDir": 340,
    "windSpeed": 14,
    "windGust": null,
    "visibility": 6,
    "ceiling": null,
    "temp": 19,
    "dewpoint": 9,
    "altimeter": 29.88,
    "conditions": "",
    "observationTime": "2026-06-18T19:00:00.000Z"
  }
}