{
  "SYD": {
    "raw": "METAR YSSY 141200Z AUTO 28009KT 9999 // NCD 14/05 Q1025",
    "icao": "YSSY",
    "flightCategory": "VFR",
    "windDir": 280,
    "windSpeed": 9,
    "windGust": null,
    "visibility": 6,
    "ceiling": null,
    "temp": 14,
    "dewpoint": 5,
    "altimeter": 30.27,
    "conditions": "",
    "observationTime": "2026-07-14T12:00:00.000Z"
  },
  "LHR": {
    "raw": "METAR EGLL 141150Z AUTO 02011KT 340V050 9999 BKN029 24/15 Q1021",
    "icao": "EGLL",
    "flightCategory": "MVFR",
    "windDir": 20,
    "windSpeed": 11,
    "windGust": null,
    "visibility": 6,
    "ceiling": 2900,
    "temp": 24,
    "dewpoint": 15,
    "altimeter": 30.15,
    "conditions": "",
    "observationTime": "2026-07-14T12:00:00.000Z"
  },
  "LAS": {
    "raw": "METAR KLAS 141156Z 17003KT 10SM BKN160 OVC220 31/12 A2999 RMK AO2 SLP122 T03110122 10350 20311 53002 $",
    "icao": "KLAS",
    "flightCategory": "VFR",
    "windDir": 170,
    "windSpeed": 3,
    "windGust": null,
    "visibility": 10,
    "ceiling": 16000,
    "temp": 31.1,
    "dewpoint": 12.2,
    "altimeter": 29.99,
    "conditions": "",
    "observationTime": "2026-07-14T12:00:00.000Z"
  },
  "LAX": {
    "raw": "METAR KLAX 141153Z 27005KT 9SM SCT008 19/18 A2997 RMK AO2 SLP145 T01940178 10200 20194 58005 $",
    "icao": "KLAX",
    "flightCategory": "VFR",
    "windDir": 270,
    "windSpeed": 5,
    "windGust": null,
    "visibility": 9,
    "ceiling": null,
    "temp": 19.4,
    "dewpoint": 17.8,
    "altimeter": 29.97,
    "conditions": "",
    "observationTime": "2026-07-14T12:00:00.000Z"
  },
  "ORD": {
    "raw": "METAR KORD 141151Z 29003KT 10SM FEW250 24/20 A3018 RMK AO2 SLP214 T02440200 10261 20233 53008 $",
    "icao": "KORD",
    "flightCategory": "VFR",
    "windDir": 290,
    "windSpeed": 3,
    "windGust": null,
    "visibility": 10,
    "ceiling": null,
    "temp": 24.4,
    "dewpoint": 20,
    "altimeter": 30.18,
    "conditions": "",
    "observationTime": "2026-07-14T12:00:00.000Z"
  }
}