{
  "SYD": {
    "raw": "METAR YSSY 080630Z AUTO 05006KT 9999 // NCD 18/11 Q1030",
    "icao": "YSSY",
    "flightCategory": "VFR",
    "windDir": 50,
    "windSpeed": 6,
    "windGust": null,
    "visibility": 6,
    "ceiling": null,
    "temp": 18,
    "dewpoint": 11,
    "altimeter": 30.42,
    "conditions": "",
    "observationTime": "2026-06-08T06:30:00.000Z"
  },
  "LAS": {
    "raw": "METAR KLAS 080656Z 19007G16KT 10SM CLR 30/M03 A2971 RMK AO2 SLP030 T03001028 $",
    "icao": "KLAS",
    "flightCategory": "VFR",
    "windDir": 190,
    "windSpeed": 7,
    "windGust": 16,
    "visibility": 10,
    "ceiling": null,
    "temp": 30,
    "dewpoint": -2.8,
    "altimeter": 29.71,
    "conditions": "",
    "observationTime": "2026-06-08T07:00:00.000Z"
  },
  "LAX": {
    "raw": "SPECI KLAX 080650Z VRB04KT 10SM BKN020 BKN250 17/13 A2986 RMK AO2 $",
    "icao": "KLAX",
    "flightCategory": "MVFR",
    "windDir": null,
    "windSpeed": 4,
    "windGust": null,
    "visibility": 10,
    "ceiling": 2000,
    "temp": 17,
    "dewpoint": 13,
    "altimeter": 29.86,
    "conditions": "",
    "observationTime": "2026-06-08T06:50:00.000Z"
  },
  "ORD": {
    "raw": "METAR KORD 080651Z 04004KT 10SM SCT070 SCT110 BKN250 19/14 A2995 RMK AO2 RAB0553E35 SLP139 OCNL LTGIC DSNT S CB DSNT S MOV N P0000 T01940139 $",
    "icao": "KORD",
    "flightCategory": "VFR",
    "windDir": 40,
    "windSpeed": 4,
    "windGust": null,
    "visibility": 10,
    "ceiling": 25000,
    "temp": 19.4,
    "dewpoint": 13.9,
    "altimeter": 29.95,
    "conditions": "",
    "observationTime": "2026-06-08T07:00:00.000Z"
  },
  "LHR": {
    "raw": "METAR EGLL 080620Z AUTO 20011KT 170V240 9999 SCT014 SCT022 15/12 Q1014",
    "icao": "EGLL",
    "flightCategory": "VFR",
    "windDir": 200,
    "windSpeed": 11,
    "windGust": null,
    "visibility": 6,
    "ceiling": null,
    "temp": 15,
    "dewpoint": 12,
    "altimeter": 29.94,
    "conditions": "",
    "observationTime": "2026-06-08T06:20:00.000Z"
  }
}