{
  "SYD": {
    "raw": "METAR YSSY 142130Z 33005KT CAVOK 15/11 Q1019",
    "icao": "YSSY",
    "flightCategory": "VFR",
    "windDir": 330,
    "windSpeed": 5,
    "windGust": null,
    "visibility": 6,
    "ceiling": null,
    "temp": 15,
    "dewpoint": 11,
    "altimeter": 30.09,
    "conditions": "",
    "observationTime": "2026-04-14T21:30:00.000Z"
  },
  "LAS": {
    "raw": "METAR KLAS 142156Z VRB03KT 10SM FEW085 23/M02 A2998 RMK AO2 SLP138 T02281022",
    "icao": "KLAS",
    "flightCategory": "VFR",
    "windDir": null,
    "windSpeed": 3,
    "windGust": null,
    "visibility": 10,
    "ceiling": null,
    "temp": 22.8,
    "dewpoint": -2.2,
    "altimeter": 29.98,
    "conditions": "",
    "observationTime": "2026-04-14T22:00:00.000Z"
  },
  "LAX": {
    "raw": "METAR KLAX 142153Z 26013KT 10SM FEW015 FEW070 19/11 A3007 RMK AO2 SLP181 T01940111",
    "icao": "KLAX",
    "flightCategory": "VFR",
    "windDir": 260,
    "windSpeed": 13,
    "windGust": null,
    "visibility": 10,
    "ceiling": null,
    "temp": 19.4,
    "dewpoint": 11.1,
    "altimeter": 30.07,
    "conditions": "",
    "observationTime": "2026-04-14T22:00:00.000Z"
  },
  "ORD": {
    "raw": "SPECI KORD 142127Z 22015G25KT 10SM SCT040 BKN150 BKN250 27/18 A2972 RMK AO2 PK WND 19027/2056 T02670178",
    "icao": "KORD",
    "flightCategory": "VFR",
    "windDir": 220,
    "windSpeed": 15,
    "windGust": 25,
    "visibility": 10,
    "ceiling": 15000,
    "temp": 26.7,
    "dewpoint": 17.8,
    "altimeter": 29.72,
    "conditions": "",
    "observationTime": "2026-04-14T21:27:00.000Z"
  },
  "LHR": {
    "raw": "METAR EGLL 142120Z COR AUTO 16008KT 120V180 9999 OVC025 13/08 Q1018 NOSIG",
    "icao": "EGLL",
    "flightCategory": "MVFR",
    "windDir": 160,
    "windSpeed": 8,
    "windGust": null,
    "visibility": 6,
    "ceiling": 2500,
    "temp": 13,
    "dewpoint": 8,
    "altimeter": 30.06,
    "conditions": "",
    "observationTime": "2026-04-14T21:20:00.000Z"
  }
}