{
  "SYD": {
    "raw": "METAR YSSY 130500Z 17008KT CAVOK 21/08 Q1016",
    "icao": "YSSY",
    "flightCategory": "VFR",
    "windDir": 170,
    "windSpeed": 8,
    "windGust": null,
    "visibility": 6,
    "ceiling": null,
    "temp": 21,
    "dewpoint": 8,
    "altimeter": 30,
    "conditions": "",
    "observationTime": "2026-04-13T05:00:00.000Z"
  },
  "LHR": {
    "raw": "METAR EGLL 130450Z COR AUTO 11001KT 9999 NCD 04/03 Q1013 NOSIG",
    "icao": "EGLL",
    "flightCategory": "VFR",
    "windDir": 110,
    "windSpeed": 1,
    "windGust": null,
    "visibility": 6,
    "ceiling": null,
    "temp": 4,
    "dewpoint": 3,
    "altimeter": 29.91,
    "conditions": "",
    "observationTime": "2026-04-13T05:00:00.000Z"
  },
  "ORD": {
    "raw": "METAR KORD 130451Z 21010KT 7SM -RA BKN019 BKN027 OVC050 16/15 A2978 RMK AO2 RAE01B21 SLP079 P0003 T01610150 $",
    "icao": "KORD",
    "flightCategory": "MVFR",
    "windDir": 210,
    "windSpeed": 10,
    "windGust": null,
    "visibility": 7,
    "ceiling": 1900,
    "temp": 16.1,
    "dewpoint": 15,
    "altimeter": 29.78,
    "conditions": "-RA",
    "observationTime": "2026-04-13T05:00:00.000Z"
  },
  "LAS": {
    "raw": "METAR KLAS 130456Z 21020G29KT 10SM FEW100 17/00 A2988 RMK AO2 PK WND 22029/0451 SLP104 T01720000",
    "icao": "KLAS",
    "flightCategory": "VFR",
    "windDir": 210,
    "windSpeed": 20,
    "windGust": 29,
    "visibility": 10,
    "ceiling": null,
    "temp": 17.2,
    "dewpoint": 0,
    "altimeter": 29.88,
    "conditions": "",
    "observationTime": "2026-04-13T05:00:00.000Z"
  },
  "LAX": {
    "raw": "METAR KLAX 130453Z 27011KT 10SM FEW020 FEW080 16/09 A3004 RMK AO2 SLP169 T01560094 $",
    "icao": "KLAX",
    "flightCategory": "VFR",
    "windDir": 270,
    "windSpeed": 11,
    "windGust": null,
    "visibility": 10,
    "ceiling": null,
    "temp": 15.6,
    "dewpoint": 9.4,
    "altimeter": 30.04,
    "conditions": "",
    "observationTime": "2026-04-13T05:00:00.000Z"
  }
}