{
  "SYD": {
    "raw": "METAR YSSY 060800Z AUTO 19004KT 9999 // NCD 15/08 Q1026",
    "icao": "YSSY",
    "flightCategory": "VFR",
    "windDir": 190,
    "windSpeed": 4,
    "windGust": null,
    "visibility": 6,
    "ceiling": null,
    "temp": 15,
    "dewpoint": 8,
    "altimeter": 30.3,
    "conditions": "",
    "observationTime": "2026-06-06T08:00:00.000Z"
  },
  "ORD": {
    "raw": "SPECI KORD 060745Z 16004KT 10SM BKN020 BKN030 BKN065 22/18 A2982 RMK AO2 RAB23E34 TSE41 OCNL LTGIC DSNT E CB DSNT E MOV SE P0000 $",
    "icao": "KORD",
    "flightCategory": "MVFR",
    "windDir": 160,
    "windSpeed": 4,
    "windGust": null,
    "visibility": 10,
    "ceiling": 2000,
    "temp": 22,
    "dewpoint": 18,
    "altimeter": 29.82,
    "conditions": "",
    "observationTime": "2026-06-06T07:45:00.000Z"
  },
  "LHR": {
    "raw": "METAR EGLL 060750Z AUTO 16016KT 9999 -RA BKN014/// //////TCU 12/11 Q1006",
    "icao": "EGLL",
    "flightCategory": "MVFR",
    "windDir": 160,
    "windSpeed": 16,
    "windGust": null,
    "visibility": 6,
    "ceiling": 1400,
    "temp": 12,
    "dewpoint": 11,
    "altimeter": 29.71,
    "conditions": "-RA",
    "observationTime": "2026-06-06T08:00:00.000Z"
  },
  "LAS": {
    "raw": "METAR KLAS 060756Z 21013KT 10SM CLR 31/M04 A2971 RMK AO2 SLP027 T03111039 404060267",
    "icao": "KLAS",
    "flightCategory": "VFR",
    "windDir": 210,
    "windSpeed": 13,
    "windGust": null,
    "visibility": 10,
    "ceiling": null,
    "temp": 31.1,
    "dewpoint": -3.9,
    "altimeter": 29.71,
    "conditions": "",
    "observationTime": "2026-06-06T08:00:00.000Z"
  },
  "LAX": {
    "raw": "METAR KLAX 060753Z 11007KT 10SM BKN013 OVC017 19/14 A2985 RMK AO2 SLP106 T01890144 402110178 $",
    "icao": "KLAX",
    "flightCategory": "MVFR",
    "windDir": 110,
    "windSpeed": 7,
    "windGust": null,
    "visibility": 10,
    "ceiling": 1300,
    "temp": 18.9,
    "dewpoint": 14.4,
    "altimeter": 29.85,
    "conditions": "",
    "observationTime": "2026-06-06T08:00:00.000Z"
  }
}