{
  "ORD": {
    "raw": "METAR KORD 151151Z 18008KT 10SM BKN090 BKN250 14/04 A2993 RMK AO2 SLP135 60000 T01390039 10139 20117 55001",
    "icao": "KORD",
    "flightCategory": "VFR",
    "windDir": 180,
    "windSpeed": 8,
    "windGust": null,
    "visibility": 10,
    "ceiling": 9000,
    "temp": 13.9,
    "dewpoint": 3.9,
    "altimeter": 29.93,
    "conditions": "",
    "observationTime": "2026-05-15T12:00:00.000Z"
  },
  "LHR": {
    "raw": "METAR EGLL 151120Z COR AUTO 30009KT 9999 SCT030 SCT037 BKN047 11/04 Q1007 NOSIG",
    "icao": "EGLL",
    "flightCategory": "VFR",
    "windDir": 300,
    "windSpeed": 9,
    "windGust": null,
    "visibility": 6,
    "ceiling": 4700,
    "temp": 11,
    "dewpoint": 4,
    "altimeter": 29.74,
    "conditions": "",
    "observationTime": "2026-05-15T11:20:00.000Z"
  },
  "LAX": {
    "raw": "SPECI KLAX 151134Z 00000KT 10SM FEW009 OVC015 16/13 A2996 RMK AO2 T01610133",
    "icao": "KLAX",
    "flightCategory": "MVFR",
    "windDir": 0,
    "windSpeed": 0,
    "windGust": null,
    "visibility": 10,
    "ceiling": 1500,
    "temp": 16.1,
    "dewpoint": 13.3,
    "altimeter": 29.96,
    "conditions": "",
    "observationTime": "2026-05-15T11:34:00.000Z"
  },
  "SYD": {
    "raw": "METAR YSSY 151100Z AUTO 20005KT 9999 // FEW041 OVC081 18/16 Q1028",
    "icao": "YSSY",
    "flightCategory": "VFR",
    "windDir": 200,
    "windSpeed": 5,
    "windGust": null,
    "visibility": 6,
    "ceiling": 8100,
    "temp": 18,
    "dewpoint": 16,
    "altimeter": 30.36,
    "conditions": "",
    "observationTime": "2026-05-15T11:00:00.000Z"
  },
  "LAS": {
    "raw": "METAR KLAS 151056Z 23006KT 10SM CLR 26/M01 A2980 RMK AO2 SLP063 T02611006",
    "icao": "KLAS",
    "flightCategory": "VFR",
    "windDir": 230,
    "windSpeed": 6,
    "windGust": null,
    "visibility": 10,
    "ceiling": null,
    "temp": 26.1,
    "dewpoint": -0.6,
    "altimeter": 29.8,
    "conditions": "",
    "observationTime": "2026-05-15T11:00:00.000Z"
  }
}