{
  "SYD": {
    "raw": "METAR YSSY 291500Z AUTO 30005KT 9999 // FEW054 BKN063 BKN074 18/16 Q1030",
    "icao": "YSSY",
    "flightCategory": "VFR",
    "windDir": 300,
    "windSpeed": 5,
    "windGust": null,
    "visibility": 6,
    "ceiling": 6300,
    "temp": 18,
    "dewpoint": 16,
    "altimeter": 30.42,
    "conditions": "",
    "observationTime": "2026-04-29T15:00:00.000Z"
  },
  "ORD": {
    "raw": "METAR KORD 291451Z 36008KT 10SM BKN025 BKN050 12/06 A2991 RMK AO2 SLP129 T01220061 58001",
    "icao": "KORD",
    "flightCategory": "MVFR",
    "windDir": 360,
    "windSpeed": 8,
    "windGust": null,
    "visibility": 10,
    "ceiling": 2500,
    "temp": 12.2,
    "dewpoint": 6.1,
    "altimeter": 29.91,
    "conditions": "",
    "observationTime": "2026-04-29T15:00:00.000Z"
  },
  "LHR": {
    "raw": "METAR EGLL 291450Z COR AUTO 08019KT 9999 NCD 17/00 Q1023 NOSIG",
    "icao": "EGLL",
    "flightCategory": "VFR",
    "windDir": 80,
    "windSpeed": 19,
    "windGust": null,
    "visibility": 6,
    "ceiling": null,
    "temp": 17,
    "dewpoint": 0,
    "altimeter": 30.21,
    "conditions": "",
    "observationTime": "2026-04-29T15:00:00.000Z"
  },
  "LAS": {
    "raw": "METAR KLAS 291456Z 03006KT 10SM CLR 18/M02 A3006 RMK AO2 SLP161 T01831022 51014",
    "icao": "KLAS",
    "flightCategory": "VFR",
    "windDir": 30,
    "windSpeed": 6,
    "windGust": null,
    "visibility": 10,
    "ceiling": null,
    "temp": 18.3,
    "dewpoint": -2.2,
    "altimeter": 30.06,
    "conditions": "",
    "observationTime": "2026-04-29T15:00:00.000Z"
  },
  "LAX": {
    "raw": "METAR KLAX 291453Z 09004KT 10SM SCT015 16/12 A3005 RMK AO2 SLP174 T01560117 50001",
    "icao": "KLAX",
    "flightCategory": "VFR",
    "windDir": 90,
    "windSpeed": 4,
    "windGust": null,
    "visibility": 10,
    "ceiling": null,
    "temp": 15.6,
    "dewpoint": 11.7,
    "altimeter": 30.05,
    "conditions": "",
    "observationTime": "2026-04-29T15:00:00.000Z"
  }
}