{
  "SYD": {
    "raw": "METAR YSSY 291830Z AUTO 27012KT 9999 // OVC050 13/07 Q1005",
    "icao": "YSSY",
    "flightCategory": "VFR",
    "windDir": 270,
    "windSpeed": 12,
    "windGust": null,
    "visibility": 6,
    "ceiling": 5000,
    "temp": 13,
    "dewpoint": 7,
    "altimeter": 29.68,
    "conditions": "",
    "observationTime": "2026-05-29T18:30:00.000Z"
  },
  "LAS": {
    "raw": "METAR KLAS 291856Z 32008KT 10SM SCT100 SCT220 23/01 A2986 RMK AO2 SLP095 T02280011",
    "icao": "KLAS",
    "flightCategory": "VFR",
    "windDir": 320,
    "windSpeed": 8,
    "windGust": null,
    "visibility": 10,
    "ceiling": null,
    "temp": 22.8,
    "dewpoint": 1.1,
    "altimeter": 29.86,
    "conditions": "",
    "observationTime": "2026-05-29T19:00:00.000Z"
  },
  "LAX": {
    "raw": "METAR KLAX 291853Z 27014KT 10SM FEW032 SCT070 SCT160 19/10 A3003 RMK AO2 SLP168 T01890100 $",
    "icao": "KLAX",
    "flightCategory": "VFR",
    "windDir": 270,
    "windSpeed": 14,
    "windGust": null,
    "visibility": 10,
    "ceiling": null,
    "temp": 18.9,
    "dewpoint": 10,
    "altimeter": 30.03,
    "conditions": "",
    "observationTime": "2026-05-29T19:00:00.000Z"
  },
  "ORD": {
    "raw": "METAR KORD 291851Z VRB03KT 10SM BKN300 28/09 A3000 RMK AO2 SLP156 T02780094",
    "icao": "KORD",
    "flightCategory": "VFR",
    "windDir": null,
    "windSpeed": 3,
    "windGust": null,
    "visibility": 10,
    "ceiling": 30000,
    "temp": 27.8,
    "dewpoint": 9.4,
    "altimeter": 30,
    "conditions": "",
    "observationTime": "2026-05-29T19:00:00.000Z"
  },
  "LHR": {
    "raw": "METAR EGLL 291850Z AUTO 30006KT 260V340 9999 NCD 23/05 Q1022",
    "icao": "EGLL",
    "flightCategory": "VFR",
    "windDir": 300,
    "windSpeed": 6,
    "windGust": null,
    "visibility": 6,
    "ceiling": null,
    "temp": 23,
    "dewpoint": 5,
    "altimeter": 30.18,
    "conditions": "",
    "observationTime": "2026-05-29T19:00:00.000Z"
  }
}