{
  "SYD": {
    "raw": "METAR YSSY 280300Z 20014KT 9999 VCSH FEW012 BKN016 BKN065 20/17 Q1009",
    "icao": "YSSY",
    "flightCategory": "MVFR",
    "windDir": 200,
    "windSpeed": 14,
    "windGust": null,
    "visibility": 6,
    "ceiling": 1600,
    "temp": 20,
    "dewpoint": 17,
    "altimeter": 29.8,
    "conditions": "VCSH",
    "observationTime": "2026-05-28T03:00:00.000Z"
  },
  "LHR": {
    "raw": "METAR EGLL 280250Z AUTO 09011KT 9999 //////CB 16/12 Q1022",
    "icao": "EGLL",
    "flightCategory": "UNKNOWN",
    "windDir": 90,
    "windSpeed": 11,
    "windGust": null,
    "visibility": 6,
    "ceiling": null,
    "temp": 16,
    "dewpoint": 12,
    "altimeter": 30.18,
    "conditions": "",
    "observationTime": "2026-05-28T03:00:00.000Z"
  },
  "LAS": {
    "raw": "METAR KLAS 280256Z 19007KT 10SM FEW200 24/M08 A2965 RMK AO2 SLP024 T02441078 53002",
    "icao": "KLAS",
    "flightCategory": "VFR",
    "windDir": 190,
    "windSpeed": 7,
    "windGust": null,
    "visibility": 10,
    "ceiling": null,
    "temp": 24.4,
    "dewpoint": -7.8,
    "altimeter": 29.65,
    "conditions": "",
    "observationTime": "2026-05-28T03:00:00.000Z"
  },
  "LAX": {
    "raw": "METAR KLAX 280253Z 25011KT 10SM FEW023 16/10 A2989 RMK AO2 SLP120 T01560100 53014 $",
    "icao": "KLAX",
    "flightCategory": "VFR",
    "windDir": 250,
    "windSpeed": 11,
    "windGust": null,
    "visibility": 10,
    "ceiling": null,
    "temp": 15.6,
    "dewpoint": 10,
    "altimeter": 29.89,
    "conditions": "",
    "observationTime": "2026-05-28T03:00:00.000Z"
  },
  "ORD": {
    "raw": "METAR KORD 280251Z 06005KT 10SM FEW250 17/07 A3005 RMK AO2 SLP174 T01720072 50022 $",
    "icao": "KORD",
    "flightCategory": "VFR",
    "windDir": 60,
    "windSpeed": 5,
    "windGust": null,
    "visibility": 10,
    "ceiling": null,
    "temp": 17.2,
    "dewpoint": 7.2,
    "altimeter": 30.05,
    "conditions": "",
    "observationTime": "2026-05-28T03:00:00.000Z"
  }
}