{
  "LAS": {
    "raw": "METAR KLAS 221456Z 00000KT 10SM FEW150 32/13 A2998 RMK AO2 SLP120 T03220133 51015",
    "icao": "KLAS",
    "flightCategory": "VFR",
    "windDir": 0,
    "windSpeed": 0,
    "windGust": null,
    "visibility": 10,
    "ceiling": null,
    "temp": 32.2,
    "dewpoint": 13.3,
    "altimeter": 29.98,
    "conditions": "",
    "observationTime": "2026-07-22T15:00:00.000Z"
  },
  "LAX": {
    "raw": "METAR KLAX 221453Z 26003KT 8SM FEW004 OVC006 21/19 A3001 RMK AO2 SLP159 T02060194 51014",
    "icao": "KLAX",
    "flightCategory": "IFR",
    "windDir": 260,
    "windSpeed": 3,
    "windGust": null,
    "visibility": 8,
    "ceiling": 600,
    "temp": 20.6,
    "dewpoint": 19.4,
    "altimeter": 30.01,
    "conditions": "",
    "observationTime": "2026-07-22T15:00:00.000Z"
  },
  "ORD": {
    "raw": "METAR KORD 221451Z 01008KT 10SM FEW038 BKN050 20/09 A3007 RMK AO2 SLP178 T02000094 51014 $",
    "icao": "KORD",
    "flightCategory": "VFR",
    "windDir": 10,
    "windSpeed": 8,
    "windGust": null,
    "visibility": 10,
    "ceiling": 5000,
    "temp": 20,
    "dewpoint": 9.4,
    "altimeter": 30.07,
    "conditions": "",
    "observationTime": "2026-07-22T15:00:00.000Z"
  },
  "LHR": {
    "raw": "METAR EGLL 221420Z AUTO 29006KT 240V340 9999 NCD 25/12 Q1024",
    "icao": "EGLL",
    "flightCategory": "VFR",
    "windDir": 290,
    "windSpeed": 6,
    "windGust": null,
    "visibility": 6,
    "ceiling": null,
    "temp": 25,
    "dewpoint": 12,
    "altimeter": 30.24,
    "conditions": "",
    "observationTime": "2026-07-22T14:20:00.000Z"
  },
  "SYD": {
    "raw": "METAR YSSY 221430Z AUTO 31009KT 9999 // NCD 13/07 Q1021",
    "icao": "YSSY",
    "flightCategory": "VFR",
    "windDir": 310,
    "windSpeed": 9,
    "windGust": null,
    "visibility": 6,
    "ceiling": null,
    "temp": 13,
    "dewpoint": 7,
    "altimeter": 30.15,
    "conditions": "",
    "observationTime": "2026-07-22T14:30:00.000Z"
  }
}