{
  "LHR": {
    "raw": "METAR EGLL 241550Z AUTO 24007KT 180V270 9999 NCD 28/12 Q1015",
    "icao": "EGLL",
    "flightCategory": "VFR",
    "windDir": 240,
    "windSpeed": 7,
    "windGust": null,
    "visibility": 6,
    "ceiling": null,
    "temp": 28,
    "dewpoint": 12,
    "altimeter": 29.97,
    "conditions": "",
    "observationTime": "2026-07-24T16:00:00.000Z"
  },
  "SYD": {
    "raw": "METAR YSSY 241600Z AUTO 28013KT 9999 // NCD 09/00 Q1024",
    "icao": "YSSY",
    "flightCategory": "VFR",
    "windDir": 280,
    "windSpeed": 13,
    "windGust": null,
    "visibility": 6,
    "ceiling": null,
    "temp": 9,
    "dewpoint": 0,
    "altimeter": 30.24,
    "conditions": "",
    "observationTime": "2026-07-24T16:00:00.000Z"
  },
  "LAS": {
    "raw": "METAR KLAS 241556Z 15004KT 10SM FEW150 39/12 A2994 RMK AO2 SLP102 T03940117",
    "icao": "KLAS",
    "flightCategory": "VFR",
    "windDir": 150,
    "windSpeed": 4,
    "windGust": null,
    "visibility": 10,
    "ceiling": null,
    "temp": 39.4,
    "dewpoint": 11.7,
    "altimeter": 29.94,
    "conditions": "",
    "observationTime": "2026-07-24T16:00:00.000Z"
  },
  "LAX": {
    "raw": "METAR KLAX 241553Z 26005KT 8SM FEW009 FEW025 SCT250 23/18 A2991 RMK AO2 SLP126 T02280183 $",
    "icao": "KLAX",
    "flightCategory": "VFR",
    "windDir": 260,
    "windSpeed": 5,
    "windGust": null,
    "visibility": 8,
    "ceiling": null,
    "temp": 22.8,
    "dewpoint": 18.3,
    "altimeter": 29.91,
    "conditions": "",
    "observationTime": "2026-07-24T16:00:00.000Z"
  },
  "ORD": {
    "raw": "METAR KORD 241551Z 17004KT 10SM FEW039 FEW070 SCT200 BKN250 24/10 A3016 RMK AO2 SLP208 T02390100 $",
    "icao": "KORD",
    "flightCategory": "VFR",
    "windDir": 170,
    "windSpeed": 4,
    "windGust": null,
    "visibility": 10,
    "ceiling": 25000,
    "temp": 23.9,
    "dewpoint": 10,
    "altimeter": 30.16,
    "conditions": "",
    "observationTime": "2026-07-24T16:00:00.000Z"
  }
}