{
  "SYD": {
    "raw": "SPECI YSSY 220300Z 14015G26KT 9999 FEW022 BKN055 19/12 Q1026",
    "icao": "YSSY",
    "flightCategory": "VFR",
    "windDir": 140,
    "windSpeed": 15,
    "windGust": 26,
    "visibility": 6,
    "ceiling": 5500,
    "temp": 19,
    "dewpoint": 12,
    "altimeter": 30.3,
    "conditions": "",
    "observationTime": "2026-05-22T03:00:00.000Z"
  },
  "LAX": {
    "raw": "METAR KLAX 220253Z 26009KT 8SM BKN009 16/14 A2984 RMK AO2 SLP103 T01610139 53002 CHINO RWY24 $",
    "icao": "KLAX",
    "flightCategory": "IFR",
    "windDir": 260,
    "windSpeed": 9,
    "windGust": null,
    "visibility": 8,
    "ceiling": 900,
    "temp": 16.1,
    "dewpoint": 13.9,
    "altimeter": 29.84,
    "conditions": "",
    "observationTime": "2026-05-22T03:00:00.000Z"
  },
  "LHR": {
    "raw": "METAR EGLL 220250Z AUTO 13003KT 9999 NCD 13/10 Q1025",
    "icao": "EGLL",
    "flightCategory": "VFR",
    "windDir": 130,
    "windSpeed": 3,
    "windGust": null,
    "visibility": 6,
    "ceiling": null,
    "temp": 13,
    "dewpoint": 10,
    "altimeter": 30.27,
    "conditions": "",
    "observationTime": "2026-05-22T03:00:00.000Z"
  },
  "LAS": {
    "raw": "METAR KLAS 220256Z 19003KT 10SM FEW170 32/M10 A2973 RMK AO2 SLP042 T03221100 55005",
    "icao": "KLAS",
    "flightCategory": "VFR",
    "windDir": 190,
    "windSpeed": 3,
    "windGust": null,
    "visibility": 10,
    "ceiling": null,
    "temp": 32.2,
    "dewpoint": -10,
    "altimeter": 29.73,
    "conditions": "",
    "observationTime": "2026-05-22T03:00:00.000Z"
  },
  "ORD": {
    "raw": "METAR KORD 220251Z 03011KT 10SM BKN085 OVC250 11/04 A3021 RMK AO2 SLP232 T01060039 55002 $",
    "icao": "KORD",
    "flightCategory": "VFR",
    "windDir": 30,
    "windSpeed": 11,
    "windGust": null,
    "visibility": 10,
    "ceiling": 8500,
    "temp": 10.6,
    "dewpoint": 3.9,
    "altimeter": 30.21,
    "conditions": "",
    "observationTime": "2026-05-22T03:00:00.000Z"
  }
}