{
  "SYD": {
    "raw": "METAR YSSY 020330Z 03018KT 9999 FEW016 SCT055 25/15 Q1023",
    "icao": "YSSY",
    "flightCategory": "VFR",
    "windDir": 30,
    "windSpeed": 18,
    "windGust": null,
    "visibility": 6,
    "ceiling": null,
    "temp": 25,
    "dewpoint": 15,
    "altimeter": 30.21,
    "conditions": "",
    "observationTime": "2026-05-02T03:30:00.000Z"
  },
  "LAS": {
    "raw": "METAR KLAS 020356Z 03007KT 10SM FEW150 26/M11 A2993 RMK AO2 SLP115 T02611106",
    "icao": "KLAS",
    "flightCategory": "VFR",
    "windDir": 30,
    "windSpeed": 7,
    "windGust": null,
    "visibility": 10,
    "ceiling": null,
    "temp": 26.1,
    "dewpoint": -10.6,
    "altimeter": 29.93,
    "conditions": "",
    "observationTime": "2026-05-02T04:00:00.000Z"
  },
  "LAX": {
    "raw": "SPECI KLAX 020341Z 25008KT 10SM BKN011 16/13 A2992 RMK AO2 T01560133",
    "icao": "KLAX",
    "flightCategory": "MVFR",
    "windDir": 250,
    "windSpeed": 8,
    "windGust": null,
    "visibility": 10,
    "ceiling": 1100,
    "temp": 15.6,
    "dewpoint": 13.3,
    "altimeter": 29.92,
    "conditions": "",
    "observationTime": "2026-05-02T03:41:00.000Z"
  },
  "ORD": {
    "raw": "METAR KORD 020351Z 00000KT 10SM CLR 04/M03 A3010 RMK AO2 SLP197 T00391033 $",
    "icao": "KORD",
    "flightCategory": "VFR",
    "windDir": 0,
    "windSpeed": 0,
    "windGust": null,
    "visibility": 10,
    "ceiling": null,
    "temp": 3.9,
    "dewpoint": -3.3,
    "altimeter": 30.1,
    "conditions": "",
    "observationTime": "2026-05-02T04:00:00.000Z"
  },
  "LHR": {
    "raw": "METAR EGLL 020350Z 21006KT 5000 HZ SCT002 10/09 Q1018 TEMPO 4000 BKN002",
    "icao": "EGLL",
    "flightCategory": "MVFR",
    "windDir": 210,
    "windSpeed": 6,
    "windGust": null,
    "visibility": 3.11,
    "ceiling": null,
    "temp": 10,
    "dewpoint": 9,
    "altimeter": 30.06,
    "conditions": "HZ",
    "observationTime": "2026-05-02T04:00:00.000Z"
  }
}