{
  "LHR": {
    "raw": "METAR EGLL 050850Z COR AUTO 26020KT 9999 BKN030 OVC036 10/03 Q1015 NOSIG",
    "icao": "EGLL",
    "flightCategory": "MVFR",
    "windDir": 260,
    "windSpeed": 20,
    "windGust": null,
    "visibility": 6,
    "ceiling": 3000,
    "temp": 10,
    "dewpoint": 3,
    "altimeter": 29.97,
    "conditions": "",
    "observationTime": "2026-04-05T09:00:00.000Z"
  },
  "SYD": {
    "raw": "METAR YSSY 050830Z AUTO 17007KT 9999 // BKN041 BKN082 19/13 Q1023",
    "icao": "YSSY",
    "flightCategory": "VFR",
    "windDir": 170,
    "windSpeed": 7,
    "windGust": null,
    "visibility": 6,
    "ceiling": 4100,
    "temp": 19,
    "dewpoint": 13,
    "altimeter": 30.21,
    "conditions": "",
    "observationTime": "2026-04-05T08:30:00.000Z"
  },
  "LAS": {
    "raw": "METAR KLAS 050856Z 25003KT 10SM CLR 16/M09 A3012 RMK AO2 SLP186 T01611089 51008",
    "icao": "KLAS",
    "flightCategory": "VFR",
    "windDir": 250,
    "windSpeed": 3,
    "windGust": null,
    "visibility": 10,
    "ceiling": null,
    "temp": 16.1,
    "dewpoint": -8.9,
    "altimeter": 30.12,
    "conditions": "",
    "observationTime": "2026-04-05T09:00:00.000Z"
  },
  "LAX": {
    "raw": "METAR KLAX 050853Z 10004KT 10SM CLR 17/08 A3000 RMK AO2 SLP154 T01670083 50001 $",
    "icao": "KLAX",
    "flightCategory": "VFR",
    "windDir": 100,
    "windSpeed": 4,
    "windGust": null,
    "visibility": 10,
    "ceiling": null,
    "temp": 16.7,
    "dewpoint": 8.3,
    "altimeter": 30,
    "conditions": "",
    "observationTime": "2026-04-05T09:00:00.000Z"
  },
  "ORD": {
    "raw": "METAR KORD 050851Z 27014G23KT 10SM FEW034 BKN050 04/M03 A2999 RMK AO2 SLP157 T00391028 53006 $",
    "icao": "KORD",
    "flightCategory": "VFR",
    "windDir": 270,
    "windSpeed": 14,
    "windGust": 23,
    "visibility": 10,
    "ceiling": 5000,
    "temp": 3.9,
    "dewpoint": -2.8,
    "altimeter": 29.99,
    "conditions": "",
    "observationTime": "2026-04-05T09:00:00.000Z"
  }
}