{
  "SYD": {
    "raw": "METAR YSSY 260630Z AUTO 03015KT 9999 // NCD 22/10 Q1022",
    "icao": "YSSY",
    "flightCategory": "VFR",
    "windDir": 30,
    "windSpeed": 15,
    "windGust": null,
    "visibility": 6,
    "ceiling": null,
    "temp": 22,
    "dewpoint": 10,
    "altimeter": 30.18,
    "conditions": "",
    "observationTime": "2026-04-26T06:30:00.000Z"
  },
  "LAS": {
    "raw": "METAR KLAS 260656Z 21017G26KT 10SM FEW080 SCT100 BKN120 14/04 A2968 RMK AO2 PK WND 21027/0642 SLP035 T01440039",
    "icao": "KLAS",
    "flightCategory": "VFR",
    "windDir": 210,
    "windSpeed": 17,
    "windGust": 26,
    "visibility": 10,
    "ceiling": 12000,
    "temp": 14.4,
    "dewpoint": 3.9,
    "altimeter": 29.68,
    "conditions": "",
    "observationTime": "2026-04-26T07:00:00.000Z"
  },
  "LAX": {
    "raw": "METAR KLAX 260653Z 24004KT 10SM -RA SCT013 BKN020 OVC055 13/12 A2990 RMK AO2 RAB0555 SLP124 P0002 T01330117",
    "icao": "KLAX",
    "flightCategory": "MVFR",
    "windDir": 240,
    "windSpeed": 4,
    "windGust": null,
    "visibility": 10,
    "ceiling": 2000,
    "temp": 13.3,
    "dewpoint": 11.7,
    "altimeter": 29.9,
    "conditions": "-RA",
    "observationTime": "2026-04-26T07:00:00.000Z"
  },
  "ORD": {
    "raw": "METAR KORD 260651Z 04005KT 10SM FEW300 06/04 A3002 RMK AO2 SLP167 T00610039",
    "icao": "KORD",
    "flightCategory": "VFR",
    "windDir": 40,
    "windSpeed": 5,
    "windGust": null,
    "visibility": 10,
    "ceiling": null,
    "temp": 6.1,
    "dewpoint": 3.9,
    "altimeter": 30.02,
    "conditions": "",
    "observationTime": "2026-04-26T07:00:00.000Z"
  },
  "LHR": {
    "raw": "METAR EGLL 260620Z AUTO 06005KT 030V090 9999 BKN008 09/07 Q1025 BECMG SCT008",
    "icao": "EGLL",
    "flightCategory": "IFR",
    "windDir": 60,
    "windSpeed": 5,
    "windGust": null,
    "visibility": 6,
    "ceiling": 800,
    "temp": 9,
    "dewpoint": 7,
    "altimeter": 30.27,
    "conditions": "",
    "observationTime": "2026-04-26T06:20:00.000Z"
  }
}