{
  "LAS": {
    "raw": "METAR KLAS 280556Z 31004KT 10SM BKN250 24/00 A2994 RMK AO2 SLP117 T02440000 10322 20244 50008",
    "icao": "KLAS",
    "flightCategory": "VFR",
    "windDir": 310,
    "windSpeed": 4,
    "windGust": null,
    "visibility": 10,
    "ceiling": 25000,
    "temp": 24.4,
    "dewpoint": 0,
    "altimeter": 29.94,
    "conditions": "",
    "observationTime": "2026-03-28T06:00:00.000Z"
  },
  "LAX": {
    "raw": "METAR KLAX 280553Z 24005KT 8SM BKN010 15/13 A2999 RMK AO2 SLP153 T01500133 10189 20150 50011 $",
    "icao": "KLAX",
    "flightCategory": "MVFR",
    "windDir": 240,
    "windSpeed": 5,
    "windGust": null,
    "visibility": 8,
    "ceiling": 1000,
    "temp": 15,
    "dewpoint": 13.3,
    "altimeter": 29.99,
    "conditions": "",
    "observationTime": "2026-03-28T06:00:00.000Z"
  },
  "ORD": {
    "raw": "METAR KORD 280551Z 35006KT 10SM CLR M01/M05 A3058 RMK AO2 SLP362 T10111050 10061 21011 400781011 52029",
    "icao": "KORD",
    "flightCategory": "VFR",
    "windDir": 350,
    "windSpeed": 6,
    "windGust": null,
    "visibility": 10,
    "ceiling": null,
    "temp": -1.1,
    "dewpoint": -5,
    "altimeter": 30.58,
    "conditions": "",
    "observationTime": "2026-03-28T06:00:00.000Z"
  },
  "LHR": {
    "raw": "METAR EGLL 280550Z COR AUTO 27009KT 9999 NCD 03/M00 Q1023 NOSIG",
    "icao": "EGLL",
    "flightCategory": "VFR",
    "windDir": 270,
    "windSpeed": 9,
    "windGust": null,
    "visibility": 6,
    "ceiling": null,
    "temp": 3,
    "dewpoint": 0,
    "altimeter": 30.21,
    "conditions": "",
    "observationTime": "2026-03-28T06:00:00.000Z"
  }
}