{
  "SYD": {
    "raw": "METAR YSSY 160530Z 28004KT 240V340 CAVOK 27/11 Q1013",
    "icao": "YSSY",
    "flightCategory": "VFR",
    "windDir": 280,
    "windSpeed": 4,
    "windGust": null,
    "visibility": 6,
    "ceiling": null,
    "temp": 27,
    "dewpoint": 11,
    "altimeter": 29.91,
    "conditions": "",
    "observationTime": "2026-04-16T05:30:00.000Z"
  },
  "LAS": {
    "raw": "METAR KLAS 160556Z 18006KT 10SM SCT200 SCT250 22/M05 A2987 RMK AO2 SLP095 T02171050 10278 20217 50001",
    "icao": "KLAS",
    "flightCategory": "VFR",
    "windDir": 180,
    "windSpeed": 6,
    "windGust": null,
    "visibility": 10,
    "ceiling": null,
    "temp": 21.7,
    "dewpoint": -5,
    "altimeter": 29.87,
    "conditions": "",
    "observationTime": "2026-04-16T06:00:00.000Z"
  },
  "LAX": {
    "raw": "METAR KLAX 160553Z 14004KT 10SM FEW250 16/12 A2998 RMK AO2 SLP151 T01610117 10189 20156 50006",
    "icao": "KLAX",
    "flightCategory": "VFR",
    "windDir": 140,
    "windSpeed": 4,
    "windGust": null,
    "visibility": 10,
    "ceiling": null,
    "temp": 16.1,
    "dewpoint": 11.7,
    "altimeter": 29.98,
    "conditions": "",
    "observationTime": "2026-04-16T06:00:00.000Z"
  },
  "ORD": {
    "raw": "METAR KORD 160551Z 11009KT 10SM BKN080 BKN100 OVC250 16/14 A2976 RMK AO2 RAE35 SLP074 P0001 60042 T01610144 10222 20156 402220156 58009 $",
    "icao": "KORD",
    "flightCategory": "VFR",
    "windDir": 110,
    "windSpeed": 9,
    "windGust": null,
    "visibility": 10,
    "ceiling": 8000,
    "temp": 16.1,
    "dewpoint": 14.4,
    "altimeter": 29.76,
    "conditions": "",
    "observationTime": "2026-04-16T06:00:00.000Z"
  },
  "LHR": {
    "raw": "METAR EGLL 160550Z COR AUTO 20007KT 180V240 9999 SCT019 BKN024 11/09 Q1017 NOSIG",
    "icao": "EGLL",
    "flightCategory": "MVFR",
    "windDir": 200,
    "windSpeed": 7,
    "windGust": null,
    "visibility": 6,
    "ceiling": 2400,
    "temp": 11,
    "dewpoint": 9,
    "altimeter": 30.03,
    "conditions": "",
    "observationTime": "2026-04-16T06:00:00.000Z"
  }
}