{
  "LAX": {
    "raw": "METAR KLAX 201953Z 24012KT 10SM CLR 23/14 A2990 RMK AO2 SLP121 T02330139",
    "icao": "KLAX",
    "flightCategory": "VFR",
    "windDir": 240,
    "windSpeed": 12,
    "windGust": null,
    "visibility": 10,
    "ceiling": null,
    "temp": 23.3,
    "dewpoint": 13.9,
    "altimeter": 29.9,
    "conditions": "",
    "observationTime": "2026-05-20T20:00:00.000Z"
  },
  "ORD": {
    "raw": "METAR KORD 201951Z 03014G24KT 10SM FEW037 SCT250 14/03 A3026 RMK AO2 SLP249 T01390033",
    "icao": "KORD",
    "flightCategory": "VFR",
    "windDir": 30,
    "windSpeed": 14,
    "windGust": 24,
    "visibility": 10,
    "ceiling": null,
    "temp": 13.9,
    "dewpoint": 3.3,
    "altimeter": 30.26,
    "conditions": "",
    "observationTime": "2026-05-20T20:00:00.000Z"
  },
  "LHR": {
    "raw": "METAR EGLL 201920Z AUTO 27013KT 9999 NCD 16/11 Q1023",
    "icao": "EGLL",
    "flightCategory": "VFR",
    "windDir": 270,
    "windSpeed": 13,
    "windGust": null,
    "visibility": 6,
    "ceiling": null,
    "temp": 16,
    "dewpoint": 11,
    "altimeter": 30.21,
    "conditions": "",
    "observationTime": "2026-05-20T19:20:00.000Z"
  },
  "SYD": {
    "raw": "METAR YSSY 201900Z AUTO 25010KT 9999 // NCD 13/08 Q1024",
    "icao": "YSSY",
    "flightCategory": "VFR",
    "windDir": 250,
    "windSpeed": 10,
    "windGust": null,
    "visibility": 6,
    "ceiling": null,
    "temp": 13,
    "dewpoint": 8,
    "altimeter": 30.24,
    "conditions": "",
    "observationTime": "2026-05-20T19:00:00.000Z"
  }
}