{
  "SYD": {
    "raw": "METAR YSSY 292330Z 27011KT CAVOK 14/06 Q1008",
    "icao": "YSSY",
    "flightCategory": "VFR",
    "windDir": 270,
    "windSpeed": 11,
    "windGust": null,
    "visibility": 6,
    "ceiling": null,
    "temp": 14,
    "dewpoint": 6,
    "altimeter": 29.77,
    "conditions": "",
    "observationTime": "2026-05-29T23:30:00.000Z"
  },
  "LAS": {
    "raw": "METAR KLAS 292356Z 20009G16KT 10SM SCT100 26/01 A2984 RMK AO2 SLP086 T02560011 10261 20217 56007",
    "icao": "KLAS",
    "flightCategory": "VFR",
    "windDir": 200,
    "windSpeed": 9,
    "windGust": 16,
    "visibility": 10,
    "ceiling": null,
    "temp": 25.6,
    "dewpoint": 1.1,
    "altimeter": 29.84,
    "conditions": "",
    "observationTime": "2026-05-30T00:00:00.000Z"
  },
  "LAX": {
    "raw": "METAR KLAX 292353Z 25013KT 10SM FEW020 SCT035 SCT060 19/12 A3000 RMK AO2 SLP157 T01890122 10200 20183 58008 $",
    "icao": "KLAX",
    "flightCategory": "VFR",
    "windDir": 250,
    "windSpeed": 13,
    "windGust": null,
    "visibility": 10,
    "ceiling": null,
    "temp": 18.9,
    "dewpoint": 12.2,
    "altimeter": 30,
    "conditions": "",
    "observationTime": "2026-05-30T00:00:00.000Z"
  },
  "ORD": {
    "raw": "METAR KORD 292351Z 09009KT 10SM FEW200 BKN300 26/08 A2994 RMK AO2 SLP135 T02560083 10294 20256 57006",
    "icao": "KORD",
    "flightCategory": "VFR",
    "windDir": 90,
    "windSpeed": 9,
    "windGust": null,
    "visibility": 10,
    "ceiling": 30000,
    "temp": 25.6,
    "dewpoint": 8.3,
    "altimeter": 29.94,
    "conditions": "",
    "observationTime": "2026-05-30T00:00:00.000Z"
  },
  "LHR": {
    "raw": "METAR EGLL 292320Z AUTO 31004KT 280V340 9999 NCD 19/09 Q1022",
    "icao": "EGLL",
    "flightCategory": "VFR",
    "windDir": 310,
    "windSpeed": 4,
    "windGust": null,
    "visibility": 6,
    "ceiling": null,
    "temp": 19,
    "dewpoint": 9,
    "altimeter": 30.18,
    "conditions": "",
    "observationTime": "2026-05-29T23:20:00.000Z"
  }
}