{
  "SYD": {
    "raw": "METAR YSSY 201030Z AUTO 23011KT 9999 // FEW070 16/08 Q1022",
    "icao": "YSSY",
    "flightCategory": "VFR",
    "windDir": 230,
    "windSpeed": 11,
    "windGust": null,
    "visibility": 6,
    "ceiling": null,
    "temp": 16,
    "dewpoint": 8,
    "altimeter": 30.18,
    "conditions": "",
    "observationTime": "2026-05-20T10:30:00.000Z"
  },
  "LAS": {
    "raw": "METAR KLAS 201056Z 27003KT 10SM CLR 18/M10 A3000 RMK AO2 SLP143 T01781100",
    "icao": "KLAS",
    "flightCategory": "VFR",
    "windDir": 270,
    "windSpeed": 3,
    "windGust": null,
    "visibility": 10,
    "ceiling": null,
    "temp": 17.8,
    "dewpoint": -10,
    "altimeter": 30,
    "conditions": "",
    "observationTime": "2026-05-20T11:00:00.000Z"
  },
  "LAX": {
    "raw": "METAR KLAX 201053Z 08005KT 10SM CLR 17/07 A2991 RMK AO2 SLP125 T01670067 $",
    "icao": "KLAX",
    "flightCategory": "VFR",
    "windDir": 80,
    "windSpeed": 5,
    "windGust": null,
    "visibility": 10,
    "ceiling": null,
    "temp": 16.7,
    "dewpoint": 6.7,
    "altimeter": 29.91,
    "conditions": "",
    "observationTime": "2026-05-20T11:00:00.000Z"
  },
  "ORD": {
    "raw": "METAR KORD 201051Z 34009KT 10SM BKN035 BKN130 BKN250 11/06 A3020 RMK AO2 SLP226 T01110056 $",
    "icao": "KORD",
    "flightCategory": "VFR",
    "windDir": 340,
    "windSpeed": 9,
    "windGust": null,
    "visibility": 10,
    "ceiling": 3500,
    "temp": 11.1,
    "dewpoint": 5.6,
    "altimeter": 30.2,
    "conditions": "",
    "observationTime": "2026-05-20T11:00:00.000Z"
  },
  "LHR": {
    "raw": "METAR EGLL 201020Z AUTO 24015KT 9999 SCT037 BKN045 17/07 Q1018",
    "icao": "EGLL",
    "flightCategory": "VFR",
    "windDir": 240,
    "windSpeed": 15,
    "windGust": null,
    "visibility": 6,
    "ceiling": 4500,
    "temp": 17,
    "dewpoint": 7,
    "altimeter": 30.06,
    "conditions": "",
    "observationTime": "2026-05-20T10:20:00.000Z"
  }
}