{
  "SYD": {
    "raw": "METAR YSSY 111800Z AUTO 31006KT 9999 // OVC012 OVC100 16/14 Q1032",
    "icao": "YSSY",
    "flightCategory": "MVFR",
    "windDir": 310,
    "windSpeed": 6,
    "windGust": null,
    "visibility": 6,
    "ceiling": 1200,
    "temp": 16,
    "dewpoint": 14,
    "altimeter": 30.47,
    "conditions": "",
    "observationTime": "2026-06-11T18:00:00.000Z"
  },
  "LHR": {
    "raw": "METAR EGLL 111750Z AUTO 24012KT 9999 BKN015 OVC020 16/15 Q1016",
    "icao": "EGLL",
    "flightCategory": "MVFR",
    "windDir": 240,
    "windSpeed": 12,
    "windGust": null,
    "visibility": 6,
    "ceiling": 1500,
    "temp": 16,
    "dewpoint": 15,
    "altimeter": 30,
    "conditions": "",
    "observationTime": "2026-06-11T18:00:00.000Z"
  },
  "ORD": {
    "raw": "METAR KORD 111751Z 24011KT 10SM BKN043 OVC090 27/20 A2983 RMK AO2 SLP095 OCNL LTGICCG DSNT SW-NW CB DSNT SW-NW MOV E T02670200 10278 20200 53013",
    "icao": "KORD",
    "flightCategory": "VFR",
    "windDir": 240,
    "windSpeed": 11,
    "windGust": null,
    "visibility": 10,
    "ceiling": 4300,
    "temp": 26.7,
    "dewpoint": 20,
    "altimeter": 29.83,
    "conditions": "",
    "observationTime": "2026-06-11T18:00:00.000Z"
  },
  "LAS": {
    "raw": "METAR KLAS 111756Z 04012G16KT 6SM HZ CLR 33/M05 A2992 RMK AO2 SLP099 T03331050 10333 20294 50009",
    "icao": "KLAS",
    "flightCategory": "VFR",
    "windDir": 40,
    "windSpeed": 12,
    "windGust": 16,
    "visibility": 6,
    "ceiling": null,
    "temp": 33.3,
    "dewpoint": -5,
    "altimeter": 29.92,
    "conditions": "HZ",
    "observationTime": "2026-06-11T18:00:00.000Z"
  },
  "LAX": {
    "raw": "METAR KLAX 111753Z 31008KT 10SM FEW012 23/17 A2987 RMK AO2 SLP112 T02280167 10239 20183 51005",
    "icao": "KLAX",
    "flightCategory": "VFR",
    "windDir": 310,
    "windSpeed": 8,
    "windGust": null,
    "visibility": 10,
    "ceiling": null,
    "temp": 22.8,
    "dewpoint": 16.7,
    "altimeter": 29.87,
    "conditions": "",
    "observationTime": "2026-06-11T18:00:00.000Z"
  }
}