{
  "SYD": {
    "raw": "METAR YSSY 011130Z AUTO 36010KT 9999 // SCT120 19/13 Q1013",
    "icao": "YSSY",
    "flightCategory": "VFR",
    "windDir": 360,
    "windSpeed": 10,
    "windGust": null,
    "visibility": 6,
    "ceiling": null,
    "temp": 19,
    "dewpoint": 13,
    "altimeter": 29.91,
    "conditions": "",
    "observationTime": "2026-07-01T11:30:00.000Z"
  },
  "LAS": {
    "raw": "METAR KLAS 011156Z 00000KT 10SM CLR 25/03 A2978 RMK AO2 SLP054 T02500028 10294 20250 53006",
    "icao": "KLAS",
    "flightCategory": "VFR",
    "windDir": 0,
    "windSpeed": 0,
    "windGust": null,
    "visibility": 10,
    "ceiling": null,
    "temp": 25,
    "dewpoint": 2.8,
    "altimeter": 29.78,
    "conditions": "",
    "observationTime": "2026-07-01T12:00:00.000Z"
  },
  "LAX": {
    "raw": "METAR KLAX 011153Z 27005KT 10SM BKN015 OVC035 18/14 A2990 RMK AO2 SLP124 T01780144 10183 20178 53000 $",
    "icao": "KLAX",
    "flightCategory": "MVFR",
    "windDir": 270,
    "windSpeed": 5,
    "windGust": null,
    "visibility": 10,
    "ceiling": 1500,
    "temp": 17.8,
    "dewpoint": 14.4,
    "altimeter": 29.9,
    "conditions": "",
    "observationTime": "2026-07-01T12:00:00.000Z"
  },
  "ORD": {
    "raw": "METAR KORD 011151Z 23008KT 10SM FEW250 27/23 A2995 RMK AO2 SLP137 T02720228 10278 20267 53004",
    "icao": "KORD",
    "flightCategory": "VFR",
    "windDir": 230,
    "windSpeed": 8,
    "windGust": null,
    "visibility": 10,
    "ceiling": null,
    "temp": 27.2,
    "dewpoint": 22.8,
    "altimeter": 29.95,
    "conditions": "",
    "observationTime": "2026-07-01T12:00:00.000Z"
  },
  "LHR": {
    "raw": "METAR EGLL 011150Z AUTO VRB07KT 9999 FEW048 24/11 Q1024",
    "icao": "EGLL",
    "flightCategory": "VFR",
    "windDir": null,
    "windSpeed": 7,
    "windGust": null,
    "visibility": 6,
    "ceiling": null,
    "temp": 24,
    "dewpoint": 11,
    "altimeter": 30.24,
    "conditions": "",
    "observationTime": "2026-07-01T12:00:00.000Z"
  }
}