{
  "HND": {
    "raw": "METAR RJTT 121630Z 14003KT 9999 FEW015 17/16 Q1010 NOSIG",
    "icao": "RJTT",
    "flightCategory": "VFR",
    "windDir": 140,
    "windSpeed": 3,
    "windGust": null,
    "visibility": 6,
    "ceiling": null,
    "temp": 17,
    "dewpoint": 16,
    "altimeter": 29.83,
    "conditions": "",
    "observationTime": "2026-05-12T16:30:00.000Z"
  },
  "LAS": {
    "raw": "METAR KLAS 121656Z VRB06KT 10SM FEW250 33/M06 A2999 RMK AO2 SLP126 T03281056",
    "icao": "KLAS",
    "flightCategory": "VFR",
    "windDir": null,
    "windSpeed": 6,
    "windGust": null,
    "visibility": 10,
    "ceiling": null,
    "temp": 32.8,
    "dewpoint": -5.6,
    "altimeter": 29.99,
    "conditions": "",
    "observationTime": "2026-05-12T17:00:00.000Z"
  },
  "LAX": {
    "raw": "METAR KLAX 121653Z 00000KT 7SM FEW008 BKN014 OVC018 16/12 A3001 RMK AO2 SLP163 T01610122",
    "icao": "KLAX",
    "flightCategory": "MVFR",
    "windDir": 0,
    "windSpeed": 0,
    "windGust": null,
    "visibility": 7,
    "ceiling": 1400,
    "temp": 16.1,
    "dewpoint": 12.2,
    "altimeter": 30.01,
    "conditions": "",
    "observationTime": "2026-05-12T17:00:00.000Z"
  },
  "ORD": {
    "raw": "METAR KORD 121651Z 18015G23KT 10SM BKN110 BKN150 OVC250 18/03 A2998 RMK AO2 PK WND 19027/1615 SLP152 T01830033 $",
    "icao": "KORD",
    "flightCategory": "VFR",
    "windDir": 180,
    "windSpeed": 15,
    "windGust": 23,
    "visibility": 10,
    "ceiling": 11000,
    "temp": 18.3,
    "dewpoint": 3.3,
    "altimeter": 29.98,
    "conditions": "",
    "observationTime": "2026-05-12T17:00:00.000Z"
  },
  "LHR": {
    "raw": "METAR EGLL 121620Z COR AUTO 28014KT 9999 NCD 15/06 Q1011 NOSIG",
    "icao": "EGLL",
    "flightCategory": "VFR",
    "windDir": 280,
    "windSpeed": 14,
    "windGust": null,
    "visibility": 6,
    "ceiling": null,
    "temp": 15,
    "dewpoint": 6,
    "altimeter": 29.85,
    "conditions": "",
    "observationTime": "2026-05-12T16:20:00.000Z"
  }
}