{
  "LAS": {
    "raw": "METAR KLAS 010156Z 10010G20KT 10SM CLR 33/M04 A2974 RMK AO2 SLP044 T03331044",
    "icao": "KLAS",
    "flightCategory": "VFR",
    "windDir": 100,
    "windSpeed": 10,
    "windGust": 20,
    "visibility": 10,
    "ceiling": null,
    "temp": 33.3,
    "dewpoint": -4.4,
    "altimeter": 29.74,
    "conditions": "",
    "observationTime": "2026-07-01T02:00:00.000Z"
  },
  "SYD": {
    "raw": "METAR YSSY 010130Z 36013KT CAVOK 20/12 Q1017",
    "icao": "YSSY",
    "flightCategory": "VFR",
    "windDir": 360,
    "windSpeed": 13,
    "windGust": null,
    "visibility": 6,
    "ceiling": null,
    "temp": 20,
    "dewpoint": 12,
    "altimeter": 30.03,
    "conditions": "",
    "observationTime": "2026-07-01T01:30:00.000Z"
  },
  "LAX": {
    "raw": "METAR KLAX 010153Z 25011KT 10SM FEW017 19/14 A2991 RMK AO2 SLP128 T01890139 $",
    "icao": "KLAX",
    "flightCategory": "VFR",
    "windDir": 250,
    "windSpeed": 11,
    "windGust": null,
    "visibility": 10,
    "ceiling": null,
    "temp": 18.9,
    "dewpoint": 13.9,
    "altimeter": 29.91,
    "conditions": "",
    "observationTime": "2026-07-01T02:00:00.000Z"
  },
  "ORD": {
    "raw": "METAR KORD 010151Z 22012G25KT 10SM FEW037 31/24 A2990 RMK AO2 PK WND 23027/0112 SLP117 T03110239 $",
    "icao": "KORD",
    "flightCategory": "VFR",
    "windDir": 220,
    "windSpeed": 12,
    "windGust": 25,
    "visibility": 10,
    "ceiling": null,
    "temp": 31.1,
    "dewpoint": 23.9,
    "altimeter": 29.9,
    "conditions": "",
    "observationTime": "2026-07-01T02:00:00.000Z"
  },
  "LHR": {
    "raw": "METAR EGLL 010150Z AUTO 28007KT 9999 BKN015 16/14 Q1022",
    "icao": "EGLL",
    "flightCategory": "MVFR",
    "windDir": 280,
    "windSpeed": 7,
    "windGust": null,
    "visibility": 6,
    "ceiling": 1500,
    "temp": 16,
    "dewpoint": 14,
    "altimeter": 30.18,
    "conditions": "",
    "observationTime": "2026-07-01T02:00:00.000Z"
  }
}