{
  "ORD": {
    "raw": "METAR KORD 011351Z 03021G26KT 10SM BKN012 OVC020 02/M01 A3021 RMK AO2 PK WND 04028/1321 SLP236 T00221006",
    "icao": "KORD",
    "flightCategory": "MVFR",
    "windDir": 30,
    "windSpeed": 21,
    "windGust": 26,
    "visibility": 10,
    "ceiling": 1200,
    "temp": 2.2,
    "dewpoint": -0.6,
    "altimeter": 30.21,
    "conditions": "",
    "observationTime": "2026-04-01T14:00:00.000Z"
  },
  "SYD": {
    "raw": "METAR YSSY 011300Z AUTO 29005KT 270V360 9999 // FEW022 21/17 Q1023",
    "icao": "YSSY",
    "flightCategory": "VFR",
    "windDir": 290,
    "windSpeed": 5,
    "windGust": null,
    "visibility": 6,
    "ceiling": null,
    "temp": 21,
    "dewpoint": 17,
    "altimeter": 30.21,
    "conditions": "",
    "observationTime": "2026-04-01T13:00:00.000Z"
  },
  "LHR": {
    "raw": "METAR EGLL 011320Z COR AUTO 28003KT 240V360 9999 SCT040 OVC046 12/06 Q1023 NOSIG",
    "icao": "EGLL",
    "flightCategory": "VFR",
    "windDir": 280,
    "windSpeed": 3,
    "windGust": null,
    "visibility": 6,
    "ceiling": 4600,
    "temp": 12,
    "dewpoint": 6,
    "altimeter": 30.21,
    "conditions": "",
    "observationTime": "2026-04-01T13:20:00.000Z"
  },
  "LAS": {
    "raw": "METAR KLAS 011256Z 22006KT 10SM FEW080 SCT110 16/04 A2979 RMK AO2 PK WND 23030/1208 SLP069 T01610039",
    "icao": "KLAS",
    "flightCategory": "VFR",
    "windDir": 220,
    "windSpeed": 6,
    "windGust": null,
    "visibility": 10,
    "ceiling": null,
    "temp": 16.1,
    "dewpoint": 3.9,
    "altimeter": 29.79,
    "conditions": "",
    "observationTime": "2026-04-01T13:00:00.000Z"
  }
}