{
  "SYD": {
    "raw": "METAR YSSY 171730Z AUTO 25011KT 9999 // NCD 14/09 Q1016",
    "icao": "YSSY",
    "flightCategory": "VFR",
    "windDir": 250,
    "windSpeed": 11,
    "windGust": null,
    "visibility": 6,
    "ceiling": null,
    "temp": 14,
    "dewpoint": 9,
    "altimeter": 30,
    "conditions": "",
    "observationTime": "2026-04-17T17:30:00.000Z"
  },
  "LAS": {
    "raw": "METAR KLAS 171756Z 06018G26KT 10SM CLR 15/M21 A3020 RMK AO2 PK WND 05026/1749 SLP213 T01501211 10150 20100 50006",
    "icao": "KLAS",
    "flightCategory": "VFR",
    "windDir": 60,
    "windSpeed": 18,
    "windGust": 26,
    "visibility": 10,
    "ceiling": null,
    "temp": 15,
    "dewpoint": -21.1,
    "altimeter": 30.2,
    "conditions": "",
    "observationTime": "2026-04-17T18:00:00.000Z"
  },
  "LAX": {
    "raw": "METAR KLAX 171753Z 29003KT 10SM SCT017 SCT030 19/10 A3001 RMK AO2 SLP163 T01890100 10194 20133 51012",
    "icao": "KLAX",
    "flightCategory": "VFR",
    "windDir": 290,
    "windSpeed": 3,
    "windGust": null,
    "visibility": 10,
    "ceiling": null,
    "temp": 18.9,
    "dewpoint": 10,
    "altimeter": 30.01,
    "conditions": "",
    "observationTime": "2026-04-17T18:00:00.000Z"
  },
  "ORD": {
    "raw": "METAR KORD 171751Z 18012G22KT 10SM FEW035 FEW060 BKN250 25/16 A2984 RMK AO2 SLP101 T02500161 10250 20100 58020 $",
    "icao": "KORD",
    "flightCategory": "VFR",
    "windDir": 180,
    "windSpeed": 12,
    "windGust": 22,
    "visibility": 10,
    "ceiling": 25000,
    "temp": 25,
    "dewpoint": 16.1,
    "altimeter": 29.84,
    "conditions": "",
    "observationTime": "2026-04-17T18:00:00.000Z"
  },
  "LHR": {
    "raw": "METAR EGLL 171750Z COR AUTO 20015KT 9999 NCD 16/07 Q1019 NOSIG",
    "icao": "EGLL",
    "flightCategory": "VFR",
    "windDir": 200,
    "windSpeed": 15,
    "windGust": null,
    "visibility": 6,
    "ceiling": null,
    "temp": 16,
    "dewpoint": 7,
    "altimeter": 30.09,
    "conditions": "",
    "observationTime": "2026-04-17T18:00:00.000Z"
  }
}