{
  "SYD": {
    "raw": "METAR YSSY 011900Z AUTO 34009KT 9999 // NCD 15/13 Q1011",
    "icao": "YSSY",
    "flightCategory": "VFR",
    "windDir": 340,
    "windSpeed": 9,
    "windGust": null,
    "visibility": 6,
    "ceiling": null,
    "temp": 15,
    "dewpoint": 13,
    "altimeter": 29.85,
    "conditions": "",
    "observationTime": "2026-07-01T19:00:00.000Z"
  },
  "LHR": {
    "raw": "METAR EGLL 011850Z AUTO 28014KT 9999 NCD 24/12 Q1022",
    "icao": "EGLL",
    "flightCategory": "VFR",
    "windDir": 280,
    "windSpeed": 14,
    "windGust": null,
    "visibility": 6,
    "ceiling": null,
    "temp": 24,
    "dewpoint": 12,
    "altimeter": 30.18,
    "conditions": "",
    "observationTime": "2026-07-01T19:00:00.000Z"
  },
  "LAS": {
    "raw": "METAR KLAS 011856Z 10011G16KT 10SM CLR 33/01 A2983 RMK AO2 SLP073 T03330006",
    "icao": "KLAS",
    "flightCategory": "VFR",
    "windDir": 100,
    "windSpeed": 11,
    "windGust": 16,
    "visibility": 10,
    "ceiling": null,
    "temp": 33.3,
    "dewpoint": 0.6,
    "altimeter": 29.83,
    "conditions": "",
    "observationTime": "2026-07-01T19:00:00.000Z"
  },
  "LAX": {
    "raw": "SPECI KLAX 011845Z 24007KT 10SM FEW013 BKN019 OVC039 20/14 A2996 RMK AO2 BKN V SCT T02000144 $",
    "icao": "KLAX",
    "flightCategory": "MVFR",
    "windDir": 240,
    "windSpeed": 7,
    "windGust": null,
    "visibility": 10,
    "ceiling": 1900,
    "temp": 20,
    "dewpoint": 14.4,
    "altimeter": 29.96,
    "conditions": "",
    "observationTime": "2026-07-01T18:45:00.000Z"
  },
  "ORD": {
    "raw": "METAR KORD 011851Z 21011G22KT 10SM FEW050 FEW300 34/19 A2996 RMK AO2 SLP139 T03390194",
    "icao": "KORD",
    "flightCategory": "VFR",
    "windDir": 210,
    "windSpeed": 11,
    "windGust": 22,
    "visibility": 10,
    "ceiling": null,
    "temp": 33.9,
    "dewpoint": 19.4,
    "altimeter": 29.96,
    "conditions": "",
    "observationTime": "2026-07-01T19:00:00.000Z"
  }
}