{
  "LAS": {
    "raw": "SPECI KLAS 240947Z 31004KT 10SM VCTS FEW095CB SCT120 BKN150 33/11 A2993 RMK AO2 LTG DSNT W AND NW OCNL LTGIC VC W-N TS VC W-N T03330106 $",
    "icao": "KLAS",
    "flightCategory": "VFR",
    "windDir": 310,
    "windSpeed": 4,
    "windGust": null,
    "visibility": 10,
    "ceiling": 15000,
    "temp": 33.3,
    "dewpoint": 10.6,
    "altimeter": 29.93,
    "conditions": "VCTS",
    "observationTime": "2026-06-24T09:47:00.000Z"
  },
  "LHR": {
    "raw": "METAR EGLL 240950Z AUTO 01006KT 320V050 9999 NCD 30/21 Q1018",
    "icao": "EGLL",
    "flightCategory": "VFR",
    "windDir": 10,
    "windSpeed": 6,
    "windGust": null,
    "visibility": 6,
    "ceiling": null,
    "temp": 30,
    "dewpoint": 21,
    "altimeter": 30.06,
    "conditions": "",
    "observationTime": "2026-06-24T10:00:00.000Z"
  },
  "SYD": {
    "raw": "METAR YSSY 241000Z AUTO 19015KT 9999 // FEW034 SCT056 15/10 Q1030",
    "icao": "YSSY",
    "flightCategory": "VFR",
    "windDir": 190,
    "windSpeed": 15,
    "windGust": null,
    "visibility": 6,
    "ceiling": null,
    "temp": 15,
    "dewpoint": 10,
    "altimeter": 30.42,
    "conditions": "",
    "observationTime": "2026-06-24T10:00:00.000Z"
  },
  "LAX": {
    "raw": "METAR KLAX 240953Z 29006KT 9SM BKN008 OVC011 17/15 A3000 RMK AO2 SLP157 T01720150 $",
    "icao": "KLAX",
    "flightCategory": "IFR",
    "windDir": 290,
    "windSpeed": 6,
    "windGust": null,
    "visibility": 9,
    "ceiling": 800,
    "temp": 17.2,
    "dewpoint": 15,
    "altimeter": 30,
    "conditions": "",
    "observationTime": "2026-06-24T10:00:00.000Z"
  },
  "ORD": {
    "raw": "METAR KORD 240951Z 18005KT 10SM BKN080 BKN130 16/08 A3009 RMK AO2 SLP187 T01610083 $",
    "icao": "KORD",
    "flightCategory": "VFR",
    "windDir": 180,
    "windSpeed": 5,
    "windGust": null,
    "visibility": 10,
    "ceiling": 8000,
    "temp": 16.1,
    "dewpoint": 8.3,
    "altimeter": 30.09,
    "conditions": "",
    "observationTime": "2026-06-24T10:00:00.000Z"
  }
}