{
  "SYD": {
    "raw": "METAR YSSY 151530Z AUTO 35007KT 9999 // NCD 17/13 Q1019",
    "icao": "YSSY",
    "flightCategory": "VFR",
    "windDir": 350,
    "windSpeed": 7,
    "windGust": null,
    "visibility": 6,
    "ceiling": null,
    "temp": 17,
    "dewpoint": 13,
    "altimeter": 30.09,
    "conditions": "",
    "observationTime": "2026-04-15T15:30:00.000Z"
  },
  "LAS": {
    "raw": "METAR KLAS 151556Z 07003KT 10SM CLR 18/M06 A3002 RMK AO2 SLP151 T01831056",
    "icao": "KLAS",
    "flightCategory": "VFR",
    "windDir": 70,
    "windSpeed": 3,
    "windGust": null,
    "visibility": 10,
    "ceiling": null,
    "temp": 18.3,
    "dewpoint": -5.6,
    "altimeter": 30.02,
    "conditions": "",
    "observationTime": "2026-04-15T16:00:00.000Z"
  },
  "LAX": {
    "raw": "METAR KLAX 151553Z 00000KT 10SM FEW009 FEW200 17/11 A3004 RMK AO2 SLP172 T01670111",
    "icao": "KLAX",
    "flightCategory": "VFR",
    "windDir": 0,
    "windSpeed": 0,
    "windGust": null,
    "visibility": 10,
    "ceiling": null,
    "temp": 16.7,
    "dewpoint": 11.1,
    "altimeter": 30.04,
    "conditions": "",
    "observationTime": "2026-04-15T16:00:00.000Z"
  },
  "ORD": {
    "raw": "METAR KORD 151551Z 16012G22KT 10SM -RA OVC100 18/15 A2978 RMK AO2 SLP084 P0000 T01780150",
    "icao": "KORD",
    "flightCategory": "VFR",
    "windDir": 160,
    "windSpeed": 12,
    "windGust": 22,
    "visibility": 10,
    "ceiling": 10000,
    "temp": 17.8,
    "dewpoint": 15,
    "altimeter": 29.78,
    "conditions": "-RA",
    "observationTime": "2026-04-15T16:00:00.000Z"
  },
  "LHR": {
    "raw": "METAR EGLL 151520Z AUTO 20016KT 170V240 9999 SCT025/// BKN030/// //////TCU 15/09 Q1014",
    "icao": "EGLL",
    "flightCategory": "MVFR",
    "windDir": 200,
    "windSpeed": 16,
    "windGust": null,
    "visibility": 6,
    "ceiling": 3000,
    "temp": 15,
    "dewpoint": 9,
    "altimeter": 29.94,
    "conditions": "",
    "observationTime": "2026-04-15T15:20:00.000Z"
  }
}