{
  "SYD": {
    "raw": "METAR YSSY 091700Z AUTO 32007KT 9999 // NCD 21/17 Q1011",
    "icao": "YSSY",
    "flightCategory": "VFR",
    "windDir": 320,
    "windSpeed": 7,
    "windGust": null,
    "visibility": 6,
    "ceiling": null,
    "temp": 21,
    "dewpoint": 17,
    "altimeter": 29.85,
    "conditions": "",
    "observationTime": "2026-04-09T17:00:00.000Z"
  },
  "LHR": {
    "raw": "METAR EGLL 091650Z COR AUTO 28017KT 9999 BKN043 13/04 Q1017 NOSIG",
    "icao": "EGLL",
    "flightCategory": "VFR",
    "windDir": 280,
    "windSpeed": 17,
    "windGust": null,
    "visibility": 6,
    "ceiling": 4300,
    "temp": 13,
    "dewpoint": 4,
    "altimeter": 30.03,
    "conditions": "",
    "observationTime": "2026-04-09T17:00:00.000Z"
  },
  "LAS": {
    "raw": "METAR KLAS 091656Z 19011G19KT 10SM FEW200 BKN250 26/M03 A2988 RMK AO2 SLP096 T02611033",
    "icao": "KLAS",
    "flightCategory": "VFR",
    "windDir": 190,
    "windSpeed": 11,
    "windGust": 19,
    "visibility": 10,
    "ceiling": 25000,
    "temp": 26.1,
    "dewpoint": -3.3,
    "altimeter": 29.88,
    "conditions": "",
    "observationTime": "2026-04-09T17:00:00.000Z"
  },
  "LAX": {
    "raw": "METAR KLAX 091653Z 15005KT 8SM FEW009 SCT015 21/14 A2996 RMK AO2 SLP143 T02060144 $",
    "icao": "KLAX",
    "flightCategory": "VFR",
    "windDir": 150,
    "windSpeed": 5,
    "windGust": null,
    "visibility": 8,
    "ceiling": null,
    "temp": 20.6,
    "dewpoint": 14.4,
    "altimeter": 29.96,
    "conditions": "",
    "observationTime": "2026-04-09T17:00:00.000Z"
  },
  "ORD": {
    "raw": "METAR KORD 091651Z 27007G18KT 10SM FEW070 FEW110 SCT250 18/02 A3014 RMK AO2 SLP206 T01830017",
    "icao": "KORD",
    "flightCategory": "VFR",
    "windDir": 270,
    "windSpeed": 7,
    "windGust": 18,
    "visibility": 10,
    "ceiling": null,
    "temp": 18.3,
    "dewpoint": 1.7,
    "altimeter": 30.14,
    "conditions": "",
    "observationTime": "2026-04-09T17:00:00.000Z"
  }
}