{
  "SYD": {
    "raw": "SPECI YSSY 071318Z AUTO 25005KT 9999 // NCD 21/17 Q1012",
    "icao": "YSSY",
    "flightCategory": "VFR",
    "windDir": 250,
    "windSpeed": 5,
    "windGust": null,
    "visibility": 6,
    "ceiling": null,
    "temp": 21,
    "dewpoint": 17,
    "altimeter": 29.88,
    "conditions": "",
    "observationTime": "2026-04-07T13:18:00.000Z"
  },
  "LAS": {
    "raw": "METAR KLAS 071356Z 00000KT 10SM CLR 17/M07 A2996 RMK AO2 SLP127 T01721067",
    "icao": "KLAS",
    "flightCategory": "VFR",
    "windDir": 0,
    "windSpeed": 0,
    "windGust": null,
    "visibility": 10,
    "ceiling": null,
    "temp": 17.2,
    "dewpoint": -6.7,
    "altimeter": 29.96,
    "conditions": "",
    "observationTime": "2026-04-07T14:00:00.000Z"
  },
  "LAX": {
    "raw": "METAR KLAX 071353Z COR 00000KT 6SM HZ SCT010 SCT140 15/13 A3000 RMK AO2 SLP156 T01500128 $",
    "icao": "KLAX",
    "flightCategory": "VFR",
    "windDir": 0,
    "windSpeed": 0,
    "windGust": null,
    "visibility": 6,
    "ceiling": null,
    "temp": 15,
    "dewpoint": 12.8,
    "altimeter": 30,
    "conditions": "HZ",
    "observationTime": "2026-04-07T14:00:00.000Z"
  },
  "ORD": {
    "raw": "METAR KORD 071351Z 07009KT 10SM FEW036 FEW250 00/M09 A3052 RMK AO2 SLP342 T00001094 $",
    "icao": "KORD",
    "flightCategory": "VFR",
    "windDir": 70,
    "windSpeed": 9,
    "windGust": null,
    "visibility": 10,
    "ceiling": null,
    "temp": 0,
    "dewpoint": -9.4,
    "altimeter": 30.52,
    "conditions": "",
    "observationTime": "2026-04-07T14:00:00.000Z"
  },
  "LHR": {
    "raw": "METAR EGLL 071320Z COR AUTO 09010KT 050V120 9999 NCD 21/04 Q1021 NOSIG",
    "icao": "EGLL",
    "flightCategory": "VFR",
    "windDir": 90,
    "windSpeed": 10,
    "windGust": null,
    "visibility": 6,
    "ceiling": null,
    "temp": 21,
    "dewpoint": 4,
    "altimeter": 30.15,
    "conditions": "",
    "observationTime": "2026-04-07T13:20:00.000Z"
  }
}