{
  "SYD": {
    "raw": "METAR YSSY 180900Z AUTO 17014KT 9999 // NCD 18/10 Q1019",
    "icao": "YSSY",
    "flightCategory": "VFR",
    "windDir": 170,
    "windSpeed": 14,
    "windGust": null,
    "visibility": 6,
    "ceiling": null,
    "temp": 18,
    "dewpoint": 10,
    "altimeter": 30.09,
    "conditions": "",
    "observationTime": "2026-04-18T09:00:00.000Z"
  },
  "LHR": {
    "raw": "METAR EGLL 180850Z COR AUTO 27011KT 9999 NCD 12/07 Q1022 NOSIG",
    "icao": "EGLL",
    "flightCategory": "VFR",
    "windDir": 270,
    "windSpeed": 11,
    "windGust": null,
    "visibility": 6,
    "ceiling": null,
    "temp": 12,
    "dewpoint": 7,
    "altimeter": 30.18,
    "conditions": "",
    "observationTime": "2026-04-18T09:00:00.000Z"
  },
  "LAS": {
    "raw": "METAR KLAS 180856Z 20004KT 10SM FEW250 12/M16 A3008 RMK AO2 SLP178 T01221156 50000",
    "icao": "KLAS",
    "flightCategory": "VFR",
    "windDir": 200,
    "windSpeed": 4,
    "windGust": null,
    "visibility": 10,
    "ceiling": null,
    "temp": 12.2,
    "dewpoint": -15.6,
    "altimeter": 30.08,
    "conditions": "",
    "observationTime": "2026-04-18T09:00:00.000Z"
  },
  "LAX": {
    "raw": "METAR KLAX 180853Z 05006KT 10SM CLR 16/11 A2996 RMK AO2 SLP144 T01610111 50002",
    "icao": "KLAX",
    "flightCategory": "VFR",
    "windDir": 50,
    "windSpeed": 6,
    "windGust": null,
    "visibility": 10,
    "ceiling": null,
    "temp": 16.1,
    "dewpoint": 11.1,
    "altimeter": 29.96,
    "conditions": "",
    "observationTime": "2026-04-18T09:00:00.000Z"
  },
  "ORD": {
    "raw": "SPECI KORD 180849Z 27012G21KT 10SM BKN009 OVC036 13/12 A2963 RMK AO2 $",
    "icao": "KORD",
    "flightCategory": "IFR",
    "windDir": 270,
    "windSpeed": 12,
    "windGust": 21,
    "visibility": 10,
    "ceiling": 900,
    "temp": 13,
    "dewpoint": 12,
    "altimeter": 29.63,
    "conditions": "",
    "observationTime": "2026-04-18T08:49:00.000Z"
  }
}