{
  "SYD": {
    "raw": "METAR YSSY 171530Z AUTO 28005KT 7000 -SHRA FEW019 SCT028 BKN035 13/12 Q1031",
    "icao": "YSSY",
    "flightCategory": "MVFR",
    "windDir": 280,
    "windSpeed": 5,
    "windGust": null,
    "visibility": 4.35,
    "ceiling": 3500,
    "temp": 13,
    "dewpoint": 12,
    "altimeter": 30.45,
    "conditions": "-SHRA",
    "observationTime": "2026-07-17T15:30:00.000Z"
  },
  "LAS": {
    "raw": "METAR KLAS 171556Z 06006KT 10SM FEW100 SCT140 BKN180 30/18 A2998 RMK AO2 SLP121 T03000178 $",
    "icao": "KLAS",
    "flightCategory": "VFR",
    "windDir": 60,
    "windSpeed": 6,
    "windGust": null,
    "visibility": 10,
    "ceiling": 18000,
    "temp": 30,
    "dewpoint": 17.8,
    "altimeter": 29.98,
    "conditions": "",
    "observationTime": "2026-07-17T16:00:00.000Z"
  },
  "LAX": {
    "raw": "METAR KLAX 171553Z 12005KT 10SM BKN019 BKN180 23/18 A2993 RMK AO2 SLP134 T02330178 $",
    "icao": "KLAX",
    "flightCategory": "MVFR",
    "windDir": 120,
    "windSpeed": 5,
    "windGust": null,
    "visibility": 10,
    "ceiling": 1900,
    "temp": 23.3,
    "dewpoint": 17.8,
    "altimeter": 29.93,
    "conditions": "",
    "observationTime": "2026-07-17T16:00:00.000Z"
  },
  "ORD": {
    "raw": "SPECI KORD 171527Z 23005KT 2SM FU FEW012 BKN100 29/22 A3004 RMK AO2 T02940222",
    "icao": "KORD",
    "flightCategory": "IFR",
    "windDir": 230,
    "windSpeed": 5,
    "windGust": null,
    "visibility": 2,
    "ceiling": 10000,
    "temp": 29.4,
    "dewpoint": 22.2,
    "altimeter": 30.04,
    "conditions": "FU",
    "observationTime": "2026-07-17T15:27:00.000Z"
  },
  "LHR": {
    "raw": "METAR EGLL 171520Z AUTO 35006KT 290V040 9999 NCD 27/11 Q1015",
    "icao": "EGLL",
    "flightCategory": "VFR",
    "windDir": 350,
    "windSpeed": 6,
    "windGust": null,
    "visibility": 6,
    "ceiling": null,
    "temp": 27,
    "dewpoint": 11,
    "altimeter": 29.97,
    "conditions": "",
    "observationTime": "2026-07-17T15:20:00.000Z"
  }
}