{
  "ORD": {
    "raw": "SPECI KORD 271715Z 19006KT 3SM -TSRA BR FEW029 BKN060CB OVC100 14/12 A2982 RMK AO2 TSB09 OCNL LTGIC N TS N MOV N P0006 T01440122 $",
    "icao": "KORD",
    "flightCategory": "MVFR",
    "windDir": 190,
    "windSpeed": 6,
    "windGust": null,
    "visibility": 3,
    "ceiling": 6000,
    "temp": 14.4,
    "dewpoint": 12.2,
    "altimeter": 29.82,
    "conditions": "-TSRA BR",
    "observationTime": "2026-04-27T17:15:00.000Z"
  },
  "SYD": {
    "raw": "METAR YSSY 271730Z AUTO 34007KT 9999 // BKN047 15/13 Q1025",
    "icao": "YSSY",
    "flightCategory": "VFR",
    "windDir": 340,
    "windSpeed": 7,
    "windGust": null,
    "visibility": 6,
    "ceiling": 4700,
    "temp": 15,
    "dewpoint": 13,
    "altimeter": 30.27,
    "conditions": "",
    "observationTime": "2026-04-27T17:30:00.000Z"
  },
  "LAS": {
    "raw": "METAR KLAS 271756Z 18009G18KT 10SM FEW100 FEW250 18/M02 A2990 RMK AO2 SLP113 T01781022 10178 20117 51004",
    "icao": "KLAS",
    "flightCategory": "VFR",
    "windDir": 180,
    "windSpeed": 9,
    "windGust": 18,
    "visibility": 10,
    "ceiling": null,
    "temp": 17.8,
    "dewpoint": -2.2,
    "altimeter": 29.9,
    "conditions": "",
    "observationTime": "2026-04-27T18:00:00.000Z"
  },
  "LAX": {
    "raw": "METAR KLAX 271753Z 24006KT 10SM FEW010 FEW042 SCT070 18/07 A3001 RMK AO2 SLP230 T01780072 10178 20144 VISNO RWY24 $",
    "icao": "KLAX",
    "flightCategory": "VFR",
    "windDir": 240,
    "windSpeed": 6,
    "windGust": null,
    "visibility": 10,
    "ceiling": null,
    "temp": 17.8,
    "dewpoint": 7.2,
    "altimeter": 30.01,
    "conditions": "",
    "observationTime": "2026-04-27T18:00:00.000Z"
  },
  "LHR": {
    "raw": "METAR EGLL 271720Z AUTO 03006KT 330V060 9999 NCD 19/05 Q1021 TEMPO 6000 SHRA",
    "icao": "EGLL",
    "flightCategory": "VFR",
    "windDir": 30,
    "windSpeed": 6,
    "windGust": null,
    "visibility": 6,
    "ceiling": null,
    "temp": 19,
    "dewpoint": 5,
    "altimeter": 30.15,
    "conditions": "",
    "observationTime": "2026-04-27T17:20:00.000Z"
  }
}