{
  "LAX": {
    "raw": "METAR KLAX 021853Z 24011KT 9SM OVC014 17/13 A2997 RMK AO2 SLP146 T01720133",
    "icao": "KLAX",
    "flightCategory": "MVFR",
    "windDir": 240,
    "windSpeed": 11,
    "windGust": null,
    "visibility": 9,
    "ceiling": 1400,
    "temp": 17.2,
    "dewpoint": 13.3,
    "altimeter": 29.97,
    "conditions": "",
    "observationTime": "2026-05-02T19:00:00.000Z"
  },
  "SYD": {
    "raw": "METAR YSSY 021830Z AUTO 33004KT 9999 // NCD 18/15 Q1022",
    "icao": "YSSY",
    "flightCategory": "VFR",
    "windDir": 330,
    "windSpeed": 4,
    "windGust": null,
    "visibility": 6,
    "ceiling": null,
    "temp": 18,
    "dewpoint": 15,
    "altimeter": 30.18,
    "conditions": "",
    "observationTime": "2026-05-02T18:30:00.000Z"
  },
  "LAS": {
    "raw": "METAR KLAS 021856Z 13005KT 10SM BKN250 27/M09 A3001 RMK AO2 SLP140 T02721094",
    "icao": "KLAS",
    "flightCategory": "VFR",
    "windDir": 130,
    "windSpeed": 5,
    "windGust": null,
    "visibility": 10,
    "ceiling": 25000,
    "temp": 27.2,
    "dewpoint": -9.4,
    "altimeter": 30.01,
    "conditions": "",
    "observationTime": "2026-05-02T19:00:00.000Z"
  },
  "ORD": {
    "raw": "METAR KORD 021851Z 32004KT 10SM BKN070 11/M04 A3007 RMK AO2 SLP187 VIRGA T01061044 $",
    "icao": "KORD",
    "flightCategory": "VFR",
    "windDir": 320,
    "windSpeed": 4,
    "windGust": null,
    "visibility": 10,
    "ceiling": 7000,
    "temp": 10.6,
    "dewpoint": -4.4,
    "altimeter": 30.07,
    "conditions": "",
    "observationTime": "2026-05-02T19:00:00.000Z"
  },
  "LHR": {
    "raw": "METAR EGLL 021850Z AUTO 13005KT 090V170 9999 FEW034/// SCT040/// BKN049/// //////CB 15/13 Q1011 TEMPO 5000 SHRA",
    "icao": "EGLL",
    "flightCategory": "VFR",
    "windDir": 130,
    "windSpeed": 5,
    "windGust": null,
    "visibility": 6,
    "ceiling": 4900,
    "temp": 15,
    "dewpoint": 13,
    "altimeter": 29.85,
    "conditions": "",
    "observationTime": "2026-05-02T19:00:00.000Z"
  }
}