{
  "SYD": {
    "raw": "METAR YSSY 111400Z AUTO 35008KT 9999 // NCD 12/07 Q1013",
    "icao": "YSSY",
    "flightCategory": "VFR",
    "windDir": 350,
    "windSpeed": 8,
    "windGust": null,
    "visibility": 6,
    "ceiling": null,
    "temp": 12,
    "dewpoint": 7,
    "altimeter": 29.91,
    "conditions": "",
    "observationTime": "2026-07-11T14:00:00.000Z"
  },
  "LHR": {
    "raw": "METAR EGLL 111420Z AUTO 09011KT 060V120 9999 NCD 29/11 Q1021",
    "icao": "EGLL",
    "flightCategory": "VFR",
    "windDir": 90,
    "windSpeed": 11,
    "windGust": null,
    "visibility": 6,
    "ceiling": null,
    "temp": 29,
    "dewpoint": 11,
    "altimeter": 30.15,
    "conditions": "",
    "observationTime": "2026-07-11T14:20:00.000Z"
  },
  "LAS": {
    "raw": "METAR KLAS 111356Z 30004KT 10SM CLR 31/01 A2992 RMK AO2 SLP098 T03060011",
    "icao": "KLAS",
    "flightCategory": "VFR",
    "windDir": 300,
    "windSpeed": 4,
    "windGust": null,
    "visibility": 10,
    "ceiling": null,
    "temp": 30.6,
    "dewpoint": 1.1,
    "altimeter": 29.92,
    "conditions": "",
    "observationTime": "2026-07-11T14:00:00.000Z"
  },
  "LAX": {
    "raw": "METAR KLAX 111353Z 00000KT 6SM HZ FEW008 SCT010 BKN016 20/16 A2989 RMK AO2 SLP119 T02000161 $",
    "icao": "KLAX",
    "flightCategory": "MVFR",
    "windDir": 0,
    "windSpeed": 0,
    "windGust": null,
    "visibility": 6,
    "ceiling": 1600,
    "temp": 20,
    "dewpoint": 16.1,
    "altimeter": 29.89,
    "conditions": "HZ",
    "observationTime": "2026-07-11T14:00:00.000Z"
  },
  "ORD": {
    "raw": "METAR KORD 111351Z 04008KT 020V080 10SM FEW012 FEW065 BKN250 24/20 A3004 RMK AO2 SLP169 T02440200 $",
    "icao": "KORD",
    "flightCategory": "VFR",
    "windDir": 40,
    "windSpeed": 8,
    "windGust": null,
    "visibility": 10,
    "ceiling": 25000,
    "temp": 24.4,
    "dewpoint": 20,
    "altimeter": 30.04,
    "conditions": "",
    "observationTime": "2026-07-11T14:00:00.000Z"
  }
}