{
  "SYD": {
    "raw": "METAR YSSY 241800Z AUTO 19019KT 9999 // FEW032 BKN066 16/11 Q1031",
    "icao": "YSSY",
    "flightCategory": "VFR",
    "windDir": 190,
    "windSpeed": 19,
    "windGust": null,
    "visibility": 6,
    "ceiling": 6600,
    "temp": 16,
    "dewpoint": 11,
    "altimeter": 30.45,
    "conditions": "",
    "observationTime": "2026-06-24T18:00:00.000Z"
  },
  "LHR": {
    "raw": "METAR EGLL 241750Z AUTO 01007KT 340V060 9999 NCD 33/20 Q1017",
    "icao": "EGLL",
    "flightCategory": "VFR",
    "windDir": 10,
    "windSpeed": 7,
    "windGust": null,
    "visibility": 6,
    "ceiling": null,
    "temp": 33,
    "dewpoint": 20,
    "altimeter": 30.03,
    "conditions": "",
    "observationTime": "2026-06-24T18:00:00.000Z"
  },
  "LAS": {
    "raw": "METAR KLAS 241756Z 33004KT 10SM SCT090 BKN120 31/14 A3004 RMK AO2 SLP141 VCSH SW 60001 T03060139 10322 20283 51013",
    "icao": "KLAS",
    "flightCategory": "VFR",
    "windDir": 330,
    "windSpeed": 4,
    "windGust": null,
    "visibility": 10,
    "ceiling": 12000,
    "temp": 30.6,
    "dewpoint": 13.9,
    "altimeter": 30.04,
    "conditions": "",
    "observationTime": "2026-06-24T18:00:00.000Z"
  },
  "LAX": {
    "raw": "METAR KLAX 241753Z 26009KT 9SM FEW009 SCT017 21/15 A3002 RMK AO2 SLP163 SCT V BKN T02110150 10211 20167 54000 $",
    "icao": "KLAX",
    "flightCategory": "VFR",
    "windDir": 260,
    "windSpeed": 9,
    "windGust": null,
    "visibility": 9,
    "ceiling": null,
    "temp": 21.1,
    "dewpoint": 15,
    "altimeter": 30.02,
    "conditions": "",
    "observationTime": "2026-06-24T18:00:00.000Z"
  },
  "ORD": {
    "raw": "METAR KORD 241751Z 35005KT 10SM -RA FEW011 SCT060 OVC080 19/17 A3005 RMK AO2 RAE1657B31 SLP173 P0000 60005 T01940172 10222 20178 53000 $",
    "icao": "KORD",
    "flightCategory": "VFR",
    "windDir": 350,
    "windSpeed": 5,
    "windGust": null,
    "visibility": 10,
    "ceiling": 8000,
    "temp": 19.4,
    "dewpoint": 17.2,
    "altimeter": 30.05,
    "conditions": "-RA",
    "observationTime": "2026-06-24T18:00:00.000Z"
  }
}