{
  "SYD": {
    "raw": "METAR YSSY 110400Z 18012KT 9999 FEW042 BKN100 19/14 Q1029",
    "icao": "YSSY",
    "flightCategory": "VFR",
    "windDir": 180,
    "windSpeed": 12,
    "windGust": null,
    "visibility": 6,
    "ceiling": 10000,
    "temp": 19,
    "dewpoint": 14,
    "altimeter": 30.39,
    "conditions": "",
    "observationTime": "2026-06-11T04:00:00.000Z"
  },
  "LHR": {
    "raw": "METAR EGLL 110420Z AUTO 22004KT 190V250 9999 NCD 10/08 Q1020",
    "icao": "EGLL",
    "flightCategory": "VFR",
    "windDir": 220,
    "windSpeed": 4,
    "windGust": null,
    "visibility": 6,
    "ceiling": null,
    "temp": 10,
    "dewpoint": 8,
    "altimeter": 30.12,
    "conditions": "",
    "observationTime": "2026-06-11T04:20:00.000Z"
  },
  "LAS": {
    "raw": "METAR KLAS 110356Z 27007KT 10SM CLR 37/02 A2971 RMK AO2 SLP028 T03670022",
    "icao": "KLAS",
    "flightCategory": "VFR",
    "windDir": 270,
    "windSpeed": 7,
    "windGust": null,
    "visibility": 10,
    "ceiling": null,
    "temp": 36.7,
    "dewpoint": 2.2,
    "altimeter": 29.71,
    "conditions": "",
    "observationTime": "2026-06-11T04:00:00.000Z"
  },
  "LAX": {
    "raw": "METAR KLAX 110353Z 26006KT 10SM FEW010 19/17 A2980 RMK AO2 SLP087 T01940172",
    "icao": "KLAX",
    "flightCategory": "VFR",
    "windDir": 260,
    "windSpeed": 6,
    "windGust": null,
    "visibility": 10,
    "ceiling": null,
    "temp": 19.4,
    "dewpoint": 17.2,
    "altimeter": 29.8,
    "conditions": "",
    "observationTime": "2026-06-11T04:00:00.000Z"
  }
}