{
  "SYD": {
    "raw": "METAR YSSY 251730Z AUTO 29005KT 9999 // SCT031 OVC040 12/12 Q1032",
    "icao": "YSSY",
    "flightCategory": "VFR",
    "windDir": 290,
    "windSpeed": 5,
    "windGust": null,
    "visibility": 6,
    "ceiling": 4000,
    "temp": 12,
    "dewpoint": 12,
    "altimeter": 30.47,
    "conditions": "",
    "observationTime": "2026-06-25T17:30:00.000Z"
  },
  "LAS": {
    "raw": "METAR KLAS 251756Z 09005KT 10SM FEW120 35/06 A2985 RMK AO2 SLP074 T03500056 10356 20272 58004",
    "icao": "KLAS",
    "flightCategory": "VFR",
    "windDir": 90,
    "windSpeed": 5,
    "windGust": null,
    "visibility": 10,
    "ceiling": null,
    "temp": 35,
    "dewpoint": 5.6,
    "altimeter": 29.85,
    "conditions": "",
    "observationTime": "2026-06-25T18:00:00.000Z"
  },
  "LAX": {
    "raw": "METAR KLAX 251753Z 24007KT 9SM FEW009 OVC020 20/14 A2996 RMK AO2 SLP145 T02000144 10200 20172 51007",
    "icao": "KLAX",
    "flightCategory": "MVFR",
    "windDir": 240,
    "windSpeed": 7,
    "windGust": null,
    "visibility": 9,
    "ceiling": 2000,
    "temp": 20,
    "dewpoint": 14.4,
    "altimeter": 29.96,
    "conditions": "",
    "observationTime": "2026-06-25T18:00:00.000Z"
  },
  "ORD": {
    "raw": "METAR KORD 251751Z 29009KT 10SM SCT055 BKN250 25/13 A2994 RMK AO2 SLP134 T02500128 10250 20183 53003",
    "icao": "KORD",
    "flightCategory": "VFR",
    "windDir": 290,
    "windSpeed": 9,
    "windGust": null,
    "visibility": 10,
    "ceiling": 25000,
    "temp": 25,
    "dewpoint": 12.8,
    "altimeter": 29.94,
    "conditions": "",
    "observationTime": "2026-06-25T18:00:00.000Z"
  },
  "LHR": {
    "raw": "METAR EGLL 251720Z AUTO 10015KT 9999 NCD 29/20 Q1015",
    "icao": "EGLL",
    "flightCategory": "VFR",
    "windDir": 100,
    "windSpeed": 15,
    "windGust": null,
    "visibility": 6,
    "ceiling": null,
    "temp": 29,
    "dewpoint": 20,
    "altimeter": 29.97,
    "conditions": "",
    "observationTime": "2026-06-25T17:20:00.000Z"
  }
}