{
  "SYD": {
    "raw": "METAR YSSY 311600Z AUTO 28005KT 9999 // NCD 19/15 Q1023",
    "icao": "YSSY",
    "flightCategory": "VFR",
    "windDir": 280,
    "windSpeed": 5,
    "windGust": null,
    "visibility": 6,
    "ceiling": null,
    "temp": 19,
    "dewpoint": 15,
    "altimeter": 30.21,
    "conditions": "",
    "observationTime": "2026-03-31T16:00:00.000Z"
  },
  "LAX": {
    "raw": "METAR KLAX 311553Z 21009KT 10SM SCT021 BKN030 OVC180 19/14 A3000 RMK AO2 SLP156 T01890144",
    "icao": "KLAX",
    "flightCategory": "MVFR",
    "windDir": 210,
    "windSpeed": 9,
    "windGust": null,
    "visibility": 10,
    "ceiling": 3000,
    "temp": 18.9,
    "dewpoint": 14.4,
    "altimeter": 30,
    "conditions": "",
    "observationTime": "2026-03-31T16:00:00.000Z"
  },
  "ORD": {
    "raw": "METAR KORD 311551Z 22016G23KT 7SM -TSRA SCT049CB BKN100 OVC250 17/14 A2976 RMK AO2 PK WND 21032/1453 RAB39 TSB29 SLP076 FRQ LTGICCCCG NE-E TS NE-E MOV NE P0007 T01720144",
    "icao": "KORD",
    "flightCategory": "VFR",
    "windDir": 220,
    "windSpeed": 16,
    "windGust": 23,
    "visibility": 7,
    "ceiling": 10000,
    "temp": 17.2,
    "dewpoint": 14.4,
    "altimeter": 29.76,
    "conditions": "-TSRA",
    "observationTime": "2026-03-31T16:00:00.000Z"
  },
  "LHR": {
    "raw": "METAR EGLL 311550Z COR AUTO 04004KT 360V090 9999 BKN044 17/09 Q1028 NOSIG",
    "icao": "EGLL",
    "flightCategory": "VFR",
    "windDir": 40,
    "windSpeed": 4,
    "windGust": null,
    "visibility": 6,
    "ceiling": 4400,
    "temp": 17,
    "dewpoint": 9,
    "altimeter": 30.36,
    "conditions": "",
    "observationTime": "2026-03-31T16:00:00.000Z"
  },
  "LAS": {
    "raw": "METAR KLAS 311556Z 22015G25KT 10SM FEW110 BKN150 OVC200 25/M03 A2990 RMK AO2 PK WND 24032/1538 SLP101 ACSL DSNT SE AND NW T02501028",
    "icao": "KLAS",
    "flightCategory": "VFR",
    "windDir": 220,
    "windSpeed": 15,
    "windGust": 25,
    "visibility": 10,
    "ceiling": 15000,
    "temp": 25,
    "dewpoint": -2.8,
    "altimeter": 29.9,
    "conditions": "",
    "observationTime": "2026-03-31T16:00:00.000Z"
  }
}