{
  "SYD": {
    "raw": "SPECI YSSY 250316Z 17013KT 6000 -SHRA SCT010 BKN022 BKN035 14/13 Q1033",
    "icao": "YSSY",
    "flightCategory": "MVFR",
    "windDir": 170,
    "windSpeed": 13,
    "windGust": null,
    "visibility": 3.73,
    "ceiling": 2200,
    "temp": 14,
    "dewpoint": 13,
    "altimeter": 30.5,
    "conditions": "-SHRA",
    "observationTime": "2026-06-25T03:16:00.000Z"
  },
  "LAS": {
    "raw": "METAR KLAS 250356Z 11005KT 10SM FEW120 FEW220 35/11 A2982 RMK AO2 SLP068 T03500111",
    "icao": "KLAS",
    "flightCategory": "VFR",
    "windDir": 110,
    "windSpeed": 5,
    "windGust": null,
    "visibility": 10,
    "ceiling": null,
    "temp": 35,
    "dewpoint": 11.1,
    "altimeter": 29.82,
    "conditions": "",
    "observationTime": "2026-06-25T04:00:00.000Z"
  },
  "LAX": {
    "raw": "METAR KLAX 250353Z 26009KT 10SM OVC008 17/14 A2995 RMK AO2 SLP139 T01670144 $",
    "icao": "KLAX",
    "flightCategory": "IFR",
    "windDir": 260,
    "windSpeed": 9,
    "windGust": null,
    "visibility": 10,
    "ceiling": 800,
    "temp": 16.7,
    "dewpoint": 14.4,
    "altimeter": 29.95,
    "conditions": "",
    "observationTime": "2026-06-25T04:00:00.000Z"
  },
  "ORD": {
    "raw": "SPECI KORD 250345Z 19009KT 10SM -RA FEW035 BKN100 BKN200 18/17 A2991 RMK AO2 PRESFR OCNL LTGIC DSNT SE RAB04 CB DSNT SE MOV SE P0006 $",
    "icao": "KORD",
    "flightCategory": "VFR",
    "windDir": 190,
    "windSpeed": 9,
    "windGust": null,
    "visibility": 10,
    "ceiling": 10000,
    "temp": 18,
    "dewpoint": 17,
    "altimeter": 29.91,
    "conditions": "-RA",
    "observationTime": "2026-06-25T03:45:00.000Z"
  },
  "LHR": {
    "raw": "METAR EGLL 250320Z AUTO 07005KT 9999 NCD 22/19 Q1019",
    "icao": "EGLL",
    "flightCategory": "VFR",
    "windDir": 70,
    "windSpeed": 5,
    "windGust": null,
    "visibility": 6,
    "ceiling": null,
    "temp": 22,
    "dewpoint": 19,
    "altimeter": 30.09,
    "conditions": "",
    "observationTime": "2026-06-25T03:20:00.000Z"
  }
}