{
  "SYD": {
    "raw": "METAR YSSY 281630Z AUTO 30007KT 9999 // FEW026 SCT039 BKN049 13/12 Q1030",
    "icao": "YSSY",
    "flightCategory": "VFR",
    "windDir": 300,
    "windSpeed": 7,
    "windGust": null,
    "visibility": 6,
    "ceiling": 4900,
    "temp": 13,
    "dewpoint": 12,
    "altimeter": 30.42,
    "conditions": "",
    "observationTime": "2026-06-28T16:30:00.000Z"
  },
  "LAS": {
    "raw": "METAR KLAS 281656Z VRB03KT 10SM CLR 28/03 A2976 RMK AO2 SLP051 T02830033",
    "icao": "KLAS",
    "flightCategory": "VFR",
    "windDir": null,
    "windSpeed": 3,
    "windGust": null,
    "visibility": 10,
    "ceiling": null,
    "temp": 28.3,
    "dewpoint": 3.3,
    "altimeter": 29.76,
    "conditions": "",
    "observationTime": "2026-06-28T17:00:00.000Z"
  },
  "LAX": {
    "raw": "SPECI KLAX 281619Z 15009KT 10SM FEW020 BKN026 BKN037 19/13 A2994 RMK AO2 T01940128",
    "icao": "KLAX",
    "flightCategory": "MVFR",
    "windDir": 150,
    "windSpeed": 9,
    "windGust": null,
    "visibility": 10,
    "ceiling": 2600,
    "temp": 19.4,
    "dewpoint": 12.8,
    "altimeter": 29.94,
    "conditions": "",
    "observationTime": "2026-06-28T16:19:00.000Z"
  },
  "ORD": {
    "raw": "METAR KORD 281651Z 11008G16KT 10SM SCT029 BKN250 27/20 A2992 RMK AO2 SLP128 T02670200 $",
    "icao": "KORD",
    "flightCategory": "VFR",
    "windDir": 110,
    "windSpeed": 8,
    "windGust": 16,
    "visibility": 10,
    "ceiling": 25000,
    "temp": 26.7,
    "dewpoint": 20,
    "altimeter": 29.92,
    "conditions": "",
    "observationTime": "2026-06-28T17:00:00.000Z"
  },
  "LHR": {
    "raw": "METAR EGLL 281620Z AUTO 28014KT 9999 NCD 24/11 Q1019",
    "icao": "EGLL",
    "flightCategory": "VFR",
    "windDir": 280,
    "windSpeed": 14,
    "windGust": null,
    "visibility": 6,
    "ceiling": null,
    "temp": 24,
    "dewpoint": 11,
    "altimeter": 30.09,
    "conditions": "",
    "observationTime": "2026-06-28T16:20:00.000Z"
  }
}