{
  "LAX": {
    "raw": "METAR KLAX 111153Z 00000KT 10SM FEW012 FEW024 SCT050 16/13 A2997 RMK AO2 SLP147 T01560133 10167 20156 53001 $",
    "icao": "KLAX",
    "flightCategory": "VFR",
    "windDir": 0,
    "windSpeed": 0,
    "windGust": null,
    "visibility": 10,
    "ceiling": null,
    "temp": 15.6,
    "dewpoint": 13.3,
    "altimeter": 29.97,
    "conditions": "",
    "observationTime": "2026-04-11T12:00:00.000Z"
  },
  "ORD": {
    "raw": "METAR KORD 111151Z 00000KT 10SM FEW060 03/01 A3042 RMK AO2 SLP307 70001 T00280006 10039 20017 51011 $",
    "icao": "KORD",
    "flightCategory": "VFR",
    "windDir": 0,
    "windSpeed": 0,
    "windGust": null,
    "visibility": 10,
    "ceiling": null,
    "temp": 2.8,
    "dewpoint": 0.6,
    "altimeter": 30.42,
    "conditions": "",
    "observationTime": "2026-04-11T12:00:00.000Z"
  },
  "LHR": {
    "raw": "METAR EGLL 111120Z COR AUTO 27017KT 9999 NCD 11/01 Q1006 NOSIG",
    "icao": "EGLL",
    "flightCategory": "VFR",
    "windDir": 270,
    "windSpeed": 17,
    "windGust": null,
    "visibility": 6,
    "ceiling": null,
    "temp": 11,
    "dewpoint": 1,
    "altimeter": 29.71,
    "conditions": "",
    "observationTime": "2026-04-11T11:20:00.000Z"
  },
  "SYD": {
    "raw": "METAR YSSY 111100Z AUTO 26016KT 9999 // NCD 17/03 Q1011",
    "icao": "YSSY",
    "flightCategory": "VFR",
    "windDir": 260,
    "windSpeed": 16,
    "windGust": null,
    "visibility": 6,
    "ceiling": null,
    "temp": 17,
    "dewpoint": 3,
    "altimeter": 29.85,
    "conditions": "",
    "observationTime": "2026-04-11T11:00:00.000Z"
  }
}