{
  "SYD": {
    "raw": "METAR YSSY 081700Z AUTO 33005KT 9999 // NCD 19/18 Q1016",
    "icao": "YSSY",
    "flightCategory": "VFR",
    "windDir": 330,
    "windSpeed": 5,
    "windGust": null,
    "visibility": 6,
    "ceiling": null,
    "temp": 19,
    "dewpoint": 18,
    "altimeter": 30,
    "conditions": "",
    "observationTime": "2026-04-08T17:00:00.000Z"
  },
  "LHR": {
    "raw": "METAR EGLL 081720Z COR AUTO 20010KT 180V240 9999 NCD 24/09 Q1020 NOSIG",
    "icao": "EGLL",
    "flightCategory": "VFR",
    "windDir": 200,
    "windSpeed": 10,
    "windGust": null,
    "visibility": 6,
    "ceiling": null,
    "temp": 24,
    "dewpoint": 9,
    "altimeter": 30.12,
    "conditions": "",
    "observationTime": "2026-04-08T17:20:00.000Z"
  },
  "LAX": {
    "raw": "SPECI KLAX 081709Z 27004KT 6SM HZ SCT015 SCT160 19/14 A2995 RMK AO2 T01890144 $",
    "icao": "KLAX",
    "flightCategory": "VFR",
    "windDir": 270,
    "windSpeed": 4,
    "windGust": null,
    "visibility": 6,
    "ceiling": null,
    "temp": 18.9,
    "dewpoint": 14.4,
    "altimeter": 29.95,
    "conditions": "HZ",
    "observationTime": "2026-04-08T17:09:00.000Z"
  },
  "LAS": {
    "raw": "METAR KLAS 081656Z 00000KT 10SM FEW250 26/M06 A2993 RMK AO2 SLP113 T02561056",
    "icao": "KLAS",
    "flightCategory": "VFR",
    "windDir": 0,
    "windSpeed": 0,
    "windGust": null,
    "visibility": 10,
    "ceiling": null,
    "temp": 25.6,
    "dewpoint": -5.6,
    "altimeter": 29.93,
    "conditions": "",
    "observationTime": "2026-04-08T17:00:00.000Z"
  }
}