{
  "LHR": {
    "raw": "METAR EGLL 020750Z COR AUTO 26006KT 230V290 9999 FEW009 12/09 Q1018 NOSIG",
    "icao": "EGLL",
    "flightCategory": "VFR",
    "windDir": 260,
    "windSpeed": 6,
    "windGust": null,
    "visibility": 6,
    "ceiling": null,
    "temp": 12,
    "dewpoint": 9,
    "altimeter": 30.06,
    "conditions": "",
    "observationTime": "2026-05-02T08:00:00.000Z"
  },
  "SYD": {
    "raw": "METAR YSSY 020800Z AUTO 04011KT 9999 // NCD 23/16 Q1022",
    "icao": "YSSY",
    "flightCategory": "VFR",
    "windDir": 40,
    "windSpeed": 11,
    "windGust": null,
    "visibility": 6,
    "ceiling": null,
    "temp": 23,
    "dewpoint": 16,
    "altimeter": 30.18,
    "conditions": "",
    "observationTime": "2026-05-02T08:00:00.000Z"
  },
  "LAS": {
    "raw": "METAR KLAS 020756Z 03004KT 10SM SCT200 23/M12 A2999 RMK AO2 SLP134 T02281122 402940178",
    "icao": "KLAS",
    "flightCategory": "VFR",
    "windDir": 30,
    "windSpeed": 4,
    "windGust": null,
    "visibility": 10,
    "ceiling": null,
    "temp": 22.8,
    "dewpoint": -12.2,
    "altimeter": 29.99,
    "conditions": "",
    "observationTime": "2026-05-02T08:00:00.000Z"
  },
  "LAX": {
    "raw": "METAR KLAX 020753Z 25004KT 9SM SCT009 BKN010 14/13 A2995 RMK AO2 SLP139 T01440128 402110144",
    "icao": "KLAX",
    "flightCategory": "MVFR",
    "windDir": 250,
    "windSpeed": 4,
    "windGust": null,
    "visibility": 9,
    "ceiling": 1000,
    "temp": 14.4,
    "dewpoint": 12.8,
    "altimeter": 29.95,
    "conditions": "",
    "observationTime": "2026-05-02T08:00:00.000Z"
  },
  "ORD": {
    "raw": "METAR KORD 020751Z 00000KT 10SM CLR 01/M02 A3008 RMK AO2 SLP193 T00061017 $",
    "icao": "KORD",
    "flightCategory": "VFR",
    "windDir": 0,
    "windSpeed": 0,
    "windGust": null,
    "visibility": 10,
    "ceiling": null,
    "temp": 0.6,
    "dewpoint": -1.7,
    "altimeter": 30.08,
    "conditions": "",
    "observationTime": "2026-05-02T08:00:00.000Z"
  }
}