{
  "LHR": {
    "raw": "METAR EGLL 281350Z AUTO 31013KT 9999 //////CB 12/M02 Q1025 TEMPO SHRA",
    "icao": "EGLL",
    "flightCategory": "UNKNOWN",
    "windDir": 310,
    "windSpeed": 13,
    "windGust": null,
    "visibility": 6,
    "ceiling": null,
    "temp": 12,
    "dewpoint": -2,
    "altimeter": 30.27,
    "conditions": "",
    "observationTime": "2026-03-28T14:00:00.000Z"
  },
  "LAS": {
    "raw": "METAR KLAS 281356Z 23005KT 10SM BKN250 21/M04 A2995 RMK AO2 SLP120 T02111044",
    "icao": "KLAS",
    "flightCategory": "VFR",
    "windDir": 230,
    "windSpeed": 5,
    "windGust": null,
    "visibility": 10,
    "ceiling": 25000,
    "temp": 21.1,
    "dewpoint": -4.4,
    "altimeter": 29.95,
    "conditions": "",
    "observationTime": "2026-03-28T14:00:00.000Z"
  },
  "LAX": {
    "raw": "METAR KLAX 281353Z 29007KT 5SM BR OVC007 15/13 A2999 RMK AO2 SLP154 T01500133 $",
    "icao": "KLAX",
    "flightCategory": "IFR",
    "windDir": 290,
    "windSpeed": 7,
    "windGust": null,
    "visibility": 5,
    "ceiling": 700,
    "temp": 15,
    "dewpoint": 13.3,
    "altimeter": 29.99,
    "conditions": "BR",
    "observationTime": "2026-03-28T14:00:00.000Z"
  },
  "ORD": {
    "raw": "METAR KORD 281351Z 19003KT 10SM FEW025 FEW250 M01/M11 A3064 RMK AO2 SLP383 T10111111",
    "icao": "KORD",
    "flightCategory": "VFR",
    "windDir": 190,
    "windSpeed": 3,
    "windGust": null,
    "visibility": 10,
    "ceiling": null,
    "temp": -1.1,
    "dewpoint": -11.1,
    "altimeter": 30.64,
    "conditions": "",
    "observationTime": "2026-03-28T14:00:00.000Z"
  }
}