{
  "ORD": {
    "raw": "SPECI KORD 070115Z 04015KT 10SM BKN065 BKN250 06/M03 A3025 RMK AO2 WSHFT 0055 T00561028 $",
    "icao": "KORD",
    "flightCategory": "VFR",
    "windDir": 40,
    "windSpeed": 15,
    "windGust": null,
    "visibility": 10,
    "ceiling": 6500,
    "temp": 5.6,
    "dewpoint": -2.8,
    "altimeter": 30.25,
    "conditions": "",
    "observationTime": "2026-04-07T01:15:00.000Z"
  },
  "LHR": {
    "raw": "METAR EGLL 070120Z COR AUTO 07005KT 9999 NCD 06/01 Q1024 NOSIG",
    "icao": "EGLL",
    "flightCategory": "VFR",
    "windDir": 70,
    "windSpeed": 5,
    "windGust": null,
    "visibility": 6,
    "ceiling": null,
    "temp": 6,
    "dewpoint": 1,
    "altimeter": 30.24,
    "conditions": "",
    "observationTime": "2026-04-07T01:20:00.000Z"
  },
  "SYD": {
    "raw": "METAR YSSY 070100Z 04003KT CAVOK 24/16 Q1011",
    "icao": "YSSY",
    "flightCategory": "VFR",
    "windDir": 40,
    "windSpeed": 3,
    "windGust": null,
    "visibility": 6,
    "ceiling": null,
    "temp": 24,
    "dewpoint": 16,
    "altimeter": 29.85,
    "conditions": "",
    "observationTime": "2026-04-07T01:00:00.000Z"
  },
  "LAS": {
    "raw": "METAR KLAS 070056Z 17007KT 10SM FEW150 OVC220 30/M11 A2985 RMK AO2 SLP089 T03001111",
    "icao": "KLAS",
    "flightCategory": "VFR",
    "windDir": 170,
    "windSpeed": 7,
    "windGust": null,
    "visibility": 10,
    "ceiling": 22000,
    "temp": 30,
    "dewpoint": -11.1,
    "altimeter": 29.85,
    "conditions": "",
    "observationTime": "2026-04-07T01:00:00.000Z"
  }
}