{
  "LAX": {
    "raw": "METAR KLAX 211653Z 24004KT 10SM FEW009 FEW016 22/14 A2990 RMK AO2 SLP123 T02220144 $",
    "icao": "KLAX",
    "flightCategory": "VFR",
    "windDir": 240,
    "windSpeed": 4,
    "windGust": null,
    "visibility": 10,
    "ceiling": null,
    "temp": 22.2,
    "dewpoint": 14.4,
    "altimeter": 29.9,
    "conditions": "",
    "observationTime": "2026-05-21T17:00:00.000Z"
  },
  "ORD": {
    "raw": "METAR KORD 211651Z 05012KT 10SM FEW016 FEW029 BKN220 13/07 A3029 RMK AO2 SLP257 T01330067",
    "icao": "KORD",
    "flightCategory": "VFR",
    "windDir": 50,
    "windSpeed": 12,
    "windGust": null,
    "visibility": 10,
    "ceiling": 22000,
    "temp": 13.3,
    "dewpoint": 6.7,
    "altimeter": 30.29,
    "conditions": "",
    "observationTime": "2026-05-21T17:00:00.000Z"
  },
  "LHR": {
    "raw": "METAR EGLL 211620Z AUTO 20006KT 140V260 9999 OVC046 23/13 Q1025",
    "icao": "EGLL",
    "flightCategory": "VFR",
    "windDir": 200,
    "windSpeed": 6,
    "windGust": null,
    "visibility": 6,
    "ceiling": 4600,
    "temp": 23,
    "dewpoint": 13,
    "altimeter": 30.27,
    "conditions": "",
    "observationTime": "2026-05-21T16:20:00.000Z"
  },
  "SYD": {
    "raw": "METAR YSSY 211600Z AUTO 25009KT 9999 // SCT037 SCT043 BKN057 14/13 Q1026",
    "icao": "YSSY",
    "flightCategory": "VFR",
    "windDir": 250,
    "windSpeed": 9,
    "windGust": null,
    "visibility": 6,
    "ceiling": 5700,
    "temp": 14,
    "dewpoint": 13,
    "altimeter": 30.3,
    "conditions": "",
    "observationTime": "2026-05-21T16:00:00.000Z"
  }
}