{
  "SYD": {
    "raw": "METAR YSSY 072130Z 33010KT CAVOK 11/02 Q1018",
    "icao": "YSSY",
    "flightCategory": "VFR",
    "windDir": 330,
    "windSpeed": 10,
    "windGust": null,
    "visibility": 6,
    "ceiling": null,
    "temp": 11,
    "dewpoint": 2,
    "altimeter": 30.06,
    "conditions": "",
    "observationTime": "2026-05-07T21:30:00.000Z"
  },
  "LAS": {
    "raw": "METAR KLAS 072156Z VRB05KT 10SM FEW140 FEW250 32/M04 A2990 RMK AO2 SLP101 T03171044",
    "icao": "KLAS",
    "flightCategory": "VFR",
    "windDir": null,
    "windSpeed": 5,
    "windGust": null,
    "visibility": 10,
    "ceiling": null,
    "temp": 31.7,
    "dewpoint": -4.4,
    "altimeter": 29.9,
    "conditions": "",
    "observationTime": "2026-05-07T22:00:00.000Z"
  },
  "LAX": {
    "raw": "METAR KLAX 072153Z 26013KT 10SM FEW010 FEW110 20/13 A2997 RMK AO2 SLP148 T02000133",
    "icao": "KLAX",
    "flightCategory": "VFR",
    "windDir": 260,
    "windSpeed": 13,
    "windGust": null,
    "visibility": 10,
    "ceiling": null,
    "temp": 20,
    "dewpoint": 13.3,
    "altimeter": 29.97,
    "conditions": "",
    "observationTime": "2026-05-07T22:00:00.000Z"
  },
  "ORD": {
    "raw": "METAR KORD 072151Z 01007KT 10SM -TSRA BKN048CB BKN065 BKN250 11/04 A2984 RMK AO2 PK WND 25030/2110 SLP107 OCNL LTGICCG E-S TS E-S MOV SE P0001 T01060039",
    "icao": "KORD",
    "flightCategory": "VFR",
    "windDir": 10,
    "windSpeed": 7,
    "windGust": null,
    "visibility": 10,
    "ceiling": 4800,
    "temp": 10.6,
    "dewpoint": 3.9,
    "altimeter": 29.84,
    "conditions": "-TSRA",
    "observationTime": "2026-05-07T22:00:00.000Z"
  },
  "LHR": {
    "raw": "METAR EGLL 072120Z COR AUTO 13006KT 9999 NCD 12/07 Q1017 NOSIG",
    "icao": "EGLL",
    "flightCategory": "VFR",
    "windDir": 130,
    "windSpeed": 6,
    "windGust": null,
    "visibility": 6,
    "ceiling": null,
    "temp": 12,
    "dewpoint": 7,
    "altimeter": 30.03,
    "conditions": "",
    "observationTime": "2026-05-07T21:20:00.000Z"
  }
}