{
  "LHR": {
    "raw": "METAR EGLL 122050Z AUTO 06012KT 9999 NCD 23/07 Q1024",
    "icao": "EGLL",
    "flightCategory": "VFR",
    "windDir": 60,
    "windSpeed": 12,
    "windGust": null,
    "visibility": 6,
    "ceiling": null,
    "temp": 23,
    "dewpoint": 7,
    "altimeter": 30.24,
    "conditions": "",
    "observationTime": "2026-07-12T21:00:00.000Z"
  },
  "SYD": {
    "raw": "METAR YSSY 122100Z 32008KT 9999 FEW045 12/04 Q1018",
    "icao": "YSSY",
    "flightCategory": "VFR",
    "windDir": 320,
    "windSpeed": 8,
    "windGust": null,
    "visibility": 6,
    "ceiling": null,
    "temp": 12,
    "dewpoint": 4,
    "altimeter": 30.06,
    "conditions": "",
    "observationTime": "2026-07-12T21:00:00.000Z"
  },
  "LAS": {
    "raw": "METAR KLAS 122056Z 21013G22KT 10SM FEW130 SCT180 BKN250 41/10 A2991 RMK AO2 SLP093 T04060100 58018 $",
    "icao": "KLAS",
    "flightCategory": "VFR",
    "windDir": 210,
    "windSpeed": 13,
    "windGust": 22,
    "visibility": 10,
    "ceiling": 25000,
    "temp": 40.6,
    "dewpoint": 10,
    "altimeter": 29.91,
    "conditions": "",
    "observationTime": "2026-07-12T21:00:00.000Z"
  },
  "LAX": {
    "raw": "METAR KLAX 122053Z 25010KT 10SM FEW025 SCT120 BKN180 OVC250 21/17 A2995 RMK AO2 SLP140 T02110172 55007 $",
    "icao": "KLAX",
    "flightCategory": "VFR",
    "windDir": 250,
    "windSpeed": 10,
    "windGust": null,
    "visibility": 10,
    "ceiling": 18000,
    "temp": 21.1,
    "dewpoint": 17.2,
    "altimeter": 29.95,
    "conditions": "",
    "observationTime": "2026-07-12T21:00:00.000Z"
  },
  "ORD": {
    "raw": "METAR KORD 122051Z 05010KT 10SM FEW060 29/14 A3018 RMK AO2 SLP213 T02940144 56009 $",
    "icao": "KORD",
    "flightCategory": "VFR",
    "windDir": 50,
    "windSpeed": 10,
    "windGust": null,
    "visibility": 10,
    "ceiling": null,
    "temp": 29.4,
    "dewpoint": 14.4,
    "altimeter": 30.18,
    "conditions": "",
    "observationTime": "2026-07-12T21:00:00.000Z"
  }
}