{
  "SYD": {
    "raw": "METAR YSSY 230700Z AUTO 15010KT 9999 // NCD 20/11 Q1029",
    "icao": "YSSY",
    "flightCategory": "VFR",
    "windDir": 150,
    "windSpeed": 10,
    "windGust": null,
    "visibility": 6,
    "ceiling": null,
    "temp": 20,
    "dewpoint": 11,
    "altimeter": 30.39,
    "conditions": "",
    "observationTime": "2026-04-23T07:00:00.000Z"
  },
  "LHR": {
    "raw": "METAR EGLL 230650Z COR AUTO 06009KT 9999 OVC006 08/06 Q1030 NOSIG",
    "icao": "EGLL",
    "flightCategory": "IFR",
    "windDir": 60,
    "windSpeed": 9,
    "windGust": null,
    "visibility": 6,
    "ceiling": 600,
    "temp": 8,
    "dewpoint": 6,
    "altimeter": 30.42,
    "conditions": "",
    "observationTime": "2026-04-23T07:00:00.000Z"
  },
  "LAS": {
    "raw": "METAR KLAS 230656Z 23006KT 10SM CLR 18/M06 A2990 RMK AO2 SLP109 T01831056",
    "icao": "KLAS",
    "flightCategory": "VFR",
    "windDir": 230,
    "windSpeed": 6,
    "windGust": null,
    "visibility": 10,
    "ceiling": null,
    "temp": 18.3,
    "dewpoint": -5.6,
    "altimeter": 29.9,
    "conditions": "",
    "observationTime": "2026-04-23T07:00:00.000Z"
  },
  "LAX": {
    "raw": "METAR KLAX 230653Z 26009KT 10SM FEW250 16/12 A3004 RMK AO2 SLP169 T01560117 $",
    "icao": "KLAX",
    "flightCategory": "VFR",
    "windDir": 260,
    "windSpeed": 9,
    "windGust": null,
    "visibility": 10,
    "ceiling": null,
    "temp": 15.6,
    "dewpoint": 11.7,
    "altimeter": 30.04,
    "conditions": "",
    "observationTime": "2026-04-23T07:00:00.000Z"
  },
  "ORD": {
    "raw": "METAR KORD 230651Z 00000KT 10SM FEW250 11/04 A2993 RMK AO2 SLP133 T01110039",
    "icao": "KORD",
    "flightCategory": "VFR",
    "windDir": 0,
    "windSpeed": 0,
    "windGust": null,
    "visibility": 10,
    "ceiling": null,
    "temp": 11.1,
    "dewpoint": 3.9,
    "altimeter": 29.93,
    "conditions": "",
    "observationTime": "2026-04-23T07:00:00.000Z"
  }
}