{
  "LHR": {
    "raw": "METAR EGLL 150750Z AUTO 10009KT 9999 NCD 16/11 Q1017",
    "icao": "EGLL",
    "flightCategory": "VFR",
    "windDir": 100,
    "windSpeed": 9,
    "windGust": null,
    "visibility": 6,
    "ceiling": null,
    "temp": 16,
    "dewpoint": 11,
    "altimeter": 30.03,
    "conditions": "",
    "observationTime": "2026-06-15T08:00:00.000Z"
  },
  "SYD": {
    "raw": "METAR YSSY 150730Z AUTO 03004KT 360V060 9999 // OVC053 18/09 Q1031",
    "icao": "YSSY",
    "flightCategory": "VFR",
    "windDir": 30,
    "windSpeed": 4,
    "windGust": null,
    "visibility": 6,
    "ceiling": 5300,
    "temp": 18,
    "dewpoint": 9,
    "altimeter": 30.45,
    "conditions": "",
    "observationTime": "2026-06-15T07:30:00.000Z"
  },
  "LAS": {
    "raw": "METAR KLAS 150756Z 21008KT 10SM CLR 32/03 A2989 RMK AO2 SLP087 T03220033 404060306",
    "icao": "KLAS",
    "flightCategory": "VFR",
    "windDir": 210,
    "windSpeed": 8,
    "windGust": null,
    "visibility": 10,
    "ceiling": null,
    "temp": 32.2,
    "dewpoint": 3.3,
    "altimeter": 29.89,
    "conditions": "",
    "observationTime": "2026-06-15T08:00:00.000Z"
  },
  "LAX": {
    "raw": "SPECI KLAX 150729Z 25007KT 10SM FEW008 BKN011 18/16 A2999 RMK AO2 T01780156 $",
    "icao": "KLAX",
    "flightCategory": "MVFR",
    "windDir": 250,
    "windSpeed": 7,
    "windGust": null,
    "visibility": 10,
    "ceiling": 1100,
    "temp": 17.8,
    "dewpoint": 15.6,
    "altimeter": 29.99,
    "conditions": "",
    "observationTime": "2026-06-15T07:29:00.000Z"
  },
  "ORD": {
    "raw": "METAR KORD 150751Z 22004KT 10SM CLR 12/08 A3000 RMK AO2 SLP157 T01220078 $",
    "icao": "KORD",
    "flightCategory": "VFR",
    "windDir": 220,
    "windSpeed": 4,
    "windGust": null,
    "visibility": 10,
    "ceiling": null,
    "temp": 12.2,
    "dewpoint": 7.8,
    "altimeter": 30,
    "conditions": "",
    "observationTime": "2026-06-15T08:00:00.000Z"
  }
}