{
  "LAX": {
    "raw": "METAR KLAX 302253Z 25011G20KT 10SM SCT017 21/14 A2994 RMK AO2 SLP135 T02060139 $",
    "icao": "KLAX",
    "flightCategory": "VFR",
    "windDir": 250,
    "windSpeed": 11,
    "windGust": 20,
    "visibility": 10,
    "ceiling": null,
    "temp": 20.6,
    "dewpoint": 13.9,
    "altimeter": 29.94,
    "conditions": "",
    "observationTime": "2026-06-30T23:00:00.000Z"
  },
  "ORD": {
    "raw": "METAR KORD 302251Z 20016G30KT 10SM FEW037 SCT300 34/23 A2986 RMK AO2 PK WND 20032/2209 SLP104 T03390233 $",
    "icao": "KORD",
    "flightCategory": "VFR",
    "windDir": 200,
    "windSpeed": 16,
    "windGust": 30,
    "visibility": 10,
    "ceiling": null,
    "temp": 33.9,
    "dewpoint": 23.3,
    "altimeter": 29.86,
    "conditions": "",
    "observationTime": "2026-06-30T23:00:00.000Z"
  },
  "LHR": {
    "raw": "METAR EGLL 302220Z AUTO 25013KT 9999 FEW027 19/13 Q1021",
    "icao": "EGLL",
    "flightCategory": "VFR",
    "windDir": 250,
    "windSpeed": 13,
    "windGust": null,
    "visibility": 6,
    "ceiling": null,
    "temp": 19,
    "dewpoint": 13,
    "altimeter": 30.15,
    "conditions": "",
    "observationTime": "2026-06-30T22:20:00.000Z"
  },
  "SYD": {
    "raw": "METAR YSSY 302200Z 34008KT CAVOK 17/12 Q1018",
    "icao": "YSSY",
    "flightCategory": "VFR",
    "windDir": 340,
    "windSpeed": 8,
    "windGust": null,
    "visibility": 6,
    "ceiling": null,
    "temp": 17,
    "dewpoint": 12,
    "altimeter": 30.06,
    "conditions": "",
    "observationTime": "2026-06-30T22:00:00.000Z"
  }
}