{
  "SYD": {
    "raw": "METAR YSSY 082130Z 33006KT 9999 FEW025 14/11 Q1031",
    "icao": "YSSY",
    "flightCategory": "VFR",
    "windDir": 330,
    "windSpeed": 6,
    "windGust": null,
    "visibility": 6,
    "ceiling": null,
    "temp": 14,
    "dewpoint": 11,
    "altimeter": 30.45,
    "conditions": "",
    "observationTime": "2026-06-08T21:30:00.000Z"
  },
  "LAS": {
    "raw": "METAR KLAS 082156Z 17015G24KT 10SM FEW150 BKN200 BKN250 35/M02 A2976 RMK AO2 PK WND 17029/2130 SLP049 T03501022",
    "icao": "KLAS",
    "flightCategory": "VFR",
    "windDir": 170,
    "windSpeed": 15,
    "windGust": 24,
    "visibility": 10,
    "ceiling": 20000,
    "temp": 35,
    "dewpoint": -2.2,
    "altimeter": 29.76,
    "conditions": "",
    "observationTime": "2026-06-08T22:00:00.000Z"
  },
  "LAX": {
    "raw": "METAR KLAX 082153Z 27014KT 10SM BKN250 21/13 A2990 RMK AO2 SLP125 T02110133 $",
    "icao": "KLAX",
    "flightCategory": "VFR",
    "windDir": 270,
    "windSpeed": 14,
    "windGust": null,
    "visibility": 10,
    "ceiling": 25000,
    "temp": 21.1,
    "dewpoint": 13.3,
    "altimeter": 29.9,
    "conditions": "",
    "observationTime": "2026-06-08T22:00:00.000Z"
  },
  "ORD": {
    "raw": "METAR KORD 082151Z 14006KT 10SM FEW025 SCT040 BKN085 BKN130 OVC220 26/23 A2993 RMK AO2 RAB2059E37 SLP132 P0001 T02560228",
    "icao": "KORD",
    "flightCategory": "VFR",
    "windDir": 140,
    "windSpeed": 6,
    "windGust": null,
    "visibility": 10,
    "ceiling": 8500,
    "temp": 25.6,
    "dewpoint": 22.8,
    "altimeter": 29.93,
    "conditions": "",
    "observationTime": "2026-06-08T22:00:00.000Z"
  },
  "LHR": {
    "raw": "METAR EGLL 082120Z AUTO 27013KT 9999 NCD 13/06 Q1014",
    "icao": "EGLL",
    "flightCategory": "VFR",
    "windDir": 270,
    "windSpeed": 13,
    "windGust": null,
    "visibility": 6,
    "ceiling": null,
    "temp": 13,
    "dewpoint": 6,
    "altimeter": 29.94,
    "conditions": "",
    "observationTime": "2026-06-08T21:20:00.000Z"
  }
}