{
  "LAX": {
    "raw": "METAR KLAX 250153Z 28009KT 10SM SCT012 SCT075 BKN270 17/13 A2986 RMK AO2 SLP109 T01720133 $",
    "icao": "KLAX",
    "flightCategory": "VFR",
    "windDir": 280,
    "windSpeed": 9,
    "windGust": null,
    "visibility": 10,
    "ceiling": 27000,
    "temp": 17.2,
    "dewpoint": 13.3,
    "altimeter": 29.86,
    "conditions": "",
    "observationTime": "2026-04-25T02:00:00.000Z"
  },
  "ORD": {
    "raw": "METAR KORD 250151Z 35010KT 10SM FEW045 BKN250 18/10 A2979 RMK AO2 SLP085 T01780100",
    "icao": "KORD",
    "flightCategory": "VFR",
    "windDir": 350,
    "windSpeed": 10,
    "windGust": null,
    "visibility": 10,
    "ceiling": 25000,
    "temp": 17.8,
    "dewpoint": 10,
    "altimeter": 29.79,
    "conditions": "",
    "observationTime": "2026-04-25T02:00:00.000Z"
  },
  "LHR": {
    "raw": "METAR EGLL 250120Z COR AUTO 02003KT 9999 NCD 06/03 Q1022 NOSIG",
    "icao": "EGLL",
    "flightCategory": "VFR",
    "windDir": 20,
    "windSpeed": 3,
    "windGust": null,
    "visibility": 6,
    "ceiling": null,
    "temp": 6,
    "dewpoint": 3,
    "altimeter": 30.18,
    "conditions": "",
    "observationTime": "2026-04-25T01:20:00.000Z"
  },
  "SYD": {
    "raw": "METAR YSSY 250100Z 31004KT 280V030 9999 FEW032 23/16 Q1030",
    "icao": "YSSY",
    "flightCategory": "VFR",
    "windDir": 310,
    "windSpeed": 4,
    "windGust": null,
    "visibility": 6,
    "ceiling": null,
    "temp": 23,
    "dewpoint": 16,
    "altimeter": 30.42,
    "conditions": "",
    "observationTime": "2026-04-25T01:00:00.000Z"
  }
}