{
  "ORD": {
    "raw": "METAR KORD 251751Z 21006KT 10SM FEW060 FEW120 FEW250 27/12 A3011 RMK AO2 SLP193 T02670122 10267 20172 58009 $",
    "icao": "KORD",
    "flightCategory": "VFR",
    "windDir": 210,
    "windSpeed": 6,
    "windGust": null,
    "visibility": 10,
    "ceiling": null,
    "temp": 26.7,
    "dewpoint": 12.2,
    "altimeter": 30.11,
    "conditions": "",
    "observationTime": "2026-05-25T18:00:00.000Z"
  },
  "SYD": {
    "raw": "SPECI YSSY 251656Z AUTO 21004KT 7000 // BKN049 17/17 Q1019",
    "icao": "YSSY",
    "flightCategory": "MVFR",
    "windDir": 210,
    "windSpeed": 4,
    "windGust": null,
    "visibility": 4.35,
    "ceiling": 4900,
    "temp": 17,
    "dewpoint": 17,
    "altimeter": 30.09,
    "conditions": "",
    "observationTime": "2026-05-25T16:56:00.000Z"
  },
  "LHR": {
    "raw": "METAR EGLL 251720Z AUTO 16009KT 120V180 9999 NCD 32/14 Q1028",
    "icao": "EGLL",
    "flightCategory": "VFR",
    "windDir": 160,
    "windSpeed": 9,
    "windGust": null,
    "visibility": 6,
    "ceiling": null,
    "temp": 32,
    "dewpoint": 14,
    "altimeter": 30.36,
    "conditions": "",
    "observationTime": "2026-05-25T17:20:00.000Z"
  },
  "LAS": {
    "raw": "METAR KLAS 251656Z 00000KT 10SM FEW120 FEW250 29/00 A2988 RMK AO2 SLP091 T02890000",
    "icao": "KLAS",
    "flightCategory": "VFR",
    "windDir": 0,
    "windSpeed": 0,
    "windGust": null,
    "visibility": 10,
    "ceiling": null,
    "temp": 28.9,
    "dewpoint": 0,
    "altimeter": 29.88,
    "conditions": "",
    "observationTime": "2026-05-25T17:00:00.000Z"
  }
}