{
  "LAS": {
    "raw": "METAR KLAS 050056Z 36008KT 10SM BKN250 26/M16 A3007 RMK AO2 SLP170 T02561156",
    "icao": "KLAS",
    "flightCategory": "VFR",
    "windDir": 360,
    "windSpeed": 8,
    "windGust": null,
    "visibility": 10,
    "ceiling": 25000,
    "temp": 25.6,
    "dewpoint": -15.6,
    "altimeter": 30.07,
    "conditions": "",
    "observationTime": "2026-04-05T01:00:00.000Z"
  },
  "LAX": {
    "raw": "METAR KLAX 050053Z 26016KT 10SM SCT220 SCT280 24/05 A2995 RMK AO2 SLP141 T02390050 $",
    "icao": "KLAX",
    "flightCategory": "VFR",
    "windDir": 260,
    "windSpeed": 16,
    "windGust": null,
    "visibility": 10,
    "ceiling": null,
    "temp": 23.9,
    "dewpoint": 5,
    "altimeter": 29.95,
    "conditions": "",
    "observationTime": "2026-04-05T01:00:00.000Z"
  },
  "ORD": {
    "raw": "METAR KORD 050051Z 26012G29KT 10SM SCT030 BKN037 BKN048 BKN250 06/M01 A2994 RMK AO2 PK WND 27030/2352 SLP141 T00561006 $",
    "icao": "KORD",
    "flightCategory": "VFR",
    "windDir": 260,
    "windSpeed": 12,
    "windGust": 29,
    "visibility": 10,
    "ceiling": 3700,
    "temp": 5.6,
    "dewpoint": -0.6,
    "altimeter": 29.94,
    "conditions": "",
    "observationTime": "2026-04-05T01:00:00.000Z"
  },
  "LHR": {
    "raw": "METAR EGLL 050020Z AUTO 25025KT 9999 -RA FEW015/// SCT019/// //////TCU 12/05 Q1006 NOSIG",
    "icao": "EGLL",
    "flightCategory": "VFR",
    "windDir": 250,
    "windSpeed": 25,
    "windGust": null,
    "visibility": 6,
    "ceiling": null,
    "temp": 12,
    "dewpoint": 5,
    "altimeter": 29.71,
    "conditions": "-RA",
    "observationTime": "2026-04-05T00:20:00.000Z"
  },
  "SYD": {
    "raw": "METAR YSSY 050030Z 21008KT 9999 FEW018 SCT040 BKN055 20/15 Q1026",
    "icao": "YSSY",
    "flightCategory": "VFR",
    "windDir": 210,
    "windSpeed": 8,
    "windGust": null,
    "visibility": 6,
    "ceiling": 5500,
    "temp": 20,
    "dewpoint": 15,
    "altimeter": 30.3,
    "conditions": "",
    "observationTime": "2026-04-05T00:30:00.000Z"
  }
}