{
  "SYD": {
    "raw": "METAR YSSY 071830Z AUTO 28013KT 9999 // NCD 11/02 Q1018",
    "icao": "YSSY",
    "flightCategory": "VFR",
    "windDir": 280,
    "windSpeed": 13,
    "windGust": null,
    "visibility": 6,
    "ceiling": null,
    "temp": 11,
    "dewpoint": 2,
    "altimeter": 30.06,
    "conditions": "",
    "observationTime": "2026-05-07T18:30:00.000Z"
  },
  "LAS": {
    "raw": "METAR KLAS 071856Z VRB04KT 10SM CLR 29/M08 A3000 RMK AO2 SLP135 T02941083",
    "icao": "KLAS",
    "flightCategory": "VFR",
    "windDir": null,
    "windSpeed": 4,
    "windGust": null,
    "visibility": 10,
    "ceiling": null,
    "temp": 29.4,
    "dewpoint": -8.3,
    "altimeter": 30,
    "conditions": "",
    "observationTime": "2026-05-07T19:00:00.000Z"
  },
  "LAX": {
    "raw": "METAR KLAX 071853Z 26010KT 10SM FEW010 20/14 A3001 RMK AO2 SLP162 T02000139",
    "icao": "KLAX",
    "flightCategory": "VFR",
    "windDir": 260,
    "windSpeed": 10,
    "windGust": null,
    "visibility": 10,
    "ceiling": null,
    "temp": 20,
    "dewpoint": 13.9,
    "altimeter": 30.01,
    "conditions": "",
    "observationTime": "2026-05-07T19:00:00.000Z"
  },
  "ORD": {
    "raw": "METAR KORD 071851Z 22018G30KT 10SM BKN070CB BKN090 BKN250 15/M01 A2985 RMK AO2 PK WND 23030/1851 SLP110 CB N MOV E T01501006",
    "icao": "KORD",
    "flightCategory": "VFR",
    "windDir": 220,
    "windSpeed": 18,
    "windGust": 30,
    "visibility": 10,
    "ceiling": 7000,
    "temp": 15,
    "dewpoint": -0.6,
    "altimeter": 29.85,
    "conditions": "",
    "observationTime": "2026-05-07T19:00:00.000Z"
  },
  "LHR": {
    "raw": "METAR EGLL 071820Z COR AUTO 14010KT 120V180 9999 NCD 14/04 Q1015 NOSIG",
    "icao": "EGLL",
    "flightCategory": "VFR",
    "windDir": 140,
    "windSpeed": 10,
    "windGust": null,
    "visibility": 6,
    "ceiling": null,
    "temp": 14,
    "dewpoint": 4,
    "altimeter": 29.97,
    "conditions": "",
    "observationTime": "2026-05-07T18:20:00.000Z"
  }
}