{
  "LAX": {
    "raw": "METAR KLAX 241053Z 24004KT 10SM FEW014 OVC016 16/12 A2999 RMK AO2 SLP154 T01560122 $",
    "icao": "KLAX",
    "flightCategory": "MVFR",
    "windDir": 240,
    "windSpeed": 4,
    "windGust": null,
    "visibility": 10,
    "ceiling": 1600,
    "temp": 15.6,
    "dewpoint": 12.2,
    "altimeter": 29.99,
    "conditions": "",
    "observationTime": "2026-05-24T11:00:00.000Z"
  },
  "ORD": {
    "raw": "SPECI KORD 241036Z 16004KT 8SM -TSRA SCT050CB OVC080 16/13 A2996 RMK AO2 RAB35 TSB33 OCNL LTGICCG OHD TS OHD MOV NE P0000 T01560133 $",
    "icao": "KORD",
    "flightCategory": "VFR",
    "windDir": 160,
    "windSpeed": 4,
    "windGust": null,
    "visibility": 8,
    "ceiling": 8000,
    "temp": 15.6,
    "dewpoint": 13.3,
    "altimeter": 29.96,
    "conditions": "-TSRA",
    "observationTime": "2026-05-24T10:36:00.000Z"
  },
  "LHR": {
    "raw": "METAR EGLL 241020Z AUTO VRB04KT 9999 NCD 26/14 Q1031",
    "icao": "EGLL",
    "flightCategory": "VFR",
    "windDir": null,
    "windSpeed": 4,
    "windGust": null,
    "visibility": 6,
    "ceiling": null,
    "temp": 26,
    "dewpoint": 14,
    "altimeter": 30.45,
    "conditions": "",
    "observationTime": "2026-05-24T10:20:00.000Z"
  },
  "SYD": {
    "raw": "METAR YSSY 241000Z AUTO 20005KT 180V240 9999 // SCT022 BKN039 OVC047 17/16 Q1023",
    "icao": "YSSY",
    "flightCategory": "VFR",
    "windDir": 200,
    "windSpeed": 5,
    "windGust": null,
    "visibility": 6,
    "ceiling": 3900,
    "temp": 17,
    "dewpoint": 16,
    "altimeter": 30.21,
    "conditions": "",
    "observationTime": "2026-05-24T10:00:00.000Z"
  }
}