{
  "ORD": {
    "raw": "METAR KORD 310151Z 20013G24KT 10SM FEW120 SCT170 BKN250 24/13 A2972 RMK AO2 PK WND 20026/0123 SLP063 T02440128",
    "icao": "KORD",
    "flightCategory": "VFR",
    "windDir": 200,
    "windSpeed": 13,
    "windGust": 24,
    "visibility": 10,
    "ceiling": 25000,
    "temp": 24.4,
    "dewpoint": 12.8,
    "altimeter": 29.72,
    "conditions": "",
    "observationTime": "2026-03-31T02:00:00.000Z"
  },
  "LHR": {
    "raw": "METAR EGLL 310120Z COR AUTO 28008KT 9999 -RA BKN037 09/03 Q1030 NOSIG",
    "icao": "EGLL",
    "flightCategory": "VFR",
    "windDir": 280,
    "windSpeed": 8,
    "windGust": null,
    "visibility": 6,
    "ceiling": 3700,
    "temp": 9,
    "dewpoint": 3,
    "altimeter": 30.42,
    "conditions": "-RA",
    "observationTime": "2026-03-31T01:20:00.000Z"
  },
  "SYD": {
    "raw": "METAR YSSY 310100Z 17005KT 9999 SCT035 SCT250 23/15 Q1025",
    "icao": "YSSY",
    "flightCategory": "VFR",
    "windDir": 170,
    "windSpeed": 5,
    "windGust": null,
    "visibility": 6,
    "ceiling": null,
    "temp": 23,
    "dewpoint": 15,
    "altimeter": 30.27,
    "conditions": "",
    "observationTime": "2026-03-31T01:00:00.000Z"
  },
  "LAS": {
    "raw": "METAR KLAS 310056Z 22016KT 10SM FEW150 BKN170 BKN220 29/M12 A2984 RMK AO2 PK WND 22027/0035 SLP081 T02891122",
    "icao": "KLAS",
    "flightCategory": "VFR",
    "windDir": 220,
    "windSpeed": 16,
    "windGust": null,
    "visibility": 10,
    "ceiling": 17000,
    "temp": 28.9,
    "dewpoint": -12.2,
    "altimeter": 29.84,
    "conditions": "",
    "observationTime": "2026-03-31T01:00:00.000Z"
  }
}