{
  "SYD": {
    "raw": "METAR YSSY 221600Z AUTO 30009KT 9999 // NCD 12/07 Q1021",
    "icao": "YSSY",
    "flightCategory": "VFR",
    "windDir": 300,
    "windSpeed": 9,
    "windGust": null,
    "visibility": 6,
    "ceiling": null,
    "temp": 12,
    "dewpoint": 7,
    "altimeter": 30.15,
    "conditions": "",
    "observationTime": "2026-07-22T16:00:00.000Z"
  },
  "LHR": {
    "raw": "METAR EGLL 221550Z AUTO 27008KT 240V300 9999 NCD 26/10 Q1023",
    "icao": "EGLL",
    "flightCategory": "VFR",
    "windDir": 270,
    "windSpeed": 8,
    "windGust": null,
    "visibility": 6,
    "ceiling": null,
    "temp": 26,
    "dewpoint": 10,
    "altimeter": 30.21,
    "conditions": "",
    "observationTime": "2026-07-22T16:00:00.000Z"
  },
  "LAS": {
    "raw": "METAR KLAS 221556Z 18003KT 10SM FEW110 FEW150 34/13 A2998 RMK AO2 SLP119 T03390133",
    "icao": "KLAS",
    "flightCategory": "VFR",
    "windDir": 180,
    "windSpeed": 3,
    "windGust": null,
    "visibility": 10,
    "ceiling": null,
    "temp": 33.9,
    "dewpoint": 13.3,
    "altimeter": 29.98,
    "conditions": "",
    "observationTime": "2026-07-22T16:00:00.000Z"
  },
  "LAX": {
    "raw": "METAR KLAX 221553Z 20004KT 8SM FEW004 OVC007 21/19 A3001 RMK AO2 SLP159 T02110189",
    "icao": "KLAX",
    "flightCategory": "IFR",
    "windDir": 200,
    "windSpeed": 4,
    "windGust": null,
    "visibility": 8,
    "ceiling": 700,
    "temp": 21.1,
    "dewpoint": 18.9,
    "altimeter": 30.01,
    "conditions": "",
    "observationTime": "2026-07-22T16:00:00.000Z"
  },
  "ORD": {
    "raw": "METAR KORD 221551Z 04011G21KT 10SM FEW039 BKN050 19/11 A3008 RMK AO2 SLP185 T01940111 $",
    "icao": "KORD",
    "flightCategory": "VFR",
    "windDir": 40,
    "windSpeed": 11,
    "windGust": 21,
    "visibility": 10,
    "ceiling": 5000,
    "temp": 19.4,
    "dewpoint": 11.1,
    "altimeter": 30.08,
    "conditions": "",
    "observationTime": "2026-07-22T16:00:00.000Z"
  }
}