{
  "LAX": {
    "raw": "SPECI KLAX 180444Z 27009KT 10SM BKN014 BKN020 17/14 A2994 RMK AO2 T01720144 $",
    "icao": "KLAX",
    "flightCategory": "MVFR",
    "windDir": 270,
    "windSpeed": 9,
    "windGust": null,
    "visibility": 10,
    "ceiling": 1400,
    "temp": 17.2,
    "dewpoint": 14.4,
    "altimeter": 29.94,
    "conditions": "",
    "observationTime": "2026-06-18T04:44:00.000Z"
  },
  "SYD": {
    "raw": "METAR YSSY 180500Z 36014KT CAVOK 21/11 Q1017",
    "icao": "YSSY",
    "flightCategory": "VFR",
    "windDir": 360,
    "windSpeed": 14,
    "windGust": null,
    "visibility": 6,
    "ceiling": null,
    "temp": 21,
    "dewpoint": 11,
    "altimeter": 30.03,
    "conditions": "",
    "observationTime": "2026-06-18T05:00:00.000Z"
  },
  "LHR": {
    "raw": "METAR EGLL 180450Z AUTO 22006KT 9999 OVC008 17/16 Q1018",
    "icao": "EGLL",
    "flightCategory": "IFR",
    "windDir": 220,
    "windSpeed": 6,
    "windGust": null,
    "visibility": 6,
    "ceiling": 800,
    "temp": 17,
    "dewpoint": 16,
    "altimeter": 30.06,
    "conditions": "",
    "observationTime": "2026-06-18T05:00:00.000Z"
  },
  "LAS": {
    "raw": "METAR KLAS 180456Z 22010KT 9SM BKN140 BKN200 37/M08 A2972 RMK AO2 SLP027 FU BKN140 FU BKN200 T03671083",
    "icao": "KLAS",
    "flightCategory": "VFR",
    "windDir": 220,
    "windSpeed": 10,
    "windGust": null,
    "visibility": 9,
    "ceiling": 14000,
    "temp": 36.7,
    "dewpoint": -8.3,
    "altimeter": 29.72,
    "conditions": "",
    "observationTime": "2026-06-18T05:00:00.000Z"
  },
  "ORD": {
    "raw": "METAR KORD 180451Z 24011G21KT 10SM FEW055 FEW100 21/16 A2941 RMK AO2 PK WND 26027/0401 SLP957 T02110161",
    "icao": "KORD",
    "flightCategory": "VFR",
    "windDir": 240,
    "windSpeed": 11,
    "windGust": 21,
    "visibility": 10,
    "ceiling": null,
    "temp": 21.1,
    "dewpoint": 16.1,
    "altimeter": 29.41,
    "conditions": "",
    "observationTime": "2026-06-18T05:00:00.000Z"
  }
}