{
  "SYD": {
    "raw": "METAR YSSY 201000Z AUTO 24010KT 9999 -SHRA BKN033 BKN043 BKN049 18/13 Q1025",
    "icao": "YSSY",
    "flightCategory": "VFR",
    "windDir": 240,
    "windSpeed": 10,
    "windGust": null,
    "visibility": 6,
    "ceiling": 3300,
    "temp": 18,
    "dewpoint": 13,
    "altimeter": 30.27,
    "conditions": "-SHRA",
    "observationTime": "2026-04-20T10:00:00.000Z"
  },
  "LHR": {
    "raw": "METAR EGLL 201020Z COR AUTO 06008KT 010V100 9999 NCD 12/01 Q1024 NOSIG",
    "icao": "EGLL",
    "flightCategory": "VFR",
    "windDir": 60,
    "windSpeed": 8,
    "windGust": null,
    "visibility": 6,
    "ceiling": null,
    "temp": 12,
    "dewpoint": 1,
    "altimeter": 30.24,
    "conditions": "",
    "observationTime": "2026-04-20T10:20:00.000Z"
  },
  "LAS": {
    "raw": "METAR KLAS 200956Z 24004KT 10SM SCT250 19/M07 A2990 RMK AO2 SLP105 T01941072",
    "icao": "KLAS",
    "flightCategory": "VFR",
    "windDir": 240,
    "windSpeed": 4,
    "windGust": null,
    "visibility": 10,
    "ceiling": null,
    "temp": 19.4,
    "dewpoint": -7.2,
    "altimeter": 29.9,
    "conditions": "",
    "observationTime": "2026-04-20T10:00:00.000Z"
  }
}