{
  "LAX": {
    "raw": "METAR KLAX 151653Z VRB03KT 10SM FEW010 OVC023 18/12 A3000 RMK AO2 SLP156 T01780122",
    "icao": "KLAX",
    "flightCategory": "MVFR",
    "windDir": null,
    "windSpeed": 3,
    "windGust": null,
    "visibility": 10,
    "ceiling": 2300,
    "temp": 17.8,
    "dewpoint": 12.2,
    "altimeter": 30,
    "conditions": "",
    "observationTime": "2026-05-15T17:00:00.000Z"
  },
  "ORD": {
    "raw": "METAR KORD 151651Z 17016G29KT 10SM FEW035 FEW065 18/09 A2990 RMK AO2 PK WND 19029/1649 SLP124 T01780089",
    "icao": "KORD",
    "flightCategory": "VFR",
    "windDir": 170,
    "windSpeed": 16,
    "windGust": 29,
    "visibility": 10,
    "ceiling": null,
    "temp": 17.8,
    "dewpoint": 8.9,
    "altimeter": 29.9,
    "conditions": "",
    "observationTime": "2026-05-15T17:00:00.000Z"
  },
  "LHR": {
    "raw": "METAR EGLL 151620Z AUTO 33007KT 270V030 9999 NCD 14/00 Q1007",
    "icao": "EGLL",
    "flightCategory": "VFR",
    "windDir": 330,
    "windSpeed": 7,
    "windGust": null,
    "visibility": 6,
    "ceiling": null,
    "temp": 14,
    "dewpoint": 0,
    "altimeter": 29.74,
    "conditions": "",
    "observationTime": "2026-05-15T16:20:00.000Z"
  },
  "SYD": {
    "raw": "METAR YSSY 151600Z AUTO 00000KT 9999 // SCT054 16/15 Q1025",
    "icao": "YSSY",
    "flightCategory": "VFR",
    "windDir": 0,
    "windSpeed": 0,
    "windGust": null,
    "visibility": 6,
    "ceiling": null,
    "temp": 16,
    "dewpoint": 15,
    "altimeter": 30.27,
    "conditions": "",
    "observationTime": "2026-05-15T16:00:00.000Z"
  }
}