{
  "SYD": {
    "raw": "METAR YSSY 182330Z 31007KT 9999 -RA FEW010 SCT035 BKN110 19/16 Q1008",
    "icao": "YSSY",
    "flightCategory": "VFR",
    "windDir": 310,
    "windSpeed": 7,
    "windGust": null,
    "visibility": 6,
    "ceiling": 11000,
    "temp": 19,
    "dewpoint": 16,
    "altimeter": 29.77,
    "conditions": "-RA",
    "observationTime": "2026-05-18T23:30:00.000Z"
  },
  "LAS": {
    "raw": "METAR KLAS 182356Z 07014G20KT 10SM FEW120 24/M09 A2991 RMK AO2 SLP113 T02391094 10244 20194 56013",
    "icao": "KLAS",
    "flightCategory": "VFR",
    "windDir": 70,
    "windSpeed": 14,
    "windGust": 20,
    "visibility": 10,
    "ceiling": null,
    "temp": 23.9,
    "dewpoint": -9.4,
    "altimeter": 29.91,
    "conditions": "",
    "observationTime": "2026-05-19T00:00:00.000Z"
  },
  "LAX": {
    "raw": "METAR KLAX 182353Z 26014KT 8SM FEW060 21/14 A2987 RMK AO2 SLP113 T02060144 10217 20200 56008",
    "icao": "KLAX",
    "flightCategory": "VFR",
    "windDir": 260,
    "windSpeed": 14,
    "windGust": null,
    "visibility": 8,
    "ceiling": null,
    "temp": 20.6,
    "dewpoint": 14.4,
    "altimeter": 29.87,
    "conditions": "",
    "observationTime": "2026-05-19T00:00:00.000Z"
  },
  "ORD": {
    "raw": "METAR KORD 182351Z 19013G20KT 10SM FEW090 SCT210 OVC250 23/17 A2985 RMK AO2 SLP102 T02330172 10261 20228 50008",
    "icao": "KORD",
    "flightCategory": "VFR",
    "windDir": 190,
    "windSpeed": 13,
    "windGust": 20,
    "visibility": 10,
    "ceiling": 25000,
    "temp": 23.3,
    "dewpoint": 17.2,
    "altimeter": 29.85,
    "conditions": "",
    "observationTime": "2026-05-19T00:00:00.000Z"
  },
  "LHR": {
    "raw": "METAR EGLL 182320Z AUTO 17009KT 9999 -RA SCT036 SCT048 11/08 Q1012",
    "icao": "EGLL",
    "flightCategory": "VFR",
    "windDir": 170,
    "windSpeed": 9,
    "windGust": null,
    "visibility": 6,
    "ceiling": null,
    "temp": 11,
    "dewpoint": 8,
    "altimeter": 29.88,
    "conditions": "-RA",
    "observationTime": "2026-05-18T23:20:00.000Z"
  }
}