{
  "SYD": {
    "raw": "SPECI YSSY 280430Z 07013KT CAVOK 24/10 Q1024",
    "icao": "YSSY",
    "flightCategory": "VFR",
    "windDir": 70,
    "windSpeed": 13,
    "windGust": null,
    "visibility": 6,
    "ceiling": null,
    "temp": 24,
    "dewpoint": 10,
    "altimeter": 30.24,
    "conditions": "",
    "observationTime": "2026-04-28T04:30:00.000Z"
  },
  "LAS": {
    "raw": "METAR KLAS 280456Z 33010KT 10SM FEW100 FEW150 SCT180 18/00 A2994 RMK AO2 SLP128 T01780000",
    "icao": "KLAS",
    "flightCategory": "VFR",
    "windDir": 330,
    "windSpeed": 10,
    "windGust": null,
    "visibility": 10,
    "ceiling": null,
    "temp": 17.8,
    "dewpoint": 0,
    "altimeter": 29.94,
    "conditions": "",
    "observationTime": "2026-04-28T05:00:00.000Z"
  },
  "LAX": {
    "raw": "METAR KLAX 280453Z 32004KT 10SM FEW050 16/10 A3005 RMK AO2 SLP175 T01560100 $",
    "icao": "KLAX",
    "flightCategory": "VFR",
    "windDir": 320,
    "windSpeed": 4,
    "windGust": null,
    "visibility": 10,
    "ceiling": null,
    "temp": 15.6,
    "dewpoint": 10,
    "altimeter": 30.05,
    "conditions": "",
    "observationTime": "2026-04-28T05:00:00.000Z"
  },
  "ORD": {
    "raw": "SPECI KORD 280426Z 23011KT 10SM TS FEW012 FEW035CB BKN100 OVC250 16/14 A2964 RMK AO2 TSB12 PRESRR FRQ LTGICCG SW-N TS SW-N MOV E T01610144 $",
    "icao": "KORD",
    "flightCategory": "VFR",
    "windDir": 230,
    "windSpeed": 11,
    "windGust": null,
    "visibility": 10,
    "ceiling": 10000,
    "temp": 16.1,
    "dewpoint": 14.4,
    "altimeter": 29.64,
    "conditions": "TS",
    "observationTime": "2026-04-28T04:26:00.000Z"
  },
  "LHR": {
    "raw": "METAR EGLL 280420Z AUTO 02006KT 330V060 9999 -RA BKN011 09/07 Q1023 TEMPO 4500 DZ BKN008",
    "icao": "EGLL",
    "flightCategory": "MVFR",
    "windDir": 20,
    "windSpeed": 6,
    "windGust": null,
    "visibility": 6,
    "ceiling": 1100,
    "temp": 9,
    "dewpoint": 7,
    "altimeter": 30.21,
    "conditions": "-RA",
    "observationTime": "2026-04-28T04:20:00.000Z"
  }
}