{
  "LHR": {
    "raw": "METAR EGLL 281850Z COR AUTO 06011KT 9999 NCD 14/M03 Q1023 NOSIG",
    "icao": "EGLL",
    "flightCategory": "VFR",
    "windDir": 60,
    "windSpeed": 11,
    "windGust": null,
    "visibility": 6,
    "ceiling": null,
    "temp": 14,
    "dewpoint": -3,
    "altimeter": 30.21,
    "conditions": "",
    "observationTime": "2026-04-28T19:00:00.000Z"
  },
  "SYD": {
    "raw": "METAR YSSY 281900Z AUTO 31007KT 9999 // NCD 15/12 Q1026",
    "icao": "YSSY",
    "flightCategory": "VFR",
    "windDir": 310,
    "windSpeed": 7,
    "windGust": null,
    "visibility": 6,
    "ceiling": null,
    "temp": 15,
    "dewpoint": 12,
    "altimeter": 30.3,
    "conditions": "",
    "observationTime": "2026-04-28T19:00:00.000Z"
  },
  "LAS": {
    "raw": "METAR KLAS 281856Z 18005KT 10SM FEW100 SCT200 21/M01 A3007 RMK AO2 SLP167 T02061011",
    "icao": "KLAS",
    "flightCategory": "VFR",
    "windDir": 180,
    "windSpeed": 5,
    "windGust": null,
    "visibility": 10,
    "ceiling": null,
    "temp": 20.6,
    "dewpoint": -1.1,
    "altimeter": 30.07,
    "conditions": "",
    "observationTime": "2026-04-28T19:00:00.000Z"
  },
  "LAX": {
    "raw": "METAR KLAX 281853Z 24010KT 10SM FEW160 FEW200 20/08 A3005 RMK AO2 SLP175 T02000078 $",
    "icao": "KLAX",
    "flightCategory": "VFR",
    "windDir": 240,
    "windSpeed": 10,
    "windGust": null,
    "visibility": 10,
    "ceiling": null,
    "temp": 20,
    "dewpoint": 7.8,
    "altimeter": 30.05,
    "conditions": "",
    "observationTime": "2026-04-28T19:00:00.000Z"
  },
  "ORD": {
    "raw": "METAR KORD 281851Z 24012G25KT 10SM SCT032 SCT250 16/07 A2995 RMK AO2 SLP141 T01560072 $",
    "icao": "KORD",
    "flightCategory": "VFR",
    "windDir": 240,
    "windSpeed": 12,
    "windGust": 25,
    "visibility": 10,
    "ceiling": null,
    "temp": 15.6,
    "dewpoint": 7.2,
    "altimeter": 29.95,
    "conditions": "",
    "observationTime": "2026-04-28T19:00:00.000Z"
  }
}