{
  "SYD": {
    "raw": "METAR YSSY 080330Z 13009KT 9999 FEW030 26/18 Q1014",
    "icao": "YSSY",
    "flightCategory": "VFR",
    "windDir": 130,
    "windSpeed": 9,
    "windGust": null,
    "visibility": 6,
    "ceiling": null,
    "temp": 26,
    "dewpoint": 18,
    "altimeter": 29.94,
    "conditions": "",
    "observationTime": "2026-04-08T03:30:00.000Z"
  },
  "LAS": {
    "raw": "METAR KLAS 080356Z 27006KT 10SM CLR 27/M09 A2985 RMK AO2 SLP086 T02721089",
    "icao": "KLAS",
    "flightCategory": "VFR",
    "windDir": 270,
    "windSpeed": 6,
    "windGust": null,
    "visibility": 10,
    "ceiling": null,
    "temp": 27.2,
    "dewpoint": -8.9,
    "altimeter": 29.85,
    "conditions": "",
    "observationTime": "2026-04-08T04:00:00.000Z"
  },
  "LAX": {
    "raw": "METAR KLAX 080353Z 26006KT 10SM FEW015 17/14 A2992 RMK AO2 SLP131 T01720144 $",
    "icao": "KLAX",
    "flightCategory": "VFR",
    "windDir": 260,
    "windSpeed": 6,
    "windGust": null,
    "visibility": 10,
    "ceiling": null,
    "temp": 17.2,
    "dewpoint": 14.4,
    "altimeter": 29.92,
    "conditions": "",
    "observationTime": "2026-04-08T04:00:00.000Z"
  },
  "ORD": {
    "raw": "METAR KORD 080351Z 10007KT 10SM SCT140 OVC250 01/M04 A3037 RMK AO2 SLP293 T00111044 $",
    "icao": "KORD",
    "flightCategory": "VFR",
    "windDir": 100,
    "windSpeed": 7,
    "windGust": null,
    "visibility": 10,
    "ceiling": 25000,
    "temp": 1.1,
    "dewpoint": -4.4,
    "altimeter": 30.37,
    "conditions": "",
    "observationTime": "2026-04-08T04:00:00.000Z"
  },
  "LHR": {
    "raw": "METAR EGLL 080320Z COR AUTO 06004KT 9999 NCD 08/06 Q1022 NOSIG",
    "icao": "EGLL",
    "flightCategory": "VFR",
    "windDir": 60,
    "windSpeed": 4,
    "windGust": null,
    "visibility": 6,
    "ceiling": null,
    "temp": 8,
    "dewpoint": 6,
    "altimeter": 30.18,
    "conditions": "",
    "observationTime": "2026-04-08T03:20:00.000Z"
  }
}