{
  "SYD": {
    "raw": "METAR YSSY 210000Z 28008KT CAVOK 15/08 Q1028",
    "icao": "YSSY",
    "flightCategory": "VFR",
    "windDir": 280,
    "windSpeed": 8,
    "windGust": null,
    "visibility": 6,
    "ceiling": null,
    "temp": 15,
    "dewpoint": 8,
    "altimeter": 30.36,
    "conditions": "",
    "observationTime": "2026-06-21T00:00:00.000Z"
  },
  "LHR": {
    "raw": "METAR EGLL 210020Z AUTO VRB02KT 9999 NCD 19/17 Q1023",
    "icao": "EGLL",
    "flightCategory": "VFR",
    "windDir": null,
    "windSpeed": 2,
    "windGust": null,
    "visibility": 6,
    "ceiling": null,
    "temp": 19,
    "dewpoint": 17,
    "altimeter": 30.21,
    "conditions": "",
    "observationTime": "2026-06-21T00:20:00.000Z"
  },
  "LAS": {
    "raw": "METAR KLAS 202356Z 23010G18KT 10SM CLR 39/M11 A2974 RMK AO2 SLP040 T03891106",
    "icao": "KLAS",
    "flightCategory": "VFR",
    "windDir": 230,
    "windSpeed": 10,
    "windGust": 18,
    "visibility": 10,
    "ceiling": null,
    "temp": 38.9,
    "dewpoint": -10.6,
    "altimeter": 29.74,
    "conditions": "",
    "observationTime": "2026-06-21T00:00:00.000Z"
  }
}