{
  "HND": {
    "raw": "METAR RJTT 130030Z 11004KT 080V150 9999 FEW025 22/15 Q1009 NOSIG",
    "icao": "RJTT",
    "flightCategory": "VFR",
    "windDir": 110,
    "windSpeed": 4,
    "windGust": null,
    "visibility": 6,
    "ceiling": null,
    "temp": 22,
    "dewpoint": 15,
    "altimeter": 29.8,
    "conditions": "",
    "observationTime": "2026-05-13T00:30:00.000Z"
  },
  "LAS": {
    "raw": "METAR KLAS 130056Z 21012G20KT 10SM SCT120 BKN220 39/M03 A2984 RMK AO2 SLP074 T03891028",
    "icao": "KLAS",
    "flightCategory": "VFR",
    "windDir": 210,
    "windSpeed": 12,
    "windGust": 20,
    "visibility": 10,
    "ceiling": 22000,
    "temp": 38.9,
    "dewpoint": -2.8,
    "altimeter": 29.84,
    "conditions": "",
    "observationTime": "2026-05-13T01:00:00.000Z"
  },
  "LAX": {
    "raw": "METAR KLAX 130053Z 26010KT 10SM FEW025 FEW250 18/12 A3001 RMK AO2 SLP161 T01780122",
    "icao": "KLAX",
    "flightCategory": "VFR",
    "windDir": 260,
    "windSpeed": 10,
    "windGust": null,
    "visibility": 10,
    "ceiling": null,
    "temp": 17.8,
    "dewpoint": 12.2,
    "altimeter": 30.01,
    "conditions": "",
    "observationTime": "2026-05-13T01:00:00.000Z"
  },
  "ORD": {
    "raw": "METAR KORD 130051Z 22009KT 10SM FEW090 FEW110 BKN200 BKN250 19/11 A2977 RMK AO2 SLP081 T01940106 $",
    "icao": "KORD",
    "flightCategory": "VFR",
    "windDir": 220,
    "windSpeed": 9,
    "windGust": null,
    "visibility": 10,
    "ceiling": 20000,
    "temp": 19.4,
    "dewpoint": 10.6,
    "altimeter": 29.77,
    "conditions": "",
    "observationTime": "2026-05-13T01:00:00.000Z"
  },
  "LHR": {
    "raw": "METAR EGLL 130020Z COR AUTO 25006KT 9999 NCD 09/02 Q1009 NOSIG",
    "icao": "EGLL",
    "flightCategory": "VFR",
    "windDir": 250,
    "windSpeed": 6,
    "windGust": null,
    "visibility": 6,
    "ceiling": null,
    "temp": 9,
    "dewpoint": 2,
    "altimeter": 29.8,
    "conditions": "",
    "observationTime": "2026-05-13T00:20:00.000Z"
  }
}