{
  "SYD": {
    "raw": "METAR YSSY 211400Z AUTO 14008KT 9999 DZ FEW029 SCT035 BKN043 17/13 Q1026",
    "icao": "YSSY",
    "flightCategory": "VFR",
    "windDir": 140,
    "windSpeed": 8,
    "windGust": null,
    "visibility": 6,
    "ceiling": 4300,
    "temp": 17,
    "dewpoint": 13,
    "altimeter": 30.3,
    "conditions": "DZ",
    "observationTime": "2026-04-21T14:00:00.000Z"
  },
  "LHR": {
    "raw": "METAR EGLL 211350Z COR AUTO 07015KT 9999 SCT041 BKN049 13/04 Q1024 NOSIG",
    "icao": "EGLL",
    "flightCategory": "VFR",
    "windDir": 70,
    "windSpeed": 15,
    "windGust": null,
    "visibility": 6,
    "ceiling": 4900,
    "temp": 13,
    "dewpoint": 4,
    "altimeter": 30.24,
    "conditions": "",
    "observationTime": "2026-04-21T14:00:00.000Z"
  },
  "LAX": {
    "raw": "SPECI KLAX 211343Z 09005KT 10SM SCT016 BKN027 BKN160 13/12 A3001 RMK AO2 T01330117 $",
    "icao": "KLAX",
    "flightCategory": "MVFR",
    "windDir": 90,
    "windSpeed": 5,
    "windGust": null,
    "visibility": 10,
    "ceiling": 2700,
    "temp": 13.3,
    "dewpoint": 11.7,
    "altimeter": 30.01,
    "conditions": "",
    "observationTime": "2026-04-21T13:43:00.000Z"
  },
  "LAS": {
    "raw": "METAR KLAS 211356Z 18006KT 10SM FEW160 SCT220 19/M03 A2991 RMK AO2 SLP106 ACSL DSNT NW T01941033",
    "icao": "KLAS",
    "flightCategory": "VFR",
    "windDir": 180,
    "windSpeed": 6,
    "windGust": null,
    "visibility": 10,
    "ceiling": null,
    "temp": 19.4,
    "dewpoint": -3.3,
    "altimeter": 29.91,
    "conditions": "",
    "observationTime": "2026-04-21T14:00:00.000Z"
  },
  "ORD": {
    "raw": "METAR KORD 211351Z 21014G23KT 10SM FEW180 SCT250 16/06 A2995 RMK AO2 SLP142 T01560056 $",
    "icao": "KORD",
    "flightCategory": "VFR",
    "windDir": 210,
    "windSpeed": 14,
    "windGust": 23,
    "visibility": 10,
    "ceiling": null,
    "temp": 15.6,
    "dewpoint": 5.6,
    "altimeter": 29.95,
    "conditions": "",
    "observationTime": "2026-04-21T14:00:00.000Z"
  }
}