{
  "LAS": {
    "raw": "METAR KLAS 141056Z 20005KT 10SM BKN220 32/12 A2998 RMK AO2 SLP118 T03170122 $",
    "icao": "KLAS",
    "flightCategory": "VFR",
    "windDir": 200,
    "windSpeed": 5,
    "windGust": null,
    "visibility": 10,
    "ceiling": 22000,
    "temp": 31.7,
    "dewpoint": 12.2,
    "altimeter": 29.98,
    "conditions": "",
    "observationTime": "2026-07-14T11:00:00.000Z"
  },
  "LAX": {
    "raw": "SPECI KLAX 141036Z 00000KT 10SM SCT009 19/17 A2997 RMK AO2 T01940172 $",
    "icao": "KLAX",
    "flightCategory": "VFR",
    "windDir": 0,
    "windSpeed": 0,
    "windGust": null,
    "visibility": 10,
    "ceiling": null,
    "temp": 19.4,
    "dewpoint": 17.2,
    "altimeter": 29.97,
    "conditions": "",
    "observationTime": "2026-07-14T10:36:00.000Z"
  },
  "ORD": {
    "raw": "METAR KORD 141051Z 00000KT 10SM FEW250 24/20 A3017 RMK AO2 SLP211 T02390200 $",
    "icao": "KORD",
    "flightCategory": "VFR",
    "windDir": 0,
    "windSpeed": 0,
    "windGust": null,
    "visibility": 10,
    "ceiling": null,
    "temp": 23.9,
    "dewpoint": 20,
    "altimeter": 30.17,
    "conditions": "",
    "observationTime": "2026-07-14T11:00:00.000Z"
  },
  "LHR": {
    "raw": "METAR EGLL 141020Z AUTO 03009KT 340V060 9999 OVC025 22/15 Q1022",
    "icao": "EGLL",
    "flightCategory": "MVFR",
    "windDir": 30,
    "windSpeed": 9,
    "windGust": null,
    "visibility": 6,
    "ceiling": 2500,
    "temp": 22,
    "dewpoint": 15,
    "altimeter": 30.18,
    "conditions": "",
    "observationTime": "2026-07-14T10:20:00.000Z"
  },
  "SYD": {
    "raw": "METAR YSSY 141030Z AUTO 28012KT 9999 // FEW105 15/06 Q1024",
    "icao": "YSSY",
    "flightCategory": "VFR",
    "windDir": 280,
    "windSpeed": 12,
    "windGust": null,
    "visibility": 6,
    "ceiling": null,
    "temp": 15,
    "dewpoint": 6,
    "altimeter": 30.24,
    "conditions": "",
    "observationTime": "2026-07-14T10:30:00.000Z"
  }
}