{
  "LAX": {
    "raw": "METAR KLAX 030553Z 27006KT 10SM OVC009 16/14 A3003 RMK AO2 SLP167 T01610139 10200 20161 53018 $",
    "icao": "KLAX",
    "flightCategory": "IFR",
    "windDir": 270,
    "windSpeed": 6,
    "windGust": null,
    "visibility": 10,
    "ceiling": 900,
    "temp": 16.1,
    "dewpoint": 13.9,
    "altimeter": 30.03,
    "conditions": "",
    "observationTime": "2026-06-03T06:00:00.000Z"
  },
  "ORD": {
    "raw": "METAR KORD 030551Z 05004KT 10SM CLR 14/06 A3031 RMK AO2 SLP263 T01390056 10217 20139 402330100 58003 $",
    "icao": "KORD",
    "flightCategory": "VFR",
    "windDir": 50,
    "windSpeed": 4,
    "windGust": null,
    "visibility": 10,
    "ceiling": null,
    "temp": 13.9,
    "dewpoint": 5.6,
    "altimeter": 30.31,
    "conditions": "",
    "observationTime": "2026-06-03T06:00:00.000Z"
  },
  "LHR": {
    "raw": "METAR EGLL 030520Z AUTO 23011KT 9999 BKN045 13/10 Q1007",
    "icao": "EGLL",
    "flightCategory": "VFR",
    "windDir": 230,
    "windSpeed": 11,
    "windGust": null,
    "visibility": 6,
    "ceiling": 4500,
    "temp": 13,
    "dewpoint": 10,
    "altimeter": 29.74,
    "conditions": "",
    "observationTime": "2026-06-03T05:20:00.000Z"
  },
  "SYD": {
    "raw": "METAR YSSY 030500Z 32021KT CAVOK 21/04 Q1001",
    "icao": "YSSY",
    "flightCategory": "VFR",
    "windDir": 320,
    "windSpeed": 21,
    "windGust": null,
    "visibility": 6,
    "ceiling": null,
    "temp": 21,
    "dewpoint": 4,
    "altimeter": 29.56,
    "conditions": "",
    "observationTime": "2026-06-03T05:00:00.000Z"
  }
}