{
  "SYD": {
    "raw": "METAR YSSY 290600Z AUTO 17014KT 9999 // NCD 21/15 Q1021",
    "icao": "YSSY",
    "flightCategory": "VFR",
    "windDir": 170,
    "windSpeed": 14,
    "windGust": null,
    "visibility": 6,
    "ceiling": null,
    "temp": 21,
    "dewpoint": 15,
    "altimeter": 30.15,
    "conditions": "",
    "observationTime": "2026-03-29T06:00:00.000Z"
  },
  "LHR": {
    "raw": "METAR EGLL 290620Z COR AUTO 20005KT 170V230 9999 NCD 03/M00 Q1031 NOSIG",
    "icao": "EGLL",
    "flightCategory": "VFR",
    "windDir": 200,
    "windSpeed": 5,
    "windGust": null,
    "visibility": 6,
    "ceiling": null,
    "temp": 3,
    "dewpoint": 0,
    "altimeter": 30.45,
    "conditions": "",
    "observationTime": "2026-03-29T06:20:00.000Z"
  },
  "LAS": {
    "raw": "METAR KLAS 290556Z 18006KT 10SM CLR 25/M10 A2992 RMK AO2 SLP107 T02501100 10322 20244 51010",
    "icao": "KLAS",
    "flightCategory": "VFR",
    "windDir": 180,
    "windSpeed": 6,
    "windGust": null,
    "visibility": 10,
    "ceiling": null,
    "temp": 25,
    "dewpoint": -10,
    "altimeter": 29.92,
    "conditions": "",
    "observationTime": "2026-03-29T06:00:00.000Z"
  },
  "LAX": {
    "raw": "METAR KLAX 290553Z 00000KT 5SM BR FEW006 15/14 A2996 RMK AO2 SLP143 T01500139 10189 20150 50004",
    "icao": "KLAX",
    "flightCategory": "MVFR",
    "windDir": 0,
    "windSpeed": 0,
    "windGust": null,
    "visibility": 5,
    "ceiling": null,
    "temp": 15,
    "dewpoint": 13.9,
    "altimeter": 29.96,
    "conditions": "BR",
    "observationTime": "2026-03-29T06:00:00.000Z"
  }
}