{
  "SYD": {
    "raw": "SPECI YSSY 251920Z AUTO 26006KT 9999 -SHRA FEW030 BKN048 OVC054 12/11 Q1032",
    "icao": "YSSY",
    "flightCategory": "VFR",
    "windDir": 260,
    "windSpeed": 6,
    "windGust": null,
    "visibility": 6,
    "ceiling": 4800,
    "temp": 12,
    "dewpoint": 11,
    "altimeter": 30.47,
    "conditions": "-SHRA",
    "observationTime": "2026-06-25T19:20:00.000Z"
  },
  "LAS": {
    "raw": "METAR KLAS 251956Z 16005KT 10SM FEW120 38/07 A2979 RMK AO2 SLP054 T03830072",
    "icao": "KLAS",
    "flightCategory": "VFR",
    "windDir": 160,
    "windSpeed": 5,
    "windGust": null,
    "visibility": 10,
    "ceiling": null,
    "temp": 38.3,
    "dewpoint": 7.2,
    "altimeter": 29.79,
    "conditions": "",
    "observationTime": "2026-06-25T20:00:00.000Z"
  },
  "LAX": {
    "raw": "METAR KLAX 251953Z 25009KT 10SM FEW009 FEW029 22/14 A2995 RMK AO2 SLP140 T02170139",
    "icao": "KLAX",
    "flightCategory": "VFR",
    "windDir": 250,
    "windSpeed": 9,
    "windGust": null,
    "visibility": 10,
    "ceiling": null,
    "temp": 21.7,
    "dewpoint": 13.9,
    "altimeter": 29.95,
    "conditions": "",
    "observationTime": "2026-06-25T20:00:00.000Z"
  },
  "ORD": {
    "raw": "METAR KORD 251951Z 26011G21KT 10SM BKN055 BKN250 26/13 A2993 RMK AO2 SLP132 T02560128",
    "icao": "KORD",
    "flightCategory": "VFR",
    "windDir": 260,
    "windSpeed": 11,
    "windGust": 21,
    "visibility": 10,
    "ceiling": 5500,
    "temp": 25.6,
    "dewpoint": 12.8,
    "altimeter": 29.93,
    "conditions": "",
    "observationTime": "2026-06-25T20:00:00.000Z"
  },
  "LHR": {
    "raw": "METAR EGLL 251920Z AUTO 09013KT 9999 NCD 27/20 Q1015",
    "icao": "EGLL",
    "flightCategory": "VFR",
    "windDir": 90,
    "windSpeed": 13,
    "windGust": null,
    "visibility": 6,
    "ceiling": null,
    "temp": 27,
    "dewpoint": 20,
    "altimeter": 29.97,
    "conditions": "",
    "observationTime": "2026-06-25T19:20:00.000Z"
  }
}