{
  "SYD": {
    "raw": "METAR YSSY 110600Z 14012KT 9999 FEW025 SCT060 21/14 Q1032",
    "icao": "YSSY",
    "flightCategory": "VFR",
    "windDir": 140,
    "windSpeed": 12,
    "windGust": null,
    "visibility": 6,
    "ceiling": null,
    "temp": 21,
    "dewpoint": 14,
    "altimeter": 30.47,
    "conditions": "",
    "observationTime": "2026-05-11T06:00:00.000Z"
  },
  "LHR": {
    "raw": "METAR EGLL 110550Z COR AUTO 28009KT 9999 NCD 06/01 Q1010 NOSIG",
    "icao": "EGLL",
    "flightCategory": "VFR",
    "windDir": 280,
    "windSpeed": 9,
    "windGust": null,
    "visibility": 6,
    "ceiling": null,
    "temp": 6,
    "dewpoint": 1,
    "altimeter": 29.83,
    "conditions": "",
    "observationTime": "2026-05-11T06:00:00.000Z"
  },
  "LAS": {
    "raw": "METAR KLAS 110556Z 29005KT 10SM CLR 29/M02 A2991 RMK AO2 SLP100 T02941022 10372 20294 51011",
    "icao": "KLAS",
    "flightCategory": "VFR",
    "windDir": 290,
    "windSpeed": 5,
    "windGust": null,
    "visibility": 10,
    "ceiling": null,
    "temp": 29.4,
    "dewpoint": -2.2,
    "altimeter": 29.91,
    "conditions": "",
    "observationTime": "2026-05-11T06:00:00.000Z"
  },
  "LAX": {
    "raw": "SPECI KLAX 110547Z 26005KT 9SM FEW008 OVC010 16/14 A2998 RMK AO2 T01610139",
    "icao": "KLAX",
    "flightCategory": "MVFR",
    "windDir": 260,
    "windSpeed": 5,
    "windGust": null,
    "visibility": 9,
    "ceiling": 1000,
    "temp": 16.1,
    "dewpoint": 13.9,
    "altimeter": 29.98,
    "conditions": "",
    "observationTime": "2026-05-11T05:47:00.000Z"
  },
  "ORD": {
    "raw": "METAR KORD 110551Z 05003KT 10SM BKN120 12/00 A3013 RMK AO2 SLP204 T01170000 10172 20111 401830044 53010 $",
    "icao": "KORD",
    "flightCategory": "VFR",
    "windDir": 50,
    "windSpeed": 3,
    "windGust": null,
    "visibility": 10,
    "ceiling": 12000,
    "temp": 11.7,
    "dewpoint": 0,
    "altimeter": 30.13,
    "conditions": "",
    "observationTime": "2026-05-11T06:00:00.000Z"
  }
}