{
  "SYD": {
    "raw": "METAR YSSY 201230Z AUTO 26011KT 9999 // NCD 14/07 Q1023",
    "icao": "YSSY",
    "flightCategory": "VFR",
    "windDir": 260,
    "windSpeed": 11,
    "windGust": null,
    "visibility": 6,
    "ceiling": null,
    "temp": 14,
    "dewpoint": 7,
    "altimeter": 30.21,
    "conditions": "",
    "observationTime": "2026-05-20T12:30:00.000Z"
  },
  "LAS": {
    "raw": "METAR KLAS 201256Z 30008KT 10SM CLR 18/M09 A3000 RMK AO2 SLP141 T01831094",
    "icao": "KLAS",
    "flightCategory": "VFR",
    "windDir": 300,
    "windSpeed": 8,
    "windGust": null,
    "visibility": 10,
    "ceiling": null,
    "temp": 18.3,
    "dewpoint": -9.4,
    "altimeter": 30,
    "conditions": "",
    "observationTime": "2026-05-20T13:00:00.000Z"
  },
  "LAX": {
    "raw": "METAR KLAX 201253Z 07004KT 10SM FEW050 17/09 A2991 RMK AO2 SLP125 FU FEW050 T01670094 $",
    "icao": "KLAX",
    "flightCategory": "VFR",
    "windDir": 70,
    "windSpeed": 4,
    "windGust": null,
    "visibility": 10,
    "ceiling": null,
    "temp": 16.7,
    "dewpoint": 9.4,
    "altimeter": 29.91,
    "conditions": "",
    "observationTime": "2026-05-20T13:00:00.000Z"
  },
  "ORD": {
    "raw": "METAR KORD 201251Z 01013KT 10SM FEW040 FEW130 BKN250 13/06 A3023 RMK AO2 SLP235 T01280056",
    "icao": "KORD",
    "flightCategory": "VFR",
    "windDir": 10,
    "windSpeed": 13,
    "windGust": null,
    "visibility": 10,
    "ceiling": 25000,
    "temp": 12.8,
    "dewpoint": 5.6,
    "altimeter": 30.23,
    "conditions": "",
    "observationTime": "2026-05-20T13:00:00.000Z"
  },
  "LHR": {
    "raw": "METAR EGLL 201220Z AUTO 25019G29KT 9999 NCD 20/08 Q1018",
    "icao": "EGLL",
    "flightCategory": "VFR",
    "windDir": 250,
    "windSpeed": 19,
    "windGust": 29,
    "visibility": 6,
    "ceiling": null,
    "temp": 20,
    "dewpoint": 8,
    "altimeter": 30.06,
    "conditions": "",
    "observationTime": "2026-05-20T12:20:00.000Z"
  }
}