{
  "LAX": {
    "raw": "METAR KLAX 311953Z 19004KT 10SM BKN030 BKN034 21/14 A2997 RMK AO2 SLP147 T02060144 $",
    "icao": "KLAX",
    "flightCategory": "MVFR",
    "windDir": 190,
    "windSpeed": 4,
    "windGust": null,
    "visibility": 10,
    "ceiling": 3000,
    "temp": 20.6,
    "dewpoint": 14.4,
    "altimeter": 29.97,
    "conditions": "",
    "observationTime": "2026-03-31T20:00:00.000Z"
  },
  "SYD": {
    "raw": "METAR YSSY 311930Z 30006KT CAVOK 18/15 Q1023",
    "icao": "YSSY",
    "flightCategory": "VFR",
    "windDir": 300,
    "windSpeed": 6,
    "windGust": null,
    "visibility": 6,
    "ceiling": null,
    "temp": 18,
    "dewpoint": 15,
    "altimeter": 30.21,
    "conditions": "",
    "observationTime": "2026-03-31T19:30:00.000Z"
  },
  "LAS": {
    "raw": "METAR KLAS 311956Z 24012G21KT 10SM FEW100 BKN130 OVC200 26/M01 A2989 RMK AO2 PK WND 19034/1928 SLP100 ACSL DSNT W-NW T02561006",
    "icao": "KLAS",
    "flightCategory": "VFR",
    "windDir": 240,
    "windSpeed": 12,
    "windGust": 21,
    "visibility": 10,
    "ceiling": 13000,
    "temp": 25.6,
    "dewpoint": -0.6,
    "altimeter": 29.89,
    "conditions": "",
    "observationTime": "2026-03-31T20:00:00.000Z"
  },
  "ORD": {
    "raw": "METAR KORD 311951Z 24012G19KT 10SM BKN037 BKN055 BKN080 OVC150 20/15 A2978 RMK AO2 SLP080 T02000150",
    "icao": "KORD",
    "flightCategory": "VFR",
    "windDir": 240,
    "windSpeed": 12,
    "windGust": 19,
    "visibility": 10,
    "ceiling": 3700,
    "temp": 20,
    "dewpoint": 15,
    "altimeter": 29.78,
    "conditions": "",
    "observationTime": "2026-03-31T20:00:00.000Z"
  },
  "LHR": {
    "raw": "METAR EGLL 311920Z COR AUTO 20005KT 160V240 9999 NCD 15/09 Q1029 NOSIG",
    "icao": "EGLL",
    "flightCategory": "VFR",
    "windDir": 200,
    "windSpeed": 5,
    "windGust": null,
    "visibility": 6,
    "ceiling": null,
    "temp": 15,
    "dewpoint": 9,
    "altimeter": 30.39,
    "conditions": "",
    "observationTime": "2026-03-31T19:20:00.000Z"
  }
}