{
  "SYD": {
    "raw": "METAR YSSY 010330Z 05014KT 9999 FEW045 26/15 Q1022",
    "icao": "YSSY",
    "flightCategory": "VFR",
    "windDir": 50,
    "windSpeed": 14,
    "windGust": null,
    "visibility": 6,
    "ceiling": null,
    "temp": 26,
    "dewpoint": 15,
    "altimeter": 30.18,
    "conditions": "",
    "observationTime": "2026-04-01T03:30:00.000Z"
  },
  "LAS": {
    "raw": "METAR KLAS 010356Z 21013G21KT 10SM FEW100 BKN120 OVC200 19/06 A2984 RMK AO2 PK WND 25028/0318 SLP085 T01940056",
    "icao": "KLAS",
    "flightCategory": "VFR",
    "windDir": 210,
    "windSpeed": 13,
    "windGust": 21,
    "visibility": 10,
    "ceiling": 12000,
    "temp": 19.4,
    "dewpoint": 5.6,
    "altimeter": 29.84,
    "conditions": "",
    "observationTime": "2026-04-01T04:00:00.000Z"
  },
  "LAX": {
    "raw": "METAR KLAX 010353Z 10009KT 10SM -RA OVC095 17/14 A2991 RMK AO2 RAB26 SLP127 P0000 T01720144 $",
    "icao": "KLAX",
    "flightCategory": "VFR",
    "windDir": 100,
    "windSpeed": 9,
    "windGust": null,
    "visibility": 10,
    "ceiling": 9500,
    "temp": 17.2,
    "dewpoint": 14.4,
    "altimeter": 29.91,
    "conditions": "-RA",
    "observationTime": "2026-04-01T04:00:00.000Z"
  },
  "ORD": {
    "raw": "METAR KORD 010351Z 03013KT 10SM OVC009 05/03 A3004 RMK AO2 SLP174 T00500028 $",
    "icao": "KORD",
    "flightCategory": "IFR",
    "windDir": 30,
    "windSpeed": 13,
    "windGust": null,
    "visibility": 10,
    "ceiling": 900,
    "temp": 5,
    "dewpoint": 2.8,
    "altimeter": 30.04,
    "conditions": "",
    "observationTime": "2026-04-01T04:00:00.000Z"
  },
  "LHR": {
    "raw": "METAR EGLL 010350Z COR AUTO 28005KT 9999 FEW035 BKN043 07/06 Q1027 NOSIG",
    "icao": "EGLL",
    "flightCategory": "VFR",
    "windDir": 280,
    "windSpeed": 5,
    "windGust": null,
    "visibility": 6,
    "ceiling": 4300,
    "temp": 7,
    "dewpoint": 6,
    "altimeter": 30.33,
    "conditions": "",
    "observationTime": "2026-04-01T04:00:00.000Z"
  }
}