{
  "SYD": {
    "raw": "METAR YSSY 101630Z AUTO 20011KT 9999 // FEW063 17/14 Q1030",
    "icao": "YSSY",
    "flightCategory": "VFR",
    "windDir": 200,
    "windSpeed": 11,
    "windGust": null,
    "visibility": 6,
    "ceiling": null,
    "temp": 17,
    "dewpoint": 14,
    "altimeter": 30.42,
    "conditions": "",
    "observationTime": "2026-05-10T16:30:00.000Z"
  },
  "LAX": {
    "raw": "SPECI KLAX 101638Z VRB03KT 7SM SCT014 18/13 A2993 RMK AO2 T01830133",
    "icao": "KLAX",
    "flightCategory": "VFR",
    "windDir": null,
    "windSpeed": 3,
    "windGust": null,
    "visibility": 7,
    "ceiling": null,
    "temp": 18.3,
    "dewpoint": 13.3,
    "altimeter": 29.93,
    "conditions": "",
    "observationTime": "2026-05-10T16:38:00.000Z"
  },
  "ORD": {
    "raw": "METAR KORD 101651Z 34008KT 10SM SCT075 SCT250 16/M04 A3010 RMK AO2 SLP193 T01561039 $",
    "icao": "KORD",
    "flightCategory": "VFR",
    "windDir": 340,
    "windSpeed": 8,
    "windGust": null,
    "visibility": 10,
    "ceiling": null,
    "temp": 15.6,
    "dewpoint": -3.9,
    "altimeter": 30.1,
    "conditions": "",
    "observationTime": "2026-05-10T17:00:00.000Z"
  },
  "LHR": {
    "raw": "METAR EGLL 101620Z COR AUTO 05009KT 010V070 9999 OVC040 13/03 Q1015 NOSIG",
    "icao": "EGLL",
    "flightCategory": "VFR",
    "windDir": 50,
    "windSpeed": 9,
    "windGust": null,
    "visibility": 6,
    "ceiling": 4000,
    "temp": 13,
    "dewpoint": 3,
    "altimeter": 29.97,
    "conditions": "",
    "observationTime": "2026-05-10T16:20:00.000Z"
  }
}