{
  "LAS": {
    "raw": "METAR KLAS 071756Z 01003KT 10SM FEW250 26/M08 A2999 RMK AO2 SLP135 T02561083 10256 20167 50002",
    "icao": "KLAS",
    "flightCategory": "VFR",
    "windDir": 10,
    "windSpeed": 3,
    "windGust": null,
    "visibility": 10,
    "ceiling": null,
    "temp": 25.6,
    "dewpoint": -8.3,
    "altimeter": 29.99,
    "conditions": "",
    "observationTime": "2026-04-07T18:00:00.000Z"
  },
  "LAX": {
    "raw": "METAR KLAX 071753Z 26006KT 8SM FEW018 FEW140 19/14 A3001 RMK AO2 SLP161 T01940139 10200 20150 50001 $",
    "icao": "KLAX",
    "flightCategory": "VFR",
    "windDir": 260,
    "windSpeed": 6,
    "windGust": null,
    "visibility": 8,
    "ceiling": null,
    "temp": 19.4,
    "dewpoint": 13.9,
    "altimeter": 30.01,
    "conditions": "",
    "observationTime": "2026-04-07T18:00:00.000Z"
  },
  "ORD": {
    "raw": "METAR KORD 071751Z 07010KT 10SM FEW040 FEW250 02/M09 A3051 RMK AO2 SLP337 T00221089 10022 21022 58009 $",
    "icao": "KORD",
    "flightCategory": "VFR",
    "windDir": 70,
    "windSpeed": 10,
    "windGust": null,
    "visibility": 10,
    "ceiling": null,
    "temp": 2.2,
    "dewpoint": -8.9,
    "altimeter": 30.51,
    "conditions": "",
    "observationTime": "2026-04-07T18:00:00.000Z"
  },
  "LHR": {
    "raw": "METAR EGLL 071720Z COR AUTO 09012KT 9999 NCD 17/06 Q1021 NOSIG",
    "icao": "EGLL",
    "flightCategory": "VFR",
    "windDir": 90,
    "windSpeed": 12,
    "windGust": null,
    "visibility": 6,
    "ceiling": null,
    "temp": 17,
    "dewpoint": 6,
    "altimeter": 30.15,
    "conditions": "",
    "observationTime": "2026-04-07T17:20:00.000Z"
  },
  "SYD": {
    "raw": "METAR YSSY 071730Z AUTO 32005KT 9999 // NCD 19/16 Q1012",
    "icao": "YSSY",
    "flightCategory": "VFR",
    "windDir": 320,
    "windSpeed": 5,
    "windGust": null,
    "visibility": 6,
    "ceiling": null,
    "temp": 19,
    "dewpoint": 16,
    "altimeter": 29.88,
    "conditions": "",
    "observationTime": "2026-04-07T17:30:00.000Z"
  }
}