{
  "SYD": {
    "raw": "METAR YSSY 170900Z AUTO 17022KT 9999 // SCT019 BKN026 BKN032 19/16 Q1013",
    "icao": "YSSY",
    "flightCategory": "MVFR",
    "windDir": 170,
    "windSpeed": 22,
    "windGust": null,
    "visibility": 6,
    "ceiling": 2600,
    "temp": 19,
    "dewpoint": 16,
    "altimeter": 29.91,
    "conditions": "",
    "observationTime": "2026-04-17T09:00:00.000Z"
  },
  "LHR": {
    "raw": "METAR EGLL 170850Z COR AUTO 21012KT 180V250 9999 NCD 13/09 Q1020 NOSIG",
    "icao": "EGLL",
    "flightCategory": "VFR",
    "windDir": 210,
    "windSpeed": 12,
    "windGust": null,
    "visibility": 6,
    "ceiling": null,
    "temp": 13,
    "dewpoint": 9,
    "altimeter": 30.12,
    "conditions": "",
    "observationTime": "2026-04-17T09:00:00.000Z"
  },
  "ORD": {
    "raw": "METAR KORD 170851Z 13003KT 1/2SM R10L/P6000FT FG BKN002 09/09 A2991 RMK AO2 SLP129 T00940089 58009 $",
    "icao": "KORD",
    "flightCategory": "LIFR",
    "windDir": 130,
    "windSpeed": 3,
    "windGust": null,
    "visibility": 0.5,
    "ceiling": 200,
    "temp": 9.4,
    "dewpoint": 8.9,
    "altimeter": 29.91,
    "conditions": "FG",
    "observationTime": "2026-04-17T09:00:00.000Z"
  },
  "LAS": {
    "raw": "METAR KLAS 170856Z 34031G41KT 10SM FEW250 14/M15 A2994 RMK AO2 SLP123 OCNL VCBLDU W T01441150 51047 $",
    "icao": "KLAS",
    "flightCategory": "VFR",
    "windDir": 340,
    "windSpeed": 31,
    "windGust": 41,
    "visibility": 10,
    "ceiling": null,
    "temp": 14.4,
    "dewpoint": -15,
    "altimeter": 29.94,
    "conditions": "",
    "observationTime": "2026-04-17T09:00:00.000Z"
  },
  "LAX": {
    "raw": "METAR KLAX 170853Z 00000KT 10SM FEW014 FEW250 16/13 A2992 RMK AO2 SLP129 T01560128 50005",
    "icao": "KLAX",
    "flightCategory": "VFR",
    "windDir": 0,
    "windSpeed": 0,
    "windGust": null,
    "visibility": 10,
    "ceiling": null,
    "temp": 15.6,
    "dewpoint": 12.8,
    "altimeter": 29.92,
    "conditions": "",
    "observationTime": "2026-04-17T09:00:00.000Z"
  }
}