{
  "SYD": {
    "raw": "METAR YSSY 282030Z 27010KT 9999 FEW035 15/10 Q1020",
    "icao": "YSSY",
    "flightCategory": "VFR",
    "windDir": 270,
    "windSpeed": 10,
    "windGust": null,
    "visibility": 6,
    "ceiling": null,
    "temp": 15,
    "dewpoint": 10,
    "altimeter": 30.12,
    "conditions": "",
    "observationTime": "2026-03-28T20:30:00.000Z"
  },
  "LAS": {
    "raw": "METAR KLAS 282056Z 22015G23KT 10SM FEW200 FEW250 32/M14 A2994 RMK AO2 SLP113 T03221139 58017",
    "icao": "KLAS",
    "flightCategory": "VFR",
    "windDir": 220,
    "windSpeed": 15,
    "windGust": 23,
    "visibility": 10,
    "ceiling": null,
    "temp": 32.2,
    "dewpoint": -13.9,
    "altimeter": 29.94,
    "conditions": "",
    "observationTime": "2026-03-28T21:00:00.000Z"
  },
  "LAX": {
    "raw": "METAR KLAX 282053Z 25010KT 9SM FEW007 FEW230 SCT270 BKN300 19/14 A2997 RMK AO2 SLP149 T01890139 58015",
    "icao": "KLAX",
    "flightCategory": "VFR",
    "windDir": 250,
    "windSpeed": 10,
    "windGust": null,
    "visibility": 9,
    "ceiling": 30000,
    "temp": 18.9,
    "dewpoint": 13.9,
    "altimeter": 29.97,
    "conditions": "",
    "observationTime": "2026-03-28T21:00:00.000Z"
  },
  "ORD": {
    "raw": "METAR KORD 282051Z 21012KT 10SM FEW120 FEW170 SCT250 08/M07 A3043 RMK AO2 SLP311 T00831072 58046",
    "icao": "KORD",
    "flightCategory": "VFR",
    "windDir": 210,
    "windSpeed": 12,
    "windGust": null,
    "visibility": 10,
    "ceiling": null,
    "temp": 8.3,
    "dewpoint": -7.2,
    "altimeter": 30.43,
    "conditions": "",
    "observationTime": "2026-03-28T21:00:00.000Z"
  },
  "LHR": {
    "raw": "METAR EGLL 282020Z COR AUTO 31010KT 280V340 9999 NCD 07/M02 Q1030 NOSIG",
    "icao": "EGLL",
    "flightCategory": "VFR",
    "windDir": 310,
    "windSpeed": 10,
    "windGust": null,
    "visibility": 6,
    "ceiling": null,
    "temp": 7,
    "dewpoint": -2,
    "altimeter": 30.42,
    "conditions": "",
    "observationTime": "2026-03-28T20:20:00.000Z"
  }
}