{
  "SYD": {
    "raw": "METAR YSSY 090730Z AUTO 04013KT 9999 // NCD 25/19 Q1013",
    "icao": "YSSY",
    "flightCategory": "VFR",
    "windDir": 40,
    "windSpeed": 13,
    "windGust": null,
    "visibility": 6,
    "ceiling": null,
    "temp": 25,
    "dewpoint": 19,
    "altimeter": 29.91,
    "conditions": "",
    "observationTime": "2026-04-09T07:30:00.000Z"
  },
  "LAS": {
    "raw": "METAR KLAS 090756Z 21010KT 10SM SCT250 24/M06 A2983 RMK AO2 SLP078 T02391056 403280189",
    "icao": "KLAS",
    "flightCategory": "VFR",
    "windDir": 210,
    "windSpeed": 10,
    "windGust": null,
    "visibility": 10,
    "ceiling": null,
    "temp": 23.9,
    "dewpoint": -5.6,
    "altimeter": 29.83,
    "conditions": "",
    "observationTime": "2026-04-09T08:00:00.000Z"
  },
  "LAX": {
    "raw": "METAR KLAX 090753Z VRB04KT 10SM FEW011 SCT250 18/15 A2993 RMK AO2 SLP134 T01780150 402170144 $",
    "icao": "KLAX",
    "flightCategory": "VFR",
    "windDir": null,
    "windSpeed": 4,
    "windGust": null,
    "visibility": 10,
    "ceiling": null,
    "temp": 17.8,
    "dewpoint": 15,
    "altimeter": 29.93,
    "conditions": "",
    "observationTime": "2026-04-09T08:00:00.000Z"
  },
  "ORD": {
    "raw": "METAR KORD 090751Z 20015G24KT 10SM OVC090 16/06 A2997 RMK AO2 PK WND 20026/0737 SLP148 T01610056 $",
    "icao": "KORD",
    "flightCategory": "VFR",
    "windDir": 200,
    "windSpeed": 15,
    "windGust": 24,
    "visibility": 10,
    "ceiling": 9000,
    "temp": 16.1,
    "dewpoint": 5.6,
    "altimeter": 29.97,
    "conditions": "",
    "observationTime": "2026-04-09T08:00:00.000Z"
  },
  "LHR": {
    "raw": "METAR EGLL 090720Z COR AUTO 24006KT 9999 NCD 14/10 Q1018 NOSIG",
    "icao": "EGLL",
    "flightCategory": "VFR",
    "windDir": 240,
    "windSpeed": 6,
    "windGust": null,
    "visibility": 6,
    "ceiling": null,
    "temp": 14,
    "dewpoint": 10,
    "altimeter": 30.06,
    "conditions": "",
    "observationTime": "2026-04-09T07:20:00.000Z"
  }
}