{
  "ORD": {
    "raw": "METAR KORD 221651Z 04012KT 10SM FEW033 SCT250 21/13 A3001 RMK AO2 SLP158 T02110128",
    "icao": "KORD",
    "flightCategory": "VFR",
    "windDir": 40,
    "windSpeed": 12,
    "windGust": null,
    "visibility": 10,
    "ceiling": null,
    "temp": 21.1,
    "dewpoint": 12.8,
    "altimeter": 30.01,
    "conditions": "",
    "observationTime": "2026-06-22T17:00:00.000Z"
  },
  "LHR": {
    "raw": "METAR EGLL 221620Z AUTO 11014KT 9999 NCD 27/17 Q1024",
    "icao": "EGLL",
    "flightCategory": "VFR",
    "windDir": 110,
    "windSpeed": 14,
    "windGust": null,
    "visibility": 6,
    "ceiling": null,
    "temp": 27,
    "dewpoint": 17,
    "altimeter": 30.24,
    "conditions": "",
    "observationTime": "2026-06-22T16:20:00.000Z"
  },
  "SYD": {
    "raw": "METAR YSSY 221600Z AUTO 27012KT 9999 // NCD 10/06 Q1025",
    "icao": "YSSY",
    "flightCategory": "VFR",
    "windDir": 270,
    "windSpeed": 12,
    "windGust": null,
    "visibility": 6,
    "ceiling": null,
    "temp": 10,
    "dewpoint": 6,
    "altimeter": 30.27,
    "conditions": "",
    "observationTime": "2026-06-22T16:00:00.000Z"
  },
  "LAS": {
    "raw": "METAR KLAS 221556Z 35003KT 10SM CLR 31/M06 A2992 RMK AO2 SLP099 T03061056",
    "icao": "KLAS",
    "flightCategory": "VFR",
    "windDir": 350,
    "windSpeed": 3,
    "windGust": null,
    "visibility": 10,
    "ceiling": null,
    "temp": 30.6,
    "dewpoint": -5.6,
    "altimeter": 29.92,
    "conditions": "",
    "observationTime": "2026-06-22T16:00:00.000Z"
  }
}