{
  "SYD": {
    "raw": "METAR YSSY 121430Z AUTO 26014KT 9999 // NCD 14/04 Q1014",
    "icao": "YSSY",
    "flightCategory": "VFR",
    "windDir": 260,
    "windSpeed": 14,
    "windGust": null,
    "visibility": 6,
    "ceiling": null,
    "temp": 14,
    "dewpoint": 4,
    "altimeter": 29.94,
    "conditions": "",
    "observationTime": "2026-04-12T14:30:00.000Z"
  },
  "LAS": {
    "raw": "METAR KLAS 121456Z 23014G26KT 10SM FEW200 17/M02 A2986 RMK AO2 PK WND 24029/1422 SLP096 T01671017 53028",
    "icao": "KLAS",
    "flightCategory": "VFR",
    "windDir": 230,
    "windSpeed": 14,
    "windGust": 26,
    "visibility": 10,
    "ceiling": null,
    "temp": 16.7,
    "dewpoint": -1.7,
    "altimeter": 29.86,
    "conditions": "",
    "observationTime": "2026-04-12T15:00:00.000Z"
  },
  "LAX": {
    "raw": "SPECI KLAX 121438Z 21007KT 3SM -RA BR FEW010 BKN024 OVC031 15/13 A2996 RMK AO2 WSHFT 1354 VIS NE-E 1 1/2 P0010 T01500133 $",
    "icao": "KLAX",
    "flightCategory": "MVFR",
    "windDir": 210,
    "windSpeed": 7,
    "windGust": null,
    "visibility": 3,
    "ceiling": 2400,
    "temp": 15,
    "dewpoint": 13.3,
    "altimeter": 29.96,
    "conditions": "-RA BR",
    "observationTime": "2026-04-12T14:38:00.000Z"
  },
  "ORD": {
    "raw": "METAR KORD 121451Z 20015G30KT 10SM SCT120 BKN250 21/13 A2995 RMK AO2 PK WND 19031/1418 SLP143 T02060128 58014 $",
    "icao": "KORD",
    "flightCategory": "VFR",
    "windDir": 200,
    "windSpeed": 15,
    "windGust": 30,
    "visibility": 10,
    "ceiling": 25000,
    "temp": 20.6,
    "dewpoint": 12.8,
    "altimeter": 29.95,
    "conditions": "",
    "observationTime": "2026-04-12T15:00:00.000Z"
  },
  "LHR": {
    "raw": "METAR EGLL 121420Z AUTO 25020KT 9999 -RA FEW036/// BKN049/// //////CB 11/04 Q1010 TEMPO SHRA",
    "icao": "EGLL",
    "flightCategory": "VFR",
    "windDir": 250,
    "windSpeed": 20,
    "windGust": null,
    "visibility": 6,
    "ceiling": 4900,
    "temp": 11,
    "dewpoint": 4,
    "altimeter": 29.83,
    "conditions": "-RA",
    "observationTime": "2026-04-12T14:20:00.000Z"
  }
}