{
  "ORD": {
    "raw": "SPECI KORD 081024Z 12005KT 4SM -TSRA BR BKN030CB BKN045 OVC060 21/19 A2997 RMK AO2 RAB13 FRQ LTGICCG OHD TS OHD MOV N P0005 T02060189 $",
    "icao": "KORD",
    "flightCategory": "MVFR",
    "windDir": 120,
    "windSpeed": 5,
    "windGust": null,
    "visibility": 4,
    "ceiling": 3000,
    "temp": 20.6,
    "dewpoint": 18.9,
    "altimeter": 29.97,
    "conditions": "-TSRA BR",
    "observationTime": "2026-06-08T10:24:00.000Z"
  },
  "LHR": {
    "raw": "METAR EGLL 081020Z AUTO 21008KT 160V250 9999 //////TCU 14/12 Q1012",
    "icao": "EGLL",
    "flightCategory": "UNKNOWN",
    "windDir": 210,
    "windSpeed": 8,
    "windGust": null,
    "visibility": 6,
    "ceiling": null,
    "temp": 14,
    "dewpoint": 12,
    "altimeter": 29.88,
    "conditions": "",
    "observationTime": "2026-06-08T10:20:00.000Z"
  },
  "SYD": {
    "raw": "METAR YSSY 081000Z AUTO 31004KT 9999 // OVC049 17/13 Q1032",
    "icao": "YSSY",
    "flightCategory": "VFR",
    "windDir": 310,
    "windSpeed": 4,
    "windGust": null,
    "visibility": 6,
    "ceiling": 4900,
    "temp": 17,
    "dewpoint": 13,
    "altimeter": 30.47,
    "conditions": "",
    "observationTime": "2026-06-08T10:00:00.000Z"
  },
  "LAS": {
    "raw": "METAR KLAS 080956Z 18007KT 10SM CLR 26/01 A2973 RMK AO2 SLP039 T02610006 $",
    "icao": "KLAS",
    "flightCategory": "VFR",
    "windDir": 180,
    "windSpeed": 7,
    "windGust": null,
    "visibility": 10,
    "ceiling": null,
    "temp": 26.1,
    "dewpoint": 0.6,
    "altimeter": 29.73,
    "conditions": "",
    "observationTime": "2026-06-08T10:00:00.000Z"
  }
}