{
  "SYD": {
    "raw": "METAR YSSY 250230Z 02007KT 9999 BKN035 23/14 Q1029",
    "icao": "YSSY",
    "flightCategory": "VFR",
    "windDir": 20,
    "windSpeed": 7,
    "windGust": null,
    "visibility": 6,
    "ceiling": 3500,
    "temp": 23,
    "dewpoint": 14,
    "altimeter": 30.39,
    "conditions": "",
    "observationTime": "2026-04-25T02:30:00.000Z"
  },
  "LAS": {
    "raw": "METAR KLAS 250256Z 22009KT 10SM FEW140 SCT170 SCT200 25/M12 A2968 RMK AO2 SLP032 T02501122 55004",
    "icao": "KLAS",
    "flightCategory": "VFR",
    "windDir": 220,
    "windSpeed": 9,
    "windGust": null,
    "visibility": 10,
    "ceiling": null,
    "temp": 25,
    "dewpoint": -12.2,
    "altimeter": 29.68,
    "conditions": "",
    "observationTime": "2026-04-25T03:00:00.000Z"
  },
  "LAX": {
    "raw": "METAR KLAX 250253Z 25007KT 10SM FEW012 SCT075 SCT280 17/12 A2986 RMK AO2 SLP111 T01670122 53002 $",
    "icao": "KLAX",
    "flightCategory": "VFR",
    "windDir": 250,
    "windSpeed": 7,
    "windGust": null,
    "visibility": 10,
    "ceiling": null,
    "temp": 16.7,
    "dewpoint": 12.2,
    "altimeter": 29.86,
    "conditions": "",
    "observationTime": "2026-04-25T03:00:00.000Z"
  },
  "ORD": {
    "raw": "METAR KORD 250251Z 01007KT 10SM FEW045 BKN250 16/10 A2982 RMK AO2 SLP095 T01560100 53024",
    "icao": "KORD",
    "flightCategory": "VFR",
    "windDir": 10,
    "windSpeed": 7,
    "windGust": null,
    "visibility": 10,
    "ceiling": 25000,
    "temp": 15.6,
    "dewpoint": 10,
    "altimeter": 29.82,
    "conditions": "",
    "observationTime": "2026-04-25T03:00:00.000Z"
  },
  "LHR": {
    "raw": "METAR EGLL 250220Z COR AUTO 02002KT 9999 NCD 05/02 Q1022 NOSIG",
    "icao": "EGLL",
    "flightCategory": "VFR",
    "windDir": 20,
    "windSpeed": 2,
    "windGust": null,
    "visibility": 6,
    "ceiling": null,
    "temp": 5,
    "dewpoint": 2,
    "altimeter": 30.18,
    "conditions": "",
    "observationTime": "2026-04-25T02:20:00.000Z"
  }
}