{
  "SYD": {
    "raw": "METAR YSSY 182030Z 23009KT 9999 FEW035 SCT038 BKN050 15/12 Q1032",
    "icao": "YSSY",
    "flightCategory": "VFR",
    "windDir": 230,
    "windSpeed": 9,
    "windGust": null,
    "visibility": 6,
    "ceiling": 5000,
    "temp": 15,
    "dewpoint": 12,
    "altimeter": 30.47,
    "conditions": "",
    "observationTime": "2026-07-18T20:30:00.000Z"
  },
  "LAS": {
    "raw": "METAR KLAS 182056Z COR 36007KT 10SM FEW080 FEW150 SCT200 38/16 A2994 RMK AO2 TCU DSNT N AND W SLP109 T03780156 58026 $",
    "icao": "KLAS",
    "flightCategory": "VFR",
    "windDir": 360,
    "windSpeed": 7,
    "windGust": null,
    "visibility": 10,
    "ceiling": null,
    "temp": 37.8,
    "dewpoint": 15.6,
    "altimeter": 29.94,
    "conditions": "",
    "observationTime": "2026-07-18T21:00:00.000Z"
  },
  "LAX": {
    "raw": "METAR KLAX 182053Z 26012KT 10SM FEW120 FEW180 SCT220 26/18 A2997 RMK AO2 SLP147 ACSL DSNT NE T02560178 56010 $",
    "icao": "KLAX",
    "flightCategory": "VFR",
    "windDir": 260,
    "windSpeed": 12,
    "windGust": null,
    "visibility": 10,
    "ceiling": null,
    "temp": 25.6,
    "dewpoint": 17.8,
    "altimeter": 29.97,
    "conditions": "",
    "observationTime": "2026-07-18T21:00:00.000Z"
  },
  "ORD": {
    "raw": "METAR KORD 182051Z 36012G20KT 10SM FEW042 SCT060 SCT250 33/17 A2984 RMK AO2 SLP099 T03280172 58007 $",
    "icao": "KORD",
    "flightCategory": "VFR",
    "windDir": 360,
    "windSpeed": 12,
    "windGust": 20,
    "visibility": 10,
    "ceiling": null,
    "temp": 32.8,
    "dewpoint": 17.2,
    "altimeter": 29.84,
    "conditions": "",
    "observationTime": "2026-07-18T21:00:00.000Z"
  },
  "LHR": {
    "raw": "METAR EGLL 182020Z AUTO 05006KT 020V080 9999 NCD 19/10 Q1021",
    "icao": "EGLL",
    "flightCategory": "VFR",
    "windDir": 50,
    "windSpeed": 6,
    "windGust": null,
    "visibility": 6,
    "ceiling": null,
    "temp": 19,
    "dewpoint": 10,
    "altimeter": 30.15,
    "conditions": "",
    "observationTime": "2026-07-18T20:20:00.000Z"
  }
}