{
  "LAS": {
    "raw": "METAR KLAS 180756Z 18003KT 10SM CLR 13/M16 A3009 RMK AO2 SLP180 T01281161 402060100",
    "icao": "KLAS",
    "flightCategory": "VFR",
    "windDir": 180,
    "windSpeed": 3,
    "windGust": null,
    "visibility": 10,
    "ceiling": null,
    "temp": 12.8,
    "dewpoint": -16.1,
    "altimeter": 30.09,
    "conditions": "",
    "observationTime": "2026-04-18T08:00:00.000Z"
  },
  "LAX": {
    "raw": "METAR KLAX 180753Z 08006KT 10SM CLR 16/11 A2997 RMK AO2 SLP146 T01610111 402280133",
    "icao": "KLAX",
    "flightCategory": "VFR",
    "windDir": 80,
    "windSpeed": 6,
    "windGust": null,
    "visibility": 10,
    "ceiling": null,
    "temp": 16.1,
    "dewpoint": 11.1,
    "altimeter": 29.97,
    "conditions": "",
    "observationTime": "2026-04-18T08:00:00.000Z"
  },
  "ORD": {
    "raw": "SPECI KORD 180722Z 22009KT 10SM BKN016 BKN095 OVC120 16/15 A2959 RMK AO2 RAE13 P0003 T01610150 $",
    "icao": "KORD",
    "flightCategory": "MVFR",
    "windDir": 220,
    "windSpeed": 9,
    "windGust": null,
    "visibility": 10,
    "ceiling": 1600,
    "temp": 16.1,
    "dewpoint": 15,
    "altimeter": 29.59,
    "conditions": "",
    "observationTime": "2026-04-18T07:22:00.000Z"
  },
  "LHR": {
    "raw": "METAR EGLL 180720Z COR AUTO 27010KT 9999 NCD 10/07 Q1022 NOSIG",
    "icao": "EGLL",
    "flightCategory": "VFR",
    "windDir": 270,
    "windSpeed": 10,
    "windGust": null,
    "visibility": 6,
    "ceiling": null,
    "temp": 10,
    "dewpoint": 7,
    "altimeter": 30.18,
    "conditions": "",
    "observationTime": "2026-04-18T07:20:00.000Z"
  },
  "SYD": {
    "raw": "METAR YSSY 180730Z AUTO 16014KT 9999 // NCD 18/07 Q1018",
    "icao": "YSSY",
    "flightCategory": "VFR",
    "windDir": 160,
    "windSpeed": 14,
    "windGust": null,
    "visibility": 6,
    "ceiling": null,
    "temp": 18,
    "dewpoint": 7,
    "altimeter": 30.06,
    "conditions": "",
    "observationTime": "2026-04-18T07:30:00.000Z"
  }
}