{
  "LAX": {
    "raw": "METAR KLAX 241553Z 00000KT 7SM FEW008 OVC014 19/15 A3002 RMK AO2 SLP164 T01890150 $",
    "icao": "KLAX",
    "flightCategory": "MVFR",
    "windDir": 0,
    "windSpeed": 0,
    "windGust": null,
    "visibility": 7,
    "ceiling": 1400,
    "temp": 18.9,
    "dewpoint": 15,
    "altimeter": 30.02,
    "conditions": "",
    "observationTime": "2026-06-24T16:00:00.000Z"
  },
  "SYD": {
    "raw": "METAR YSSY 241530Z AUTO 17017KT 9999 // FEW034 SCT054 OVC066 17/11 Q1031",
    "icao": "YSSY",
    "flightCategory": "VFR",
    "windDir": 170,
    "windSpeed": 17,
    "windGust": null,
    "visibility": 6,
    "ceiling": 6600,
    "temp": 17,
    "dewpoint": 11,
    "altimeter": 30.45,
    "conditions": "",
    "observationTime": "2026-06-24T15:30:00.000Z"
  },
  "LAS": {
    "raw": "METAR KLAS 241556Z 28006G16KT 10SM -RA SCT070 OVC110 29/16 A3005 RMK AO2 RAB46 SLP143 P0000 T02890161",
    "icao": "KLAS",
    "flightCategory": "VFR",
    "windDir": 280,
    "windSpeed": 6,
    "windGust": 16,
    "visibility": 10,
    "ceiling": 11000,
    "temp": 28.9,
    "dewpoint": 16.1,
    "altimeter": 30.05,
    "conditions": "-RA",
    "observationTime": "2026-06-24T16:00:00.000Z"
  },
  "ORD": {
    "raw": "METAR KORD 241551Z 25006KT 10SM FEW047 BKN065 OVC085 22/14 A3005 RMK AO2 RAB43E50 SLP173 VCSH N P0000 T02170144 $",
    "icao": "KORD",
    "flightCategory": "VFR",
    "windDir": 250,
    "windSpeed": 6,
    "windGust": null,
    "visibility": 10,
    "ceiling": 6500,
    "temp": 21.7,
    "dewpoint": 14.4,
    "altimeter": 30.05,
    "conditions": "",
    "observationTime": "2026-06-24T16:00:00.000Z"
  },
  "LHR": {
    "raw": "METAR EGLL 241520Z AUTO 02007KT 320V060 9999 NCD 35/21 Q1017",
    "icao": "EGLL",
    "flightCategory": "VFR",
    "windDir": 20,
    "windSpeed": 7,
    "windGust": null,
    "visibility": 6,
    "ceiling": null,
    "temp": 35,
    "dewpoint": 21,
    "altimeter": 30.03,
    "conditions": "",
    "observationTime": "2026-06-24T15:20:00.000Z"
  }
}