{
  "SYD": {
    "raw": "METAR YSSY 020630Z AUTO 34020G30KT 9999 // NCD 16/09 Q0999",
    "icao": "YSSY",
    "flightCategory": "VFR",
    "windDir": 340,
    "windSpeed": 20,
    "windGust": 30,
    "visibility": 6,
    "ceiling": null,
    "temp": 16,
    "dewpoint": 9,
    "altimeter": 29.5,
    "conditions": "",
    "observationTime": "2026-06-02T06:30:00.000Z"
  },
  "LAS": {
    "raw": "METAR KLAS 020656Z 19005KT 10SM CLR 30/M03 A2988 RMK AO2 SLP089 T03001033",
    "icao": "KLAS",
    "flightCategory": "VFR",
    "windDir": 190,
    "windSpeed": 5,
    "windGust": null,
    "visibility": 10,
    "ceiling": null,
    "temp": 30,
    "dewpoint": -3.3,
    "altimeter": 29.88,
    "conditions": "",
    "observationTime": "2026-06-02T07:00:00.000Z"
  },
  "LAX": {
    "raw": "SPECI KLAX 020623Z 25004KT 9SM BKN011 16/14 A3001 RMK AO2 T01610139 $",
    "icao": "KLAX",
    "flightCategory": "MVFR",
    "windDir": 250,
    "windSpeed": 4,
    "windGust": null,
    "visibility": 9,
    "ceiling": 1100,
    "temp": 16.1,
    "dewpoint": 13.9,
    "altimeter": 30.01,
    "conditions": "",
    "observationTime": "2026-06-02T06:23:00.000Z"
  },
  "ORD": {
    "raw": "METAR KORD 020651Z 02006KT 10SM CLR 13/06 A3020 RMK AO2 SLP224 T01280056 $",
    "icao": "KORD",
    "flightCategory": "VFR",
    "windDir": 20,
    "windSpeed": 6,
    "windGust": null,
    "visibility": 10,
    "ceiling": null,
    "temp": 12.8,
    "dewpoint": 5.6,
    "altimeter": 30.2,
    "conditions": "",
    "observationTime": "2026-06-02T07:00:00.000Z"
  },
  "LHR": {
    "raw": "METAR EGLL 020620Z AUTO VRB08KT 9999 FEW037/// //////TCU 15/14 Q1003",
    "icao": "EGLL",
    "flightCategory": "VFR",
    "windDir": null,
    "windSpeed": 8,
    "windGust": null,
    "visibility": 6,
    "ceiling": null,
    "temp": 15,
    "dewpoint": 14,
    "altimeter": 29.62,
    "conditions": "",
    "observationTime": "2026-06-02T06:20:00.000Z"
  }
}