{
  "LHR": {
    "raw": "METAR EGLL 210350Z COR AUTO 04004KT 020V080 9999 NCD 06/03 Q1025 NOSIG",
    "icao": "EGLL",
    "flightCategory": "VFR",
    "windDir": 40,
    "windSpeed": 4,
    "windGust": null,
    "visibility": 6,
    "ceiling": null,
    "temp": 6,
    "dewpoint": 3,
    "altimeter": 30.27,
    "conditions": "",
    "observationTime": "2026-04-21T04:00:00.000Z"
  },
  "SYD": {
    "raw": "METAR YSSY 210400Z 20014KT 9999 -SHRA BKN028 18/15 Q1026",
    "icao": "YSSY",
    "flightCategory": "MVFR",
    "windDir": 200,
    "windSpeed": 14,
    "windGust": null,
    "visibility": 6,
    "ceiling": 2800,
    "temp": 18,
    "dewpoint": 15,
    "altimeter": 30.3,
    "conditions": "-SHRA",
    "observationTime": "2026-04-21T04:00:00.000Z"
  },
  "LAS": {
    "raw": "METAR KLAS 210356Z 17005KT 10SM BKN250 27/M06 A2987 RMK AO2 SLP093 T02671061",
    "icao": "KLAS",
    "flightCategory": "VFR",
    "windDir": 170,
    "windSpeed": 5,
    "windGust": null,
    "visibility": 10,
    "ceiling": 25000,
    "temp": 26.7,
    "dewpoint": -6.1,
    "altimeter": 29.87,
    "conditions": "",
    "observationTime": "2026-04-21T04:00:00.000Z"
  },
  "LAX": {
    "raw": "METAR KLAX 210353Z 26011KT 10SM FEW015 FEW250 16/12 A3000 RMK AO2 SLP157 T01610122 $",
    "icao": "KLAX",
    "flightCategory": "VFR",
    "windDir": 260,
    "windSpeed": 11,
    "windGust": null,
    "visibility": 10,
    "ceiling": null,
    "temp": 16.1,
    "dewpoint": 12.2,
    "altimeter": 30,
    "conditions": "",
    "observationTime": "2026-04-21T04:00:00.000Z"
  },
  "ORD": {
    "raw": "METAR KORD 210351Z 18009G16KT 10SM BKN240 11/M03 A3011 RMK AO2 SLP199 T01061028 $",
    "icao": "KORD",
    "flightCategory": "VFR",
    "windDir": 180,
    "windSpeed": 9,
    "windGust": 16,
    "visibility": 10,
    "ceiling": 24000,
    "temp": 10.6,
    "dewpoint": -2.8,
    "altimeter": 30.11,
    "conditions": "",
    "observationTime": "2026-04-21T04:00:00.000Z"
  }
}