{
  "ORD": {
    "raw": "METAR KORD 111351Z 04008KT 020V080 10SM FEW012 FEW065 BKN250 24/20 A3004 RMK AO2 SLP169 T02440200 $",
    "icao": "KORD",
    "flightCategory": "VFR",
    "windDir": 40,
    "windSpeed": 8,
    "windGust": null,
    "visibility": 10,
    "ceiling": 25000,
    "temp": 24.4,
    "dewpoint": 20,
    "altimeter": 30.04,
    "conditions": "",
    "observationTime": "2026-07-11T14:00:00.000Z"
  },
  "SYD": {
    "raw": "METAR YSSY 111300Z AUTO 35009KT 9999 // NCD 13/06 Q1014",
    "icao": "YSSY",
    "flightCategory": "VFR",
    "windDir": 350,
    "windSpeed": 9,
    "windGust": null,
    "visibility": 6,
    "ceiling": null,
    "temp": 13,
    "dewpoint": 6,
    "altimeter": 29.94,
    "conditions": "",
    "observationTime": "2026-07-11T13:00:00.000Z"
  },
  "LHR": {
    "raw": "METAR EGLL 111320Z AUTO 08011KT 050V110 9999 NCD 29/12 Q1021",
    "icao": "EGLL",
    "flightCategory": "VFR",
    "windDir": 80,
    "windSpeed": 11,
    "windGust": null,
    "visibility": 6,
    "ceiling": null,
    "temp": 29,
    "dewpoint": 12,
    "altimeter": 30.15,
    "conditions": "",
    "observationTime": "2026-07-11T13:20:00.000Z"
  },
  "LAS": {
    "raw": "METAR KLAS 111256Z 28004KT 8SM CLR 29/01 A2990 RMK AO2 SLP091 T02890006",
    "icao": "KLAS",
    "flightCategory": "VFR",
    "windDir": 280,
    "windSpeed": 4,
    "windGust": null,
    "visibility": 8,
    "ceiling": null,
    "temp": 28.9,
    "dewpoint": 0.6,
    "altimeter": 29.9,
    "conditions": "",
    "observationTime": "2026-07-11T13:00:00.000Z"
  }
}