{
  "LHR": {
    "raw": "METAR EGLL 092150Z AUTO 26011KT 9999 NCD 14/05 Q1016",
    "icao": "EGLL",
    "flightCategory": "VFR",
    "windDir": 260,
    "windSpeed": 11,
    "windGust": null,
    "visibility": 6,
    "ceiling": null,
    "temp": 14,
    "dewpoint": 5,
    "altimeter": 30,
    "conditions": "",
    "observationTime": "2026-06-09T22:00:00.000Z"
  },
  "SYD": {
    "raw": "METAR YSSY 092200Z 31007KT CAVOK 15/13 Q1028",
    "icao": "YSSY",
    "flightCategory": "VFR",
    "windDir": 310,
    "windSpeed": 7,
    "windGust": null,
    "visibility": 6,
    "ceiling": null,
    "temp": 15,
    "dewpoint": 13,
    "altimeter": 30.36,
    "conditions": "",
    "observationTime": "2026-06-09T22:00:00.000Z"
  },
  "LAS": {
    "raw": "METAR KLAS 092156Z 17009G20KT 10SM CLR 36/03 A2977 RMK AO2 SLP052 T03560028",
    "icao": "KLAS",
    "flightCategory": "VFR",
    "windDir": 170,
    "windSpeed": 9,
    "windGust": 20,
    "visibility": 10,
    "ceiling": null,
    "temp": 35.6,
    "dewpoint": 2.8,
    "altimeter": 29.77,
    "conditions": "",
    "observationTime": "2026-06-09T22:00:00.000Z"
  },
  "LAX": {
    "raw": "METAR KLAX 092153Z 26013KT 10SM FEW025 22/15 A2988 RMK AO2 SLP117 T02220150",
    "icao": "KLAX",
    "flightCategory": "VFR",
    "windDir": 260,
    "windSpeed": 13,
    "windGust": null,
    "visibility": 10,
    "ceiling": null,
    "temp": 22.2,
    "dewpoint": 15,
    "altimeter": 29.88,
    "conditions": "",
    "observationTime": "2026-06-09T22:00:00.000Z"
  },
  "ORD": {
    "raw": "METAR KORD 092151Z 24007KT 10SM BKN045 BKN070 BKN250 30/22 A2984 RMK AO2 SLP098 T03000217",
    "icao": "KORD",
    "flightCategory": "VFR",
    "windDir": 240,
    "windSpeed": 7,
    "windGust": null,
    "visibility": 10,
    "ceiling": 4500,
    "temp": 30,
    "dewpoint": 21.7,
    "altimeter": 29.84,
    "conditions": "",
    "observationTime": "2026-06-09T22:00:00.000Z"
  }
}