{
  "LHR": {
    "raw": "METAR EGLL 312350Z COR AUTO 30004KT 9999 NCD 10/06 Q1028 NOSIG",
    "icao": "EGLL",
    "flightCategory": "VFR",
    "windDir": 300,
    "windSpeed": 4,
    "windGust": null,
    "visibility": 6,
    "ceiling": null,
    "temp": 10,
    "dewpoint": 6,
    "altimeter": 30.36,
    "conditions": "",
    "observationTime": "2026-04-01T00:00:00.000Z"
  },
  "ORD": {
    "raw": "SPECI KORD 312334Z 03008KT 10SM SCT011 OVC017 07/05 A2990 RMK AO2 T00720050 $",
    "icao": "KORD",
    "flightCategory": "MVFR",
    "windDir": 30,
    "windSpeed": 8,
    "windGust": null,
    "visibility": 10,
    "ceiling": 1700,
    "temp": 7.2,
    "dewpoint": 5,
    "altimeter": 29.9,
    "conditions": "",
    "observationTime": "2026-03-31T23:34:00.000Z"
  },
  "SYD": {
    "raw": "METAR YSSY 010000Z 03009KT 9999 FEW035 25/15 Q1024",
    "icao": "YSSY",
    "flightCategory": "VFR",
    "windDir": 30,
    "windSpeed": 9,
    "windGust": null,
    "visibility": 6,
    "ceiling": null,
    "temp": 25,
    "dewpoint": 15,
    "altimeter": 30.24,
    "conditions": "",
    "observationTime": "2026-04-01T00:00:00.000Z"
  },
  "LAS": {
    "raw": "METAR KLAS 312356Z 24022G34KT 10SM SCT100 BKN120 OVC200 26/00 A2980 RMK AO2 PK WND 26046/2300 SLP070 T02560000 10267 20244 58016",
    "icao": "KLAS",
    "flightCategory": "VFR",
    "windDir": 240,
    "windSpeed": 22,
    "windGust": 34,
    "visibility": 10,
    "ceiling": 12000,
    "temp": 25.6,
    "dewpoint": 0,
    "altimeter": 29.8,
    "conditions": "",
    "observationTime": "2026-04-01T00:00:00.000Z"
  },
  "LAX": {
    "raw": "METAR KLAX 312353Z 30009KT 10SM FEW023 FEW036 OVC130 18/15 A2995 RMK AO2 SLP140 T01830150 10206 20183 55007 $",
    "icao": "KLAX",
    "flightCategory": "VFR",
    "windDir": 300,
    "windSpeed": 9,
    "windGust": null,
    "visibility": 10,
    "ceiling": 13000,
    "temp": 18.3,
    "dewpoint": 15,
    "altimeter": 29.95,
    "conditions": "",
    "observationTime": "2026-04-01T00:00:00.000Z"
  }
}