{
  "SYD": {
    "raw": "METAR YSSY 202030Z 25011KT 9999 FEW035 BKN055 16/12 Q1026",
    "icao": "YSSY",
    "flightCategory": "VFR",
    "windDir": 250,
    "windSpeed": 11,
    "windGust": null,
    "visibility": 6,
    "ceiling": 5500,
    "temp": 16,
    "dewpoint": 12,
    "altimeter": 30.3,
    "conditions": "",
    "observationTime": "2026-04-20T20:30:00.000Z"
  },
  "LAS": {
    "raw": "METAR KLAS 202056Z 17008G20KT 140V200 10SM FEW150 BKN250 31/M04 A2989 RMK AO2 PK WND 17026/2045 SLP098 T03111044 58025",
    "icao": "KLAS",
    "flightCategory": "VFR",
    "windDir": 170,
    "windSpeed": 8,
    "windGust": 20,
    "visibility": 10,
    "ceiling": 25000,
    "temp": 31.1,
    "dewpoint": -4.4,
    "altimeter": 29.89,
    "conditions": "",
    "observationTime": "2026-04-20T21:00:00.000Z"
  },
  "LAX": {
    "raw": "METAR KLAX 202053Z 26013KT 10SM FEW030 FEW180 SCT250 21/13 A3001 RMK AO2 SLP161 T02060128 $",
    "icao": "KLAX",
    "flightCategory": "VFR",
    "windDir": 260,
    "windSpeed": 13,
    "windGust": null,
    "visibility": 10,
    "ceiling": null,
    "temp": 20.6,
    "dewpoint": 12.8,
    "altimeter": 30.01,
    "conditions": "",
    "observationTime": "2026-04-20T21:00:00.000Z"
  },
  "ORD": {
    "raw": "METAR KORD 202051Z 22012G17KT 10SM SCT250 13/M06 A3024 RMK AO2 SLP245 T01281056 58025 $",
    "icao": "KORD",
    "flightCategory": "VFR",
    "windDir": 220,
    "windSpeed": 12,
    "windGust": 17,
    "visibility": 10,
    "ceiling": null,
    "temp": 12.8,
    "dewpoint": -5.6,
    "altimeter": 30.24,
    "conditions": "",
    "observationTime": "2026-04-20T21:00:00.000Z"
  },
  "LHR": {
    "raw": "METAR EGLL 202020Z COR AUTO 05006KT 020V080 9999 NCD 10/01 Q1024 NOSIG",
    "icao": "EGLL",
    "flightCategory": "VFR",
    "windDir": 50,
    "windSpeed": 6,
    "windGust": null,
    "visibility": 6,
    "ceiling": null,
    "temp": 10,
    "dewpoint": 1,
    "altimeter": 30.24,
    "conditions": "",
    "observationTime": "2026-04-20T20:20:00.000Z"
  }
}