{
  "SYD": {
    "raw": "METAR YSSY 040500Z 20018KT 9999 FEW017 SCT044 BKN052 19/16 Q1024",
    "icao": "YSSY",
    "flightCategory": "VFR",
    "windDir": 200,
    "windSpeed": 18,
    "windGust": null,
    "visibility": 6,
    "ceiling": 5200,
    "temp": 19,
    "dewpoint": 16,
    "altimeter": 30.24,
    "conditions": "",
    "observationTime": "2026-04-04T05:00:00.000Z"
  },
  "LHR": {
    "raw": "METAR EGLL 040450Z COR AUTO 21005KT 180V270 9999 NCD 08/05 Q1017 NOSIG",
    "icao": "EGLL",
    "flightCategory": "VFR",
    "windDir": 210,
    "windSpeed": 5,
    "windGust": null,
    "visibility": 6,
    "ceiling": null,
    "temp": 8,
    "dewpoint": 5,
    "altimeter": 30.03,
    "conditions": "",
    "observationTime": "2026-04-04T05:00:00.000Z"
  },
  "ORD": {
    "raw": "METAR KORD 040451Z 06009KT 10SM -RA BKN016 BKN095 OVC120 05/03 A3000 RMK AO2 SLP161 OCNL LTGICCG DSNT SE-SW CB DSNT SE-SW MOV NE P0000 T00500033 $",
    "icao": "KORD",
    "flightCategory": "MVFR",
    "windDir": 60,
    "windSpeed": 9,
    "windGust": null,
    "visibility": 10,
    "ceiling": 1600,
    "temp": 5,
    "dewpoint": 3.3,
    "altimeter": 30,
    "conditions": "-RA",
    "observationTime": "2026-04-04T05:00:00.000Z"
  },
  "LAS": {
    "raw": "METAR KLAS 040456Z 02007KT 10SM CLR 18/M11 A3022 RMK AO2 SLP221 T01781111",
    "icao": "KLAS",
    "flightCategory": "VFR",
    "windDir": 20,
    "windSpeed": 7,
    "windGust": null,
    "visibility": 10,
    "ceiling": null,
    "temp": 17.8,
    "dewpoint": -11.1,
    "altimeter": 30.22,
    "conditions": "",
    "observationTime": "2026-04-04T05:00:00.000Z"
  },
  "LAX": {
    "raw": "METAR KLAX 040453Z 00000KT 10SM FEW190 SCT240 SCT290 20/11 A3002 RMK AO2 SLP163 T02000106 $",
    "icao": "KLAX",
    "flightCategory": "VFR",
    "windDir": 0,
    "windSpeed": 0,
    "windGust": null,
    "visibility": 10,
    "ceiling": null,
    "temp": 20,
    "dewpoint": 10.6,
    "altimeter": 30.02,
    "conditions": "",
    "observationTime": "2026-04-04T05:00:00.000Z"
  }
}