{
  "SYD": {
    "raw": "METAR YSSY 291830Z AUTO 34007KT 9999 // NCD 11/10 Q1022",
    "icao": "YSSY",
    "flightCategory": "VFR",
    "windDir": 340,
    "windSpeed": 7,
    "windGust": null,
    "visibility": 6,
    "ceiling": null,
    "temp": 11,
    "dewpoint": 10,
    "altimeter": 30.18,
    "conditions": "",
    "observationTime": "2026-06-29T18:30:00.000Z"
  },
  "LAS": {
    "raw": "METAR KLAS 291856Z 36006KT 10SM CLR 28/M07 A2988 RMK AO2 SLP094 T02781067",
    "icao": "KLAS",
    "flightCategory": "VFR",
    "windDir": 360,
    "windSpeed": 6,
    "windGust": null,
    "visibility": 10,
    "ceiling": null,
    "temp": 27.8,
    "dewpoint": -6.7,
    "altimeter": 29.88,
    "conditions": "",
    "observationTime": "2026-06-29T19:00:00.000Z"
  },
  "LAX": {
    "raw": "METAR KLAX 291853Z 26006KT 10SM FEW019 OVC025 19/13 A2993 RMK AO2 SLP135 T01890133 $",
    "icao": "KLAX",
    "flightCategory": "MVFR",
    "windDir": 260,
    "windSpeed": 6,
    "windGust": null,
    "visibility": 10,
    "ceiling": 2500,
    "temp": 18.9,
    "dewpoint": 13.3,
    "altimeter": 29.93,
    "conditions": "",
    "observationTime": "2026-06-29T19:00:00.000Z"
  },
  "ORD": {
    "raw": "METAR KORD 291851Z 18014G21KT 10SM SCT035 BKN200 BKN250 32/24 A2990 RMK AO2 SLP120 T03220239 $",
    "icao": "KORD",
    "flightCategory": "VFR",
    "windDir": 180,
    "windSpeed": 14,
    "windGust": 21,
    "visibility": 10,
    "ceiling": 20000,
    "temp": 32.2,
    "dewpoint": 23.9,
    "altimeter": 29.9,
    "conditions": "",
    "observationTime": "2026-06-29T19:00:00.000Z"
  },
  "LHR": {
    "raw": "METAR EGLL 291820Z AUTO 28006KT 240V310 9999 NCD 21/09 Q1025",
    "icao": "EGLL",
    "flightCategory": "VFR",
    "windDir": 280,
    "windSpeed": 6,
    "windGust": null,
    "visibility": 6,
    "ceiling": null,
    "temp": 21,
    "dewpoint": 9,
    "altimeter": 30.27,
    "conditions": "",
    "observationTime": "2026-06-29T18:20:00.000Z"
  }
}