{
  "LHR": {
    "raw": "METAR EGLL 210950Z COR AUTO 06011KT 9999 BKN034 12/02 Q1025 NOSIG",
    "icao": "EGLL",
    "flightCategory": "VFR",
    "windDir": 60,
    "windSpeed": 11,
    "windGust": null,
    "visibility": 6,
    "ceiling": 3400,
    "temp": 12,
    "dewpoint": 2,
    "altimeter": 30.27,
    "conditions": "",
    "observationTime": "2026-04-21T10:00:00.000Z"
  },
  "SYD": {
    "raw": "METAR YSSY 211000Z AUTO 17012KT 9999 // FEW040 19/13 Q1026",
    "icao": "YSSY",
    "flightCategory": "VFR",
    "windDir": 170,
    "windSpeed": 12,
    "windGust": null,
    "visibility": 6,
    "ceiling": null,
    "temp": 19,
    "dewpoint": 13,
    "altimeter": 30.3,
    "conditions": "",
    "observationTime": "2026-04-21T10:00:00.000Z"
  },
  "LAS": {
    "raw": "METAR KLAS 210956Z 20009KT 10SM OVC250 23/M02 A2987 RMK AO2 SLP092 T02281017",
    "icao": "KLAS",
    "flightCategory": "VFR",
    "windDir": 200,
    "windSpeed": 9,
    "windGust": null,
    "visibility": 10,
    "ceiling": 25000,
    "temp": 22.8,
    "dewpoint": -1.7,
    "altimeter": 29.87,
    "conditions": "",
    "observationTime": "2026-04-21T10:00:00.000Z"
  },
  "LAX": {
    "raw": "SPECI KLAX 210942Z 28005KT 10SM FEW015 BKN018 BKN250 15/12 A3001 RMK AO2 T01500117 $",
    "icao": "KLAX",
    "flightCategory": "MVFR",
    "windDir": 280,
    "windSpeed": 5,
    "windGust": null,
    "visibility": 10,
    "ceiling": 1800,
    "temp": 15,
    "dewpoint": 11.7,
    "altimeter": 30.01,
    "conditions": "",
    "observationTime": "2026-04-21T09:42:00.000Z"
  },
  "ORD": {
    "raw": "METAR KORD 210951Z 19009KT 10SM SCT220 11/01 A3001 RMK AO2 SLP164 T01060006 $",
    "icao": "KORD",
    "flightCategory": "VFR",
    "windDir": 190,
    "windSpeed": 9,
    "windGust": null,
    "visibility": 10,
    "ceiling": null,
    "temp": 10.6,
    "dewpoint": 0.6,
    "altimeter": 30.01,
    "conditions": "",
    "observationTime": "2026-04-21T10:00:00.000Z"
  }
}