{
  "LAS": {
    "raw": "METAR KLAS 150956Z 19005KT 10SM CLR 27/M01 A2980 RMK AO2 SLP062 T02671011",
    "icao": "KLAS",
    "flightCategory": "VFR",
    "windDir": 190,
    "windSpeed": 5,
    "windGust": null,
    "visibility": 10,
    "ceiling": null,
    "temp": 26.7,
    "dewpoint": -1.1,
    "altimeter": 29.8,
    "conditions": "",
    "observationTime": "2026-05-15T10:00:00.000Z"
  },
  "LAX": {
    "raw": "SPECI KLAX 150936Z 26004KT 10SM FEW009 FEW012 BKN016 16/13 A2998 RMK AO2 T01610133",
    "icao": "KLAX",
    "flightCategory": "MVFR",
    "windDir": 260,
    "windSpeed": 4,
    "windGust": null,
    "visibility": 10,
    "ceiling": 1600,
    "temp": 16.1,
    "dewpoint": 13.3,
    "altimeter": 29.98,
    "conditions": "",
    "observationTime": "2026-05-15T09:36:00.000Z"
  },
  "ORD": {
    "raw": "METAR KORD 150951Z 17005KT 10SM BKN110 BKN250 13/04 A2993 RMK AO2 SLP135 T01280039",
    "icao": "KORD",
    "flightCategory": "VFR",
    "windDir": 170,
    "windSpeed": 5,
    "windGust": null,
    "visibility": 10,
    "ceiling": 11000,
    "temp": 12.8,
    "dewpoint": 3.9,
    "altimeter": 29.93,
    "conditions": "",
    "observationTime": "2026-05-15T10:00:00.000Z"
  },
  "LHR": {
    "raw": "METAR EGLL 150920Z COR AUTO 34007KT 290V030 9999 NCD 10/03 Q1008 NOSIG",
    "icao": "EGLL",
    "flightCategory": "VFR",
    "windDir": 340,
    "windSpeed": 7,
    "windGust": null,
    "visibility": 6,
    "ceiling": null,
    "temp": 10,
    "dewpoint": 3,
    "altimeter": 29.77,
    "conditions": "",
    "observationTime": "2026-05-15T09:20:00.000Z"
  },
  "SYD": {
    "raw": "METAR YSSY 150930Z AUTO 11006KT 9999 // BKN059 OVC078 18/15 Q1027",
    "icao": "YSSY",
    "flightCategory": "VFR",
    "windDir": 110,
    "windSpeed": 6,
    "windGust": null,
    "visibility": 6,
    "ceiling": 5900,
    "temp": 18,
    "dewpoint": 15,
    "altimeter": 30.33,
    "conditions": "",
    "observationTime": "2026-05-15T09:30:00.000Z"
  }
}