{
  "SYD": {
    "raw": "METAR YSSY 041930Z AUTO 27010KT 9999 // NCD 13/05 Q1006",
    "icao": "YSSY",
    "flightCategory": "VFR",
    "windDir": 270,
    "windSpeed": 10,
    "windGust": null,
    "visibility": 6,
    "ceiling": null,
    "temp": 13,
    "dewpoint": 5,
    "altimeter": 29.71,
    "conditions": "",
    "observationTime": "2026-06-04T19:30:00.000Z"
  },
  "LAS": {
    "raw": "METAR KLAS 041956Z VRB06KT 10SM CLR 38/M06 A2982 RMK AO2 SLP067 T03831061",
    "icao": "KLAS",
    "flightCategory": "VFR",
    "windDir": null,
    "windSpeed": 6,
    "windGust": null,
    "visibility": 10,
    "ceiling": null,
    "temp": 38.3,
    "dewpoint": -6.1,
    "altimeter": 29.82,
    "conditions": "",
    "observationTime": "2026-06-04T20:00:00.000Z"
  },
  "LAX": {
    "raw": "METAR KLAX 041953Z 27007KT 8SM FEW009 SCT019 21/15 A2990 RMK AO2 SLP124 T02110150 $",
    "icao": "KLAX",
    "flightCategory": "VFR",
    "windDir": 270,
    "windSpeed": 7,
    "windGust": null,
    "visibility": 8,
    "ceiling": null,
    "temp": 21.1,
    "dewpoint": 15,
    "altimeter": 29.9,
    "conditions": "",
    "observationTime": "2026-06-04T20:00:00.000Z"
  },
  "ORD": {
    "raw": "METAR KORD 041951Z 19011G16KT 10SM BKN300 30/08 A3004 RMK AO2 SLP166 T03000078",
    "icao": "KORD",
    "flightCategory": "VFR",
    "windDir": 190,
    "windSpeed": 11,
    "windGust": 16,
    "visibility": 10,
    "ceiling": 30000,
    "temp": 30,
    "dewpoint": 7.8,
    "altimeter": 30.04,
    "conditions": "",
    "observationTime": "2026-06-04T20:00:00.000Z"
  },
  "LHR": {
    "raw": "METAR EGLL 041920Z AUTO 26020KT 9999 FEW037/// //////TCU 17/08 Q1002",
    "icao": "EGLL",
    "flightCategory": "VFR",
    "windDir": 260,
    "windSpeed": 20,
    "windGust": null,
    "visibility": 6,
    "ceiling": null,
    "temp": 17,
    "dewpoint": 8,
    "altimeter": 29.59,
    "conditions": "",
    "observationTime": "2026-06-04T19:20:00.000Z"
  }
}