{
  "SYD": {
    "raw": "METAR YSSY 130230Z 17010KT CAVOK 21/05 Q1017",
    "icao": "YSSY",
    "flightCategory": "VFR",
    "windDir": 170,
    "windSpeed": 10,
    "windGust": null,
    "visibility": 6,
    "ceiling": null,
    "temp": 21,
    "dewpoint": 5,
    "altimeter": 30.03,
    "conditions": "",
    "observationTime": "2026-04-13T02:30:00.000Z"
  },
  "LAS": {
    "raw": "METAR KLAS 130256Z 22014G24KT 10SM FEW060 BKN100 18/02 A2984 RMK AO2 PK WND 22027/0211 SLP092 T01830022 53002",
    "icao": "KLAS",
    "flightCategory": "VFR",
    "windDir": 220,
    "windSpeed": 14,
    "windGust": 24,
    "visibility": 10,
    "ceiling": 10000,
    "temp": 18.3,
    "dewpoint": 2.2,
    "altimeter": 29.84,
    "conditions": "",
    "observationTime": "2026-04-13T03:00:00.000Z"
  },
  "LAX": {
    "raw": "METAR KLAX 130253Z 26012KT 10SM FEW020 FEW080 16/10 A3002 RMK AO2 SLP163 T01610100 53009 $",
    "icao": "KLAX",
    "flightCategory": "VFR",
    "windDir": 260,
    "windSpeed": 12,
    "windGust": null,
    "visibility": 10,
    "ceiling": null,
    "temp": 16.1,
    "dewpoint": 10,
    "altimeter": 30.02,
    "conditions": "",
    "observationTime": "2026-04-13T03:00:00.000Z"
  },
  "ORD": {
    "raw": "METAR KORD 130251Z 20009G22KT 6SM -RA BR SCT042 BKN049 OVC060 17/15 A2981 RMK AO2 SLP091 P0002 60004 T01720150 50005 $",
    "icao": "KORD",
    "flightCategory": "VFR",
    "windDir": 200,
    "windSpeed": 9,
    "windGust": 22,
    "visibility": 6,
    "ceiling": 4900,
    "temp": 17.2,
    "dewpoint": 15,
    "altimeter": 29.81,
    "conditions": "-RA BR",
    "observationTime": "2026-04-13T03:00:00.000Z"
  },
  "LHR": {
    "raw": "METAR EGLL 130220Z COR AUTO VRB02KT 9999 NCD 04/03 Q1013 NOSIG",
    "icao": "EGLL",
    "flightCategory": "VFR",
    "windDir": null,
    "windSpeed": 2,
    "windGust": null,
    "visibility": 6,
    "ceiling": null,
    "temp": 4,
    "dewpoint": 3,
    "altimeter": 29.91,
    "conditions": "",
    "observationTime": "2026-04-13T02:20:00.000Z"
  }
}