{
  "SYD": {
    "raw": "METAR YSSY 062000Z 33009KT 9999 SCT040 09/06 Q1030",
    "icao": "YSSY",
    "flightCategory": "VFR",
    "windDir": 330,
    "windSpeed": 9,
    "windGust": null,
    "visibility": 6,
    "ceiling": null,
    "temp": 9,
    "dewpoint": 6,
    "altimeter": 30.42,
    "conditions": "",
    "observationTime": "2026-06-06T20:00:00.000Z"
  },
  "LHR": {
    "raw": "METAR EGLL 062020Z AUTO 26023KT 9999 OVC020 15/11 Q1011",
    "icao": "EGLL",
    "flightCategory": "MVFR",
    "windDir": 260,
    "windSpeed": 23,
    "windGust": null,
    "visibility": 6,
    "ceiling": 2000,
    "temp": 15,
    "dewpoint": 11,
    "altimeter": 29.85,
    "conditions": "",
    "observationTime": "2026-06-06T20:20:00.000Z"
  },
  "LAS": {
    "raw": "METAR KLAS 061956Z 19012G26KT 10SM CLR 37/M02 A2972 RMK AO2 PK WND 21028/1927 SLP030 T03671022",
    "icao": "KLAS",
    "flightCategory": "VFR",
    "windDir": 190,
    "windSpeed": 12,
    "windGust": 26,
    "visibility": 10,
    "ceiling": null,
    "temp": 36.7,
    "dewpoint": -2.2,
    "altimeter": 29.72,
    "conditions": "",
    "observationTime": "2026-06-06T20:00:00.000Z"
  },
  "LAX": {
    "raw": "METAR KLAX 061953Z COR 25010KT 10SM SCT027 BKN140 22/14 A2987 RMK AO2 SLP112 T02170139 $",
    "icao": "KLAX",
    "flightCategory": "VFR",
    "windDir": 250,
    "windSpeed": 10,
    "windGust": null,
    "visibility": 10,
    "ceiling": 14000,
    "temp": 21.7,
    "dewpoint": 13.9,
    "altimeter": 29.87,
    "conditions": "",
    "observationTime": "2026-06-06T20:00:00.000Z"
  }
}