{
  "LAS": {
    "raw": "METAR KLAS 170756Z 33018G30KT 10SM FEW250 17/M16 A2991 RMK AO2 WSHFT 0713 SLP111 T01721156 402670172 $",
    "icao": "KLAS",
    "flightCategory": "VFR",
    "windDir": 330,
    "windSpeed": 18,
    "windGust": 30,
    "visibility": 10,
    "ceiling": null,
    "temp": 17.2,
    "dewpoint": -15.6,
    "altimeter": 29.91,
    "conditions": "",
    "observationTime": "2026-04-17T08:00:00.000Z"
  },
  "LHR": {
    "raw": "METAR EGLL 170750Z COR AUTO 21012KT 180V240 9999 NCD 13/09 Q1019 NOSIG",
    "icao": "EGLL",
    "flightCategory": "VFR",
    "windDir": 210,
    "windSpeed": 12,
    "windGust": null,
    "visibility": 6,
    "ceiling": null,
    "temp": 13,
    "dewpoint": 9,
    "altimeter": 30.09,
    "conditions": "",
    "observationTime": "2026-04-17T08:00:00.000Z"
  },
  "SYD": {
    "raw": "METAR YSSY 170800Z AUTO 17020KT 9999 // FEW021 SCT025 BKN035 20/17 Q1012",
    "icao": "YSSY",
    "flightCategory": "VFR",
    "windDir": 170,
    "windSpeed": 20,
    "windGust": null,
    "visibility": 6,
    "ceiling": 3500,
    "temp": 20,
    "dewpoint": 17,
    "altimeter": 29.88,
    "conditions": "",
    "observationTime": "2026-04-17T08:00:00.000Z"
  },
  "LAX": {
    "raw": "METAR KLAX 170753Z 00000KT 10SM FEW014 FEW250 16/13 A2992 RMK AO2 SLP128 T01560133 402110133",
    "icao": "KLAX",
    "flightCategory": "VFR",
    "windDir": 0,
    "windSpeed": 0,
    "windGust": null,
    "visibility": 10,
    "ceiling": null,
    "temp": 15.6,
    "dewpoint": 13.3,
    "altimeter": 29.92,
    "conditions": "",
    "observationTime": "2026-04-17T08:00:00.000Z"
  },
  "ORD": {
    "raw": "METAR KORD 170751Z 09004KT 1/2SM R10L/P6000FT FG BKN002 09/09 A2992 RMK AO2 SLP133 T00940094 $",
    "icao": "KORD",
    "flightCategory": "LIFR",
    "windDir": 90,
    "windSpeed": 4,
    "windGust": null,
    "visibility": 0.5,
    "ceiling": 200,
    "temp": 9.4,
    "dewpoint": 9.4,
    "altimeter": 29.92,
    "conditions": "FG",
    "observationTime": "2026-04-17T08:00:00.000Z"
  }
}