{
  "LAS": {
    "raw": "METAR KLAS 031056Z 21005KT 10SM CLR 18/M12 A2986 RMK AO2 SLP093 T01781122",
    "icao": "KLAS",
    "flightCategory": "VFR",
    "windDir": 210,
    "windSpeed": 5,
    "windGust": null,
    "visibility": 10,
    "ceiling": null,
    "temp": 17.8,
    "dewpoint": -12.2,
    "altimeter": 29.86,
    "conditions": "",
    "observationTime": "2026-05-03T11:00:00.000Z"
  },
  "LAX": {
    "raw": "METAR KLAX 031053Z 10003KT 10SM FEW012 BKN017 OVC022 16/11 A2991 RMK AO2 SLP126 T01610111",
    "icao": "KLAX",
    "flightCategory": "MVFR",
    "windDir": 100,
    "windSpeed": 3,
    "windGust": null,
    "visibility": 10,
    "ceiling": 1700,
    "temp": 16.1,
    "dewpoint": 11.1,
    "altimeter": 29.91,
    "conditions": "",
    "observationTime": "2026-05-03T11:00:00.000Z"
  },
  "ORD": {
    "raw": "METAR KORD 031051Z 22013G21KT 10SM BKN130 BKN250 08/M01 A2992 RMK AO2 SLP135 T00831011",
    "icao": "KORD",
    "flightCategory": "VFR",
    "windDir": 220,
    "windSpeed": 13,
    "windGust": 21,
    "visibility": 10,
    "ceiling": 13000,
    "temp": 8.3,
    "dewpoint": -1.1,
    "altimeter": 29.92,
    "conditions": "",
    "observationTime": "2026-05-03T11:00:00.000Z"
  },
  "LHR": {
    "raw": "METAR EGLL 031020Z COR AUTO 26009KT 220V290 9999 OVC022 16/10 Q1010 NOSIG",
    "icao": "EGLL",
    "flightCategory": "MVFR",
    "windDir": 260,
    "windSpeed": 9,
    "windGust": null,
    "visibility": 6,
    "ceiling": 2200,
    "temp": 16,
    "dewpoint": 10,
    "altimeter": 29.83,
    "conditions": "",
    "observationTime": "2026-05-03T10:20:00.000Z"
  },
  "SYD": {
    "raw": "METAR YSSY 031030Z AUTO 03017KT 9999 // NCD 22/18 Q1018",
    "icao": "YSSY",
    "flightCategory": "VFR",
    "windDir": 30,
    "windSpeed": 17,
    "windGust": null,
    "visibility": 6,
    "ceiling": null,
    "temp": 22,
    "dewpoint": 18,
    "altimeter": 30.06,
    "conditions": "",
    "observationTime": "2026-05-03T10:30:00.000Z"
  }
}