{
  "SYD": {
    "raw": "METAR YSSY 250330Z 03009KT 9999 SCT035 24/14 Q1028",
    "icao": "YSSY",
    "flightCategory": "VFR",
    "windDir": 30,
    "windSpeed": 9,
    "windGust": null,
    "visibility": 6,
    "ceiling": null,
    "temp": 24,
    "dewpoint": 14,
    "altimeter": 30.36,
    "conditions": "",
    "observationTime": "2026-04-25T03:30:00.000Z"
  },
  "LAS": {
    "raw": "METAR KLAS 250356Z 18005G14KT 10SM SCT170 SCT200 24/M12 A2970 RMK AO2 SLP037 T02441122",
    "icao": "KLAS",
    "flightCategory": "VFR",
    "windDir": 180,
    "windSpeed": 5,
    "windGust": 14,
    "visibility": 10,
    "ceiling": null,
    "temp": 24.4,
    "dewpoint": -12.2,
    "altimeter": 29.7,
    "conditions": "",
    "observationTime": "2026-04-25T04:00:00.000Z"
  },
  "LAX": {
    "raw": "METAR KLAX 250353Z 21006KT 10SM FEW013 FEW075 SCT280 16/13 A2988 RMK AO2 SLP118 T01610133 $",
    "icao": "KLAX",
    "flightCategory": "VFR",
    "windDir": 210,
    "windSpeed": 6,
    "windGust": null,
    "visibility": 10,
    "ceiling": null,
    "temp": 16.1,
    "dewpoint": 13.3,
    "altimeter": 29.88,
    "conditions": "",
    "observationTime": "2026-04-25T04:00:00.000Z"
  },
  "ORD": {
    "raw": "METAR KORD 250351Z 03006KT 10SM FEW045 SCT250 15/11 A2983 RMK AO2 SLP100 T01500111",
    "icao": "KORD",
    "flightCategory": "VFR",
    "windDir": 30,
    "windSpeed": 6,
    "windGust": null,
    "visibility": 10,
    "ceiling": null,
    "temp": 15,
    "dewpoint": 11.1,
    "altimeter": 29.83,
    "conditions": "",
    "observationTime": "2026-04-25T04:00:00.000Z"
  },
  "LHR": {
    "raw": "METAR EGLL 250320Z COR AUTO 01003KT 9999 NCD 05/02 Q1022 NOSIG",
    "icao": "EGLL",
    "flightCategory": "VFR",
    "windDir": 10,
    "windSpeed": 3,
    "windGust": null,
    "visibility": 6,
    "ceiling": null,
    "temp": 5,
    "dewpoint": 2,
    "altimeter": 30.18,
    "conditions": "",
    "observationTime": "2026-04-25T03:20:00.000Z"
  }
}