{
  "SYD": {
    "raw": "METAR YSSY 310900Z AUTO 04009KT 9999 // NCD 23/16 Q1023",
    "icao": "YSSY",
    "flightCategory": "VFR",
    "windDir": 40,
    "windSpeed": 9,
    "windGust": null,
    "visibility": 6,
    "ceiling": null,
    "temp": 23,
    "dewpoint": 16,
    "altimeter": 30.21,
    "conditions": "",
    "observationTime": "2026-03-31T09:00:00.000Z"
  },
  "LHR": {
    "raw": "METAR EGLL 310920Z AUTO 29007KT 9999 BKN017 12/08 Q1030 TEMPO BKN014",
    "icao": "EGLL",
    "flightCategory": "MVFR",
    "windDir": 290,
    "windSpeed": 7,
    "windGust": null,
    "visibility": 6,
    "ceiling": 1700,
    "temp": 12,
    "dewpoint": 8,
    "altimeter": 30.42,
    "conditions": "",
    "observationTime": "2026-03-31T09:20:00.000Z"
  },
  "LAS": {
    "raw": "METAR KLAS 310856Z 22019G30KT 10SM BKN180 BKN220 24/M03 A2984 RMK AO2 PK WND 21030/0848 SLP080 T02391028 56003 $",
    "icao": "KLAS",
    "flightCategory": "VFR",
    "windDir": 220,
    "windSpeed": 19,
    "windGust": 30,
    "visibility": 10,
    "ceiling": 18000,
    "temp": 23.9,
    "dewpoint": -2.8,
    "altimeter": 29.84,
    "conditions": "",
    "observationTime": "2026-03-31T09:00:00.000Z"
  },
  "LAX": {
    "raw": "METAR KLAX 310853Z 21005KT 10SM BKN016 OVC250 18/14 A2997 RMK AO2 SLP147 T01830139 55004",
    "icao": "KLAX",
    "flightCategory": "MVFR",
    "windDir": 210,
    "windSpeed": 5,
    "windGust": null,
    "visibility": 10,
    "ceiling": 1600,
    "temp": 18.3,
    "dewpoint": 13.9,
    "altimeter": 29.97,
    "conditions": "",
    "observationTime": "2026-03-31T09:00:00.000Z"
  }
}