{
  "SYD": {
    "raw": "SPECI YSSY 161026Z AUTO 12005KT 4600 -SHRA FEW006 BKN016 BKN021 14/13 Q1034 RESHRA",
    "icao": "YSSY",
    "flightCategory": "IFR",
    "windDir": 120,
    "windSpeed": 5,
    "windGust": null,
    "visibility": 2.86,
    "ceiling": 1600,
    "temp": 14,
    "dewpoint": 13,
    "altimeter": 30.53,
    "conditions": "-SHRA",
    "observationTime": "2026-07-16T10:26:00.000Z"
  },
  "LAS": {
    "raw": "METAR KLAS 161056Z 27005KT 10SM FEW180 BKN220 33/13 A2982 RMK AO2 SLP062 T03330133",
    "icao": "KLAS",
    "flightCategory": "VFR",
    "windDir": 270,
    "windSpeed": 5,
    "windGust": null,
    "visibility": 10,
    "ceiling": 22000,
    "temp": 33.3,
    "dewpoint": 13.3,
    "altimeter": 29.82,
    "conditions": "",
    "observationTime": "2026-07-16T11:00:00.000Z"
  },
  "LAX": {
    "raw": "METAR KLAX 161053Z 11006KT 10SM FEW010 21/18 A2980 RMK AO2 SLP089 T02110183 $",
    "icao": "KLAX",
    "flightCategory": "VFR",
    "windDir": 110,
    "windSpeed": 6,
    "windGust": null,
    "visibility": 10,
    "ceiling": null,
    "temp": 21.1,
    "dewpoint": 18.3,
    "altimeter": 29.8,
    "conditions": "",
    "observationTime": "2026-07-16T11:00:00.000Z"
  },
  "ORD": {
    "raw": "SPECI KORD 161029Z 02005KT 2SM FU FEW045 BKN250 24/20 A3006 RMK AO2 T02390200 $",
    "icao": "KORD",
    "flightCategory": "IFR",
    "windDir": 20,
    "windSpeed": 5,
    "windGust": null,
    "visibility": 2,
    "ceiling": 25000,
    "temp": 23.9,
    "dewpoint": 20,
    "altimeter": 30.06,
    "conditions": "FU",
    "observationTime": "2026-07-16T10:29:00.000Z"
  },
  "LHR": {
    "raw": "METAR EGLL 161020Z AUTO 06009KT 020V090 9999 NCD 25/14 Q1021",
    "icao": "EGLL",
    "flightCategory": "VFR",
    "windDir": 60,
    "windSpeed": 9,
    "windGust": null,
    "visibility": 6,
    "ceiling": null,
    "temp": 25,
    "dewpoint": 14,
    "altimeter": 30.15,
    "conditions": "",
    "observationTime": "2026-07-16T10:20:00.000Z"
  }
}