{
  "SYD": {
    "raw": "METAR YSSY 160330Z 35011KT CAVOK 22/11 Q1028",
    "icao": "YSSY",
    "flightCategory": "VFR",
    "windDir": 350,
    "windSpeed": 11,
    "windGust": null,
    "visibility": 6,
    "ceiling": null,
    "temp": 22,
    "dewpoint": 11,
    "altimeter": 30.36,
    "conditions": "",
    "observationTime": "2026-06-16T03:30:00.000Z"
  },
  "LAS": {
    "raw": "METAR KLAS 160356Z 23008KT 10SM FEW120 37/00 A2987 RMK AO2 SLP082 T03720000",
    "icao": "KLAS",
    "flightCategory": "VFR",
    "windDir": 230,
    "windSpeed": 8,
    "windGust": null,
    "visibility": 10,
    "ceiling": null,
    "temp": 37.2,
    "dewpoint": 0,
    "altimeter": 29.87,
    "conditions": "",
    "observationTime": "2026-06-16T04:00:00.000Z"
  },
  "LAX": {
    "raw": "METAR KLAX 160353Z 25011KT 10SM FEW011 18/15 A2998 RMK AO2 SLP149 T01780150 $",
    "icao": "KLAX",
    "flightCategory": "VFR",
    "windDir": 250,
    "windSpeed": 11,
    "windGust": null,
    "visibility": 10,
    "ceiling": null,
    "temp": 17.8,
    "dewpoint": 15,
    "altimeter": 29.98,
    "conditions": "",
    "observationTime": "2026-06-16T04:00:00.000Z"
  },
  "ORD": {
    "raw": "METAR KORD 160351Z 20006KT 10SM FEW080 SCT180 SCT250 20/08 A2983 RMK AO2 SLP099 T02000083",
    "icao": "KORD",
    "flightCategory": "VFR",
    "windDir": 200,
    "windSpeed": 6,
    "windGust": null,
    "visibility": 10,
    "ceiling": null,
    "temp": 20,
    "dewpoint": 8.3,
    "altimeter": 29.83,
    "conditions": "",
    "observationTime": "2026-06-16T04:00:00.000Z"
  },
  "LHR": {
    "raw": "METAR EGLL 160320Z AUTO 24007KT 9999 OVC010 17/14 Q1012",
    "icao": "EGLL",
    "flightCategory": "MVFR",
    "windDir": 240,
    "windSpeed": 7,
    "windGust": null,
    "visibility": 6,
    "ceiling": 1000,
    "temp": 17,
    "dewpoint": 14,
    "altimeter": 29.88,
    "conditions": "",
    "observationTime": "2026-06-16T03:20:00.000Z"
  }
}