{
  "SYD": {
    "raw": "METAR YSSY 030530Z AUTO 17019KT 9999 // SCT019 OVC055 22/18 Q1022",
    "icao": "YSSY",
    "flightCategory": "VFR",
    "windDir": 170,
    "windSpeed": 19,
    "windGust": null,
    "visibility": 6,
    "ceiling": 5500,
    "temp": 22,
    "dewpoint": 18,
    "altimeter": 30.18,
    "conditions": "",
    "observationTime": "2026-04-03T05:30:00.000Z"
  },
  "ORD": {
    "raw": "METAR KORD 030551Z 23009G21KT 10SM SCT022 BKN030 BKN045 17/13 A2975 RMK AO2 PK WND 25026/0535 SLP073 60037 T01670133 10206 20156 402110033 53025 $",
    "icao": "KORD",
    "flightCategory": "MVFR",
    "windDir": 230,
    "windSpeed": 9,
    "windGust": 21,
    "visibility": 10,
    "ceiling": 3000,
    "temp": 16.7,
    "dewpoint": 13.3,
    "altimeter": 29.75,
    "conditions": "",
    "observationTime": "2026-04-03T06:00:00.000Z"
  },
  "LAS": {
    "raw": "METAR KLAS 030556Z 34020G27KT 10SM CLR 21/M11 A2991 RMK AO2 PK WND 31029/0518 SLP111 T02111111 10239 20194 51033",
    "icao": "KLAS",
    "flightCategory": "VFR",
    "windDir": 340,
    "windSpeed": 20,
    "windGust": 27,
    "visibility": 10,
    "ceiling": null,
    "temp": 21.1,
    "dewpoint": -11.1,
    "altimeter": 29.91,
    "conditions": "",
    "observationTime": "2026-04-03T06:00:00.000Z"
  },
  "LAX": {
    "raw": "METAR KLAX 030553Z 00000KT 10SM FEW020 SCT050 16/13 A2995 RMK AO2 SLP141 T01610128 10189 20161 51011 $",
    "icao": "KLAX",
    "flightCategory": "VFR",
    "windDir": 0,
    "windSpeed": 0,
    "windGust": null,
    "visibility": 10,
    "ceiling": null,
    "temp": 16.1,
    "dewpoint": 12.8,
    "altimeter": 29.95,
    "conditions": "",
    "observationTime": "2026-04-03T06:00:00.000Z"
  },
  "LHR": {
    "raw": "METAR EGLL 030520Z COR AUTO 21012KT 9999 OVC014 09/06 Q1013 NOSIG",
    "icao": "EGLL",
    "flightCategory": "MVFR",
    "windDir": 210,
    "windSpeed": 12,
    "windGust": null,
    "visibility": 6,
    "ceiling": 1400,
    "temp": 9,
    "dewpoint": 6,
    "altimeter": 29.91,
    "conditions": "",
    "observationTime": "2026-04-03T05:20:00.000Z"
  }
}