{
  "LHR": {
    "raw": "METAR EGLL 040650Z COR AUTO 03005KT 360V070 9000 -RA OVC006 12/10 Q1013 NOSIG",
    "icao": "EGLL",
    "flightCategory": "IFR",
    "windDir": 30,
    "windSpeed": 5,
    "windGust": null,
    "visibility": 5.59,
    "ceiling": 600,
    "temp": 12,
    "dewpoint": 10,
    "altimeter": 29.91,
    "conditions": "-RA",
    "observationTime": "2026-05-04T07:00:00.000Z"
  },
  "SYD": {
    "raw": "METAR YSSY 040700Z AUTO 01008KT 9999 // BKN100 OVC125 22/16 Q1014",
    "icao": "YSSY",
    "flightCategory": "VFR",
    "windDir": 10,
    "windSpeed": 8,
    "windGust": null,
    "visibility": 6,
    "ceiling": 10000,
    "temp": 22,
    "dewpoint": 16,
    "altimeter": 29.94,
    "conditions": "",
    "observationTime": "2026-05-04T07:00:00.000Z"
  },
  "LAS": {
    "raw": "METAR KLAS 040656Z 16003KT 10SM FEW100 FEW150 OVC200 24/M04 A2973 RMK AO2 SLP043 T02391044",
    "icao": "KLAS",
    "flightCategory": "VFR",
    "windDir": 160,
    "windSpeed": 3,
    "windGust": null,
    "visibility": 10,
    "ceiling": 20000,
    "temp": 23.9,
    "dewpoint": -4.4,
    "altimeter": 29.73,
    "conditions": "",
    "observationTime": "2026-05-04T07:00:00.000Z"
  },
  "LAX": {
    "raw": "METAR KLAX 040653Z 25013KT 10SM FEW020 BKN055 16/11 A2999 RMK AO2 SLP154 T01560106",
    "icao": "KLAX",
    "flightCategory": "VFR",
    "windDir": 250,
    "windSpeed": 13,
    "windGust": null,
    "visibility": 10,
    "ceiling": 5500,
    "temp": 15.6,
    "dewpoint": 10.6,
    "altimeter": 29.99,
    "conditions": "",
    "observationTime": "2026-05-04T07:00:00.000Z"
  },
  "ORD": {
    "raw": "METAR KORD 040651Z 23007KT 10SM CLR 13/06 A2967 RMK AO2 SLP045 T01330061 $",
    "icao": "KORD",
    "flightCategory": "VFR",
    "windDir": 230,
    "windSpeed": 7,
    "windGust": null,
    "visibility": 10,
    "ceiling": null,
    "temp": 13.3,
    "dewpoint": 6.1,
    "altimeter": 29.67,
    "conditions": "",
    "observationTime": "2026-05-04T07:00:00.000Z"
  }
}