{
  "LHR": {
    "raw": "METAR EGLL 192050Z AUTO 24012KT 9999 NCD 22/16 Q1014",
    "icao": "EGLL",
    "flightCategory": "VFR",
    "windDir": 240,
    "windSpeed": 12,
    "windGust": null,
    "visibility": 6,
    "ceiling": null,
    "temp": 22,
    "dewpoint": 16,
    "altimeter": 29.94,
    "conditions": "",
    "observationTime": "2026-06-19T21:00:00.000Z"
  },
  "SYD": {
    "raw": "METAR YSSY 192030Z 35009KT CAVOK 14/08 Q1019",
    "icao": "YSSY",
    "flightCategory": "VFR",
    "windDir": 350,
    "windSpeed": 9,
    "windGust": null,
    "visibility": 6,
    "ceiling": null,
    "temp": 14,
    "dewpoint": 8,
    "altimeter": 30.09,
    "conditions": "",
    "observationTime": "2026-06-19T20:30:00.000Z"
  },
  "ORD": {
    "raw": "METAR KORD 192051Z 26010KT 10SM FEW060 FEW250 24/08 A2995 RMK AO2 SLP139 T02390083 55008 $",
    "icao": "KORD",
    "flightCategory": "VFR",
    "windDir": 260,
    "windSpeed": 10,
    "windGust": null,
    "visibility": 10,
    "ceiling": null,
    "temp": 23.9,
    "dewpoint": 8.3,
    "altimeter": 29.95,
    "conditions": "",
    "observationTime": "2026-06-19T21:00:00.000Z"
  }
}