{
  "LHR": {
    "raw": "METAR EGLL 262050Z AUTO 22010KT 9999 NCD 27/17 Q1016",
    "icao": "EGLL",
    "flightCategory": "VFR",
    "windDir": 220,
    "windSpeed": 10,
    "windGust": null,
    "visibility": 6,
    "ceiling": null,
    "temp": 27,
    "dewpoint": 17,
    "altimeter": 30,
    "conditions": "",
    "observationTime": "2026-06-26T21:00:00.000Z"
  },
  "SYD": {
    "raw": "METAR YSSY 262100Z 31006KT 9999 FEW014 SCT055 BKN280 11/10 Q1030",
    "icao": "YSSY",
    "flightCategory": "VFR",
    "windDir": 310,
    "windSpeed": 6,
    "windGust": null,
    "visibility": 6,
    "ceiling": 28000,
    "temp": 11,
    "dewpoint": 10,
    "altimeter": 30.42,
    "conditions": "",
    "observationTime": "2026-06-26T21:00:00.000Z"
  },
  "LAS": {
    "raw": "METAR KLAS 262056Z 21021G31KT 10SM FEW140 FEW200 38/M10 A2973 RMK AO2 PK WND 20031/2052 SLP035 T03831100 58013",
    "icao": "KLAS",
    "flightCategory": "VFR",
    "windDir": 210,
    "windSpeed": 21,
    "windGust": 31,
    "visibility": 10,
    "ceiling": null,
    "temp": 38.3,
    "dewpoint": -10,
    "altimeter": 29.73,
    "conditions": "",
    "observationTime": "2026-06-26T21:00:00.000Z"
  },
  "LAX": {
    "raw": "METAR KLAX 262053Z 25012KT 10SM FEW014 FEW045 SCT060 21/13 A2997 RMK AO2 SLP146 T02110128 52000",
    "icao": "KLAX",
    "flightCategory": "VFR",
    "windDir": 250,
    "windSpeed": 12,
    "windGust": null,
    "visibility": 10,
    "ceiling": null,
    "temp": 21.1,
    "dewpoint": 12.8,
    "altimeter": 29.97,
    "conditions": "",
    "observationTime": "2026-06-26T21:00:00.000Z"
  },
  "ORD": {
    "raw": "METAR KORD 262051Z 02010KT 10SM FEW013 FEW045 OVC120 17/14 A3006 RMK AO2 SLP177 60002 T01720144 58007",
    "icao": "KORD",
    "flightCategory": "VFR",
    "windDir": 20,
    "windSpeed": 10,
    "windGust": null,
    "visibility": 10,
    "ceiling": 12000,
    "temp": 17.2,
    "dewpoint": 14.4,
    "altimeter": 30.06,
    "conditions": "",
    "observationTime": "2026-06-26T21:00:00.000Z"
  }
}