{
  "SYD": {
    "raw": "METAR YSSY 220130Z 15012KT 9999 FEW043 BKN065 22/09 Q1027",
    "icao": "YSSY",
    "flightCategory": "VFR",
    "windDir": 150,
    "windSpeed": 12,
    "windGust": null,
    "visibility": 6,
    "ceiling": 6500,
    "temp": 22,
    "dewpoint": 9,
    "altimeter": 30.33,
    "conditions": "",
    "observationTime": "2026-04-22T01:30:00.000Z"
  },
  "LAS": {
    "raw": "METAR KLAS 220156Z 24021G35KT 10SM FEW120 24/04 A2977 RMK AO2 PK WND 24038/0134 SLP063 T02440044",
    "icao": "KLAS",
    "flightCategory": "VFR",
    "windDir": 240,
    "windSpeed": 21,
    "windGust": 35,
    "visibility": 10,
    "ceiling": null,
    "temp": 24.4,
    "dewpoint": 4.4,
    "altimeter": 29.77,
    "conditions": "",
    "observationTime": "2026-04-22T02:00:00.000Z"
  },
  "LAX": {
    "raw": "METAR KLAX 220153Z 26012KT 10SM FEW017 FEW050 SCT250 17/12 A3005 RMK AO2 SLP174 T01720117 $",
    "icao": "KLAX",
    "flightCategory": "VFR",
    "windDir": 260,
    "windSpeed": 12,
    "windGust": null,
    "visibility": 10,
    "ceiling": null,
    "temp": 17.2,
    "dewpoint": 11.7,
    "altimeter": 30.05,
    "conditions": "",
    "observationTime": "2026-04-22T02:00:00.000Z"
  },
  "ORD": {
    "raw": "METAR KORD 220151Z 22004KT 10SM SCT250 21/12 A2987 RMK AO2 SLP114 T02110117 $",
    "icao": "KORD",
    "flightCategory": "VFR",
    "windDir": 220,
    "windSpeed": 4,
    "windGust": null,
    "visibility": 10,
    "ceiling": null,
    "temp": 21.1,
    "dewpoint": 11.7,
    "altimeter": 29.87,
    "conditions": "",
    "observationTime": "2026-04-22T02:00:00.000Z"
  },
  "LHR": {
    "raw": "METAR EGLL 220120Z COR AUTO 05007KT 9999 NCD 06/03 Q1025 NOSIG",
    "icao": "EGLL",
    "flightCategory": "VFR",
    "windDir": 50,
    "windSpeed": 7,
    "windGust": null,
    "visibility": 6,
    "ceiling": null,
    "temp": 6,
    "dewpoint": 3,
    "altimeter": 30.27,
    "conditions": "",
    "observationTime": "2026-04-22T01:20:00.000Z"
  }
}