{
  "SYD": {
    "raw": "METAR YSSY 230330Z 15011KT 9999 FEW047 SCT280 22/11 Q1029",
    "icao": "YSSY",
    "flightCategory": "VFR",
    "windDir": 150,
    "windSpeed": 11,
    "windGust": null,
    "visibility": 6,
    "ceiling": null,
    "temp": 22,
    "dewpoint": 11,
    "altimeter": 30.39,
    "conditions": "",
    "observationTime": "2026-04-23T03:30:00.000Z"
  },
  "LAS": {
    "raw": "METAR KLAS 230356Z 27009KT 10SM CLR 21/M07 A2988 RMK AO2 SLP102 T02111072",
    "icao": "KLAS",
    "flightCategory": "VFR",
    "windDir": 270,
    "windSpeed": 9,
    "windGust": null,
    "visibility": 10,
    "ceiling": null,
    "temp": 21.1,
    "dewpoint": -7.2,
    "altimeter": 29.88,
    "conditions": "",
    "observationTime": "2026-04-23T04:00:00.000Z"
  },
  "LAX": {
    "raw": "METAR KLAX 230353Z 26017KT 10SM CLR 16/11 A3004 RMK AO2 SLP170 T01610111 $",
    "icao": "KLAX",
    "flightCategory": "VFR",
    "windDir": 260,
    "windSpeed": 17,
    "windGust": null,
    "visibility": 10,
    "ceiling": null,
    "temp": 16.1,
    "dewpoint": 11.1,
    "altimeter": 30.04,
    "conditions": "",
    "observationTime": "2026-04-23T04:00:00.000Z"
  },
  "ORD": {
    "raw": "METAR KORD 230351Z 10004KT 10SM FEW250 11/01 A2994 RMK AO2 SLP139 T01060011",
    "icao": "KORD",
    "flightCategory": "VFR",
    "windDir": 100,
    "windSpeed": 4,
    "windGust": null,
    "visibility": 10,
    "ceiling": null,
    "temp": 10.6,
    "dewpoint": 1.1,
    "altimeter": 29.94,
    "conditions": "",
    "observationTime": "2026-04-23T04:00:00.000Z"
  },
  "LHR": {
    "raw": "METAR EGLL 230320Z COR AUTO 05007KT 9999 NCD 07/05 Q1029 NOSIG",
    "icao": "EGLL",
    "flightCategory": "VFR",
    "windDir": 50,
    "windSpeed": 7,
    "windGust": null,
    "visibility": 6,
    "ceiling": null,
    "temp": 7,
    "dewpoint": 5,
    "altimeter": 30.39,
    "conditions": "",
    "observationTime": "2026-04-23T03:20:00.000Z"
  }
}