{
  "LHR": {
    "raw": "METAR EGLL 241450Z COR AUTO 11011KT 080V150 9999 NCD 20/M01 Q1023 NOSIG",
    "icao": "EGLL",
    "flightCategory": "VFR",
    "windDir": 110,
    "windSpeed": 11,
    "windGust": null,
    "visibility": 6,
    "ceiling": null,
    "temp": 20,
    "dewpoint": -1,
    "altimeter": 30.21,
    "conditions": "",
    "observationTime": "2026-04-24T15:00:00.000Z"
  },
  "SYD": {
    "raw": "METAR YSSY 241500Z AUTO 30006KT 9999 // FEW032 17/15 Q1031",
    "icao": "YSSY",
    "flightCategory": "VFR",
    "windDir": 300,
    "windSpeed": 6,
    "windGust": null,
    "visibility": 6,
    "ceiling": null,
    "temp": 17,
    "dewpoint": 15,
    "altimeter": 30.45,
    "conditions": "",
    "observationTime": "2026-04-24T15:00:00.000Z"
  },
  "LAS": {
    "raw": "SPECI KLAS 241436Z 20003KT 10SM FEW006 SCT250 17/M10 A2987 RMK AO2 FU FEW006 T01721100 $",
    "icao": "KLAS",
    "flightCategory": "VFR",
    "windDir": 200,
    "windSpeed": 3,
    "windGust": null,
    "visibility": 10,
    "ceiling": null,
    "temp": 17.2,
    "dewpoint": -10,
    "altimeter": 29.87,
    "conditions": "",
    "observationTime": "2026-04-24T14:36:00.000Z"
  },
  "LAX": {
    "raw": "METAR KLAX 241453Z 08007KT 10SM FEW010 FEW019 SCT160 BKN200 17/12 A2993 RMK AO2 SLP135 T01670122 53010 $",
    "icao": "KLAX",
    "flightCategory": "VFR",
    "windDir": 80,
    "windSpeed": 7,
    "windGust": null,
    "visibility": 10,
    "ceiling": 20000,
    "temp": 16.7,
    "dewpoint": 12.2,
    "altimeter": 29.93,
    "conditions": "",
    "observationTime": "2026-04-24T15:00:00.000Z"
  },
  "ORD": {
    "raw": "METAR KORD 241451Z 28012G21KT 10SM SCT026 BKN032 OVC110 19/13 A2967 RMK AO2 SLP042 T01940128 53021",
    "icao": "KORD",
    "flightCategory": "VFR",
    "windDir": 280,
    "windSpeed": 12,
    "windGust": 21,
    "visibility": 10,
    "ceiling": 3200,
    "temp": 19.4,
    "dewpoint": 12.8,
    "altimeter": 29.67,
    "conditions": "",
    "observationTime": "2026-04-24T15:00:00.000Z"
  }
}