{
  "SYD": {
    "raw": "METAR YSSY 071600Z AUTO 35005KT 9999 // NCD 11/08 Q1031",
    "icao": "YSSY",
    "flightCategory": "VFR",
    "windDir": 350,
    "windSpeed": 5,
    "windGust": null,
    "visibility": 6,
    "ceiling": null,
    "temp": 11,
    "dewpoint": 8,
    "altimeter": 30.45,
    "conditions": "",
    "observationTime": "2026-06-07T16:00:00.000Z"
  },
  "LHR": {
    "raw": "METAR EGLL 071550Z AUTO 23014KT 190V260 9999 OVC034 18/10 Q1020",
    "icao": "EGLL",
    "flightCategory": "VFR",
    "windDir": 230,
    "windSpeed": 14,
    "windGust": null,
    "visibility": 6,
    "ceiling": 3400,
    "temp": 18,
    "dewpoint": 10,
    "altimeter": 30.12,
    "conditions": "",
    "observationTime": "2026-06-07T16:00:00.000Z"
  },
  "LAS": {
    "raw": "METAR KLAS 071556Z 24013G24KT 10SM FEW150 FEW200 31/M02 A2972 RMK AO2 PK WND 21028/1501 SLP032 T03061017 $",
    "icao": "KLAS",
    "flightCategory": "VFR",
    "windDir": 240,
    "windSpeed": 13,
    "windGust": 24,
    "visibility": 10,
    "ceiling": null,
    "temp": 30.6,
    "dewpoint": -1.7,
    "altimeter": 29.72,
    "conditions": "",
    "observationTime": "2026-06-07T16:00:00.000Z"
  },
  "LAX": {
    "raw": "METAR KLAX 071553Z 23006KT 10SM FEW018 OVC025 19/14 A2984 RMK AO2 SLP103 T01890139 $",
    "icao": "KLAX",
    "flightCategory": "MVFR",
    "windDir": 230,
    "windSpeed": 6,
    "windGust": null,
    "visibility": 10,
    "ceiling": 2500,
    "temp": 18.9,
    "dewpoint": 13.9,
    "altimeter": 29.84,
    "conditions": "",
    "observationTime": "2026-06-07T16:00:00.000Z"
  },
  "ORD": {
    "raw": "METAR KORD 071551Z 09010G18KT 10SM SCT250 27/15 A2997 RMK AO2 SLP143 T02720150 $",
    "icao": "KORD",
    "flightCategory": "VFR",
    "windDir": 90,
    "windSpeed": 10,
    "windGust": 18,
    "visibility": 10,
    "ceiling": null,
    "temp": 27.2,
    "dewpoint": 15,
    "altimeter": 29.97,
    "conditions": "",
    "observationTime": "2026-06-07T16:00:00.000Z"
  }
}