{
  "SYD": {
    "raw": "METAR YSSY 020130Z 35015KT 9999 FEW040 SCT110 BKN170 18/08 Q1003",
    "icao": "YSSY",
    "flightCategory": "VFR",
    "windDir": 350,
    "windSpeed": 15,
    "windGust": null,
    "visibility": 6,
    "ceiling": 17000,
    "temp": 18,
    "dewpoint": 8,
    "altimeter": 29.62,
    "conditions": "",
    "observationTime": "2026-06-02T01:30:00.000Z"
  },
  "LAS": {
    "raw": "METAR KLAS 020156Z 10008KT 10SM CLR 36/M04 A2980 RMK AO2 SLP062 T03561039",
    "icao": "KLAS",
    "flightCategory": "VFR",
    "windDir": 100,
    "windSpeed": 8,
    "windGust": null,
    "visibility": 10,
    "ceiling": null,
    "temp": 35.6,
    "dewpoint": -3.9,
    "altimeter": 29.8,
    "conditions": "",
    "observationTime": "2026-06-02T02:00:00.000Z"
  },
  "LAX": {
    "raw": "METAR KLAX 020153Z 25010KT 10SM FEW015 18/14 A2994 RMK AO2 SLP139 T01830139 $",
    "icao": "KLAX",
    "flightCategory": "VFR",
    "windDir": 250,
    "windSpeed": 10,
    "windGust": null,
    "visibility": 10,
    "ceiling": null,
    "temp": 18.3,
    "dewpoint": 13.9,
    "altimeter": 29.94,
    "conditions": "",
    "observationTime": "2026-06-02T02:00:00.000Z"
  },
  "ORD": {
    "raw": "METAR KORD 020151Z 02009KT 10SM FEW210 BKN250 17/04 A3014 RMK AO2 SLP205 T01720039 $",
    "icao": "KORD",
    "flightCategory": "VFR",
    "windDir": 20,
    "windSpeed": 9,
    "windGust": null,
    "visibility": 10,
    "ceiling": 25000,
    "temp": 17.2,
    "dewpoint": 3.9,
    "altimeter": 30.14,
    "conditions": "",
    "observationTime": "2026-06-02T02:00:00.000Z"
  },
  "LHR": {
    "raw": "METAR EGLL 020150Z 16010KT 5000 -RA SCT004 BKN012 BKN029CB 15/14 Q1005 RERA",
    "icao": "EGLL",
    "flightCategory": "MVFR",
    "windDir": 160,
    "windSpeed": 10,
    "windGust": null,
    "visibility": 3.11,
    "ceiling": 1200,
    "temp": 15,
    "dewpoint": 14,
    "altimeter": 29.68,
    "conditions": "-RA",
    "observationTime": "2026-06-02T02:00:00.000Z"
  }
}