{
  "LHR": {
    "raw": "METAR EGLL 082050Z AUTO 22011KT 9999 NCD 28/15 Q1018",
    "icao": "EGLL",
    "flightCategory": "VFR",
    "windDir": 220,
    "windSpeed": 11,
    "windGust": null,
    "visibility": 6,
    "ceiling": null,
    "temp": 28,
    "dewpoint": 15,
    "altimeter": 30.06,
    "conditions": "",
    "observationTime": "2026-07-08T21:00:00.000Z"
  },
  "SYD": {
    "raw": "SPECI YSSY 082100Z 29007KT 6000 SHRA SCT018 BKN025 BKN045 12/11 Q1029",
    "icao": "YSSY",
    "flightCategory": "MVFR",
    "windDir": 290,
    "windSpeed": 7,
    "windGust": null,
    "visibility": 3.73,
    "ceiling": 2500,
    "temp": 12,
    "dewpoint": 11,
    "altimeter": 30.39,
    "conditions": "SHRA",
    "observationTime": "2026-07-08T21:00:00.000Z"
  },
  "LAS": {
    "raw": "METAR KLAS 082056Z 21009G18KT 10SM CLR 42/M05 A2990 RMK AO2 SLP089 T04171050 58019",
    "icao": "KLAS",
    "flightCategory": "VFR",
    "windDir": 210,
    "windSpeed": 9,
    "windGust": 18,
    "visibility": 10,
    "ceiling": null,
    "temp": 41.7,
    "dewpoint": -5,
    "altimeter": 29.9,
    "conditions": "",
    "observationTime": "2026-07-08T21:00:00.000Z"
  },
  "LAX": {
    "raw": "METAR KLAX 082053Z 25011KT 10SM FEW010 FEW025 23/16 A2995 RMK AO2 SLP139 T02280161 58009",
    "icao": "KLAX",
    "flightCategory": "VFR",
    "windDir": 250,
    "windSpeed": 11,
    "windGust": null,
    "visibility": 10,
    "ceiling": null,
    "temp": 22.8,
    "dewpoint": 16.1,
    "altimeter": 29.95,
    "conditions": "",
    "observationTime": "2026-07-08T21:00:00.000Z"
  },
  "ORD": {
    "raw": "METAR KORD 082051Z 17009KT 10SM FEW050 FEW250 31/18 A2995 RMK AO2 SLP136 T03110178 58023",
    "icao": "KORD",
    "flightCategory": "VFR",
    "windDir": 170,
    "windSpeed": 9,
    "windGust": null,
    "visibility": 10,
    "ceiling": null,
    "temp": 31.1,
    "dewpoint": 17.8,
    "altimeter": 29.95,
    "conditions": "",
    "observationTime": "2026-07-08T21:00:00.000Z"
  }
}