{
  "SYD": {
    "raw": "METAR YSSY 270300Z 09004KT 9999 FEW020 SCT180 21/17 Q1017",
    "icao": "YSSY",
    "flightCategory": "VFR",
    "windDir": 90,
    "windSpeed": 4,
    "windGust": null,
    "visibility": 6,
    "ceiling": null,
    "temp": 21,
    "dewpoint": 17,
    "altimeter": 30.03,
    "conditions": "",
    "observationTime": "2026-05-27T03:00:00.000Z"
  },
  "LHR": {
    "raw": "METAR EGLL 270250Z AUTO 04005KT 9999 NCD 21/15 Q1024",
    "icao": "EGLL",
    "flightCategory": "VFR",
    "windDir": 40,
    "windSpeed": 5,
    "windGust": null,
    "visibility": 6,
    "ceiling": null,
    "temp": 21,
    "dewpoint": 15,
    "altimeter": 30.24,
    "conditions": "",
    "observationTime": "2026-05-27T03:00:00.000Z"
  },
  "LAS": {
    "raw": "METAR KLAS 270256Z 23017G26KT 10SM FEW180 26/01 A2949 RMK AO2 PK WND 24029/0237 SLP962 T02560006 55000",
    "icao": "KLAS",
    "flightCategory": "VFR",
    "windDir": 230,
    "windSpeed": 17,
    "windGust": 26,
    "visibility": 10,
    "ceiling": null,
    "temp": 25.6,
    "dewpoint": 0.6,
    "altimeter": 29.49,
    "conditions": "",
    "observationTime": "2026-05-27T03:00:00.000Z"
  },
  "LAX": {
    "raw": "METAR KLAX 270253Z 26017KT 10SM FEW020 FEW060 16/11 A2978 RMK AO2 SLP083 T01610106 55005 $",
    "icao": "KLAX",
    "flightCategory": "VFR",
    "windDir": 260,
    "windSpeed": 17,
    "windGust": null,
    "visibility": 10,
    "ceiling": null,
    "temp": 16.1,
    "dewpoint": 10.6,
    "altimeter": 29.78,
    "conditions": "",
    "observationTime": "2026-05-27T03:00:00.000Z"
  },
  "ORD": {
    "raw": "METAR KORD 270251Z 15003KT 10SM FEW250 23/09 A2998 RMK AO2 SLP146 T02280094 53006 $",
    "icao": "KORD",
    "flightCategory": "VFR",
    "windDir": 150,
    "windSpeed": 3,
    "windGust": null,
    "visibility": 10,
    "ceiling": null,
    "temp": 22.8,
    "dewpoint": 9.4,
    "altimeter": 29.98,
    "conditions": "",
    "observationTime": "2026-05-27T03:00:00.000Z"
  }
}