{
  "SYD": {
    "raw": "SPECI YSSY 161152Z AUTO 19010KT 8000 -SHRA FEW006 SCT016 BKN031 14/13 Q1034",
    "icao": "YSSY",
    "flightCategory": "MVFR",
    "windDir": 190,
    "windSpeed": 10,
    "windGust": null,
    "visibility": 4.97,
    "ceiling": 3100,
    "temp": 14,
    "dewpoint": 13,
    "altimeter": 30.53,
    "conditions": "-SHRA",
    "observationTime": "2026-07-16T11:52:00.000Z"
  },
  "LHR": {
    "raw": "METAR EGLL 161220Z AUTO 05007KT 360V100 9999 NCD 27/13 Q1019",
    "icao": "EGLL",
    "flightCategory": "VFR",
    "windDir": 50,
    "windSpeed": 7,
    "windGust": null,
    "visibility": 6,
    "ceiling": null,
    "temp": 27,
    "dewpoint": 13,
    "altimeter": 30.09,
    "conditions": "",
    "observationTime": "2026-07-16T12:20:00.000Z"
  },
  "LAS": {
    "raw": "METAR KLAS 161156Z 31003KT 10SM FEW180 BKN250 33/09 A2982 RMK AO2 SLP063 T03280094 10378 20328 52002",
    "icao": "KLAS",
    "flightCategory": "VFR",
    "windDir": 310,
    "windSpeed": 3,
    "windGust": null,
    "visibility": 10,
    "ceiling": 25000,
    "temp": 32.8,
    "dewpoint": 9.4,
    "altimeter": 29.82,
    "conditions": "",
    "observationTime": "2026-07-16T12:00:00.000Z"
  },
  "LAX": {
    "raw": "METAR KLAX 161153Z 10006KT 10SM FEW010 21/19 A2980 RMK AO2 SLP087 T02110189 10222 20206 58003 $",
    "icao": "KLAX",
    "flightCategory": "VFR",
    "windDir": 100,
    "windSpeed": 6,
    "windGust": null,
    "visibility": 10,
    "ceiling": null,
    "temp": 21.1,
    "dewpoint": 18.9,
    "altimeter": 29.8,
    "conditions": "",
    "observationTime": "2026-07-16T12:00:00.000Z"
  }
}