{
  "SYD": {
    "raw": "METAR YSSY 011130Z AUTO 23005KT 9999 // BKN075 19/16 Q1027",
    "icao": "YSSY",
    "flightCategory": "VFR",
    "windDir": 230,
    "windSpeed": 5,
    "windGust": null,
    "visibility": 6,
    "ceiling": 7500,
    "temp": 19,
    "dewpoint": 16,
    "altimeter": 30.33,
    "conditions": "",
    "observationTime": "2026-05-01T11:30:00.000Z"
  },
  "LAS": {
    "raw": "METAR KLAS 011156Z 00000KT 10SM CLR 19/M04 A2992 RMK AO2 SLP110 T01941039 10244 20189 53010",
    "icao": "KLAS",
    "flightCategory": "VFR",
    "windDir": 0,
    "windSpeed": 0,
    "windGust": null,
    "visibility": 10,
    "ceiling": null,
    "temp": 19.4,
    "dewpoint": -3.9,
    "altimeter": 29.92,
    "conditions": "",
    "observationTime": "2026-05-01T12:00:00.000Z"
  },
  "LAX": {
    "raw": "METAR KLAX 011153Z 00000KT 10SM FEW011 OVC017 17/13 A2993 RMK AO2 SLP133 T01670128 10167 20156 55001",
    "icao": "KLAX",
    "flightCategory": "MVFR",
    "windDir": 0,
    "windSpeed": 0,
    "windGust": null,
    "visibility": 10,
    "ceiling": 1700,
    "temp": 16.7,
    "dewpoint": 12.8,
    "altimeter": 29.93,
    "conditions": "",
    "observationTime": "2026-05-01T12:00:00.000Z"
  },
  "ORD": {
    "raw": "METAR KORD 011151Z 34006KT 10SM FEW018 SCT038 SCT070 SCT150 05/03 A2999 RMK AO2 SLP159 60003 70021 T00500028 10056 20039 53009 $",
    "icao": "KORD",
    "flightCategory": "VFR",
    "windDir": 340,
    "windSpeed": 6,
    "windGust": null,
    "visibility": 10,
    "ceiling": null,
    "temp": 5,
    "dewpoint": 2.8,
    "altimeter": 29.99,
    "conditions": "",
    "observationTime": "2026-05-01T12:00:00.000Z"
  },
  "LHR": {
    "raw": "METAR EGLL 011150Z COR AUTO 16011KT 110V190 9999 NCD 24/06 Q1019 NOSIG",
    "icao": "EGLL",
    "flightCategory": "VFR",
    "windDir": 160,
    "windSpeed": 11,
    "windGust": null,
    "visibility": 6,
    "ceiling": null,
    "temp": 24,
    "dewpoint": 6,
    "altimeter": 30.09,
    "conditions": "",
    "observationTime": "2026-05-01T12:00:00.000Z"
  }
}