{
  "LHR": {
    "raw": "METAR EGLL 302150Z COR AUTO 07007KT 9999 NCD 13/04 Q1021 NOSIG",
    "icao": "EGLL",
    "flightCategory": "VFR",
    "windDir": 70,
    "windSpeed": 7,
    "windGust": null,
    "visibility": 6,
    "ceiling": null,
    "temp": 13,
    "dewpoint": 4,
    "altimeter": 30.15,
    "conditions": "",
    "observationTime": "2026-04-30T22:00:00.000Z"
  },
  "LAS": {
    "raw": "METAR KLAS 302156Z VRB04G18KT 10SM FEW120 27/M04 A2984 RMK AO2 SLP084 T02721039",
    "icao": "KLAS",
    "flightCategory": "VFR",
    "windDir": null,
    "windSpeed": 4,
    "windGust": 18,
    "visibility": 10,
    "ceiling": null,
    "temp": 27.2,
    "dewpoint": -3.9,
    "altimeter": 29.84,
    "conditions": "",
    "observationTime": "2026-04-30T22:00:00.000Z"
  },
  "SYD": {
    "raw": "METAR YSSY 302200Z AUTO 05005KT 9999 // FEW047 SCT052 OVC072 18/15 Q1030",
    "icao": "YSSY",
    "flightCategory": "VFR",
    "windDir": 50,
    "windSpeed": 5,
    "windGust": null,
    "visibility": 6,
    "ceiling": 7200,
    "temp": 18,
    "dewpoint": 15,
    "altimeter": 30.42,
    "conditions": "",
    "observationTime": "2026-04-30T22:00:00.000Z"
  },
  "LAX": {
    "raw": "METAR KLAX 302153Z 25013G23KT 10SM FEW010 FEW050 20/13 A2987 RMK AO2 SLP115 T02000128",
    "icao": "KLAX",
    "flightCategory": "VFR",
    "windDir": 250,
    "windSpeed": 13,
    "windGust": 23,
    "visibility": 10,
    "ceiling": null,
    "temp": 20,
    "dewpoint": 12.8,
    "altimeter": 29.87,
    "conditions": "",
    "observationTime": "2026-04-30T22:00:00.000Z"
  },
  "ORD": {
    "raw": "METAR KORD 302151Z 09007KT 10SM -RA BKN042 OVC060 08/02 A2996 RMK AO2 RAB04E12B43 SLP150 P0000 T00780022",
    "icao": "KORD",
    "flightCategory": "VFR",
    "windDir": 90,
    "windSpeed": 7,
    "windGust": null,
    "visibility": 10,
    "ceiling": 4200,
    "temp": 7.8,
    "dewpoint": 2.2,
    "altimeter": 29.96,
    "conditions": "-RA",
    "observationTime": "2026-04-30T22:00:00.000Z"
  }
}