{
  "LAX": {
    "raw": "METAR KLAX 151453Z 08003KT 10SM FEW009 FEW250 16/11 A3004 RMK AO2 SLP170 T01560106 53010",
    "icao": "KLAX",
    "flightCategory": "VFR",
    "windDir": 80,
    "windSpeed": 3,
    "windGust": null,
    "visibility": 10,
    "ceiling": null,
    "temp": 15.6,
    "dewpoint": 10.6,
    "altimeter": 30.04,
    "conditions": "",
    "observationTime": "2026-04-15T15:00:00.000Z"
  },
  "ORD": {
    "raw": "METAR KORD 151451Z 20003KT 10SM -RA OVC100 17/15 A2976 RMK AO2 RAB00E19B44 SLP074 P0000 60006 T01720150 56014",
    "icao": "KORD",
    "flightCategory": "VFR",
    "windDir": 200,
    "windSpeed": 3,
    "windGust": null,
    "visibility": 10,
    "ceiling": 10000,
    "temp": 17.2,
    "dewpoint": 15,
    "altimeter": 29.76,
    "conditions": "-RA",
    "observationTime": "2026-04-15T15:00:00.000Z"
  },
  "LHR": {
    "raw": "METAR EGLL 151420Z COR AUTO 22020KT 190V250 9999 SCT035 BKN046 16/08 Q1014 NOSIG",
    "icao": "EGLL",
    "flightCategory": "VFR",
    "windDir": 220,
    "windSpeed": 20,
    "windGust": null,
    "visibility": 6,
    "ceiling": 4600,
    "temp": 16,
    "dewpoint": 8,
    "altimeter": 29.94,
    "conditions": "",
    "observationTime": "2026-04-15T14:20:00.000Z"
  },
  "SYD": {
    "raw": "METAR YSSY 151400Z AUTO 36006KT 9999 // NCD 18/13 Q1019",
    "icao": "YSSY",
    "flightCategory": "VFR",
    "windDir": 360,
    "windSpeed": 6,
    "windGust": null,
    "visibility": 6,
    "ceiling": null,
    "temp": 18,
    "dewpoint": 13,
    "altimeter": 30.09,
    "conditions": "",
    "observationTime": "2026-04-15T14:00:00.000Z"
  },
  "LAS": {
    "raw": "METAR KLAS 151356Z 00000KT 10SM CLR 16/M06 A3001 RMK AO2 SLP149 T01561061",
    "icao": "KLAS",
    "flightCategory": "VFR",
    "windDir": 0,
    "windSpeed": 0,
    "windGust": null,
    "visibility": 10,
    "ceiling": null,
    "temp": 15.6,
    "dewpoint": -6.1,
    "altimeter": 30.01,
    "conditions": "",
    "observationTime": "2026-04-15T14:00:00.000Z"
  }
}