{
  "SYD": {
    "raw": "METAR YSSY 141900Z AUTO 30007KT 9999 // NCD 13/10 Q1018",
    "icao": "YSSY",
    "flightCategory": "VFR",
    "windDir": 300,
    "windSpeed": 7,
    "windGust": null,
    "visibility": 6,
    "ceiling": null,
    "temp": 13,
    "dewpoint": 10,
    "altimeter": 30.06,
    "conditions": "",
    "observationTime": "2026-04-14T19:00:00.000Z"
  },
  "LHR": {
    "raw": "METAR EGLL 141850Z COR AUTO 18014KT 130V230 9999 BKN027 OVC032 13/07 Q1018 NOSIG",
    "icao": "EGLL",
    "flightCategory": "MVFR",
    "windDir": 180,
    "windSpeed": 14,
    "windGust": null,
    "visibility": 6,
    "ceiling": 2700,
    "temp": 13,
    "dewpoint": 7,
    "altimeter": 30.06,
    "conditions": "",
    "observationTime": "2026-04-14T19:00:00.000Z"
  },
  "LAS": {
    "raw": "METAR KLAS 141856Z 00000KT 10SM FEW085 19/M02 A3004 RMK AO2 SLP161 T01941017 PNO $",
    "icao": "KLAS",
    "flightCategory": "VFR",
    "windDir": 0,
    "windSpeed": 0,
    "windGust": null,
    "visibility": 10,
    "ceiling": null,
    "temp": 19.4,
    "dewpoint": -1.7,
    "altimeter": 30.04,
    "conditions": "",
    "observationTime": "2026-04-14T19:00:00.000Z"
  },
  "LAX": {
    "raw": "METAR KLAX 141853Z 24007KT 210V290 10SM FEW010 FEW030 19/10 A3011 RMK AO2 SLP196 T01940100",
    "icao": "KLAX",
    "flightCategory": "VFR",
    "windDir": 240,
    "windSpeed": 7,
    "windGust": null,
    "visibility": 10,
    "ceiling": null,
    "temp": 19.4,
    "dewpoint": 10,
    "altimeter": 30.11,
    "conditions": "",
    "observationTime": "2026-04-14T19:00:00.000Z"
  },
  "ORD": {
    "raw": "METAR KORD 141851Z 24014G23KT 10SM SCT036 BKN250 27/17 A2977 RMK AO2 PK WND 23026/1759 SLP077 T02670172",
    "icao": "KORD",
    "flightCategory": "VFR",
    "windDir": 240,
    "windSpeed": 14,
    "windGust": 23,
    "visibility": 10,
    "ceiling": 25000,
    "temp": 26.7,
    "dewpoint": 17.2,
    "altimeter": 29.77,
    "conditions": "",
    "observationTime": "2026-04-14T19:00:00.000Z"
  }
}