{
  "SYD": {
    "raw": "METAR YSSY 210900Z AUTO 21009KT 9999 // FEW070 15/10 Q1027",
    "icao": "YSSY",
    "flightCategory": "VFR",
    "windDir": 210,
    "windSpeed": 9,
    "windGust": null,
    "visibility": 6,
    "ceiling": null,
    "temp": 15,
    "dewpoint": 10,
    "altimeter": 30.33,
    "conditions": "",
    "observationTime": "2026-06-21T09:00:00.000Z"
  },
  "LHR": {
    "raw": "METAR EGLL 210850Z AUTO VRB02KT 9999 NCD 25/17 Q1025",
    "icao": "EGLL",
    "flightCategory": "VFR",
    "windDir": null,
    "windSpeed": 2,
    "windGust": null,
    "visibility": 6,
    "ceiling": null,
    "temp": 25,
    "dewpoint": 17,
    "altimeter": 30.27,
    "conditions": "",
    "observationTime": "2026-06-21T09:00:00.000Z"
  },
  "LAS": {
    "raw": "METAR KLAS 210856Z 18008KT 10SM CLR 29/M05 A2976 RMK A02 SLP046 T02891050 50002",
    "icao": "KLAS",
    "flightCategory": "VFR",
    "windDir": 180,
    "windSpeed": 8,
    "windGust": null,
    "visibility": 10,
    "ceiling": null,
    "temp": 28.9,
    "dewpoint": -5,
    "altimeter": 29.76,
    "conditions": "",
    "observationTime": "2026-06-21T09:00:00.000Z"
  },
  "LAX": {
    "raw": "METAR KLAX 210853Z 00000KT 9SM CLR 16/14 A2990 RMK AO2 SLP122 T01610144 57012",
    "icao": "KLAX",
    "flightCategory": "VFR",
    "windDir": 0,
    "windSpeed": 0,
    "windGust": null,
    "visibility": 9,
    "ceiling": null,
    "temp": 16.1,
    "dewpoint": 14.4,
    "altimeter": 29.9,
    "conditions": "",
    "observationTime": "2026-06-21T09:00:00.000Z"
  },
  "ORD": {
    "raw": "METAR KORD 210851Z 00000KT 10SM FEW065 BKN250 17/12 A2993 RMK AO2 SLP131 T01670122 56001 $",
    "icao": "KORD",
    "flightCategory": "VFR",
    "windDir": 0,
    "windSpeed": 0,
    "windGust": null,
    "visibility": 10,
    "ceiling": 25000,
    "temp": 16.7,
    "dewpoint": 12.2,
    "altimeter": 29.93,
    "conditions": "",
    "observationTime": "2026-06-21T09:00:00.000Z"
  }
}