{
  "SYD": {
    "raw": "METAR YSSY 052000Z 31008KT 9999 FEW032 12/08 Q1020",
    "icao": "YSSY",
    "flightCategory": "VFR",
    "windDir": 310,
    "windSpeed": 8,
    "windGust": null,
    "visibility": 6,
    "ceiling": null,
    "temp": 12,
    "dewpoint": 8,
    "altimeter": 30.12,
    "conditions": "",
    "observationTime": "2026-05-05T20:00:00.000Z"
  },
  "LHR": {
    "raw": "METAR EGLL 051950Z COR AUTO 03007KT 9999 NCD 14/06 Q1012 NOSIG",
    "icao": "EGLL",
    "flightCategory": "VFR",
    "windDir": 30,
    "windSpeed": 7,
    "windGust": null,
    "visibility": 6,
    "ceiling": null,
    "temp": 14,
    "dewpoint": 6,
    "altimeter": 29.88,
    "conditions": "",
    "observationTime": "2026-05-05T20:00:00.000Z"
  },
  "LAS": {
    "raw": "METAR KLAS 051956Z 19006KT 10SM SCT120 BKN250 22/M02 A2983 RMK AO2 SLP087 T02171017",
    "icao": "KLAS",
    "flightCategory": "VFR",
    "windDir": 190,
    "windSpeed": 6,
    "windGust": null,
    "visibility": 10,
    "ceiling": 25000,
    "temp": 21.7,
    "dewpoint": -1.7,
    "altimeter": 29.83,
    "conditions": "",
    "observationTime": "2026-05-05T20:00:00.000Z"
  },
  "LAX": {
    "raw": "METAR KLAX 051953Z 26015KT 10SM FEW010 FEW050 SCT075 BKN180 18/09 A2998 RMK AO2 SLP151 T01830089",
    "icao": "KLAX",
    "flightCategory": "VFR",
    "windDir": 260,
    "windSpeed": 15,
    "windGust": null,
    "visibility": 10,
    "ceiling": 18000,
    "temp": 18.3,
    "dewpoint": 8.9,
    "altimeter": 29.98,
    "conditions": "",
    "observationTime": "2026-05-05T20:00:00.000Z"
  },
  "ORD": {
    "raw": "METAR KORD 051951Z 28005KT 10SM FEW090 BKN160 OVC250 13/M06 A2979 RMK AO2 SLP086 T01331056",
    "icao": "KORD",
    "flightCategory": "VFR",
    "windDir": 280,
    "windSpeed": 5,
    "windGust": null,
    "visibility": 10,
    "ceiling": 16000,
    "temp": 13.3,
    "dewpoint": -5.6,
    "altimeter": 29.79,
    "conditions": "",
    "observationTime": "2026-05-05T20:00:00.000Z"
  }
}