{
  "SYD": {
    "raw": "METAR YSSY 261830Z AUTO 35006KT 9999 // NCD 13/10 Q1023",
    "icao": "YSSY",
    "flightCategory": "VFR",
    "windDir": 350,
    "windSpeed": 6,
    "windGust": null,
    "visibility": 6,
    "ceiling": null,
    "temp": 13,
    "dewpoint": 10,
    "altimeter": 30.21,
    "conditions": "",
    "observationTime": "2026-04-26T18:30:00.000Z"
  },
  "LAS": {
    "raw": "METAR KLAS 261856Z 21013G21KT 10SM SCT060 BKN100 18/01 A2977 RMK AO2 SLP068 T01780011",
    "icao": "KLAS",
    "flightCategory": "VFR",
    "windDir": 210,
    "windSpeed": 13,
    "windGust": 21,
    "visibility": 10,
    "ceiling": 10000,
    "temp": 17.8,
    "dewpoint": 1.1,
    "altimeter": 29.77,
    "conditions": "",
    "observationTime": "2026-04-26T19:00:00.000Z"
  },
  "LAX": {
    "raw": "METAR KLAX 261853Z 23014KT 10SM SCT024 SCT055 17/09 A2996 RMK AO2 SLP144 T01720094 $",
    "icao": "KLAX",
    "flightCategory": "VFR",
    "windDir": 230,
    "windSpeed": 14,
    "windGust": null,
    "visibility": 10,
    "ceiling": null,
    "temp": 17.2,
    "dewpoint": 9.4,
    "altimeter": 29.96,
    "conditions": "",
    "observationTime": "2026-04-26T19:00:00.000Z"
  },
  "ORD": {
    "raw": "METAR KORD 261851Z 06011KT 10SM FEW019 SCT250 13/08 A3005 RMK AO2 SLP179 T01330078 $",
    "icao": "KORD",
    "flightCategory": "VFR",
    "windDir": 60,
    "windSpeed": 11,
    "windGust": null,
    "visibility": 10,
    "ceiling": null,
    "temp": 13.3,
    "dewpoint": 7.8,
    "altimeter": 30.05,
    "conditions": "",
    "observationTime": "2026-04-26T19:00:00.000Z"
  },
  "LHR": {
    "raw": "METAR EGLL 261820Z COR AUTO 10009KT 9999 NCD 16/04 Q1023 NOSIG",
    "icao": "EGLL",
    "flightCategory": "VFR",
    "windDir": 100,
    "windSpeed": 9,
    "windGust": null,
    "visibility": 6,
    "ceiling": null,
    "temp": 16,
    "dewpoint": 4,
    "altimeter": 30.21,
    "conditions": "",
    "observationTime": "2026-04-26T18:20:00.000Z"
  }
}