{
  "SYD": {
    "raw": "METAR YSSY 081900Z AUTO 31009KT 9999 // OVC062 14/08 Q1022",
    "icao": "YSSY",
    "flightCategory": "VFR",
    "windDir": 310,
    "windSpeed": 9,
    "windGust": null,
    "visibility": 6,
    "ceiling": 6200,
    "temp": 14,
    "dewpoint": 8,
    "altimeter": 30.18,
    "conditions": "",
    "observationTime": "2026-05-08T19:00:00.000Z"
  },
  "LHR": {
    "raw": "METAR EGLL 081850Z COR AUTO 09010KT 9999 NCD 16/07 Q1017 NOSIG",
    "icao": "EGLL",
    "flightCategory": "VFR",
    "windDir": 90,
    "windSpeed": 10,
    "windGust": null,
    "visibility": 6,
    "ceiling": null,
    "temp": 16,
    "dewpoint": 7,
    "altimeter": 30.03,
    "conditions": "",
    "observationTime": "2026-05-08T19:00:00.000Z"
  },
  "LAS": {
    "raw": "METAR KLAS 081856Z 02005KT 10SM CLR 34/M03 A2990 RMK AO2 SLP096 T03441028",
    "icao": "KLAS",
    "flightCategory": "VFR",
    "windDir": 20,
    "windSpeed": 5,
    "windGust": null,
    "visibility": 10,
    "ceiling": null,
    "temp": 34.4,
    "dewpoint": -2.8,
    "altimeter": 29.9,
    "conditions": "",
    "observationTime": "2026-05-08T19:00:00.000Z"
  },
  "LAX": {
    "raw": "METAR KLAX 081853Z 26008KT 9SM OVC018 18/14 A3001 RMK AO2 SLP162 T01830139",
    "icao": "KLAX",
    "flightCategory": "MVFR",
    "windDir": 260,
    "windSpeed": 8,
    "windGust": null,
    "visibility": 9,
    "ceiling": 1800,
    "temp": 18.3,
    "dewpoint": 13.9,
    "altimeter": 30.01,
    "conditions": "",
    "observationTime": "2026-05-08T19:00:00.000Z"
  },
  "ORD": {
    "raw": "METAR KORD 081851Z 12005KT 10SM SCT065 BKN250 19/03 A2976 RMK AO2 SLP078 T01890033",
    "icao": "KORD",
    "flightCategory": "VFR",
    "windDir": 120,
    "windSpeed": 5,
    "windGust": null,
    "visibility": 10,
    "ceiling": 25000,
    "temp": 18.9,
    "dewpoint": 3.3,
    "altimeter": 29.76,
    "conditions": "",
    "observationTime": "2026-05-08T19:00:00.000Z"
  }
}