{
  "SYD": {
    "raw": "SPECI YSSY 291257Z AUTO 25010KT 9999 // NCD 15/09 Q1006",
    "icao": "YSSY",
    "flightCategory": "VFR",
    "windDir": 250,
    "windSpeed": 10,
    "windGust": null,
    "visibility": 6,
    "ceiling": null,
    "temp": 15,
    "dewpoint": 9,
    "altimeter": 29.71,
    "conditions": "",
    "observationTime": "2026-05-29T12:57:00.000Z"
  },
  "LHR": {
    "raw": "METAR EGLL 291250Z AUTO 26011KT 240V300 9999 NCD 23/07 Q1023",
    "icao": "EGLL",
    "flightCategory": "VFR",
    "windDir": 260,
    "windSpeed": 11,
    "windGust": null,
    "visibility": 6,
    "ceiling": null,
    "temp": 23,
    "dewpoint": 7,
    "altimeter": 30.21,
    "conditions": "",
    "observationTime": "2026-05-29T13:00:00.000Z"
  },
  "LAS": {
    "raw": "METAR KLAS 291256Z 20009KT 10SM SCT100 BKN140 17/02 A2982 RMK AO2 SLP079 T01670022",
    "icao": "KLAS",
    "flightCategory": "VFR",
    "windDir": 200,
    "windSpeed": 9,
    "windGust": null,
    "visibility": 10,
    "ceiling": 14000,
    "temp": 16.7,
    "dewpoint": 2.2,
    "altimeter": 29.82,
    "conditions": "",
    "observationTime": "2026-05-29T13:00:00.000Z"
  },
  "LAX": {
    "raw": "METAR KLAX 291253Z 28008KT 10SM FEW020 BKN065 15/11 A2997 RMK AO2 SLP148 T01500111 $",
    "icao": "KLAX",
    "flightCategory": "VFR",
    "windDir": 280,
    "windSpeed": 8,
    "windGust": null,
    "visibility": 10,
    "ceiling": 6500,
    "temp": 15,
    "dewpoint": 11.1,
    "altimeter": 29.97,
    "conditions": "",
    "observationTime": "2026-05-29T13:00:00.000Z"
  },
  "ORD": {
    "raw": "METAR KORD 291251Z 16004KT 10SM BKN300 17/10 A3010 RMK AO2 SLP194 T01670100",
    "icao": "KORD",
    "flightCategory": "VFR",
    "windDir": 160,
    "windSpeed": 4,
    "windGust": null,
    "visibility": 10,
    "ceiling": 30000,
    "temp": 16.7,
    "dewpoint": 10,
    "altimeter": 30.1,
    "conditions": "",
    "observationTime": "2026-05-29T13:00:00.000Z"
  }
}