{
  "LHR": {
    "raw": "METAR EGLL 052350Z COR AUTO 27006KT 9999 NCD 05/M00 Q1026 NOSIG",
    "icao": "EGLL",
    "flightCategory": "VFR",
    "windDir": 270,
    "windSpeed": 6,
    "windGust": null,
    "visibility": 6,
    "ceiling": null,
    "temp": 5,
    "dewpoint": 0,
    "altimeter": 30.3,
    "conditions": "",
    "observationTime": "2026-04-06T00:00:00.000Z"
  },
  "SYD": {
    "raw": "METAR YSSY 060000Z 27004KT 180V300 9999 FEW035 SCT100 BKN250 20/13 Q1020",
    "icao": "YSSY",
    "flightCategory": "VFR",
    "windDir": 270,
    "windSpeed": 4,
    "windGust": null,
    "visibility": 6,
    "ceiling": 25000,
    "temp": 20,
    "dewpoint": 13,
    "altimeter": 30.12,
    "conditions": "",
    "observationTime": "2026-04-06T00:00:00.000Z"
  },
  "LAS": {
    "raw": "METAR KLAS 052356Z VRB03KT 10SM FEW200 SCT250 28/M10 A3000 RMK AO2 SLP140 T02831100 10289 20239 56021",
    "icao": "KLAS",
    "flightCategory": "VFR",
    "windDir": null,
    "windSpeed": 3,
    "windGust": null,
    "visibility": 10,
    "ceiling": null,
    "temp": 28.3,
    "dewpoint": -10,
    "altimeter": 30,
    "conditions": "",
    "observationTime": "2026-04-06T00:00:00.000Z"
  },
  "LAX": {
    "raw": "METAR KLAX 052353Z 25009KT 10SM FEW150 BKN250 22/09 A2997 RMK AO2 SLP146 T02220089 10239 20217 56012 $",
    "icao": "KLAX",
    "flightCategory": "VFR",
    "windDir": 250,
    "windSpeed": 9,
    "windGust": null,
    "visibility": 10,
    "ceiling": 25000,
    "temp": 22.2,
    "dewpoint": 8.9,
    "altimeter": 29.97,
    "conditions": "",
    "observationTime": "2026-04-06T00:00:00.000Z"
  },
  "ORD": {
    "raw": "METAR KORD 052351Z 27008KT 10SM FEW035 FEW250 11/M04 A3015 RMK AO2 SLP212 T01061044 10117 20083 50000 $",
    "icao": "KORD",
    "flightCategory": "VFR",
    "windDir": 270,
    "windSpeed": 8,
    "windGust": null,
    "visibility": 10,
    "ceiling": null,
    "temp": 10.6,
    "dewpoint": -4.4,
    "altimeter": 30.15,
    "conditions": "",
    "observationTime": "2026-04-06T00:00:00.000Z"
  }
}