{
  "SYD": {
    "raw": "METAR YSSY 301900Z AUTO 31006KT 9999 // NCD 12/07 Q1007",
    "icao": "YSSY",
    "flightCategory": "VFR",
    "windDir": 310,
    "windSpeed": 6,
    "windGust": null,
    "visibility": 6,
    "ceiling": null,
    "temp": 12,
    "dewpoint": 7,
    "altimeter": 29.74,
    "conditions": "",
    "observationTime": "2026-05-30T19:00:00.000Z"
  },
  "LHR": {
    "raw": "METAR EGLL 301850Z AUTO 30008KT 9999 NCD 26/07 Q1016",
    "icao": "EGLL",
    "flightCategory": "VFR",
    "windDir": 300,
    "windSpeed": 8,
    "windGust": null,
    "visibility": 6,
    "ceiling": null,
    "temp": 26,
    "dewpoint": 7,
    "altimeter": 30,
    "conditions": "",
    "observationTime": "2026-05-30T19:00:00.000Z"
  },
  "LAS": {
    "raw": "METAR KLAS 301856Z COR VRB03KT 10SM FEW100 FEW250 27/00 A2996 RMK AO2 SLP126 T02720000",
    "icao": "KLAS",
    "flightCategory": "VFR",
    "windDir": null,
    "windSpeed": 3,
    "windGust": null,
    "visibility": 10,
    "ceiling": null,
    "temp": 27.2,
    "dewpoint": 0,
    "altimeter": 29.96,
    "conditions": "",
    "observationTime": "2026-05-30T19:00:00.000Z"
  },
  "LAX": {
    "raw": "METAR KLAX 301853Z 24012KT 10SM CLR 21/12 A3001 RMK AO2 SLP162 T02060122 $",
    "icao": "KLAX",
    "flightCategory": "VFR",
    "windDir": 240,
    "windSpeed": 12,
    "windGust": null,
    "visibility": 10,
    "ceiling": null,
    "temp": 20.6,
    "dewpoint": 12.2,
    "altimeter": 30.01,
    "conditions": "",
    "observationTime": "2026-05-30T19:00:00.000Z"
  },
  "ORD": {
    "raw": "METAR KORD 301851Z 05011G18KT 10SM BKN250 23/04 A3010 RMK AO2 SLP189 T02280044 $",
    "icao": "KORD",
    "flightCategory": "VFR",
    "windDir": 50,
    "windSpeed": 11,
    "windGust": 18,
    "visibility": 10,
    "ceiling": 25000,
    "temp": 22.8,
    "dewpoint": 4.4,
    "altimeter": 30.1,
    "conditions": "",
    "observationTime": "2026-05-30T19:00:00.000Z"
  }
}