{
  "LHR": {
    "raw": "METAR EGLL 240850Z AUTO 02006KT 340V070 9999 NCD 28/21 Q1018",
    "icao": "EGLL",
    "flightCategory": "VFR",
    "windDir": 20,
    "windSpeed": 6,
    "windGust": null,
    "visibility": 6,
    "ceiling": null,
    "temp": 28,
    "dewpoint": 21,
    "altimeter": 30.06,
    "conditions": "",
    "observationTime": "2026-06-24T09:00:00.000Z"
  },
  "SYD": {
    "raw": "METAR YSSY 240830Z AUTO 21011KT 9999 // SCT032 15/10 Q1030",
    "icao": "YSSY",
    "flightCategory": "VFR",
    "windDir": 210,
    "windSpeed": 11,
    "windGust": null,
    "visibility": 6,
    "ceiling": null,
    "temp": 15,
    "dewpoint": 10,
    "altimeter": 30.42,
    "conditions": "",
    "observationTime": "2026-06-24T08:30:00.000Z"
  },
  "LAS": {
    "raw": "METAR KLAS 240856Z 20006KT 10SM FEW095 SCT120 BKN150 33/11 A2993 RMK AO2 LTG DSNT N AND W SLP101 CB DSNT N AND W 60000 T03330111 56006 $",
    "icao": "KLAS",
    "flightCategory": "VFR",
    "windDir": 200,
    "windSpeed": 6,
    "windGust": null,
    "visibility": 10,
    "ceiling": 15000,
    "temp": 33.3,
    "dewpoint": 11.1,
    "altimeter": 29.93,
    "conditions": "",
    "observationTime": "2026-06-24T09:00:00.000Z"
  },
  "LAX": {
    "raw": "METAR KLAX 240853Z 28005KT 10SM BKN008 OVC011 17/15 A3001 RMK AO2 SLP161 T01720150 58005 $",
    "icao": "KLAX",
    "flightCategory": "IFR",
    "windDir": 280,
    "windSpeed": 5,
    "windGust": null,
    "visibility": 10,
    "ceiling": 800,
    "temp": 17.2,
    "dewpoint": 15,
    "altimeter": 30.01,
    "conditions": "",
    "observationTime": "2026-06-24T09:00:00.000Z"
  },
  "ORD": {
    "raw": "METAR KORD 240851Z 19004KT 10SM SCT055 BKN130 16/08 A3010 RMK AO2 SLP191 T01560083 58012 $",
    "icao": "KORD",
    "flightCategory": "VFR",
    "windDir": 190,
    "windSpeed": 4,
    "windGust": null,
    "visibility": 10,
    "ceiling": 13000,
    "temp": 15.6,
    "dewpoint": 8.3,
    "altimeter": 30.1,
    "conditions": "",
    "observationTime": "2026-06-24T09:00:00.000Z"
  }
}