{
  "SYD": {
    "raw": "METAR YSSY 312330Z AUTO 27013KT 9999 // NCD 14/05 Q1015",
    "icao": "YSSY",
    "flightCategory": "VFR",
    "windDir": 270,
    "windSpeed": 13,
    "windGust": null,
    "visibility": 6,
    "ceiling": null,
    "temp": 14,
    "dewpoint": 5,
    "altimeter": 29.97,
    "conditions": "",
    "observationTime": "2026-05-31T23:30:00.000Z"
  },
  "LAS": {
    "raw": "METAR KLAS 312356Z 09006KT 10SM FEW120 34/M04 A2982 RMK AO2 SLP074 T03441044 10344 20294 56020",
    "icao": "KLAS",
    "flightCategory": "VFR",
    "windDir": 90,
    "windSpeed": 6,
    "windGust": null,
    "visibility": 10,
    "ceiling": null,
    "temp": 34.4,
    "dewpoint": -4.4,
    "altimeter": 29.82,
    "conditions": "",
    "observationTime": "2026-06-01T00:00:00.000Z"
  },
  "LAX": {
    "raw": "METAR KLAX 312353Z 27011KT 10SM CLR 21/15 A2988 RMK AO2 SLP116 T02060150 10222 20206 58015 $",
    "icao": "KLAX",
    "flightCategory": "VFR",
    "windDir": 270,
    "windSpeed": 11,
    "windGust": null,
    "visibility": 10,
    "ceiling": null,
    "temp": 20.6,
    "dewpoint": 15,
    "altimeter": 29.88,
    "conditions": "",
    "observationTime": "2026-06-01T00:00:00.000Z"
  },
  "ORD": {
    "raw": "METAR KORD 312351Z 04005KT 10SM BKN140 BKN220 BKN300 20/08 A2999 RMK AO2 SLP154 T02000078 10239 20200 55004 $",
    "icao": "KORD",
    "flightCategory": "VFR",
    "windDir": 40,
    "windSpeed": 5,
    "windGust": null,
    "visibility": 10,
    "ceiling": 14000,
    "temp": 20,
    "dewpoint": 7.8,
    "altimeter": 29.99,
    "conditions": "",
    "observationTime": "2026-06-01T00:00:00.000Z"
  },
  "LHR": {
    "raw": "METAR EGLL 312320Z AUTO 27011KT 9999 NCD 15/10 Q1018",
    "icao": "EGLL",
    "flightCategory": "VFR",
    "windDir": 270,
    "windSpeed": 11,
    "windGust": null,
    "visibility": 6,
    "ceiling": null,
    "temp": 15,
    "dewpoint": 10,
    "altimeter": 30.06,
    "conditions": "",
    "observationTime": "2026-05-31T23:20:00.000Z"
  }
}