{
  "LAS": {
    "raw": "METAR KLAS 131056Z 18007KT 10SM CLR 32/06 A2977 RMK AO2 SLP046 T03170061",
    "icao": "KLAS",
    "flightCategory": "VFR",
    "windDir": 180,
    "windSpeed": 7,
    "windGust": null,
    "visibility": 10,
    "ceiling": null,
    "temp": 31.7,
    "dewpoint": 6.1,
    "altimeter": 29.77,
    "conditions": "",
    "observationTime": "2026-06-13T11:00:00.000Z"
  },
  "LAX": {
    "raw": "METAR KLAX 131053Z 30005KT 10SM OVC007 18/16 A2987 RMK AO2 SLP111 T01780156 $",
    "icao": "KLAX",
    "flightCategory": "IFR",
    "windDir": 300,
    "windSpeed": 5,
    "windGust": null,
    "visibility": 10,
    "ceiling": 700,
    "temp": 17.8,
    "dewpoint": 15.6,
    "altimeter": 29.87,
    "conditions": "",
    "observationTime": "2026-06-13T11:00:00.000Z"
  },
  "ORD": {
    "raw": "METAR KORD 131051Z 21006KT 10SM SCT150 SCT250 18/14 A2995 RMK AO2 SLP138 T01830144 $",
    "icao": "KORD",
    "flightCategory": "VFR",
    "windDir": 210,
    "windSpeed": 6,
    "windGust": null,
    "visibility": 10,
    "ceiling": null,
    "temp": 18.3,
    "dewpoint": 14.4,
    "altimeter": 29.95,
    "conditions": "",
    "observationTime": "2026-06-13T11:00:00.000Z"
  },
  "LHR": {
    "raw": "METAR EGLL 131020Z AUTO 29011KT 250V330 9999 NCD 18/07 Q1022",
    "icao": "EGLL",
    "flightCategory": "VFR",
    "windDir": 290,
    "windSpeed": 11,
    "windGust": null,
    "visibility": 6,
    "ceiling": null,
    "temp": 18,
    "dewpoint": 7,
    "altimeter": 30.18,
    "conditions": "",
    "observationTime": "2026-06-13T10:20:00.000Z"
  },
  "SYD": {
    "raw": "METAR YSSY 131030Z AUTO 01007KT 9999 // NCD 19/15 Q1026",
    "icao": "YSSY",
    "flightCategory": "VFR",
    "windDir": 10,
    "windSpeed": 7,
    "windGust": null,
    "visibility": 6,
    "ceiling": null,
    "temp": 19,
    "dewpoint": 15,
    "altimeter": 30.3,
    "conditions": "",
    "observationTime": "2026-06-13T10:30:00.000Z"
  }
}