{
  "SYD": {
    "raw": "METAR YSSY 171530Z AUTO 24009KT 9999 // FEW055 15/11 Q1017",
    "icao": "YSSY",
    "flightCategory": "VFR",
    "windDir": 240,
    "windSpeed": 9,
    "windGust": null,
    "visibility": 6,
    "ceiling": null,
    "temp": 15,
    "dewpoint": 11,
    "altimeter": 30.03,
    "conditions": "",
    "observationTime": "2026-04-17T15:30:00.000Z"
  },
  "LAS": {
    "raw": "METAR KLAS 171556Z 36013G21KT 10SM CLR 12/M21 A3019 RMK AO2 SLP212 T01221211",
    "icao": "KLAS",
    "flightCategory": "VFR",
    "windDir": 360,
    "windSpeed": 13,
    "windGust": 21,
    "visibility": 10,
    "ceiling": null,
    "temp": 12.2,
    "dewpoint": -21.1,
    "altimeter": 30.19,
    "conditions": "",
    "observationTime": "2026-04-17T16:00:00.000Z"
  },
  "LAX": {
    "raw": "METAR KLAX 171553Z 10007KT 10SM FEW015 SCT029 BKN140 BKN180 17/12 A3000 RMK AO2 SLP156 T01720117",
    "icao": "KLAX",
    "flightCategory": "VFR",
    "windDir": 100,
    "windSpeed": 7,
    "windGust": null,
    "visibility": 10,
    "ceiling": 14000,
    "temp": 17.2,
    "dewpoint": 11.7,
    "altimeter": 30,
    "conditions": "",
    "observationTime": "2026-04-17T16:00:00.000Z"
  },
  "ORD": {
    "raw": "METAR KORD 171551Z 16007KT 10SM BKN250 22/15 A2989 RMK AO2 SLP119 T02220150 $",
    "icao": "KORD",
    "flightCategory": "VFR",
    "windDir": 160,
    "windSpeed": 7,
    "windGust": null,
    "visibility": 10,
    "ceiling": 25000,
    "temp": 22.2,
    "dewpoint": 15,
    "altimeter": 29.89,
    "conditions": "",
    "observationTime": "2026-04-17T16:00:00.000Z"
  },
  "LHR": {
    "raw": "METAR EGLL 171550Z COR AUTO 23017KT 9999 FEW045 18/06 Q1018 NOSIG",
    "icao": "EGLL",
    "flightCategory": "VFR",
    "windDir": 230,
    "windSpeed": 17,
    "windGust": null,
    "visibility": 6,
    "ceiling": null,
    "temp": 18,
    "dewpoint": 6,
    "altimeter": 30.06,
    "conditions": "",
    "observationTime": "2026-04-17T16:00:00.000Z"
  }
}