{
  "LAX": {
    "raw": "SPECI KLAX 101236Z 09003KT 10SM FEW008 FEW011 18/16 A2983 RMK AO2 T01780156",
    "icao": "KLAX",
    "flightCategory": "VFR",
    "windDir": 90,
    "windSpeed": 3,
    "windGust": null,
    "visibility": 10,
    "ceiling": null,
    "temp": 17.8,
    "dewpoint": 15.6,
    "altimeter": 29.83,
    "conditions": "",
    "observationTime": "2026-06-10T12:36:00.000Z"
  },
  "SYD": {
    "raw": "METAR YSSY 101200Z AUTO 01006KT 9999 // BKN064 19/14 Q1028",
    "icao": "YSSY",
    "flightCategory": "VFR",
    "windDir": 10,
    "windSpeed": 6,
    "windGust": null,
    "visibility": 6,
    "ceiling": 6400,
    "temp": 19,
    "dewpoint": 14,
    "altimeter": 30.36,
    "conditions": "",
    "observationTime": "2026-06-10T12:00:00.000Z"
  },
  "LHR": {
    "raw": "METAR EGLL 101150Z AUTO 24014KT 9999 SCT046/// //////CB 17/05 Q1016",
    "icao": "EGLL",
    "flightCategory": "VFR",
    "windDir": 240,
    "windSpeed": 14,
    "windGust": null,
    "visibility": 6,
    "ceiling": null,
    "temp": 17,
    "dewpoint": 5,
    "altimeter": 30,
    "conditions": "",
    "observationTime": "2026-06-10T12:00:00.000Z"
  },
  "LAS": {
    "raw": "METAR KLAS 101156Z 24005KT 10SM CLR 26/06 A2981 RMK AO2 SLP066 T02610056 10311 20256 53005",
    "icao": "KLAS",
    "flightCategory": "VFR",
    "windDir": 240,
    "windSpeed": 5,
    "windGust": null,
    "visibility": 10,
    "ceiling": null,
    "temp": 26.1,
    "dewpoint": 5.6,
    "altimeter": 29.81,
    "conditions": "",
    "observationTime": "2026-06-10T12:00:00.000Z"
  },
  "ORD": {
    "raw": "METAR KORD 101151Z 20007KT 10SM FEW050 SCT300 25/22 A2980 RMK AO2 SLP084 70009 T02500217 10250 20200 58004",
    "icao": "KORD",
    "flightCategory": "VFR",
    "windDir": 200,
    "windSpeed": 7,
    "windGust": null,
    "visibility": 10,
    "ceiling": null,
    "temp": 25,
    "dewpoint": 21.7,
    "altimeter": 29.8,
    "conditions": "",
    "observationTime": "2026-06-10T12:00:00.000Z"
  }
}