{
  "SYD": {
    "raw": "SPECI YSSY 291219Z AUTO 07015KT 9999 // BKN032 BKN040 OVC074 21/16 Q1030",
    "icao": "YSSY",
    "flightCategory": "VFR",
    "windDir": 70,
    "windSpeed": 15,
    "windGust": null,
    "visibility": 6,
    "ceiling": 3200,
    "temp": 21,
    "dewpoint": 16,
    "altimeter": 30.42,
    "conditions": "",
    "observationTime": "2026-04-29T12:19:00.000Z"
  },
  "LAS": {
    "raw": "METAR KLAS 291256Z 00000KT 10SM CLR 16/M05 A3003 RMK AO2 SLP153 T01561050",
    "icao": "KLAS",
    "flightCategory": "VFR",
    "windDir": 0,
    "windSpeed": 0,
    "windGust": null,
    "visibility": 10,
    "ceiling": null,
    "temp": 15.6,
    "dewpoint": -5,
    "altimeter": 30.03,
    "conditions": "",
    "observationTime": "2026-04-29T13:00:00.000Z"
  },
  "LAX": {
    "raw": "METAR KLAX 291253Z 05005KT 10SM FEW010 FEW014 SCT040 SCT150 13/11 A3005 RMK AO2 SLP173 T01330111 $",
    "icao": "KLAX",
    "flightCategory": "VFR",
    "windDir": 50,
    "windSpeed": 5,
    "windGust": null,
    "visibility": 10,
    "ceiling": null,
    "temp": 13.3,
    "dewpoint": 11.1,
    "altimeter": 30.05,
    "conditions": "",
    "observationTime": "2026-04-29T13:00:00.000Z"
  },
  "ORD": {
    "raw": "METAR KORD 291251Z 35007KT 10SM BKN060 10/06 A2992 RMK AO2 SLP131 T01000061",
    "icao": "KORD",
    "flightCategory": "VFR",
    "windDir": 350,
    "windSpeed": 7,
    "windGust": null,
    "visibility": 10,
    "ceiling": 6000,
    "temp": 10,
    "dewpoint": 6.1,
    "altimeter": 29.92,
    "conditions": "",
    "observationTime": "2026-04-29T13:00:00.000Z"
  },
  "LHR": {
    "raw": "METAR EGLL 291220Z COR AUTO 06017KT 9999 NCD 18/M01 Q1023 NOSIG",
    "icao": "EGLL",
    "flightCategory": "VFR",
    "windDir": 60,
    "windSpeed": 17,
    "windGust": null,
    "visibility": 6,
    "ceiling": null,
    "temp": 18,
    "dewpoint": -1,
    "altimeter": 30.21,
    "conditions": "",
    "observationTime": "2026-04-29T12:20:00.000Z"
  }
}