{
  "ORD": {
    "raw": "METAR KORD 060551Z 22010G16KT 10SM BKN060 OVC250 24/21 A2981 RMK AO2 SLP091 CONS LTGICCC DSNT NW-NE CB DSNT NW-NE MOV SE 60000 T02440206 10272 20244 402720211 50001",
    "icao": "KORD",
    "flightCategory": "VFR",
    "windDir": 220,
    "windSpeed": 10,
    "windGust": 16,
    "visibility": 10,
    "ceiling": 6000,
    "temp": 24.4,
    "dewpoint": 20.6,
    "altimeter": 29.81,
    "conditions": "",
    "observationTime": "2026-06-06T06:00:00.000Z"
  },
  "SYD": {
    "raw": "METAR YSSY 060600Z 14007KT CAVOK 17/07 Q1025",
    "icao": "YSSY",
    "flightCategory": "VFR",
    "windDir": 140,
    "windSpeed": 7,
    "windGust": null,
    "visibility": 6,
    "ceiling": null,
    "temp": 17,
    "dewpoint": 7,
    "altimeter": 30.27,
    "conditions": "",
    "observationTime": "2026-06-06T06:00:00.000Z"
  },
  "LHR": {
    "raw": "METAR EGLL 060550Z AUTO 15012KT 9999 -RA NCD 13/11 Q1007",
    "icao": "EGLL",
    "flightCategory": "VFR",
    "windDir": 150,
    "windSpeed": 12,
    "windGust": null,
    "visibility": 6,
    "ceiling": null,
    "temp": 13,
    "dewpoint": 11,
    "altimeter": 29.74,
    "conditions": "-RA",
    "observationTime": "2026-06-06T06:00:00.000Z"
  },
  "LAS": {
    "raw": "METAR KLAS 060556Z 22007KT 10SM CLR 33/M07 A2970 RMK AO2 SLP023 T03331067 10400 20333 53005",
    "icao": "KLAS",
    "flightCategory": "VFR",
    "windDir": 220,
    "windSpeed": 7,
    "windGust": null,
    "visibility": 10,
    "ceiling": null,
    "temp": 33.3,
    "dewpoint": -6.7,
    "altimeter": 29.7,
    "conditions": "",
    "observationTime": "2026-06-06T06:00:00.000Z"
  },
  "LAX": {
    "raw": "METAR KLAX 060553Z 27005KT 10SM OVC014 18/15 A2987 RMK AO2 SLP111 T01830150 10211 20183 53007 $",
    "icao": "KLAX",
    "flightCategory": "MVFR",
    "windDir": 270,
    "windSpeed": 5,
    "windGust": null,
    "visibility": 10,
    "ceiling": 1400,
    "temp": 18.3,
    "dewpoint": 15,
    "altimeter": 29.87,
    "conditions": "",
    "observationTime": "2026-06-06T06:00:00.000Z"
  }
}