{
  "LHR": {
    "raw": "METAR EGLL 161850Z COR AUTO 20010KT 160V240 9999 NCD 14/08 Q1019 NOSIG",
    "icao": "EGLL",
    "flightCategory": "VFR",
    "windDir": 200,
    "windSpeed": 10,
    "windGust": null,
    "visibility": 6,
    "ceiling": null,
    "temp": 14,
    "dewpoint": 8,
    "altimeter": 30.09,
    "conditions": "",
    "observationTime": "2026-04-16T19:00:00.000Z"
  },
  "SYD": {
    "raw": "METAR YSSY 161900Z AUTO 30006KT 9999 // NCD 16/11 Q1012",
    "icao": "YSSY",
    "flightCategory": "VFR",
    "windDir": 300,
    "windSpeed": 6,
    "windGust": null,
    "visibility": 6,
    "ceiling": null,
    "temp": 16,
    "dewpoint": 11,
    "altimeter": 29.88,
    "conditions": "",
    "observationTime": "2026-04-16T19:00:00.000Z"
  },
  "LAS": {
    "raw": "METAR KLAS 161856Z 18012G23KT 10SM FEW120 SCT150 BKN210 23/M06 A2982 RMK AO2 SLP079 ACSL DSNT E T02331056",
    "icao": "KLAS",
    "flightCategory": "VFR",
    "windDir": 180,
    "windSpeed": 12,
    "windGust": 23,
    "visibility": 10,
    "ceiling": 21000,
    "temp": 23.3,
    "dewpoint": -5.6,
    "altimeter": 29.82,
    "conditions": "",
    "observationTime": "2026-04-16T19:00:00.000Z"
  },
  "LAX": {
    "raw": "METAR KLAX 161853Z 26009KT 10SM FEW009 FEW032 BKN140 BKN180 20/12 A2995 RMK AO2 SLP142 T02000122",
    "icao": "KLAX",
    "flightCategory": "VFR",
    "windDir": 260,
    "windSpeed": 9,
    "windGust": null,
    "visibility": 10,
    "ceiling": 14000,
    "temp": 20,
    "dewpoint": 12.2,
    "altimeter": 29.95,
    "conditions": "",
    "observationTime": "2026-04-16T19:00:00.000Z"
  },
  "ORD": {
    "raw": "METAR KORD 161851Z 27013G20KT 10SM SCT031 SCT050 BKN080 22/13 A2979 RMK AO2 SLP086 CB DSNT E-SE T02170133 $",
    "icao": "KORD",
    "flightCategory": "VFR",
    "windDir": 270,
    "windSpeed": 13,
    "windGust": 20,
    "visibility": 10,
    "ceiling": 8000,
    "temp": 21.7,
    "dewpoint": 13.3,
    "altimeter": 29.79,
    "conditions": "",
    "observationTime": "2026-04-16T19:00:00.000Z"
  }
}