{
  "LAS": {
    "raw": "METAR KLAS 112056Z 09010G20KT 10SM FEW250 42/07 A2990 RMK AO2 SLP090 T04170072 58017",
    "icao": "KLAS",
    "flightCategory": "VFR",
    "windDir": 90,
    "windSpeed": 10,
    "windGust": 20,
    "visibility": 10,
    "ceiling": null,
    "temp": 41.7,
    "dewpoint": 7.2,
    "altimeter": 29.9,
    "conditions": "",
    "observationTime": "2026-07-11T21:00:00.000Z"
  },
  "LAX": {
    "raw": "METAR KLAX 112053Z 28010G17KT 10SM FEW011 FEW230 BKN280 24/16 A2993 RMK AO2 SLP134 T02390156 58009 $",
    "icao": "KLAX",
    "flightCategory": "VFR",
    "windDir": 280,
    "windSpeed": 10,
    "windGust": 17,
    "visibility": 10,
    "ceiling": 28000,
    "temp": 23.9,
    "dewpoint": 15.6,
    "altimeter": 29.93,
    "conditions": "",
    "observationTime": "2026-07-11T21:00:00.000Z"
  },
  "ORD": {
    "raw": "METAR KORD 112051Z 05011KT 10SM FEW050 BKN250 27/18 A3007 RMK AO2 SLP178 T02670178 51001 $",
    "icao": "KORD",
    "flightCategory": "VFR",
    "windDir": 50,
    "windSpeed": 11,
    "windGust": null,
    "visibility": 10,
    "ceiling": 25000,
    "temp": 26.7,
    "dewpoint": 17.8,
    "altimeter": 30.07,
    "conditions": "",
    "observationTime": "2026-07-11T21:00:00.000Z"
  },
  "LHR": {
    "raw": "METAR EGLL 112020Z AUTO 09008KT 070V130 9999 NCD 23/16 Q1021",
    "icao": "EGLL",
    "flightCategory": "VFR",
    "windDir": 90,
    "windSpeed": 8,
    "windGust": null,
    "visibility": 6,
    "ceiling": null,
    "temp": 23,
    "dewpoint": 16,
    "altimeter": 30.15,
    "conditions": "",
    "observationTime": "2026-07-11T20:20:00.000Z"
  },
  "SYD": {
    "raw": "METAR YSSY 112030Z 28015KT 9999 -DZ FEW044 SCT047 BKN055 11/06 Q1012",
    "icao": "YSSY",
    "flightCategory": "VFR",
    "windDir": 280,
    "windSpeed": 15,
    "windGust": null,
    "visibility": 6,
    "ceiling": 5500,
    "temp": 11,
    "dewpoint": 6,
    "altimeter": 29.88,
    "conditions": "-DZ",
    "observationTime": "2026-07-11T20:30:00.000Z"
  }
}