{
  "LHR": {
    "raw": "METAR EGLL 121550Z AUTO 09016KT 050V110 9999 NCD 29/12 Q1023",
    "icao": "EGLL",
    "flightCategory": "VFR",
    "windDir": 90,
    "windSpeed": 16,
    "windGust": null,
    "visibility": 6,
    "ceiling": null,
    "temp": 29,
    "dewpoint": 12,
    "altimeter": 30.21,
    "conditions": "",
    "observationTime": "2026-07-12T16:00:00.000Z"
  },
  "SYD": {
    "raw": "METAR YSSY 121530Z AUTO 36006KT 9999 // NCD 10/02 Q1017",
    "icao": "YSSY",
    "flightCategory": "VFR",
    "windDir": 360,
    "windSpeed": 6,
    "windGust": null,
    "visibility": 6,
    "ceiling": null,
    "temp": 10,
    "dewpoint": 2,
    "altimeter": 30.03,
    "conditions": "",
    "observationTime": "2026-07-12T15:30:00.000Z"
  },
  "LAS": {
    "raw": "METAR KLAS 121556Z 15012G20KT 10SM SCT250 35/13 A2999 RMK AO2 SLP120 T03500128 $",
    "icao": "KLAS",
    "flightCategory": "VFR",
    "windDir": 150,
    "windSpeed": 12,
    "windGust": 20,
    "visibility": 10,
    "ceiling": null,
    "temp": 35,
    "dewpoint": 12.8,
    "altimeter": 29.99,
    "conditions": "",
    "observationTime": "2026-07-12T16:00:00.000Z"
  },
  "LAX": {
    "raw": "METAR KLAX 121553Z VRB03KT 10SM FEW010 SCT120 BKN160 BKN250 22/17 A2998 RMK AO2 SLP151 T02220167 $",
    "icao": "KLAX",
    "flightCategory": "VFR",
    "windDir": null,
    "windSpeed": 3,
    "windGust": null,
    "visibility": 10,
    "ceiling": 16000,
    "temp": 22.2,
    "dewpoint": 16.7,
    "altimeter": 29.98,
    "conditions": "",
    "observationTime": "2026-07-12T16:00:00.000Z"
  },
  "ORD": {
    "raw": "METAR KORD 121551Z 04005KT 10SM FEW042 28/18 A3020 RMK AO2 SLP222 T02830178 $",
    "icao": "KORD",
    "flightCategory": "VFR",
    "windDir": 40,
    "windSpeed": 5,
    "windGust": null,
    "visibility": 10,
    "ceiling": null,
    "temp": 28.3,
    "dewpoint": 17.8,
    "altimeter": 30.2,
    "conditions": "",
    "observationTime": "2026-07-12T16:00:00.000Z"
  }
}