{
  "SYD": {
    "raw": "SPECI YSSY 041200Z AUTO 11011KT 6000 -RA FEW012 SCT027 BKN038 17/16 Q1026 RERA",
    "icao": "YSSY",
    "flightCategory": "MVFR",
    "windDir": 110,
    "windSpeed": 11,
    "windGust": null,
    "visibility": 3.73,
    "ceiling": 3800,
    "temp": 17,
    "dewpoint": 16,
    "altimeter": 30.3,
    "conditions": "-RA",
    "observationTime": "2026-04-04T12:00:00.000Z"
  },
  "LHR": {
    "raw": "METAR EGLL 041220Z COR AUTO 21017G29KT 180V240 9999 BKN019 OVC025 13/09 Q1016 NOSIG",
    "icao": "EGLL",
    "flightCategory": "MVFR",
    "windDir": 210,
    "windSpeed": 17,
    "windGust": 29,
    "visibility": 6,
    "ceiling": 1900,
    "temp": 13,
    "dewpoint": 9,
    "altimeter": 30,
    "conditions": "",
    "observationTime": "2026-04-04T12:20:00.000Z"
  },
  "ORD": {
    "raw": "SPECI KORD 041217Z 15006KT 3SM -RA BR BKN004 BKN080 OVC110 08/07 A2980 RMK AO2 P0001 T00830072 $",
    "icao": "KORD",
    "flightCategory": "LIFR",
    "windDir": 150,
    "windSpeed": 6,
    "windGust": null,
    "visibility": 3,
    "ceiling": 400,
    "temp": 8.3,
    "dewpoint": 7.2,
    "altimeter": 29.8,
    "conditions": "-RA BR",
    "observationTime": "2026-04-04T12:17:00.000Z"
  },
  "LAS": {
    "raw": "METAR KLAS 041156Z 07007KT 10SM CLR 13/M09 A3023 RMK AO2 SLP225 T01331089 10178 20133 55003",
    "icao": "KLAS",
    "flightCategory": "VFR",
    "windDir": 70,
    "windSpeed": 7,
    "windGust": null,
    "visibility": 10,
    "ceiling": null,
    "temp": 13.3,
    "dewpoint": -8.9,
    "altimeter": 30.23,
    "conditions": "",
    "observationTime": "2026-04-04T12:00:00.000Z"
  },
  "LAX": {
    "raw": "METAR KLAX 041153Z 00000KT 10SM FEW240 FEW290 16/11 A2998 RMK AO2 SLP148 T01560106 10200 20133 58019 $",
    "icao": "KLAX",
    "flightCategory": "VFR",
    "windDir": 0,
    "windSpeed": 0,
    "windGust": null,
    "visibility": 10,
    "ceiling": null,
    "temp": 15.6,
    "dewpoint": 10.6,
    "altimeter": 29.98,
    "conditions": "",
    "observationTime": "2026-04-04T12:00:00.000Z"
  }
}