{
  "LAX": {
    "raw": "METAR KLAX 041653Z VRB04KT 10SM FEW220 FEW260 SCT300 24/01 A3003 RMK AO2 SLP169 T02440006 $",
    "icao": "KLAX",
    "flightCategory": "VFR",
    "windDir": null,
    "windSpeed": 4,
    "windGust": null,
    "visibility": 10,
    "ceiling": null,
    "temp": 24.4,
    "dewpoint": 0.6,
    "altimeter": 30.03,
    "conditions": "",
    "observationTime": "2026-04-04T17:00:00.000Z"
  },
  "ORD": {
    "raw": "METAR KORD 041651Z 24013G23KT 10SM OVC006 09/08 A2983 RMK AO2 RAE02 SLP106 P0000 T00890078 $",
    "icao": "KORD",
    "flightCategory": "IFR",
    "windDir": 240,
    "windSpeed": 13,
    "windGust": 23,
    "visibility": 10,
    "ceiling": 600,
    "temp": 8.9,
    "dewpoint": 7.8,
    "altimeter": 29.83,
    "conditions": "",
    "observationTime": "2026-04-04T17:00:00.000Z"
  },
  "LHR": {
    "raw": "METAR EGLL 041620Z COR AUTO 20018KT 9999 SCT025 BKN032 14/08 Q1011 NOSIG",
    "icao": "EGLL",
    "flightCategory": "VFR",
    "windDir": 200,
    "windSpeed": 18,
    "windGust": null,
    "visibility": 6,
    "ceiling": 3200,
    "temp": 14,
    "dewpoint": 8,
    "altimeter": 29.85,
    "conditions": "",
    "observationTime": "2026-04-04T16:20:00.000Z"
  },
  "SYD": {
    "raw": "SPECI YSSY 041600Z AUTO 12012KT 3800 SHRA FEW017 SCT026 BKN032 16/15 Q1025",
    "icao": "YSSY",
    "flightCategory": "IFR",
    "windDir": 120,
    "windSpeed": 12,
    "windGust": null,
    "visibility": 2.36,
    "ceiling": 3200,
    "temp": 16,
    "dewpoint": 15,
    "altimeter": 30.27,
    "conditions": "SHRA",
    "observationTime": "2026-04-04T16:00:00.000Z"
  }
}