{
  "SYD": {
    "raw": "METAR YSSY 170430Z 36004KT 310V010 9999 FEW022 BKN180 BKN190 21/16 Q1019",
    "icao": "YSSY",
    "flightCategory": "VFR",
    "windDir": 360,
    "windSpeed": 4,
    "windGust": null,
    "visibility": 6,
    "ceiling": 18000,
    "temp": 21,
    "dewpoint": 16,
    "altimeter": 30.09,
    "conditions": "",
    "observationTime": "2026-05-17T04:30:00.000Z"
  },
  "LAS": {
    "raw": "METAR KLAS 170456Z 29005G17KT 10SM FEW120 FEW200 29/M11 A2963 RMK AO2 PK WND 33026/0441 SLP005 T02941106",
    "icao": "KLAS",
    "flightCategory": "VFR",
    "windDir": 290,
    "windSpeed": 5,
    "windGust": 17,
    "visibility": 10,
    "ceiling": null,
    "temp": 29.4,
    "dewpoint": -10.6,
    "altimeter": 29.63,
    "conditions": "",
    "observationTime": "2026-05-17T05:00:00.000Z"
  },
  "LAX": {
    "raw": "METAR KLAX 170453Z 24003KT 9SM FEW035 17/13 A2985 RMK AO2 SLP108 T01670128",
    "icao": "KLAX",
    "flightCategory": "VFR",
    "windDir": 240,
    "windSpeed": 3,
    "windGust": null,
    "visibility": 9,
    "ceiling": null,
    "temp": 16.7,
    "dewpoint": 12.8,
    "altimeter": 29.85,
    "conditions": "",
    "observationTime": "2026-05-17T05:00:00.000Z"
  },
  "ORD": {
    "raw": "METAR KORD 170451Z 19005KT 10SM FEW190 OVC250 22/16 A2990 RMK AO2 SLP120 T02170156",
    "icao": "KORD",
    "flightCategory": "VFR",
    "windDir": 190,
    "windSpeed": 5,
    "windGust": null,
    "visibility": 10,
    "ceiling": 25000,
    "temp": 21.7,
    "dewpoint": 15.6,
    "altimeter": 29.9,
    "conditions": "",
    "observationTime": "2026-05-17T05:00:00.000Z"
  },
  "LHR": {
    "raw": "METAR EGLL 170420Z AUTO 26007KT 9999 OVC011 10/08 Q1008",
    "icao": "EGLL",
    "flightCategory": "MVFR",
    "windDir": 260,
    "windSpeed": 7,
    "windGust": null,
    "visibility": 6,
    "ceiling": 1100,
    "temp": 10,
    "dewpoint": 8,
    "altimeter": 29.77,
    "conditions": "",
    "observationTime": "2026-05-17T04:20:00.000Z"
  }
}