{
  "SYD": {
    "raw": "METAR YSSY 051500Z AUTO 32007KT 9999 // FEW058 14/08 Q1021",
    "icao": "YSSY",
    "flightCategory": "VFR",
    "windDir": 320,
    "windSpeed": 7,
    "windGust": null,
    "visibility": 6,
    "ceiling": null,
    "temp": 14,
    "dewpoint": 8,
    "altimeter": 30.15,
    "conditions": "",
    "observationTime": "2026-05-05T15:00:00.000Z"
  },
  "LHR": {
    "raw": "METAR EGLL 051450Z COR AUTO 33005KT 290V030 9999 NCD 16/06 Q1012 NOSIG",
    "icao": "EGLL",
    "flightCategory": "VFR",
    "windDir": 330,
    "windSpeed": 5,
    "windGust": null,
    "visibility": 6,
    "ceiling": null,
    "temp": 16,
    "dewpoint": 6,
    "altimeter": 29.88,
    "conditions": "",
    "observationTime": "2026-05-05T15:00:00.000Z"
  },
  "LAS": {
    "raw": "METAR KLAS 051456Z 18009KT 10SM FEW150 SCT250 16/03 A2985 RMK AO2 SLP092 T01560028 53009",
    "icao": "KLAS",
    "flightCategory": "VFR",
    "windDir": 180,
    "windSpeed": 9,
    "windGust": null,
    "visibility": 10,
    "ceiling": null,
    "temp": 15.6,
    "dewpoint": 2.8,
    "altimeter": 29.85,
    "conditions": "",
    "observationTime": "2026-05-05T15:00:00.000Z"
  },
  "LAX": {
    "raw": "METAR KLAX 051453Z 29006KT 10SM FEW011 FEW045 SCT075 BKN140 16/11 A2994 RMK AO2 SLP139 T01560106 53005",
    "icao": "KLAX",
    "flightCategory": "VFR",
    "windDir": 290,
    "windSpeed": 6,
    "windGust": null,
    "visibility": 10,
    "ceiling": 14000,
    "temp": 15.6,
    "dewpoint": 10.6,
    "altimeter": 29.94,
    "conditions": "",
    "observationTime": "2026-05-05T15:00:00.000Z"
  },
  "ORD": {
    "raw": "METAR KORD 051451Z 31005KT 10SM FEW080 FEW100 BKN180 BKN250 11/M03 A2978 RMK AO2 SLP082 60002 T01111028 50001",
    "icao": "KORD",
    "flightCategory": "VFR",
    "windDir": 310,
    "windSpeed": 5,
    "windGust": null,
    "visibility": 10,
    "ceiling": 18000,
    "temp": 11.1,
    "dewpoint": -2.8,
    "altimeter": 29.78,
    "conditions": "",
    "observationTime": "2026-05-05T15:00:00.000Z"
  }
}