{
  "ORD": {
    "raw": "METAR KORD 021551Z 11008KT 2SM -RA BR OVC003 08/07 A2980 RMK AO2 SLP096 P0005 T00780072",
    "icao": "KORD",
    "flightCategory": "LIFR",
    "windDir": 110,
    "windSpeed": 8,
    "windGust": null,
    "visibility": 2,
    "ceiling": 300,
    "temp": 7.8,
    "dewpoint": 7.2,
    "altimeter": 29.8,
    "conditions": "-RA BR",
    "observationTime": "2026-04-02T16:00:00.000Z"
  },
  "SYD": {
    "raw": "METAR YSSY 021530Z AUTO 30004KT 9999 // NCD 20/18 Q1021",
    "icao": "YSSY",
    "flightCategory": "VFR",
    "windDir": 300,
    "windSpeed": 4,
    "windGust": null,
    "visibility": 6,
    "ceiling": null,
    "temp": 20,
    "dewpoint": 18,
    "altimeter": 30.15,
    "conditions": "",
    "observationTime": "2026-04-02T15:30:00.000Z"
  },
  "LAS": {
    "raw": "METAR KLAS 021556Z 20012G22KT 10SM FEW070 BKN200 17/04 A2980 RMK AO2 PK WND 20029/1500 SLP076 T01670044",
    "icao": "KLAS",
    "flightCategory": "VFR",
    "windDir": 200,
    "windSpeed": 12,
    "windGust": 22,
    "visibility": 10,
    "ceiling": 20000,
    "temp": 16.7,
    "dewpoint": 4.4,
    "altimeter": 29.8,
    "conditions": "",
    "observationTime": "2026-04-02T16:00:00.000Z"
  },
  "LAX": {
    "raw": "METAR KLAX 021553Z 27010KT 10SM FEW010 FEW024 BKN035 BKN160 17/12 A2999 RMK AO2 SLP154 T01670117 $",
    "icao": "KLAX",
    "flightCategory": "VFR",
    "windDir": 270,
    "windSpeed": 10,
    "windGust": null,
    "visibility": 10,
    "ceiling": 3500,
    "temp": 16.7,
    "dewpoint": 11.7,
    "altimeter": 29.99,
    "conditions": "",
    "observationTime": "2026-04-02T16:00:00.000Z"
  },
  "LHR": {
    "raw": "METAR EGLL 021550Z COR AUTO 22005KT 170V260 9999 NCD 11/01 Q1020 NOSIG",
    "icao": "EGLL",
    "flightCategory": "VFR",
    "windDir": 220,
    "windSpeed": 5,
    "windGust": null,
    "visibility": 6,
    "ceiling": null,
    "temp": 11,
    "dewpoint": 1,
    "altimeter": 30.12,
    "conditions": "",
    "observationTime": "2026-04-02T16:00:00.000Z"
  }
}