{
  "SYD": {
    "raw": "METAR YSSY 252100Z 20007KT 9000 -SHRA FEW012 SCT025 BKN040 18/17 Q1019",
    "icao": "YSSY",
    "flightCategory": "VFR",
    "windDir": 200,
    "windSpeed": 7,
    "windGust": null,
    "visibility": 5.59,
    "ceiling": 4000,
    "temp": 18,
    "dewpoint": 17,
    "altimeter": 30.09,
    "conditions": "-SHRA",
    "observationTime": "2026-05-25T21:00:00.000Z"
  },
  "LHR": {
    "raw": "METAR EGLL 252050Z AUTO 12006KT 9999 NCD 26/14 Q1029",
    "icao": "EGLL",
    "flightCategory": "VFR",
    "windDir": 120,
    "windSpeed": 6,
    "windGust": null,
    "visibility": 6,
    "ceiling": null,
    "temp": 26,
    "dewpoint": 14,
    "altimeter": 30.39,
    "conditions": "",
    "observationTime": "2026-05-25T21:00:00.000Z"
  },
  "LAS": {
    "raw": "METAR KLAS 252056Z 00000KT 10SM FEW120 FEW250 33/M01 A2976 RMK AO2 SLP051 T03281011 58033",
    "icao": "KLAS",
    "flightCategory": "VFR",
    "windDir": 0,
    "windSpeed": 0,
    "windGust": null,
    "visibility": 10,
    "ceiling": null,
    "temp": 32.8,
    "dewpoint": -1.1,
    "altimeter": 29.76,
    "conditions": "",
    "observationTime": "2026-05-25T21:00:00.000Z"
  },
  "LAX": {
    "raw": "METAR KLAX 252053Z 25013KT 10SM FEW022 20/12 A2994 RMK AO2 SLP138 T02000117 57015 $",
    "icao": "KLAX",
    "flightCategory": "VFR",
    "windDir": 250,
    "windSpeed": 13,
    "windGust": null,
    "visibility": 10,
    "ceiling": null,
    "temp": 20,
    "dewpoint": 11.7,
    "altimeter": 29.94,
    "conditions": "",
    "observationTime": "2026-05-25T21:00:00.000Z"
  },
  "ORD": {
    "raw": "METAR KORD 252051Z 14005KT 10SM FEW070 FEW110 FEW250 28/11 A3006 RMK AO2 SLP175 T02780111 56017 $",
    "icao": "KORD",
    "flightCategory": "VFR",
    "windDir": 140,
    "windSpeed": 5,
    "windGust": null,
    "visibility": 10,
    "ceiling": null,
    "temp": 27.8,
    "dewpoint": 11.1,
    "altimeter": 30.06,
    "conditions": "",
    "observationTime": "2026-05-25T21:00:00.000Z"
  }
}