{
  "SYD": {
    "raw": "METAR YSSY 311430Z AUTO 27014KT 9999 // NCD 11/04 Q1012",
    "icao": "YSSY",
    "flightCategory": "VFR",
    "windDir": 270,
    "windSpeed": 14,
    "windGust": null,
    "visibility": 6,
    "ceiling": null,
    "temp": 11,
    "dewpoint": 4,
    "altimeter": 29.88,
    "conditions": "",
    "observationTime": "2026-05-31T14:30:00.000Z"
  },
  "LAS": {
    "raw": "METAR KLAS 311456Z VRB04KT 10SM CLR 26/M01 A2994 RMK AO2 SLP114 T02561006 51015",
    "icao": "KLAS",
    "flightCategory": "VFR",
    "windDir": null,
    "windSpeed": 4,
    "windGust": null,
    "visibility": 10,
    "ceiling": null,
    "temp": 25.6,
    "dewpoint": -0.6,
    "altimeter": 29.94,
    "conditions": "",
    "observationTime": "2026-05-31T15:00:00.000Z"
  },
  "LAX": {
    "raw": "METAR KLAX 311453Z 12006KT 5SM HZ SCT007 17/14 A2993 RMK AO2 SLP135 VIS SE 2 1/2 T01720144 53010 $",
    "icao": "KLAX",
    "flightCategory": "MVFR",
    "windDir": 120,
    "windSpeed": 6,
    "windGust": null,
    "visibility": 5,
    "ceiling": null,
    "temp": 17.2,
    "dewpoint": 14.4,
    "altimeter": 29.93,
    "conditions": "HZ",
    "observationTime": "2026-05-31T15:00:00.000Z"
  },
  "ORD": {
    "raw": "METAR KORD 311451Z 07006KT 10SM FEW220 BKN250 19/07 A3012 RMK AO2 SLP196 T01890067 56002 $",
    "icao": "KORD",
    "flightCategory": "VFR",
    "windDir": 70,
    "windSpeed": 6,
    "windGust": null,
    "visibility": 10,
    "ceiling": 25000,
    "temp": 18.9,
    "dewpoint": 6.7,
    "altimeter": 30.12,
    "conditions": "",
    "observationTime": "2026-05-31T15:00:00.000Z"
  },
  "LHR": {
    "raw": "METAR EGLL 311420Z AUTO 26013KT 230V290 9999 NCD 22/08 Q1016",
    "icao": "EGLL",
    "flightCategory": "VFR",
    "windDir": 260,
    "windSpeed": 13,
    "windGust": null,
    "visibility": 6,
    "ceiling": null,
    "temp": 22,
    "dewpoint": 8,
    "altimeter": 30,
    "conditions": "",
    "observationTime": "2026-05-31T14:20:00.000Z"
  }
}