{
  "LHR": {
    "raw": "METAR EGLL 090850Z AUTO 25014G25KT 9999 FEW027 SCT032 15/08 Q1014",
    "icao": "EGLL",
    "flightCategory": "VFR",
    "windDir": 250,
    "windSpeed": 14,
    "windGust": 25,
    "visibility": 6,
    "ceiling": null,
    "temp": 15,
    "dewpoint": 8,
    "altimeter": 29.94,
    "conditions": "",
    "observationTime": "2026-06-09T09:00:00.000Z"
  },
  "SYD": {
    "raw": "METAR YSSY 090900Z AUTO 03009KT 9999 // NCD 18/14 Q1028",
    "icao": "YSSY",
    "flightCategory": "VFR",
    "windDir": 30,
    "windSpeed": 9,
    "windGust": null,
    "visibility": 6,
    "ceiling": null,
    "temp": 18,
    "dewpoint": 14,
    "altimeter": 30.36,
    "conditions": "",
    "observationTime": "2026-06-09T09:00:00.000Z"
  },
  "LAS": {
    "raw": "METAR KLAS 090856Z 18007KT 10SM FEW200 FEW250 27/M01 A2978 RMK AO2 SLP055 T02671011 50002",
    "icao": "KLAS",
    "flightCategory": "VFR",
    "windDir": 180,
    "windSpeed": 7,
    "windGust": null,
    "visibility": 10,
    "ceiling": null,
    "temp": 26.7,
    "dewpoint": -1.1,
    "altimeter": 29.78,
    "conditions": "",
    "observationTime": "2026-06-09T09:00:00.000Z"
  },
  "LAX": {
    "raw": "METAR KLAX 090853Z 21003KT 10SM FEW015 17/13 A2989 RMK AO2 SLP119 T01720128 58008 $",
    "icao": "KLAX",
    "flightCategory": "VFR",
    "windDir": 210,
    "windSpeed": 3,
    "windGust": null,
    "visibility": 10,
    "ceiling": null,
    "temp": 17.2,
    "dewpoint": 12.8,
    "altimeter": 29.89,
    "conditions": "",
    "observationTime": "2026-06-09T09:00:00.000Z"
  },
  "ORD": {
    "raw": "METAR KORD 090851Z 24005KT 7SM BKN006 OVC010 22/22 A2991 RMK AO2 SLP124 60000 T02220217 58006 $",
    "icao": "KORD",
    "flightCategory": "IFR",
    "windDir": 240,
    "windSpeed": 5,
    "windGust": null,
    "visibility": 7,
    "ceiling": 600,
    "temp": 22.2,
    "dewpoint": 21.7,
    "altimeter": 29.91,
    "conditions": "",
    "observationTime": "2026-06-09T09:00:00.000Z"
  }
}