{
  "LHR": {
    "raw": "METAR EGLL 011850Z COR AUTO 28005KT 9999 NCD 11/05 Q1021 NOSIG",
    "icao": "EGLL",
    "flightCategory": "VFR",
    "windDir": 280,
    "windSpeed": 5,
    "windGust": null,
    "visibility": 6,
    "ceiling": null,
    "temp": 11,
    "dewpoint": 5,
    "altimeter": 30.15,
    "conditions": "",
    "observationTime": "2026-04-01T19:00:00.000Z"
  },
  "SYD": {
    "raw": "METAR YSSY 011830Z AUTO 04005KT 9999 // NCD 18/17 Q1022",
    "icao": "YSSY",
    "flightCategory": "VFR",
    "windDir": 40,
    "windSpeed": 5,
    "windGust": null,
    "visibility": 6,
    "ceiling": null,
    "temp": 18,
    "dewpoint": 17,
    "altimeter": 30.18,
    "conditions": "",
    "observationTime": "2026-04-01T18:30:00.000Z"
  },
  "LAS": {
    "raw": "METAR KLAS 011856Z 23004KT 10SM FEW110 FEW200 21/02 A2987 RMK AO2 SLP098 T02110022",
    "icao": "KLAS",
    "flightCategory": "VFR",
    "windDir": 230,
    "windSpeed": 4,
    "windGust": null,
    "visibility": 10,
    "ceiling": null,
    "temp": 21.1,
    "dewpoint": 2.2,
    "altimeter": 29.87,
    "conditions": "",
    "observationTime": "2026-04-01T19:00:00.000Z"
  },
  "LAX": {
    "raw": "METAR KLAX 011853Z 24009KT 10SM FEW010 FEW025 SCT150 SCT180 19/13 A3002 RMK AO2 SLP163 T01940128 $",
    "icao": "KLAX",
    "flightCategory": "VFR",
    "windDir": 240,
    "windSpeed": 9,
    "windGust": null,
    "visibility": 10,
    "ceiling": null,
    "temp": 19.4,
    "dewpoint": 12.8,
    "altimeter": 30.02,
    "conditions": "",
    "observationTime": "2026-04-01T19:00:00.000Z"
  },
  "ORD": {
    "raw": "METAR KORD 011851Z 04017KT 10SM OVC015 03/M01 A3021 RMK AO2 SLP236 T00331011",
    "icao": "KORD",
    "flightCategory": "MVFR",
    "windDir": 40,
    "windSpeed": 17,
    "windGust": null,
    "visibility": 10,
    "ceiling": 1500,
    "temp": 3.3,
    "dewpoint": -1.1,
    "altimeter": 30.21,
    "conditions": "",
    "observationTime": "2026-04-01T19:00:00.000Z"
  }
}