{
  "SYD": {
    "raw": "METAR YSSY 311000Z AUTO 03008KT 9999 // NCD 22/15 Q1023",
    "icao": "YSSY",
    "flightCategory": "VFR",
    "windDir": 30,
    "windSpeed": 8,
    "windGust": null,
    "visibility": 6,
    "ceiling": null,
    "temp": 22,
    "dewpoint": 15,
    "altimeter": 30.21,
    "conditions": "",
    "observationTime": "2026-03-31T10:00:00.000Z"
  },
  "LHR": {
    "raw": "METAR EGLL 310950Z COR AUTO 32006KT 280V350 9999 BKN018 12/09 Q1030 NOSIG",
    "icao": "EGLL",
    "flightCategory": "MVFR",
    "windDir": 320,
    "windSpeed": 6,
    "windGust": null,
    "visibility": 6,
    "ceiling": 1800,
    "temp": 12,
    "dewpoint": 9,
    "altimeter": 30.42,
    "conditions": "",
    "observationTime": "2026-03-31T10:00:00.000Z"
  },
  "LAS": {
    "raw": "METAR KLAS 310956Z 22021G30KT 10SM FEW150 BKN200 23/M04 A2983 RMK AO2 PK WND 20030/0949 SLP077 T02281039 $",
    "icao": "KLAS",
    "flightCategory": "VFR",
    "windDir": 220,
    "windSpeed": 21,
    "windGust": 30,
    "visibility": 10,
    "ceiling": 20000,
    "temp": 22.8,
    "dewpoint": -3.9,
    "altimeter": 29.83,
    "conditions": "",
    "observationTime": "2026-03-31T10:00:00.000Z"
  },
  "LAX": {
    "raw": "METAR KLAX 310953Z 06005KT 10SM BKN018 OVC250 18/14 A2994 RMK AO2 SLP136 T01780139",
    "icao": "KLAX",
    "flightCategory": "MVFR",
    "windDir": 60,
    "windSpeed": 5,
    "windGust": null,
    "visibility": 10,
    "ceiling": 1800,
    "temp": 17.8,
    "dewpoint": 13.9,
    "altimeter": 29.94,
    "conditions": "",
    "observationTime": "2026-03-31T10:00:00.000Z"
  },
  "ORD": {
    "raw": "METAR KORD 310951Z 21009KT 10SM SCT080 BKN150 OVC250 19/13 A2978 RMK AO2 SLP078 T01940133 $",
    "icao": "KORD",
    "flightCategory": "VFR",
    "windDir": 210,
    "windSpeed": 9,
    "windGust": null,
    "visibility": 10,
    "ceiling": 15000,
    "temp": 19.4,
    "dewpoint": 13.3,
    "altimeter": 29.78,
    "conditions": "",
    "observationTime": "2026-03-31T10:00:00.000Z"
  }
}