{
  "LAS": {
    "raw": "METAR KLAS 061056Z 18007G17KT 10SM CLR 29/01 A2971 RMK AO2 SLP028 T02890011",
    "icao": "KLAS",
    "flightCategory": "VFR",
    "windDir": 180,
    "windSpeed": 7,
    "windGust": 17,
    "visibility": 10,
    "ceiling": null,
    "temp": 28.9,
    "dewpoint": 1.1,
    "altimeter": 29.71,
    "conditions": "",
    "observationTime": "2026-06-06T11:00:00.000Z"
  },
  "LAX": {
    "raw": "METAR KLAX 061053Z 16005KT 10SM SCT013 OVC017 18/14 A2984 RMK AO2 SLP101 T01830139 $",
    "icao": "KLAX",
    "flightCategory": "MVFR",
    "windDir": 160,
    "windSpeed": 5,
    "windGust": null,
    "visibility": 10,
    "ceiling": 1700,
    "temp": 18.3,
    "dewpoint": 13.9,
    "altimeter": 29.84,
    "conditions": "",
    "observationTime": "2026-06-06T11:00:00.000Z"
  },
  "ORD": {
    "raw": "SPECI KORD 061030Z 00000KT 5SM TSRA BKN018CB BKN060 OVC120 22/21 A2982 RMK AO2 RAB27 TSB30 OCNL LTGIC SE TS SE-W MOV SE P0000 T02220206 $",
    "icao": "KORD",
    "flightCategory": "MVFR",
    "windDir": 0,
    "windSpeed": 0,
    "windGust": null,
    "visibility": 5,
    "ceiling": 1800,
    "temp": 22.2,
    "dewpoint": 20.6,
    "altimeter": 29.82,
    "conditions": "TSRA",
    "observationTime": "2026-06-06T10:30:00.000Z"
  },
  "LHR": {
    "raw": "METAR EGLL 061020Z AUTO 20015KT 9999 FEW012/// //////CB 15/12 Q1005 RERA",
    "icao": "EGLL",
    "flightCategory": "VFR",
    "windDir": 200,
    "windSpeed": 15,
    "windGust": null,
    "visibility": 6,
    "ceiling": null,
    "temp": 15,
    "dewpoint": 12,
    "altimeter": 29.68,
    "conditions": "",
    "observationTime": "2026-06-06T10:20:00.000Z"
  },
  "SYD": {
    "raw": "METAR YSSY 061030Z AUTO 00000KT 9999 // NCD 13/08 Q1028",
    "icao": "YSSY",
    "flightCategory": "VFR",
    "windDir": 0,
    "windSpeed": 0,
    "windGust": null,
    "visibility": 6,
    "ceiling": null,
    "temp": 13,
    "dewpoint": 8,
    "altimeter": 30.36,
    "conditions": "",
    "observationTime": "2026-06-06T10:30:00.000Z"
  }
}