{
  "LHR": {
    "raw": "METAR EGLL 280950Z COR AUTO 30013KT 9999 SCT037 08/M00 Q1025 NOSIG",
    "icao": "EGLL",
    "flightCategory": "VFR",
    "windDir": 300,
    "windSpeed": 13,
    "windGust": null,
    "visibility": 6,
    "ceiling": null,
    "temp": 8,
    "dewpoint": 0,
    "altimeter": 30.27,
    "conditions": "",
    "observationTime": "2026-03-28T10:00:00.000Z"
  },
  "LAS": {
    "raw": "METAR KLAS 280956Z 00000KT 10SM SCT250 22/M02 A2993 RMK AO2 SLP111 T02171022",
    "icao": "KLAS",
    "flightCategory": "VFR",
    "windDir": 0,
    "windSpeed": 0,
    "windGust": null,
    "visibility": 10,
    "ceiling": null,
    "temp": 21.7,
    "dewpoint": -2.2,
    "altimeter": 29.93,
    "conditions": "",
    "observationTime": "2026-03-28T10:00:00.000Z"
  },
  "LAX": {
    "raw": "METAR KLAX 280953Z 32006KT 8SM SCT010 15/13 A2998 RMK AO2 SLP151 T01500133 $",
    "icao": "KLAX",
    "flightCategory": "VFR",
    "windDir": 320,
    "windSpeed": 6,
    "windGust": null,
    "visibility": 8,
    "ceiling": null,
    "temp": 15,
    "dewpoint": 13.3,
    "altimeter": 29.98,
    "conditions": "",
    "observationTime": "2026-03-28T10:00:00.000Z"
  },
  "ORD": {
    "raw": "METAR KORD 280951Z 36006KT 10SM CLR M04/M11 A3061 RMK AO2 SLP372 T10391106",
    "icao": "KORD",
    "flightCategory": "VFR",
    "windDir": 360,
    "windSpeed": 6,
    "windGust": null,
    "visibility": 10,
    "ceiling": null,
    "temp": -3.9,
    "dewpoint": -10.6,
    "altimeter": 30.61,
    "conditions": "",
    "observationTime": "2026-03-28T10:00:00.000Z"
  }
}