{
  "LAS": {
    "raw": "METAR KLAS 182056Z 10SM FEW150 SCT200 40/00 A2981 RMK AO2 SLP059 FU SCT200 T04000000 58013",
    "icao": "KLAS",
    "flightCategory": "VFR",
    "windDir": null,
    "windSpeed": 0,
    "windGust": null,
    "visibility": 10,
    "ceiling": null,
    "temp": 40,
    "dewpoint": 0,
    "altimeter": 29.81,
    "conditions": "",
    "observationTime": "2026-06-18T21:00:00.000Z"
  },
  "LAX": {
    "raw": "SPECI KLAX 182026Z 24010KT 10SM FEW010 BKN030 21/14 A2999 RMK AO2 T02060139 $",
    "icao": "KLAX",
    "flightCategory": "MVFR",
    "windDir": 240,
    "windSpeed": 10,
    "windGust": null,
    "visibility": 10,
    "ceiling": 3000,
    "temp": 20.6,
    "dewpoint": 13.9,
    "altimeter": 29.99,
    "conditions": "",
    "observationTime": "2026-06-18T20:26:00.000Z"
  },
  "ORD": {
    "raw": "METAR KORD 182051Z 27009KT 10SM BKN055 22/10 A2978 RMK AO2 SLP081 T02220100 51010",
    "icao": "KORD",
    "flightCategory": "VFR",
    "windDir": 270,
    "windSpeed": 9,
    "windGust": null,
    "visibility": 10,
    "ceiling": 5500,
    "temp": 22.2,
    "dewpoint": 10,
    "altimeter": 29.78,
    "conditions": "",
    "observationTime": "2026-06-18T21:00:00.000Z"
  },
  "LHR": {
    "raw": "METAR EGLL 182020Z AUTO 19008KT 160V240 9999 NCD 22/17 Q1014",
    "icao": "EGLL",
    "flightCategory": "VFR",
    "windDir": 190,
    "windSpeed": 8,
    "windGust": null,
    "visibility": 6,
    "ceiling": null,
    "temp": 22,
    "dewpoint": 17,
    "altimeter": 29.94,
    "conditions": "",
    "observationTime": "2026-06-18T20:20:00.000Z"
  },
  "SYD": {
    "raw": "METAR YSSY 182000Z 34016KT CAVOK 19/09 Q1012",
    "icao": "YSSY",
    "flightCategory": "VFR",
    "windDir": 340,
    "windSpeed": 16,
    "windGust": null,
    "visibility": 6,
    "ceiling": null,
    "temp": 19,
    "dewpoint": 9,
    "altimeter": 29.88,
    "conditions": "",
    "observationTime": "2026-06-18T20:00:00.000Z"
  }
}