{
  "SYD": {
    "raw": "METAR YSSY 051000Z AUTO 23005KT 9999 // NCD 17/11 Q1020",
    "icao": "YSSY",
    "flightCategory": "VFR",
    "windDir": 230,
    "windSpeed": 5,
    "windGust": null,
    "visibility": 6,
    "ceiling": null,
    "temp": 17,
    "dewpoint": 11,
    "altimeter": 30.12,
    "conditions": "",
    "observationTime": "2026-05-05T10:00:00.000Z"
  },
  "LHR": {
    "raw": "METAR EGLL 051020Z COR AUTO 01005KT 320V070 9999 FEW022 SCT031 BKN040 13/07 Q1013 NOSIG",
    "icao": "EGLL",
    "flightCategory": "VFR",
    "windDir": 10,
    "windSpeed": 5,
    "windGust": null,
    "visibility": 6,
    "ceiling": 4000,
    "temp": 13,
    "dewpoint": 7,
    "altimeter": 29.91,
    "conditions": "",
    "observationTime": "2026-05-05T10:20:00.000Z"
  },
  "LAS": {
    "raw": "METAR KLAS 050956Z 17007KT 10SM CLR 16/02 A2982 RMK AO2 SLP080 T01560017",
    "icao": "KLAS",
    "flightCategory": "VFR",
    "windDir": 170,
    "windSpeed": 7,
    "windGust": null,
    "visibility": 10,
    "ceiling": null,
    "temp": 15.6,
    "dewpoint": 1.7,
    "altimeter": 29.82,
    "conditions": "",
    "observationTime": "2026-05-05T10:00:00.000Z"
  },
  "LAX": {
    "raw": "METAR KLAX 050953Z 30006KT 10SM SCT031 BKN038 OVC044 15/09 A2994 RMK AO2 SLP135 T01500094",
    "icao": "KLAX",
    "flightCategory": "VFR",
    "windDir": 300,
    "windSpeed": 6,
    "windGust": null,
    "visibility": 10,
    "ceiling": 3800,
    "temp": 15,
    "dewpoint": 9.4,
    "altimeter": 29.94,
    "conditions": "",
    "observationTime": "2026-05-05T10:00:00.000Z"
  }
}