{
  "LAS": {
    "raw": "METAR KLAS 072356Z 02006KT 10SM FEW140 FEW250 33/M04 A2985 RMK AO2 SLP084 T03331039 10333 20272 56026",
    "icao": "KLAS",
    "flightCategory": "VFR",
    "windDir": 20,
    "windSpeed": 6,
    "windGust": null,
    "visibility": 10,
    "ceiling": null,
    "temp": 33.3,
    "dewpoint": -3.9,
    "altimeter": 29.85,
    "conditions": "",
    "observationTime": "2026-05-08T00:00:00.000Z"
  },
  "LAX": {
    "raw": "METAR KLAX 072353Z 23010KT 10SM FEW009 SCT110 19/14 A2995 RMK AO2 SLP140 T01890139 10200 20183 56013",
    "icao": "KLAX",
    "flightCategory": "VFR",
    "windDir": 230,
    "windSpeed": 10,
    "windGust": null,
    "visibility": 10,
    "ceiling": null,
    "temp": 18.9,
    "dewpoint": 13.9,
    "altimeter": 29.95,
    "conditions": "",
    "observationTime": "2026-05-08T00:00:00.000Z"
  },
  "ORD": {
    "raw": "METAR KORD 072351Z 23007KT 10SM FEW060 FEW090 SCT250 14/03 A2980 RMK AO2 SLP092 60002 T01440033 10156 20100 58005",
    "icao": "KORD",
    "flightCategory": "VFR",
    "windDir": 230,
    "windSpeed": 7,
    "windGust": null,
    "visibility": 10,
    "ceiling": null,
    "temp": 14.4,
    "dewpoint": 3.3,
    "altimeter": 29.8,
    "conditions": "",
    "observationTime": "2026-05-08T00:00:00.000Z"
  },
  "LHR": {
    "raw": "METAR EGLL 072320Z COR AUTO 10003KT 9999 NCD 10/06 Q1016 NOSIG",
    "icao": "EGLL",
    "flightCategory": "VFR",
    "windDir": 100,
    "windSpeed": 3,
    "windGust": null,
    "visibility": 6,
    "ceiling": null,
    "temp": 10,
    "dewpoint": 6,
    "altimeter": 30,
    "conditions": "",
    "observationTime": "2026-05-07T23:20:00.000Z"
  },
  "SYD": {
    "raw": "METAR YSSY 072330Z 29014KT CAVOK 16/04 Q1018",
    "icao": "YSSY",
    "flightCategory": "VFR",
    "windDir": 290,
    "windSpeed": 14,
    "windGust": null,
    "visibility": 6,
    "ceiling": null,
    "temp": 16,
    "dewpoint": 4,
    "altimeter": 30.06,
    "conditions": "",
    "observationTime": "2026-05-07T23:30:00.000Z"
  }
}