{
  "ORD": {
    "raw": "SPECI KORD 041125Z 06004KT 4SM RA BR BKN004 BKN080 OVC100 08/07 A2980 RMK AO2 RAB1054 PRESFR P0002 T00780072 $",
    "icao": "KORD",
    "flightCategory": "LIFR",
    "windDir": 60,
    "windSpeed": 4,
    "windGust": null,
    "visibility": 4,
    "ceiling": 400,
    "temp": 7.8,
    "dewpoint": 7.2,
    "altimeter": 29.8,
    "conditions": "RA BR",
    "observationTime": "2026-04-04T11:25:00.000Z"
  },
  "LHR": {
    "raw": "METAR EGLL 041120Z COR AUTO 21016KT 9999 SCT017 BKN022 OVC030 13/09 Q1016 NOSIG",
    "icao": "EGLL",
    "flightCategory": "MVFR",
    "windDir": 210,
    "windSpeed": 16,
    "windGust": null,
    "visibility": 6,
    "ceiling": 2200,
    "temp": 13,
    "dewpoint": 9,
    "altimeter": 30,
    "conditions": "",
    "observationTime": "2026-04-04T11:20:00.000Z"
  },
  "SYD": {
    "raw": "METAR YSSY 041100Z AUTO 15008KT 8000 -SHRA FEW015 SCT025 BKN042 18/17 Q1026",
    "icao": "YSSY",
    "flightCategory": "MVFR",
    "windDir": 150,
    "windSpeed": 8,
    "windGust": null,
    "visibility": 4.97,
    "ceiling": 4200,
    "temp": 18,
    "dewpoint": 17,
    "altimeter": 30.3,
    "conditions": "-SHRA",
    "observationTime": "2026-04-04T11:00:00.000Z"
  },
  "LAS": {
    "raw": "METAR KLAS 041056Z 05005KT 10SM CLR 14/M09 A3023 RMK AO2 SLP224 T01391094",
    "icao": "KLAS",
    "flightCategory": "VFR",
    "windDir": 50,
    "windSpeed": 5,
    "windGust": null,
    "visibility": 10,
    "ceiling": null,
    "temp": 13.9,
    "dewpoint": -9.4,
    "altimeter": 30.23,
    "conditions": "",
    "observationTime": "2026-04-04T11:00:00.000Z"
  }
}