{
  "LAS": {
    "raw": "METAR KLAS 290056Z 22013KT 10SM FEW200 31/M08 A2987 RMK AO2 SLP093 T03111078",
    "icao": "KLAS",
    "flightCategory": "VFR",
    "windDir": 220,
    "windSpeed": 13,
    "windGust": null,
    "visibility": 10,
    "ceiling": null,
    "temp": 31.1,
    "dewpoint": -7.8,
    "altimeter": 29.87,
    "conditions": "",
    "observationTime": "2026-03-29T01:00:00.000Z"
  },
  "LAX": {
    "raw": "METAR KLAX 290053Z 27011KT 10SM FEW007 SCT220 BKN250 18/14 A2992 RMK AO2 SLP132 T01780144",
    "icao": "KLAX",
    "flightCategory": "VFR",
    "windDir": 270,
    "windSpeed": 11,
    "windGust": null,
    "visibility": 10,
    "ceiling": 25000,
    "temp": 17.8,
    "dewpoint": 14.4,
    "altimeter": 29.92,
    "conditions": "",
    "observationTime": "2026-03-29T01:00:00.000Z"
  },
  "ORD": {
    "raw": "METAR KORD 290051Z 21011G17KT 10SM BKN100 BKN250 08/M05 A3033 RMK AO2 SLP278 T00831050",
    "icao": "KORD",
    "flightCategory": "VFR",
    "windDir": 210,
    "windSpeed": 11,
    "windGust": 17,
    "visibility": 10,
    "ceiling": 10000,
    "temp": 8.3,
    "dewpoint": -5,
    "altimeter": 30.33,
    "conditions": "",
    "observationTime": "2026-03-29T01:00:00.000Z"
  },
  "LHR": {
    "raw": "METAR EGLL 290020Z COR AUTO 28009KT 9999 NCD 03/M01 Q1031 NOSIG",
    "icao": "EGLL",
    "flightCategory": "VFR",
    "windDir": 280,
    "windSpeed": 9,
    "windGust": null,
    "visibility": 6,
    "ceiling": null,
    "temp": 3,
    "dewpoint": -1,
    "altimeter": 30.45,
    "conditions": "",
    "observationTime": "2026-03-29T00:20:00.000Z"
  },
  "SYD": {
    "raw": "METAR YSSY 290030Z 19013KT 9999 FEW040 21/14 Q1022",
    "icao": "YSSY",
    "flightCategory": "VFR",
    "windDir": 190,
    "windSpeed": 13,
    "windGust": null,
    "visibility": 6,
    "ceiling": null,
    "temp": 21,
    "dewpoint": 14,
    "altimeter": 30.18,
    "conditions": "",
    "observationTime": "2026-03-29T00:30:00.000Z"
  }
}