{
  "SYD": {
    "raw": "METAR YSSY 141830Z AUTO 34006KT 9999 -SHRA FEW027 SCT036 OVC105 15/15 Q1029",
    "icao": "YSSY",
    "flightCategory": "VFR",
    "windDir": 340,
    "windSpeed": 6,
    "windGust": null,
    "visibility": 6,
    "ceiling": 10500,
    "temp": 15,
    "dewpoint": 15,
    "altimeter": 30.39,
    "conditions": "-SHRA",
    "observationTime": "2026-05-14T18:30:00.000Z"
  },
  "LAS": {
    "raw": "METAR KLAS 141856Z VRB04KT 10SM FEW120 31/M01 A2992 RMK AO2 SLP105 T03111006",
    "icao": "KLAS",
    "flightCategory": "VFR",
    "windDir": null,
    "windSpeed": 4,
    "windGust": null,
    "visibility": 10,
    "ceiling": null,
    "temp": 31.1,
    "dewpoint": -0.6,
    "altimeter": 29.92,
    "conditions": "",
    "observationTime": "2026-05-14T19:00:00.000Z"
  },
  "LAX": {
    "raw": "METAR KLAX 141853Z 26009KT 10SM FEW015 OVC024 18/12 A3005 RMK AO2 SLP174 T01830122",
    "icao": "KLAX",
    "flightCategory": "MVFR",
    "windDir": 260,
    "windSpeed": 9,
    "windGust": null,
    "visibility": 10,
    "ceiling": 2400,
    "temp": 18.3,
    "dewpoint": 12.2,
    "altimeter": 30.05,
    "conditions": "",
    "observationTime": "2026-05-14T19:00:00.000Z"
  },
  "ORD": {
    "raw": "METAR KORD 141851Z 07005KT 10SM FEW300 18/M01 A3007 RMK AO2 SLP182 T01831006",
    "icao": "KORD",
    "flightCategory": "VFR",
    "windDir": 70,
    "windSpeed": 5,
    "windGust": null,
    "visibility": 10,
    "ceiling": null,
    "temp": 18.3,
    "dewpoint": -0.6,
    "altimeter": 30.07,
    "conditions": "",
    "observationTime": "2026-05-14T19:00:00.000Z"
  },
  "LHR": {
    "raw": "METAR EGLL 141850Z VRB02KT 9999 FEW057TCU 09/06 Q1002 TEMPO SHRA",
    "icao": "EGLL",
    "flightCategory": "VFR",
    "windDir": null,
    "windSpeed": 2,
    "windGust": null,
    "visibility": 6,
    "ceiling": null,
    "temp": 9,
    "dewpoint": 6,
    "altimeter": 29.59,
    "conditions": "",
    "observationTime": "2026-05-14T19:00:00.000Z"
  }
}