{
  "SYD": {
    "raw": "METAR YSSY 092330Z 01008KT CAVOK 19/12 Q1028",
    "icao": "YSSY",
    "flightCategory": "VFR",
    "windDir": 10,
    "windSpeed": 8,
    "windGust": null,
    "visibility": 6,
    "ceiling": null,
    "temp": 19,
    "dewpoint": 12,
    "altimeter": 30.36,
    "conditions": "",
    "observationTime": "2026-06-09T23:30:00.000Z"
  },
  "LAS": {
    "raw": "METAR KLAS 092356Z 22013G20KT 10SM CLR 37/03 A2973 RMK AO2 SLP038 T03670028 10367 20311 56021",
    "icao": "KLAS",
    "flightCategory": "VFR",
    "windDir": 220,
    "windSpeed": 13,
    "windGust": 20,
    "visibility": 10,
    "ceiling": null,
    "temp": 36.7,
    "dewpoint": 2.8,
    "altimeter": 29.73,
    "conditions": "",
    "observationTime": "2026-06-10T00:00:00.000Z"
  },
  "LAX": {
    "raw": "METAR KLAX 092353Z 26010KT 10SM CLR 21/14 A2984 RMK AO2 SLP103 T02110144 10222 20211 56020",
    "icao": "KLAX",
    "flightCategory": "VFR",
    "windDir": 260,
    "windSpeed": 10,
    "windGust": null,
    "visibility": 10,
    "ceiling": null,
    "temp": 21.1,
    "dewpoint": 14.4,
    "altimeter": 29.84,
    "conditions": "",
    "observationTime": "2026-06-10T00:00:00.000Z"
  },
  "ORD": {
    "raw": "METAR KORD 092351Z 27005KT 10SM FEW040 FEW075 SCT250 30/22 A2983 RMK AO2 SLP095 T03000217 10311 20283 56008",
    "icao": "KORD",
    "flightCategory": "VFR",
    "windDir": 270,
    "windSpeed": 5,
    "windGust": null,
    "visibility": 10,
    "ceiling": null,
    "temp": 30,
    "dewpoint": 21.7,
    "altimeter": 29.83,
    "conditions": "",
    "observationTime": "2026-06-10T00:00:00.000Z"
  },
  "LHR": {
    "raw": "METAR EGLL 092320Z AUTO 25011KT 9999 NCD 12/07 Q1016",
    "icao": "EGLL",
    "flightCategory": "VFR",
    "windDir": 250,
    "windSpeed": 11,
    "windGust": null,
    "visibility": 6,
    "ceiling": null,
    "temp": 12,
    "dewpoint": 7,
    "altimeter": 30,
    "conditions": "",
    "observationTime": "2026-06-09T23:20:00.000Z"
  }
}