{
  "ORD": {
    "raw": "METAR KORD 022351Z 19022G36KT 10SM BKN030 BKN036 BKN075 BKN150 BKN250 21/16 A2963 RMK AO2 PK WND 20041/2327 SLP033 60002 T02060161 10211 20133 58002",
    "icao": "KORD",
    "flightCategory": "MVFR",
    "windDir": 190,
    "windSpeed": 22,
    "windGust": 36,
    "visibility": 10,
    "ceiling": 3000,
    "temp": 20.6,
    "dewpoint": 16.1,
    "altimeter": 29.63,
    "conditions": "",
    "observationTime": "2026-04-03T00:00:00.000Z"
  },
  "LHR": {
    "raw": "METAR EGLL 022350Z AUTO 21009KT 9999 NCD 09/05 Q1017 TEMPO RA",
    "icao": "EGLL",
    "flightCategory": "VFR",
    "windDir": 210,
    "windSpeed": 9,
    "windGust": null,
    "visibility": 6,
    "ceiling": null,
    "temp": 9,
    "dewpoint": 5,
    "altimeter": 30.03,
    "conditions": "",
    "observationTime": "2026-04-03T00:00:00.000Z"
  },
  "SYD": {
    "raw": "METAR YSSY 022330Z 18016KT 9999 FEW014 23/19 Q1023",
    "icao": "YSSY",
    "flightCategory": "VFR",
    "windDir": 180,
    "windSpeed": 16,
    "windGust": null,
    "visibility": 6,
    "ceiling": null,
    "temp": 23,
    "dewpoint": 19,
    "altimeter": 30.21,
    "conditions": "",
    "observationTime": "2026-04-02T23:30:00.000Z"
  },
  "LAS": {
    "raw": "METAR KLAS 022356Z 17010G16KT 10SM FEW140 FEW200 23/03 A2977 RMK AO2 SLP065 T02330028 10233 20194 55008",
    "icao": "KLAS",
    "flightCategory": "VFR",
    "windDir": 170,
    "windSpeed": 10,
    "windGust": 16,
    "visibility": 10,
    "ceiling": null,
    "temp": 23.3,
    "dewpoint": 2.8,
    "altimeter": 29.77,
    "conditions": "",
    "observationTime": "2026-04-03T00:00:00.000Z"
  },
  "LAX": {
    "raw": "METAR KLAX 022353Z 24010KT 10SM FEW015 FEW060 SCT250 19/12 A2992 RMK AO2 SLP130 T01890122 10200 20183 56017 $",
    "icao": "KLAX",
    "flightCategory": "VFR",
    "windDir": 240,
    "windSpeed": 10,
    "windGust": null,
    "visibility": 10,
    "ceiling": null,
    "temp": 18.9,
    "dewpoint": 12.2,
    "altimeter": 29.92,
    "conditions": "",
    "observationTime": "2026-04-03T00:00:00.000Z"
  }
}