{
  "SYD": {
    "raw": "METAR YSSY 032030Z 29005KT CAVOK 19/15 Q1016",
    "icao": "YSSY",
    "flightCategory": "VFR",
    "windDir": 290,
    "windSpeed": 5,
    "windGust": null,
    "visibility": 6,
    "ceiling": null,
    "temp": 19,
    "dewpoint": 15,
    "altimeter": 30,
    "conditions": "",
    "observationTime": "2026-05-03T20:30:00.000Z"
  },
  "LAS": {
    "raw": "METAR KLAS 032056Z 18015G26KT 10SM SCT130 SCT220 32/M03 A2974 RMK AO2 PK WND 16026/2051 SLP047 T03171033 58038",
    "icao": "KLAS",
    "flightCategory": "VFR",
    "windDir": 180,
    "windSpeed": 15,
    "windGust": 26,
    "visibility": 10,
    "ceiling": null,
    "temp": 31.7,
    "dewpoint": -3.3,
    "altimeter": 29.74,
    "conditions": "",
    "observationTime": "2026-05-03T21:00:00.000Z"
  },
  "LAX": {
    "raw": "METAR KLAX 032053Z 25012KT 10SM FEW024 SCT036 OVC047 18/09 A2995 RMK AO2 SLP140 T01830094 57008",
    "icao": "KLAX",
    "flightCategory": "VFR",
    "windDir": 250,
    "windSpeed": 12,
    "windGust": null,
    "visibility": 10,
    "ceiling": 4700,
    "temp": 18.3,
    "dewpoint": 9.4,
    "altimeter": 29.95,
    "conditions": "",
    "observationTime": "2026-05-03T21:00:00.000Z"
  },
  "ORD": {
    "raw": "METAR KORD 032051Z 21020G34KT 10SM BKN070 BKN110 BKN250 19/02 A2974 RMK AO2 PK WND 19038/2018 SLP069 T01890017 56037 $",
    "icao": "KORD",
    "flightCategory": "VFR",
    "windDir": 210,
    "windSpeed": 20,
    "windGust": 34,
    "visibility": 10,
    "ceiling": 7000,
    "temp": 18.9,
    "dewpoint": 1.7,
    "altimeter": 29.74,
    "conditions": "",
    "observationTime": "2026-05-03T21:00:00.000Z"
  },
  "LHR": {
    "raw": "METAR EGLL 032020Z AUTO VRB02KT 9999 FEW042/// //////CB 17/10 Q1010 NOSIG",
    "icao": "EGLL",
    "flightCategory": "VFR",
    "windDir": null,
    "windSpeed": 2,
    "windGust": null,
    "visibility": 6,
    "ceiling": null,
    "temp": 17,
    "dewpoint": 10,
    "altimeter": 29.83,
    "conditions": "",
    "observationTime": "2026-05-03T20:20:00.000Z"
  }
}