{
  "SYD": {
    "raw": "METAR YSSY 091230Z AUTO 36010KT 9999 // NCD 17/13 Q1028",
    "icao": "YSSY",
    "flightCategory": "VFR",
    "windDir": 360,
    "windSpeed": 10,
    "windGust": null,
    "visibility": 6,
    "ceiling": null,
    "temp": 17,
    "dewpoint": 13,
    "altimeter": 30.36,
    "conditions": "",
    "observationTime": "2026-06-09T12:30:00.000Z"
  },
  "LAS": {
    "raw": "METAR KLAS 091256Z 18010G18KT 10SM CLR 24/M03 A2979 RMK AO2 SLP060 T02391033",
    "icao": "KLAS",
    "flightCategory": "VFR",
    "windDir": 180,
    "windSpeed": 10,
    "windGust": 18,
    "visibility": 10,
    "ceiling": null,
    "temp": 23.9,
    "dewpoint": -3.3,
    "altimeter": 29.79,
    "conditions": "",
    "observationTime": "2026-06-09T13:00:00.000Z"
  },
  "LAX": {
    "raw": "METAR KLAX 091253Z VRB03KT 10SM FEW014 FEW160 17/13 A2989 RMK AO2 SLP120 T01670133 $",
    "icao": "KLAX",
    "flightCategory": "VFR",
    "windDir": null,
    "windSpeed": 3,
    "windGust": null,
    "visibility": 10,
    "ceiling": null,
    "temp": 16.7,
    "dewpoint": 13.3,
    "altimeter": 29.89,
    "conditions": "",
    "observationTime": "2026-06-09T13:00:00.000Z"
  },
  "ORD": {
    "raw": "SPECI KORD 091226Z 20006KT 5SM BR BKN004 OVC023 22/22 A2993 RMK AO2 T02220217",
    "icao": "KORD",
    "flightCategory": "LIFR",
    "windDir": 200,
    "windSpeed": 6,
    "windGust": null,
    "visibility": 5,
    "ceiling": 400,
    "temp": 22.2,
    "dewpoint": 21.7,
    "altimeter": 29.93,
    "conditions": "BR",
    "observationTime": "2026-06-09T12:26:00.000Z"
  },
  "LHR": {
    "raw": "METAR EGLL 091220Z AUTO 27018KT 9999 SCT044 16/06 Q1014",
    "icao": "EGLL",
    "flightCategory": "VFR",
    "windDir": 270,
    "windSpeed": 18,
    "windGust": null,
    "visibility": 6,
    "ceiling": null,
    "temp": 16,
    "dewpoint": 6,
    "altimeter": 29.94,
    "conditions": "",
    "observationTime": "2026-06-09T12:20:00.000Z"
  }
}