{
  "LHR": {
    "raw": "METAR EGLL 051950Z AUTO 27012KT 9999 NCD 25/15 Q1022",
    "icao": "EGLL",
    "flightCategory": "VFR",
    "windDir": 270,
    "windSpeed": 12,
    "windGust": null,
    "visibility": 6,
    "ceiling": null,
    "temp": 25,
    "dewpoint": 15,
    "altimeter": 30.18,
    "conditions": "",
    "observationTime": "2026-07-05T20:00:00.000Z"
  },
  "ORD": {
    "raw": "METAR KORD 051951Z 02009KT 9SM BKN014 BKN025 BKN070 24/21 A2997 RMK AO2 SLP146 T02440206 $",
    "icao": "KORD",
    "flightCategory": "MVFR",
    "windDir": 20,
    "windSpeed": 9,
    "windGust": null,
    "visibility": 9,
    "ceiling": 1400,
    "temp": 24.4,
    "dewpoint": 20.6,
    "altimeter": 29.97,
    "conditions": "",
    "observationTime": "2026-07-05T20:00:00.000Z"
  },
  "SYD": {
    "raw": "METAR YSSY 052000Z 21010KT 9000 -SHRA VCSH FEW008 SCT020 BKN035 12/10 Q1035",
    "icao": "YSSY",
    "flightCategory": "VFR",
    "windDir": 210,
    "windSpeed": 10,
    "windGust": null,
    "visibility": 5.59,
    "ceiling": 3500,
    "temp": 12,
    "dewpoint": 10,
    "altimeter": 30.56,
    "conditions": "-SHRA VCSH",
    "observationTime": "2026-07-05T20:00:00.000Z"
  },
  "LAS": {
    "raw": "METAR KLAS 051956Z 22014G23KT 10SM FEW140 SCT180 BKN250 38/07 A2990 RMK AO2 SLP092 T03830067 $",
    "icao": "KLAS",
    "flightCategory": "VFR",
    "windDir": 220,
    "windSpeed": 14,
    "windGust": 23,
    "visibility": 10,
    "ceiling": 25000,
    "temp": 38.3,
    "dewpoint": 6.7,
    "altimeter": 29.9,
    "conditions": "",
    "observationTime": "2026-07-05T20:00:00.000Z"
  },
  "LAX": {
    "raw": "METAR KLAX 051953Z 26010KT 10SM FEW010 FEW190 SCT230 SCT280 22/16 A2999 RMK AO2 SLP153 T02220161 $",
    "icao": "KLAX",
    "flightCategory": "VFR",
    "windDir": 260,
    "windSpeed": 10,
    "windGust": null,
    "visibility": 10,
    "ceiling": null,
    "temp": 22.2,
    "dewpoint": 16.1,
    "altimeter": 29.99,
    "conditions": "",
    "observationTime": "2026-07-05T20:00:00.000Z"
  }
}