{
  "SYD": {
    "raw": "METAR YSSY 022300Z 18016KT 9999 FEW012 SCT018 22/19 Q1023",
    "icao": "YSSY",
    "flightCategory": "VFR",
    "windDir": 180,
    "windSpeed": 16,
    "windGust": null,
    "visibility": 6,
    "ceiling": null,
    "temp": 22,
    "dewpoint": 19,
    "altimeter": 30.21,
    "conditions": "",
    "observationTime": "2026-04-02T23:00:00.000Z"
  },
  "LHR": {
    "raw": "METAR EGLL 022250Z COR 21009KT 9999 NSC 09/04 Q1017 NOSIG",
    "icao": "EGLL",
    "flightCategory": "VFR",
    "windDir": 210,
    "windSpeed": 9,
    "windGust": null,
    "visibility": 6,
    "ceiling": null,
    "temp": 9,
    "dewpoint": 4,
    "altimeter": 30.03,
    "conditions": "",
    "observationTime": "2026-04-02T23:00:00.000Z"
  },
  "LAS": {
    "raw": "METAR KLAS 022256Z 17012G24KT 10SM FEW140 SCT200 23/03 A2976 RMK AO2 SLP062 T02280033",
    "icao": "KLAS",
    "flightCategory": "VFR",
    "windDir": 170,
    "windSpeed": 12,
    "windGust": 24,
    "visibility": 10,
    "ceiling": null,
    "temp": 22.8,
    "dewpoint": 3.3,
    "altimeter": 29.76,
    "conditions": "",
    "observationTime": "2026-04-02T23:00:00.000Z"
  },
  "LAX": {
    "raw": "METAR KLAX 022253Z 25012KT 10SM FEW015 FEW060 SCT250 19/12 A2993 RMK AO2 SLP133 T01890117 $",
    "icao": "KLAX",
    "flightCategory": "VFR",
    "windDir": 250,
    "windSpeed": 12,
    "windGust": null,
    "visibility": 10,
    "ceiling": null,
    "temp": 18.9,
    "dewpoint": 11.7,
    "altimeter": 29.93,
    "conditions": "",
    "observationTime": "2026-04-02T23:00:00.000Z"
  },
  "ORD": {
    "raw": "METAR KORD 022251Z 19016G32KT 10SM FEW034 BKN065 BKN095 BKN160 BKN250 21/16 A2963 RMK AO2 PK WND 19036/2152 RAE11 SLP034 P0000 T02060161",
    "icao": "KORD",
    "flightCategory": "VFR",
    "windDir": 190,
    "windSpeed": 16,
    "windGust": 32,
    "visibility": 10,
    "ceiling": 6500,
    "temp": 20.6,
    "dewpoint": 16.1,
    "altimeter": 29.63,
    "conditions": "",
    "observationTime": "2026-04-02T23:00:00.000Z"
  }
}