{
  "SYD": {
    "raw": "METAR YSSY 211200Z AUTO 15017KT 9999 // SCT037 OVC056 18/13 Q1026",
    "icao": "YSSY",
    "flightCategory": "VFR",
    "windDir": 150,
    "windSpeed": 17,
    "windGust": null,
    "visibility": 6,
    "ceiling": 5600,
    "temp": 18,
    "dewpoint": 13,
    "altimeter": 30.3,
    "conditions": "",
    "observationTime": "2026-04-21T12:00:00.000Z"
  },
  "LHR": {
    "raw": "METAR EGLL 211150Z COR AUTO 08012KT 9999 FEW044 13/02 Q1025 NOSIG",
    "icao": "EGLL",
    "flightCategory": "VFR",
    "windDir": 80,
    "windSpeed": 12,
    "windGust": null,
    "visibility": 6,
    "ceiling": null,
    "temp": 13,
    "dewpoint": 2,
    "altimeter": 30.27,
    "conditions": "",
    "observationTime": "2026-04-21T12:00:00.000Z"
  },
  "LAS": {
    "raw": "METAR KLAS 211156Z 17006KT 10SM BKN220 22/M02 A2989 RMK AO2 SLP097 T02171017 10256 20211 56001",
    "icao": "KLAS",
    "flightCategory": "VFR",
    "windDir": 170,
    "windSpeed": 6,
    "windGust": null,
    "visibility": 10,
    "ceiling": 22000,
    "temp": 21.7,
    "dewpoint": -1.7,
    "altimeter": 29.89,
    "conditions": "",
    "observationTime": "2026-04-21T12:00:00.000Z"
  },
  "LAX": {
    "raw": "METAR KLAX 211153Z 00000KT 10SM FEW012 FEW020 SCT160 SCT250 15/12 A3001 RMK AO2 SLP159 T01500117 10156 20144 56005 $",
    "icao": "KLAX",
    "flightCategory": "VFR",
    "windDir": 0,
    "windSpeed": 0,
    "windGust": null,
    "visibility": 10,
    "ceiling": null,
    "temp": 15,
    "dewpoint": 11.7,
    "altimeter": 30.01,
    "conditions": "",
    "observationTime": "2026-04-21T12:00:00.000Z"
  },
  "ORD": {
    "raw": "METAR KORD 211151Z 20009G18KT 10SM BKN180 BKN250 11/03 A2998 RMK AO2 SLP153 VIRGA OHD T01110033 10111 20100 58014",
    "icao": "KORD",
    "flightCategory": "VFR",
    "windDir": 200,
    "windSpeed": 9,
    "windGust": 18,
    "visibility": 10,
    "ceiling": 18000,
    "temp": 11.1,
    "dewpoint": 3.3,
    "altimeter": 29.98,
    "conditions": "",
    "observationTime": "2026-04-21T12:00:00.000Z"
  }
}