{
  "SYD": {
    "raw": "METAR YSSY 200230Z 19015KT 9999 SCT037 20/13 Q1024",
    "icao": "YSSY",
    "flightCategory": "VFR",
    "windDir": 190,
    "windSpeed": 15,
    "windGust": null,
    "visibility": 6,
    "ceiling": null,
    "temp": 20,
    "dewpoint": 13,
    "altimeter": 30.24,
    "conditions": "",
    "observationTime": "2026-04-20T02:30:00.000Z"
  },
  "LAS": {
    "raw": "METAR KLAS 200256Z 06007KT 10SM FEW200 BKN250 27/M11 A2985 RMK AO2 SLP087 T02721106 55001",
    "icao": "KLAS",
    "flightCategory": "VFR",
    "windDir": 60,
    "windSpeed": 7,
    "windGust": null,
    "visibility": 10,
    "ceiling": 25000,
    "temp": 27.2,
    "dewpoint": -10.6,
    "altimeter": 29.85,
    "conditions": "",
    "observationTime": "2026-04-20T03:00:00.000Z"
  },
  "LAX": {
    "raw": "METAR KLAX 200253Z 26011KT 10SM FEW015 FEW250 17/14 A2990 RMK AO2 SLP123 T01720139 53003",
    "icao": "KLAX",
    "flightCategory": "VFR",
    "windDir": 260,
    "windSpeed": 11,
    "windGust": null,
    "visibility": 10,
    "ceiling": null,
    "temp": 17.2,
    "dewpoint": 13.9,
    "altimeter": 29.9,
    "conditions": "",
    "observationTime": "2026-04-20T03:00:00.000Z"
  },
  "ORD": {
    "raw": "METAR KORD 200251Z 10004KT 10SM BKN085 04/M02 A3022 RMK AO2 SLP239 VIRGA T00441017 53025 $",
    "icao": "KORD",
    "flightCategory": "VFR",
    "windDir": 100,
    "windSpeed": 4,
    "windGust": null,
    "visibility": 10,
    "ceiling": 8500,
    "temp": 4.4,
    "dewpoint": -1.7,
    "altimeter": 30.22,
    "conditions": "",
    "observationTime": "2026-04-20T03:00:00.000Z"
  },
  "LHR": {
    "raw": "METAR EGLL 200220Z COR AUTO 36003KT 9999 NCD 07/04 Q1024 NOSIG",
    "icao": "EGLL",
    "flightCategory": "VFR",
    "windDir": 360,
    "windSpeed": 3,
    "windGust": null,
    "visibility": 6,
    "ceiling": null,
    "temp": 7,
    "dewpoint": 4,
    "altimeter": 30.24,
    "conditions": "",
    "observationTime": "2026-04-20T02:20:00.000Z"
  }
}