{
  "LAS": {
    "raw": "METAR KLAS 301156Z 00000KT 10SM FEW180 24/04 A2977 RMK AO2 SLP055 T02390039 10300 20239 53009",
    "icao": "KLAS",
    "flightCategory": "VFR",
    "windDir": 0,
    "windSpeed": 0,
    "windGust": null,
    "visibility": 10,
    "ceiling": null,
    "temp": 23.9,
    "dewpoint": 3.9,
    "altimeter": 29.77,
    "conditions": "",
    "observationTime": "2026-06-30T12:00:00.000Z"
  },
  "LAX": {
    "raw": "METAR KLAX 301153Z 25005KT 10SM FEW011 FEW018 OVC030 18/14 A2990 RMK AO2 SLP124 T01830139 10189 20178 56004 $",
    "icao": "KLAX",
    "flightCategory": "MVFR",
    "windDir": 250,
    "windSpeed": 5,
    "windGust": null,
    "visibility": 10,
    "ceiling": 3000,
    "temp": 18.3,
    "dewpoint": 13.9,
    "altimeter": 29.9,
    "conditions": "",
    "observationTime": "2026-06-30T12:00:00.000Z"
  },
  "ORD": {
    "raw": "METAR KORD 301151Z 22010G18KT 9SM FEW011 BKN300 26/24 A2993 RMK AO2 SLP128 T02610239 10278 20261 52008 $",
    "icao": "KORD",
    "flightCategory": "VFR",
    "windDir": 220,
    "windSpeed": 10,
    "windGust": 18,
    "visibility": 9,
    "ceiling": 30000,
    "temp": 26.1,
    "dewpoint": 23.9,
    "altimeter": 29.93,
    "conditions": "",
    "observationTime": "2026-06-30T12:00:00.000Z"
  },
  "LHR": {
    "raw": "METAR EGLL 301120Z AUTO 23006G16KT 9999 NCD 21/10 Q1023",
    "icao": "EGLL",
    "flightCategory": "VFR",
    "windDir": 230,
    "windSpeed": 6,
    "windGust": 16,
    "visibility": 6,
    "ceiling": null,
    "temp": 21,
    "dewpoint": 10,
    "altimeter": 30.21,
    "conditions": "",
    "observationTime": "2026-06-30T11:20:00.000Z"
  },
  "SYD": {
    "raw": "METAR YSSY 301130Z AUTO 03008KT 9999 // OVC091 16/13 Q1019 RERA",
    "icao": "YSSY",
    "flightCategory": "VFR",
    "windDir": 30,
    "windSpeed": 8,
    "windGust": null,
    "visibility": 6,
    "ceiling": 9100,
    "temp": 16,
    "dewpoint": 13,
    "altimeter": 30.09,
    "conditions": "",
    "observationTime": "2026-06-30T11:30:00.000Z"
  }
}