{
  "SYD": {
    "raw": "METAR YSSY 070600Z 26023KT 9999 FEW042 16/M03 Q1015",
    "icao": "YSSY",
    "flightCategory": "VFR",
    "windDir": 260,
    "windSpeed": 23,
    "windGust": null,
    "visibility": 6,
    "ceiling": null,
    "temp": 16,
    "dewpoint": -3,
    "altimeter": 29.97,
    "conditions": "",
    "observationTime": "2026-05-07T06:00:00.000Z"
  },
  "LHR": {
    "raw": "METAR EGLL 070550Z COR AUTO 04003KT 9999 SCT017 BKN022 09/06 Q1016 NOSIG",
    "icao": "EGLL",
    "flightCategory": "MVFR",
    "windDir": 40,
    "windSpeed": 3,
    "windGust": null,
    "visibility": 6,
    "ceiling": 2200,
    "temp": 9,
    "dewpoint": 6,
    "altimeter": 30,
    "conditions": "",
    "observationTime": "2026-05-07T06:00:00.000Z"
  },
  "LAS": {
    "raw": "METAR KLAS 070556Z 20005KT 10SM CLR 25/01 A2998 RMK AO2 SLP131 T02500006 10294 20250 51015",
    "icao": "KLAS",
    "flightCategory": "VFR",
    "windDir": 200,
    "windSpeed": 5,
    "windGust": null,
    "visibility": 10,
    "ceiling": null,
    "temp": 25,
    "dewpoint": 0.6,
    "altimeter": 29.98,
    "conditions": "",
    "observationTime": "2026-05-07T06:00:00.000Z"
  },
  "LAX": {
    "raw": "METAR KLAX 070553Z 25004KT 10SM SCT008 SCT011 15/13 A3005 RMK AO2 SLP173 T01500133 10194 20150 51009",
    "icao": "KLAX",
    "flightCategory": "VFR",
    "windDir": 250,
    "windSpeed": 4,
    "windGust": null,
    "visibility": 10,
    "ceiling": null,
    "temp": 15,
    "dewpoint": 13.3,
    "altimeter": 30.05,
    "conditions": "",
    "observationTime": "2026-05-07T06:00:00.000Z"
  },
  "ORD": {
    "raw": "METAR KORD 070551Z 24004KT 10SM CLR 05/M03 A2998 RMK AO2 SLP156 T00501033 10111 20050 401440050 50001",
    "icao": "KORD",
    "flightCategory": "VFR",
    "windDir": 240,
    "windSpeed": 4,
    "windGust": null,
    "visibility": 10,
    "ceiling": null,
    "temp": 5,
    "dewpoint": -3.3,
    "altimeter": 29.98,
    "conditions": "",
    "observationTime": "2026-05-07T06:00:00.000Z"
  }
}