{
  "SYD": {
    "raw": "METAR YSSY 152300Z 20020KT 9999 FEW028 BKN030 BKN045 15/10 Q1035",
    "icao": "YSSY",
    "flightCategory": "MVFR",
    "windDir": 200,
    "windSpeed": 20,
    "windGust": null,
    "visibility": 6,
    "ceiling": 3000,
    "temp": 15,
    "dewpoint": 10,
    "altimeter": 30.56,
    "conditions": "",
    "observationTime": "2026-07-15T23:00:00.000Z"
  },
  "LHR": {
    "raw": "METAR EGLL 152250Z AUTO 05007KT 9999 NCD 21/13 Q1023",
    "icao": "EGLL",
    "flightCategory": "VFR",
    "windDir": 50,
    "windSpeed": 7,
    "windGust": null,
    "visibility": 6,
    "ceiling": null,
    "temp": 21,
    "dewpoint": 13,
    "altimeter": 30.21,
    "conditions": "",
    "observationTime": "2026-07-15T23:00:00.000Z"
  },
  "LAS": {
    "raw": "METAR KLAS 152256Z 19008KT 10SM SCT120 SCT200 43/08 A2979 RMK AO2 SLP050 VCSH SE CB DSNT NE-SE T04330083",
    "icao": "KLAS",
    "flightCategory": "VFR",
    "windDir": 190,
    "windSpeed": 8,
    "windGust": null,
    "visibility": 10,
    "ceiling": null,
    "temp": 43.3,
    "dewpoint": 8.3,
    "altimeter": 29.79,
    "conditions": "",
    "observationTime": "2026-07-15T23:00:00.000Z"
  },
  "LAX": {
    "raw": "METAR KLAX 152253Z 26010KT 10SM FEW100 FEW200 SCT250 26/17 A2980 RMK AO2 SLP091 T02560172 $",
    "icao": "KLAX",
    "flightCategory": "VFR",
    "windDir": 260,
    "windSpeed": 10,
    "windGust": null,
    "visibility": 10,
    "ceiling": null,
    "temp": 25.6,
    "dewpoint": 17.2,
    "altimeter": 29.8,
    "conditions": "",
    "observationTime": "2026-07-15T23:00:00.000Z"
  },
  "ORD": {
    "raw": "METAR KORD 152251Z 28005KT 10SM FEW050 BKN300 33/21 A3001 RMK AO2 SLP155 T03330211",
    "icao": "KORD",
    "flightCategory": "VFR",
    "windDir": 280,
    "windSpeed": 5,
    "windGust": null,
    "visibility": 10,
    "ceiling": 30000,
    "temp": 33.3,
    "dewpoint": 21.1,
    "altimeter": 30.01,
    "conditions": "",
    "observationTime": "2026-07-15T23:00:00.000Z"
  }
}