{
  "LHR": {
    "raw": "METAR EGLL 142350Z AUTO 17007KT 9999 SCT017 SCT022 BKN028 13/10 Q1017 BECMG BKN014",
    "icao": "EGLL",
    "flightCategory": "MVFR",
    "windDir": 170,
    "windSpeed": 7,
    "windGust": null,
    "visibility": 6,
    "ceiling": 2800,
    "temp": 13,
    "dewpoint": 10,
    "altimeter": 30.03,
    "conditions": "",
    "observationTime": "2026-04-15T00:00:00.000Z"
  },
  "SYD": {
    "raw": "METAR YSSY 150000Z 27013KT CAVOK 21/11 Q1019",
    "icao": "YSSY",
    "flightCategory": "VFR",
    "windDir": 270,
    "windSpeed": 13,
    "windGust": null,
    "visibility": 6,
    "ceiling": null,
    "temp": 21,
    "dewpoint": 11,
    "altimeter": 30.09,
    "conditions": "",
    "observationTime": "2026-04-15T00:00:00.000Z"
  },
  "LAS": {
    "raw": "METAR KLAS 142356Z VRB03KT 10SM FEW100 FEW250 23/M04 A2995 RMK AO2 SLP127 T02331044 10239 20189 56019",
    "icao": "KLAS",
    "flightCategory": "VFR",
    "windDir": null,
    "windSpeed": 3,
    "windGust": null,
    "visibility": 10,
    "ceiling": null,
    "temp": 23.3,
    "dewpoint": -4.4,
    "altimeter": 29.95,
    "conditions": "",
    "observationTime": "2026-04-15T00:00:00.000Z"
  },
  "LAX": {
    "raw": "METAR KLAX 142353Z 26011KT 10SM FEW015 FEW070 19/10 A3004 RMK AO2 SLP170 T01940100 10206 20189 58015",
    "icao": "KLAX",
    "flightCategory": "VFR",
    "windDir": 260,
    "windSpeed": 11,
    "windGust": null,
    "visibility": 10,
    "ceiling": null,
    "temp": 19.4,
    "dewpoint": 10,
    "altimeter": 30.04,
    "conditions": "",
    "observationTime": "2026-04-15T00:00:00.000Z"
  },
  "ORD": {
    "raw": "METAR KORD 142351Z 21011G28KT 10SM FEW040 SCT048 SCT140 BKN240 OVC300 27/18 A2965 RMK AO2 PK WND 20028/2335 SLP036 T02670178 10278 20256 58024",
    "icao": "KORD",
    "flightCategory": "VFR",
    "windDir": 210,
    "windSpeed": 11,
    "windGust": 28,
    "visibility": 10,
    "ceiling": 24000,
    "temp": 26.7,
    "dewpoint": 17.8,
    "altimeter": 29.65,
    "conditions": "",
    "observationTime": "2026-04-15T00:00:00.000Z"
  }
}