{
  "LHR": {
    "raw": "METAR EGLL 070550Z COR AUTO 06004KT 9999 NCD 06/03 Q1023 NOSIG",
    "icao": "EGLL",
    "flightCategory": "VFR",
    "windDir": 60,
    "windSpeed": 4,
    "windGust": null,
    "visibility": 6,
    "ceiling": null,
    "temp": 6,
    "dewpoint": 3,
    "altimeter": 30.21,
    "conditions": "",
    "observationTime": "2026-04-07T06:00:00.000Z"
  },
  "SYD": {
    "raw": "METAR YSSY 070600Z 04009KT CAVOK 28/16 Q1008",
    "icao": "YSSY",
    "flightCategory": "VFR",
    "windDir": 40,
    "windSpeed": 9,
    "windGust": null,
    "visibility": 6,
    "ceiling": null,
    "temp": 28,
    "dewpoint": 16,
    "altimeter": 29.77,
    "conditions": "",
    "observationTime": "2026-04-07T06:00:00.000Z"
  },
  "ORD": {
    "raw": "METAR KORD 070551Z 04015KT 10SM OVC023 01/M05 A3039 RMK AO2 SLP296 T00061050 10089 20006 401060006 51021 $",
    "icao": "KORD",
    "flightCategory": "MVFR",
    "windDir": 40,
    "windSpeed": 15,
    "windGust": null,
    "visibility": 10,
    "ceiling": 2300,
    "temp": 0.6,
    "dewpoint": -5,
    "altimeter": 30.39,
    "conditions": "",
    "observationTime": "2026-04-07T06:00:00.000Z"
  },
  "LAS": {
    "raw": "METAR KLAS 070556Z 18004KT 10SM FEW250 23/M11 A2990 RMK AO2 SLP105 T02281111 10306 20228 51011",
    "icao": "KLAS",
    "flightCategory": "VFR",
    "windDir": 180,
    "windSpeed": 4,
    "windGust": null,
    "visibility": 10,
    "ceiling": null,
    "temp": 22.8,
    "dewpoint": -11.1,
    "altimeter": 29.9,
    "conditions": "",
    "observationTime": "2026-04-07T06:00:00.000Z"
  },
  "LAX": {
    "raw": "METAR KLAX 070553Z 23008KT 10SM FEW011 17/13 A3002 RMK AO2 SLP163 T01670128 10206 20167 51015 $",
    "icao": "KLAX",
    "flightCategory": "VFR",
    "windDir": 230,
    "windSpeed": 8,
    "windGust": null,
    "visibility": 10,
    "ceiling": null,
    "temp": 16.7,
    "dewpoint": 12.8,
    "altimeter": 30.02,
    "conditions": "",
    "observationTime": "2026-04-07T06:00:00.000Z"
  }
}