{
  "SYD": {
    "raw": "SPECI YSSY 261612Z AUTO 35004KT 300V020 3500 BR OVC003 17/17 Q1017",
    "icao": "YSSY",
    "flightCategory": "LIFR",
    "windDir": 350,
    "windSpeed": 4,
    "windGust": null,
    "visibility": 2.17,
    "ceiling": 300,
    "temp": 17,
    "dewpoint": 17,
    "altimeter": 30.03,
    "conditions": "BR",
    "observationTime": "2026-05-26T16:12:00.000Z"
  },
  "LAS": {
    "raw": "METAR KLAS 261656Z 19012G22KT 10SM SCT250 28/02 A2967 RMK AO2 PK WND 21026/1619 SLP018 T02830022",
    "icao": "KLAS",
    "flightCategory": "VFR",
    "windDir": 190,
    "windSpeed": 12,
    "windGust": 22,
    "visibility": 10,
    "ceiling": null,
    "temp": 28.3,
    "dewpoint": 2.2,
    "altimeter": 29.67,
    "conditions": "",
    "observationTime": "2026-05-26T17:00:00.000Z"
  },
  "LAX": {
    "raw": "SPECI KLAX 261641Z 21011G19KT 10SM BKN024 BKN046 18/11 A2989 RMK AO2 T01830111 $",
    "icao": "KLAX",
    "flightCategory": "MVFR",
    "windDir": 210,
    "windSpeed": 11,
    "windGust": 19,
    "visibility": 10,
    "ceiling": 2400,
    "temp": 18.3,
    "dewpoint": 11.1,
    "altimeter": 29.89,
    "conditions": "",
    "observationTime": "2026-05-26T16:41:00.000Z"
  },
  "ORD": {
    "raw": "METAR KORD 261651Z 00000KT 10SM BKN250 27/08 A3005 RMK AO2 SLP172 T02670083",
    "icao": "KORD",
    "flightCategory": "VFR",
    "windDir": 0,
    "windSpeed": 0,
    "windGust": null,
    "visibility": 10,
    "ceiling": 25000,
    "temp": 26.7,
    "dewpoint": 8.3,
    "altimeter": 30.05,
    "conditions": "",
    "observationTime": "2026-05-26T17:00:00.000Z"
  },
  "LHR": {
    "raw": "METAR EGLL 261620Z AUTO 18010KT 150V220 9999 NCD 33/13 Q1024",
    "icao": "EGLL",
    "flightCategory": "VFR",
    "windDir": 180,
    "windSpeed": 10,
    "windGust": null,
    "visibility": 6,
    "ceiling": null,
    "temp": 33,
    "dewpoint": 13,
    "altimeter": 30.24,
    "conditions": "",
    "observationTime": "2026-05-26T16:20:00.000Z"
  }
}