{
  "SYD": {
    "raw": "METAR YSSY 081330Z AUTO 04006KT 9999 // SCT038 OVC061 16/13 Q1031",
    "icao": "YSSY",
    "flightCategory": "VFR",
    "windDir": 40,
    "windSpeed": 6,
    "windGust": null,
    "visibility": 6,
    "ceiling": 6100,
    "temp": 16,
    "dewpoint": 13,
    "altimeter": 30.45,
    "conditions": "",
    "observationTime": "2026-06-08T13:30:00.000Z"
  },
  "LAS": {
    "raw": "METAR KLAS 081356Z 19008KT 10SM FEW250 26/M01 A2979 RMK AO2 SLP059 T02561006 $",
    "icao": "KLAS",
    "flightCategory": "VFR",
    "windDir": 190,
    "windSpeed": 8,
    "windGust": null,
    "visibility": 10,
    "ceiling": null,
    "temp": 25.6,
    "dewpoint": -0.6,
    "altimeter": 29.79,
    "conditions": "",
    "observationTime": "2026-06-08T14:00:00.000Z"
  },
  "LAX": {
    "raw": "METAR KLAX 081353Z 10005KT 10SM FEW020 OVC025 18/12 A2986 RMK AO2 SLP109 T01830122 $",
    "icao": "KLAX",
    "flightCategory": "MVFR",
    "windDir": 100,
    "windSpeed": 5,
    "windGust": null,
    "visibility": 10,
    "ceiling": 2500,
    "temp": 18.3,
    "dewpoint": 12.2,
    "altimeter": 29.86,
    "conditions": "",
    "observationTime": "2026-06-08T14:00:00.000Z"
  },
  "ORD": {
    "raw": "METAR KORD 081351Z 13008KT 10SM FEW047 SCT120 BKN190 BKN250 23/18 A3000 RMK AO2 SLP154 T02330178",
    "icao": "KORD",
    "flightCategory": "VFR",
    "windDir": 130,
    "windSpeed": 8,
    "windGust": null,
    "visibility": 10,
    "ceiling": 19000,
    "temp": 23.3,
    "dewpoint": 17.8,
    "altimeter": 30,
    "conditions": "",
    "observationTime": "2026-06-08T14:00:00.000Z"
  },
  "LHR": {
    "raw": "METAR EGLL 081320Z AUTO 24013KT 9999 -RA SCT015/// //////CB 15/12 Q1013",
    "icao": "EGLL",
    "flightCategory": "VFR",
    "windDir": 240,
    "windSpeed": 13,
    "windGust": null,
    "visibility": 6,
    "ceiling": null,
    "temp": 15,
    "dewpoint": 12,
    "altimeter": 29.91,
    "conditions": "-RA",
    "observationTime": "2026-06-08T13:20:00.000Z"
  }
}