{
  "SYD": {
    "raw": "METAR YSSY 290230Z 21003KT 9999 FEW042 BKN300 24/12 Q1028",
    "icao": "YSSY",
    "flightCategory": "VFR",
    "windDir": 210,
    "windSpeed": 3,
    "windGust": null,
    "visibility": 6,
    "ceiling": 30000,
    "temp": 24,
    "dewpoint": 12,
    "altimeter": 30.36,
    "conditions": "",
    "observationTime": "2026-04-29T02:30:00.000Z"
  },
  "LAS": {
    "raw": "METAR KLAS 290256Z 10004KT 10SM FEW100 23/M06 A2995 RMK AO2 SLP126 T02331061 53002",
    "icao": "KLAS",
    "flightCategory": "VFR",
    "windDir": 100,
    "windSpeed": 4,
    "windGust": null,
    "visibility": 10,
    "ceiling": null,
    "temp": 23.3,
    "dewpoint": -6.1,
    "altimeter": 29.95,
    "conditions": "",
    "observationTime": "2026-04-29T03:00:00.000Z"
  },
  "LAX": {
    "raw": "METAR KLAX 290253Z 24008KT 10SM FEW250 16/10 A3002 RMK AO2 SLP164 T01560100 54000 $",
    "icao": "KLAX",
    "flightCategory": "VFR",
    "windDir": 240,
    "windSpeed": 8,
    "windGust": null,
    "visibility": 10,
    "ceiling": null,
    "temp": 15.6,
    "dewpoint": 10,
    "altimeter": 30.02,
    "conditions": "",
    "observationTime": "2026-04-29T03:00:00.000Z"
  },
  "ORD": {
    "raw": "METAR KORD 290251Z 24004KT 10SM SCT050 BKN120 OVC250 15/08 A2992 RMK AO2 SLP131 T01500078 53012 $",
    "icao": "KORD",
    "flightCategory": "VFR",
    "windDir": 240,
    "windSpeed": 4,
    "windGust": null,
    "visibility": 10,
    "ceiling": 12000,
    "temp": 15,
    "dewpoint": 7.8,
    "altimeter": 29.92,
    "conditions": "",
    "observationTime": "2026-04-29T03:00:00.000Z"
  },
  "LHR": {
    "raw": "METAR EGLL 290220Z COR AUTO 05010KT 020V080 9999 NCD 08/04 Q1023 NOSIG",
    "icao": "EGLL",
    "flightCategory": "VFR",
    "windDir": 50,
    "windSpeed": 10,
    "windGust": null,
    "visibility": 6,
    "ceiling": null,
    "temp": 8,
    "dewpoint": 4,
    "altimeter": 30.21,
    "conditions": "",
    "observationTime": "2026-04-29T02:20:00.000Z"
  }
}