{
  "SYD": {
    "raw": "METAR YSSY 192000Z 24014KT CAVOK 14/09 Q1015",
    "icao": "YSSY",
    "flightCategory": "VFR",
    "windDir": 240,
    "windSpeed": 14,
    "windGust": null,
    "visibility": 6,
    "ceiling": null,
    "temp": 14,
    "dewpoint": 9,
    "altimeter": 29.97,
    "conditions": "",
    "observationTime": "2026-05-19T20:00:00.000Z"
  },
  "LHR": {
    "raw": "METAR EGLL 191950Z AUTO 22016KT 9999 BKN024 15/10 Q1009",
    "icao": "EGLL",
    "flightCategory": "MVFR",
    "windDir": 220,
    "windSpeed": 16,
    "windGust": null,
    "visibility": 6,
    "ceiling": 2400,
    "temp": 15,
    "dewpoint": 10,
    "altimeter": 29.8,
    "conditions": "",
    "observationTime": "2026-05-19T20:00:00.000Z"
  },
  "LAS": {
    "raw": "METAR KLAS 191956Z 35005G22KT 10SM FEW250 24/M13 A3004 RMK AO2 SLP155 T02441133",
    "icao": "KLAS",
    "flightCategory": "VFR",
    "windDir": 350,
    "windSpeed": 5,
    "windGust": 22,
    "visibility": 10,
    "ceiling": null,
    "temp": 24.4,
    "dewpoint": -13.3,
    "altimeter": 30.04,
    "conditions": "",
    "observationTime": "2026-05-19T20:00:00.000Z"
  },
  "LAX": {
    "raw": "METAR KLAX 191953Z 25012KT 8SM FEW031 FEW055 SCT240 22/13 A2996 RMK AO2 SLP145 FU FEW031 FU FEW055 T02220128",
    "icao": "KLAX",
    "flightCategory": "VFR",
    "windDir": 250,
    "windSpeed": 12,
    "windGust": null,
    "visibility": 8,
    "ceiling": null,
    "temp": 22.2,
    "dewpoint": 12.8,
    "altimeter": 29.96,
    "conditions": "",
    "observationTime": "2026-05-19T20:00:00.000Z"
  },
  "ORD": {
    "raw": "METAR KORD 191951Z 25012G23KT 10SM BKN036 BKN050 BKN250 26/17 A2993 RMK AO2 PK WND 24029/1911 SLP129 T02560172",
    "icao": "KORD",
    "flightCategory": "VFR",
    "windDir": 250,
    "windSpeed": 12,
    "windGust": 23,
    "visibility": 10,
    "ceiling": 3600,
    "temp": 25.6,
    "dewpoint": 17.2,
    "altimeter": 29.93,
    "conditions": "",
    "observationTime": "2026-05-19T20:00:00.000Z"
  }
}