{
  "LHR": {
    "raw": "METAR EGLL 070550Z AUTO 23009KT 200V260 9999 BKN036 13/09 Q1019",
    "icao": "EGLL",
    "flightCategory": "VFR",
    "windDir": 230,
    "windSpeed": 9,
    "windGust": null,
    "visibility": 6,
    "ceiling": 3600,
    "temp": 13,
    "dewpoint": 9,
    "altimeter": 30.09,
    "conditions": "",
    "observationTime": "2026-06-07T06:00:00.000Z"
  },
  "SYD": {
    "raw": "METAR YSSY 070600Z 13007KT CAVOK 18/08 Q1029",
    "icao": "YSSY",
    "flightCategory": "VFR",
    "windDir": 130,
    "windSpeed": 7,
    "windGust": null,
    "visibility": 6,
    "ceiling": null,
    "temp": 18,
    "dewpoint": 8,
    "altimeter": 30.39,
    "conditions": "",
    "observationTime": "2026-06-07T06:00:00.000Z"
  },
  "LAS": {
    "raw": "METAR KLAS 070556Z 17007G16KT 130V200 10SM FEW150 SCT200 31/03 A2965 RMK AO2 SLP007 T03110028 10378 20311 52009",
    "icao": "KLAS",
    "flightCategory": "VFR",
    "windDir": 170,
    "windSpeed": 7,
    "windGust": 16,
    "visibility": 10,
    "ceiling": null,
    "temp": 31.1,
    "dewpoint": 2.8,
    "altimeter": 29.65,
    "conditions": "",
    "observationTime": "2026-06-07T06:00:00.000Z"
  },
  "LAX": {
    "raw": "METAR KLAX 070553Z 29006KT 10SM FEW011 BKN024 18/14 A2986 RMK AO2 SLP109 T01780139 10206 20172 51009 $",
    "icao": "KLAX",
    "flightCategory": "MVFR",
    "windDir": 290,
    "windSpeed": 6,
    "windGust": null,
    "visibility": 10,
    "ceiling": 2400,
    "temp": 17.8,
    "dewpoint": 13.9,
    "altimeter": 29.86,
    "conditions": "",
    "observationTime": "2026-06-07T06:00:00.000Z"
  },
  "ORD": {
    "raw": "METAR KORD 070551Z 09004KT 10SM BKN060 BKN090 BKN250 22/13 A2993 RMK AO2 SLP129 T02170133 10261 20211 403000211 51007 $",
    "icao": "KORD",
    "flightCategory": "VFR",
    "windDir": 90,
    "windSpeed": 4,
    "windGust": null,
    "visibility": 10,
    "ceiling": 6000,
    "temp": 21.7,
    "dewpoint": 13.3,
    "altimeter": 29.93,
    "conditions": "",
    "observationTime": "2026-06-07T06:00:00.000Z"
  }
}