{
  "SYD": {
    "raw": "METAR YSSY 050030Z 25017KT CAVOK 16/06 Q1011",
    "icao": "YSSY",
    "flightCategory": "VFR",
    "windDir": 250,
    "windSpeed": 17,
    "windGust": null,
    "visibility": 6,
    "ceiling": null,
    "temp": 16,
    "dewpoint": 6,
    "altimeter": 29.85,
    "conditions": "",
    "observationTime": "2026-06-05T00:30:00.000Z"
  },
  "LAS": {
    "raw": "METAR KLAS 050056Z 24009G20KT 10SM CLR 39/M04 A2973 RMK AO2 SLP036 T03941039",
    "icao": "KLAS",
    "flightCategory": "VFR",
    "windDir": 240,
    "windSpeed": 9,
    "windGust": 20,
    "visibility": 10,
    "ceiling": null,
    "temp": 39.4,
    "dewpoint": -3.9,
    "altimeter": 29.73,
    "conditions": "",
    "observationTime": "2026-06-05T01:00:00.000Z"
  },
  "LAX": {
    "raw": "SPECI KLAX 050043Z 28010KT 10SM SCT012 19/14 A2987 RMK AO2 T01940144 $",
    "icao": "KLAX",
    "flightCategory": "VFR",
    "windDir": 280,
    "windSpeed": 10,
    "windGust": null,
    "visibility": 10,
    "ceiling": null,
    "temp": 19.4,
    "dewpoint": 14.4,
    "altimeter": 29.87,
    "conditions": "",
    "observationTime": "2026-06-05T00:43:00.000Z"
  },
  "ORD": {
    "raw": "METAR KORD 050051Z 19010G17KT 10SM FEW075 BKN210 BKN250 28/11 A2996 RMK AO2 SLP138 T02830111",
    "icao": "KORD",
    "flightCategory": "VFR",
    "windDir": 190,
    "windSpeed": 10,
    "windGust": 17,
    "visibility": 10,
    "ceiling": 21000,
    "temp": 28.3,
    "dewpoint": 11.1,
    "altimeter": 29.96,
    "conditions": "",
    "observationTime": "2026-06-05T01:00:00.000Z"
  },
  "LHR": {
    "raw": "METAR EGLL 050050Z AUTO 25011KT 9999 NCD 13/10 Q1006",
    "icao": "EGLL",
    "flightCategory": "VFR",
    "windDir": 250,
    "windSpeed": 11,
    "windGust": null,
    "visibility": 6,
    "ceiling": null,
    "temp": 13,
    "dewpoint": 10,
    "altimeter": 29.71,
    "conditions": "",
    "observationTime": "2026-06-05T01:00:00.000Z"
  }
}