{
  "LHR": {
    "raw": "METAR EGLL 172350Z AUTO 31006KT 4900 RADZ BKN007 OVC011 11/10 Q1020 BECMG 9999 NSW OVC025",
    "icao": "EGLL",
    "flightCategory": "IFR",
    "windDir": 310,
    "windSpeed": 6,
    "windGust": null,
    "visibility": 3.04,
    "ceiling": 700,
    "temp": 11,
    "dewpoint": 10,
    "altimeter": 30.12,
    "conditions": "RA DZ",
    "observationTime": "2026-04-18T00:00:00.000Z"
  },
  "SYD": {
    "raw": "METAR YSSY 180000Z AUTO 24007KT 9999 // NCD 17/05 Q1019",
    "icao": "YSSY",
    "flightCategory": "VFR",
    "windDir": 240,
    "windSpeed": 7,
    "windGust": null,
    "visibility": 6,
    "ceiling": null,
    "temp": 17,
    "dewpoint": 5,
    "altimeter": 30.09,
    "conditions": "",
    "observationTime": "2026-04-18T00:00:00.000Z"
  },
  "LAS": {
    "raw": "METAR KLAS 172356Z 03009G20KT 10SM CLR 20/M22 A3005 RMK AO2 SLP167 T02001217 10206 20150 56025",
    "icao": "KLAS",
    "flightCategory": "VFR",
    "windDir": 30,
    "windSpeed": 9,
    "windGust": 20,
    "visibility": 10,
    "ceiling": null,
    "temp": 20,
    "dewpoint": -21.7,
    "altimeter": 30.05,
    "conditions": "",
    "observationTime": "2026-04-18T00:00:00.000Z"
  },
  "LAX": {
    "raw": "METAR KLAX 172353Z 27015KT 10SM FEW060 20/12 A2995 RMK AO2 SLP140 T02000122 10228 20189 58011",
    "icao": "KLAX",
    "flightCategory": "VFR",
    "windDir": 270,
    "windSpeed": 15,
    "windGust": null,
    "visibility": 10,
    "ceiling": null,
    "temp": 20,
    "dewpoint": 12.2,
    "altimeter": 29.95,
    "conditions": "",
    "observationTime": "2026-04-18T00:00:00.000Z"
  },
  "ORD": {
    "raw": "METAR KORD 172351Z 17018G28KT 10SM FEW055 SCT150 OVC250 26/17 A2961 RMK AO2 PK WND 18033/2306 SLP025 T02560167 10272 20250 56033 $",
    "icao": "KORD",
    "flightCategory": "VFR",
    "windDir": 170,
    "windSpeed": 18,
    "windGust": 28,
    "visibility": 10,
    "ceiling": 25000,
    "temp": 25.6,
    "dewpoint": 16.7,
    "altimeter": 29.61,
    "conditions": "",
    "observationTime": "2026-04-18T00:00:00.000Z"
  }
}