{
  "SYD": {
    "raw": "METAR YSSY 011430Z AUTO 29005KT 9999 // BKN054 18/15 Q1026",
    "icao": "YSSY",
    "flightCategory": "VFR",
    "windDir": 290,
    "windSpeed": 5,
    "windGust": null,
    "visibility": 6,
    "ceiling": 5400,
    "temp": 18,
    "dewpoint": 15,
    "altimeter": 30.3,
    "conditions": "",
    "observationTime": "2026-05-01T14:30:00.000Z"
  },
  "LAS": {
    "raw": "METAR KLAS 011456Z 16003KT 10SM SCT140 22/M03 A2998 RMK AO2 SLP132 T02171033 53020",
    "icao": "KLAS",
    "flightCategory": "VFR",
    "windDir": 160,
    "windSpeed": 3,
    "windGust": null,
    "visibility": 10,
    "ceiling": null,
    "temp": 21.7,
    "dewpoint": -3.3,
    "altimeter": 29.98,
    "conditions": "",
    "observationTime": "2026-05-01T15:00:00.000Z"
  },
  "LAX": {
    "raw": "METAR KLAX 011453Z 07005KT 10SM OVC019 17/12 A2997 RMK AO2 SLP146 T01720122 53013",
    "icao": "KLAX",
    "flightCategory": "MVFR",
    "windDir": 70,
    "windSpeed": 5,
    "windGust": null,
    "visibility": 10,
    "ceiling": 1900,
    "temp": 17.2,
    "dewpoint": 12.2,
    "altimeter": 29.97,
    "conditions": "",
    "observationTime": "2026-05-01T15:00:00.000Z"
  },
  "ORD": {
    "raw": "METAR KORD 011451Z 32009KT 10SM SCT026 BKN037 BKN070 08/02 A3001 RMK AO2 SLP166 T00830017 51008 $",
    "icao": "KORD",
    "flightCategory": "VFR",
    "windDir": 320,
    "windSpeed": 9,
    "windGust": null,
    "visibility": 10,
    "ceiling": 3700,
    "temp": 8.3,
    "dewpoint": 1.7,
    "altimeter": 30.01,
    "conditions": "",
    "observationTime": "2026-05-01T15:00:00.000Z"
  },
  "LHR": {
    "raw": "METAR EGLL 011420Z COR AUTO 21013KT 170V240 9999 NCD 24/10 Q1019 NOSIG",
    "icao": "EGLL",
    "flightCategory": "VFR",
    "windDir": 210,
    "windSpeed": 13,
    "windGust": null,
    "visibility": 6,
    "ceiling": null,
    "temp": 24,
    "dewpoint": 10,
    "altimeter": 30.09,
    "conditions": "",
    "observationTime": "2026-05-01T14:20:00.000Z"
  }
}