{
  "SYD": {
    "raw": "METAR YSSY 261500Z AUTO 26001KT 9999 // NCD 16/11 Q1024",
    "icao": "YSSY",
    "flightCategory": "VFR",
    "windDir": 260,
    "windSpeed": 1,
    "windGust": null,
    "visibility": 6,
    "ceiling": null,
    "temp": 16,
    "dewpoint": 11,
    "altimeter": 30.24,
    "conditions": "",
    "observationTime": "2026-04-26T15:00:00.000Z"
  },
  "LHR": {
    "raw": "METAR EGLL 261520Z COR AUTO 06004KT 010V170 9999 NCD 19/04 Q1024 NOSIG",
    "icao": "EGLL",
    "flightCategory": "VFR",
    "windDir": 60,
    "windSpeed": 4,
    "windGust": null,
    "visibility": 6,
    "ceiling": null,
    "temp": 19,
    "dewpoint": 4,
    "altimeter": 30.24,
    "conditions": "",
    "observationTime": "2026-04-26T15:20:00.000Z"
  },
  "LAX": {
    "raw": "METAR KLAX 261453Z 28006KT 10SM FEW013 BKN024 BKN044 14/09 A2992 RMK AO2 SLP132 T01390089 53017 $",
    "icao": "KLAX",
    "flightCategory": "MVFR",
    "windDir": 280,
    "windSpeed": 6,
    "windGust": null,
    "visibility": 10,
    "ceiling": 2400,
    "temp": 13.9,
    "dewpoint": 8.9,
    "altimeter": 29.92,
    "conditions": "",
    "observationTime": "2026-04-26T15:00:00.000Z"
  },
  "LAS": {
    "raw": "METAR KLAS 261456Z 23014G21KT 10SM SCT060 BKN150 14/02 A2971 RMK AO2 PK WND 24026/1429 SLP048 T01390017 53015",
    "icao": "KLAS",
    "flightCategory": "VFR",
    "windDir": 230,
    "windSpeed": 14,
    "windGust": 21,
    "visibility": 10,
    "ceiling": 15000,
    "temp": 13.9,
    "dewpoint": 1.7,
    "altimeter": 29.71,
    "conditions": "",
    "observationTime": "2026-04-26T15:00:00.000Z"
  }
}