{
  "LAS": {
    "raw": "METAR KLAS 221456Z 29005KT 10SM CLR 29/M06 A2990 RMK AO2 SLP093 T02891061 51024",
    "icao": "KLAS",
    "flightCategory": "VFR",
    "windDir": 290,
    "windSpeed": 5,
    "windGust": null,
    "visibility": 10,
    "ceiling": null,
    "temp": 28.9,
    "dewpoint": -6.1,
    "altimeter": 29.9,
    "conditions": "",
    "observationTime": "2026-06-22T15:00:00.000Z"
  },
  "LAX": {
    "raw": "METAR KLAX 221453Z VRB04KT 10SM FEW009 OVC014 18/14 A2994 RMK AO2 SLP137 T01780139 53017 $",
    "icao": "KLAX",
    "flightCategory": "MVFR",
    "windDir": null,
    "windSpeed": 4,
    "windGust": null,
    "visibility": 10,
    "ceiling": 1400,
    "temp": 17.8,
    "dewpoint": 13.9,
    "altimeter": 29.94,
    "conditions": "",
    "observationTime": "2026-06-22T15:00:00.000Z"
  },
  "ORD": {
    "raw": "METAR KORD 221451Z 35011KT 10SM FEW023 BKN250 20/14 A2998 RMK AO2 SLP150 T02000139 51015",
    "icao": "KORD",
    "flightCategory": "VFR",
    "windDir": 350,
    "windSpeed": 11,
    "windGust": null,
    "visibility": 10,
    "ceiling": 25000,
    "temp": 20,
    "dewpoint": 13.9,
    "altimeter": 29.98,
    "conditions": "",
    "observationTime": "2026-06-22T15:00:00.000Z"
  },
  "LHR": {
    "raw": "METAR EGLL 221420Z AUTO 11016KT 9999 NCD 28/17 Q1024",
    "icao": "EGLL",
    "flightCategory": "VFR",
    "windDir": 110,
    "windSpeed": 16,
    "windGust": null,
    "visibility": 6,
    "ceiling": null,
    "temp": 28,
    "dewpoint": 17,
    "altimeter": 30.24,
    "conditions": "",
    "observationTime": "2026-06-22T14:20:00.000Z"
  },
  "SYD": {
    "raw": "METAR YSSY 221430Z AUTO 26011KT 9999 // NCD 12/07 Q1025",
    "icao": "YSSY",
    "flightCategory": "VFR",
    "windDir": 260,
    "windSpeed": 11,
    "windGust": null,
    "visibility": 6,
    "ceiling": null,
    "temp": 12,
    "dewpoint": 7,
    "altimeter": 30.27,
    "conditions": "",
    "observationTime": "2026-06-22T14:30:00.000Z"
  }
}