{
  "SYD": {
    "raw": "METAR YSSY 112100Z 31007KT CAVOK 13/03 Q1010",
    "icao": "YSSY",
    "flightCategory": "VFR",
    "windDir": 310,
    "windSpeed": 7,
    "windGust": null,
    "visibility": 6,
    "ceiling": null,
    "temp": 13,
    "dewpoint": 3,
    "altimeter": 29.83,
    "conditions": "",
    "observationTime": "2026-04-11T21:00:00.000Z"
  },
  "LHR": {
    "raw": "METAR EGLL 112050Z COR AUTO 21013KT 9999 BKN040 09/03 Q1009 NOSIG",
    "icao": "EGLL",
    "flightCategory": "VFR",
    "windDir": 210,
    "windSpeed": 13,
    "windGust": null,
    "visibility": 6,
    "ceiling": 4000,
    "temp": 9,
    "dewpoint": 3,
    "altimeter": 29.8,
    "conditions": "",
    "observationTime": "2026-04-11T21:00:00.000Z"
  },
  "LAS": {
    "raw": "METAR KLAS 112056Z 21019G31KT 10SM FEW150 SCT250 24/M04 A2983 RMK AO2 PK WND 21031/2013 SLP083 T02441044 56028",
    "icao": "KLAS",
    "flightCategory": "VFR",
    "windDir": 210,
    "windSpeed": 19,
    "windGust": 31,
    "visibility": 10,
    "ceiling": null,
    "temp": 24.4,
    "dewpoint": -4.4,
    "altimeter": 29.83,
    "conditions": "",
    "observationTime": "2026-04-11T21:00:00.000Z"
  },
  "LAX": {
    "raw": "METAR KLAX 112053Z 25010KT 10SM FEW023 FEW045 SCT080 20/12 A2999 RMK AO2 SLP155 T02000117 58017 $",
    "icao": "KLAX",
    "flightCategory": "VFR",
    "windDir": 250,
    "windSpeed": 10,
    "windGust": null,
    "visibility": 10,
    "ceiling": null,
    "temp": 20,
    "dewpoint": 11.7,
    "altimeter": 29.99,
    "conditions": "",
    "observationTime": "2026-04-11T21:00:00.000Z"
  },
  "ORD": {
    "raw": "METAR KORD 112051Z 14008KT 10SM FEW110 OVC250 13/03 A3030 RMK AO2 SLP264 T01280028 58026 $",
    "icao": "KORD",
    "flightCategory": "VFR",
    "windDir": 140,
    "windSpeed": 8,
    "windGust": null,
    "visibility": 10,
    "ceiling": 25000,
    "temp": 12.8,
    "dewpoint": 2.8,
    "altimeter": 30.3,
    "conditions": "",
    "observationTime": "2026-04-11T21:00:00.000Z"
  }
}