{
  "SYD": {
    "raw": "METAR YSSY 191730Z AUTO 33005KT 9999 // NCD 14/09 Q1017",
    "icao": "YSSY",
    "flightCategory": "VFR",
    "windDir": 330,
    "windSpeed": 5,
    "windGust": null,
    "visibility": 6,
    "ceiling": null,
    "temp": 14,
    "dewpoint": 9,
    "altimeter": 30.03,
    "conditions": "",
    "observationTime": "2026-06-19T17:30:00.000Z"
  },
  "LAX": {
    "raw": "SPECI KLAX 191713Z 24009KT 10SM FEW009 SCT019 OVC030 18/14 A3002 RMK SLP 164 T01830133",
    "icao": "KLAX",
    "flightCategory": "MVFR",
    "windDir": 240,
    "windSpeed": 9,
    "windGust": null,
    "visibility": 10,
    "ceiling": 3000,
    "temp": 18.3,
    "dewpoint": 13.3,
    "altimeter": 30.02,
    "conditions": "",
    "observationTime": "2026-06-19T17:13:00.000Z"
  },
  "ORD": {
    "raw": "METAR KORD 191751Z 32012KT 10SM FEW055 FEW250 23/09 A2997 RMK AO2 SLP147 T02280089 10228 20161 50003 $",
    "icao": "KORD",
    "flightCategory": "VFR",
    "windDir": 320,
    "windSpeed": 12,
    "windGust": null,
    "visibility": 10,
    "ceiling": null,
    "temp": 22.8,
    "dewpoint": 8.9,
    "altimeter": 29.97,
    "conditions": "",
    "observationTime": "2026-06-19T18:00:00.000Z"
  },
  "LHR": {
    "raw": "METAR EGLL 191720Z AUTO 23013KT 190V270 9999 NCD 27/16 Q1012",
    "icao": "EGLL",
    "flightCategory": "VFR",
    "windDir": 230,
    "windSpeed": 13,
    "windGust": null,
    "visibility": 6,
    "ceiling": null,
    "temp": 27,
    "dewpoint": 16,
    "altimeter": 29.88,
    "conditions": "",
    "observationTime": "2026-06-19T17:20:00.000Z"
  }
}