{
  "LHR": {
    "raw": "METAR EGLL 071450Z COR AUTO 08006KT 060V120 9999 NCD 16/02 Q1015 NOSIG",
    "icao": "EGLL",
    "flightCategory": "VFR",
    "windDir": 80,
    "windSpeed": 6,
    "windGust": null,
    "visibility": 6,
    "ceiling": null,
    "temp": 16,
    "dewpoint": 2,
    "altimeter": 29.97,
    "conditions": "",
    "observationTime": "2026-05-07T15:00:00.000Z"
  },
  "LAX": {
    "raw": "METAR KLAX 071453Z 25005KT 10SM SCT010 17/13 A3003 RMK AO2 SLP166 T01670133 53009",
    "icao": "KLAX",
    "flightCategory": "VFR",
    "windDir": 250,
    "windSpeed": 5,
    "windGust": null,
    "visibility": 10,
    "ceiling": null,
    "temp": 16.7,
    "dewpoint": 13.3,
    "altimeter": 30.03,
    "conditions": "",
    "observationTime": "2026-05-07T15:00:00.000Z"
  },
  "SYD": {
    "raw": "METAR YSSY 071500Z AUTO 26011KT 9999 // NCD 10/01 Q1019",
    "icao": "YSSY",
    "flightCategory": "VFR",
    "windDir": 260,
    "windSpeed": 11,
    "windGust": null,
    "visibility": 6,
    "ceiling": null,
    "temp": 10,
    "dewpoint": 1,
    "altimeter": 30.09,
    "conditions": "",
    "observationTime": "2026-05-07T15:00:00.000Z"
  },
  "LAS": {
    "raw": "METAR KLAS 071456Z 00000KT 10SM CLR 23/M05 A3005 RMK AO2 SLP153 T02331050 51010",
    "icao": "KLAS",
    "flightCategory": "VFR",
    "windDir": 0,
    "windSpeed": 0,
    "windGust": null,
    "visibility": 10,
    "ceiling": null,
    "temp": 23.3,
    "dewpoint": -5,
    "altimeter": 30.05,
    "conditions": "",
    "observationTime": "2026-05-07T15:00:00.000Z"
  },
  "ORD": {
    "raw": "METAR KORD 071451Z 24008KT 10SM FEW090 10/M04 A2997 RMK AO2 SLP150 T01001039 58003 $",
    "icao": "KORD",
    "flightCategory": "VFR",
    "windDir": 240,
    "windSpeed": 8,
    "windGust": null,
    "visibility": 10,
    "ceiling": null,
    "temp": 10,
    "dewpoint": -3.9,
    "altimeter": 29.97,
    "conditions": "",
    "observationTime": "2026-05-07T15:00:00.000Z"
  }
}