{
  "LHR": {
    "raw": "METAR EGLL 170050Z AUTO 27010KT 9999 -RA FEW007/// BKN013/// OVC023/// //////TCU 11/10 Q1008",
    "icao": "EGLL",
    "flightCategory": "MVFR",
    "windDir": 270,
    "windSpeed": 10,
    "windGust": null,
    "visibility": 6,
    "ceiling": 1300,
    "temp": 11,
    "dewpoint": 10,
    "altimeter": 29.77,
    "conditions": "-RA",
    "observationTime": "2026-05-17T01:00:00.000Z"
  },
  "SYD": {
    "raw": "METAR YSSY 170030Z 31007KT 9999 FEW025 BKN210 20/16 Q1022",
    "icao": "YSSY",
    "flightCategory": "VFR",
    "windDir": 310,
    "windSpeed": 7,
    "windGust": null,
    "visibility": 6,
    "ceiling": 21000,
    "temp": 20,
    "dewpoint": 16,
    "altimeter": 30.18,
    "conditions": "",
    "observationTime": "2026-05-17T00:30:00.000Z"
  },
  "LAS": {
    "raw": "METAR KLAS 170056Z 25011KT 10SM FEW120 33/M04 A2956 RMK AO2 SLP982 T03331039",
    "icao": "KLAS",
    "flightCategory": "VFR",
    "windDir": 250,
    "windSpeed": 11,
    "windGust": null,
    "visibility": 10,
    "ceiling": null,
    "temp": 33.3,
    "dewpoint": -3.9,
    "altimeter": 29.56,
    "conditions": "",
    "observationTime": "2026-05-17T01:00:00.000Z"
  },
  "LAX": {
    "raw": "METAR KLAX 170053Z 24006KT 10SM FEW013 FEW035 18/11 A2984 RMK AO2 SLP105 T01830111",
    "icao": "KLAX",
    "flightCategory": "VFR",
    "windDir": 240,
    "windSpeed": 6,
    "windGust": null,
    "visibility": 10,
    "ceiling": null,
    "temp": 18.3,
    "dewpoint": 11.1,
    "altimeter": 29.84,
    "conditions": "",
    "observationTime": "2026-05-17T01:00:00.000Z"
  },
  "ORD": {
    "raw": "METAR KORD 170051Z 20005KT 10SM FEW060 BKN250 26/16 A2982 RMK AO2 SLP095 T02560161",
    "icao": "KORD",
    "flightCategory": "VFR",
    "windDir": 200,
    "windSpeed": 5,
    "windGust": null,
    "visibility": 10,
    "ceiling": 25000,
    "temp": 25.6,
    "dewpoint": 16.1,
    "altimeter": 29.82,
    "conditions": "",
    "observationTime": "2026-05-17T01:00:00.000Z"
  }
}