{
  "SYD": {
    "raw": "METAR YSSY 272000Z 34005KT 9999 R34L/P2000N R34R/P2000N FEW030 SCT045 14/12 Q1026",
    "icao": "YSSY",
    "flightCategory": "VFR",
    "windDir": 340,
    "windSpeed": 5,
    "windGust": null,
    "visibility": 6,
    "ceiling": null,
    "temp": 14,
    "dewpoint": 12,
    "altimeter": 30.3,
    "conditions": "",
    "observationTime": "2026-04-27T20:00:00.000Z"
  },
  "LHR": {
    "raw": "METAR EGLL 272020Z AUTO 04012KT 9999 NCD 15/08 Q1023 TEMPO SHRA",
    "icao": "EGLL",
    "flightCategory": "VFR",
    "windDir": 40,
    "windSpeed": 12,
    "windGust": null,
    "visibility": 6,
    "ceiling": null,
    "temp": 15,
    "dewpoint": 8,
    "altimeter": 30.21,
    "conditions": "",
    "observationTime": "2026-04-27T20:20:00.000Z"
  },
  "LAS": {
    "raw": "METAR KLAS 271956Z 18011G21KT 10SM FEW100 19/M03 A2987 RMK AO2 PK WND 17027/1923 SLP104 T01941033",
    "icao": "KLAS",
    "flightCategory": "VFR",
    "windDir": 180,
    "windSpeed": 11,
    "windGust": 21,
    "visibility": 10,
    "ceiling": null,
    "temp": 19.4,
    "dewpoint": -3.3,
    "altimeter": 29.87,
    "conditions": "",
    "observationTime": "2026-04-27T20:00:00.000Z"
  },
  "LAX": {
    "raw": "METAR KLAX 271953Z COR 27015G25KT 10SM FEW010 FEW045 SCT070 18/09 A3003 RMK AO2 SLP169 TCU DSNT E T01780089",
    "icao": "KLAX",
    "flightCategory": "VFR",
    "windDir": 270,
    "windSpeed": 15,
    "windGust": 25,
    "visibility": 10,
    "ceiling": null,
    "temp": 17.8,
    "dewpoint": 8.9,
    "altimeter": 30.03,
    "conditions": "",
    "observationTime": "2026-04-27T20:00:00.000Z"
  },
  "ORD": {
    "raw": "METAR KORD 271951Z 13015KT 9SM FEW008 OVC220 17/14 A2956 RMK AO2 PK WND 15046/1852 SLP010 T01670144 $",
    "icao": "KORD",
    "flightCategory": "VFR",
    "windDir": 130,
    "windSpeed": 15,
    "windGust": null,
    "visibility": 9,
    "ceiling": 22000,
    "temp": 16.7,
    "dewpoint": 14.4,
    "altimeter": 29.56,
    "conditions": "",
    "observationTime": "2026-04-27T20:00:00.000Z"
  }
}