{
  "ORD": {
    "raw": "SPECI KORD 242341Z 11010KT 10SM TS SCT055CB BKN075 BKN150 OVC250 20/16 A2990 RMK AO2 TSE36B41 CONS LTGICCG W-N TS W-N MOV SE T02000161 $",
    "icao": "KORD",
    "flightCategory": "VFR",
    "windDir": 110,
    "windSpeed": 10,
    "windGust": null,
    "visibility": 10,
    "ceiling": 7500,
    "temp": 20,
    "dewpoint": 16.1,
    "altimeter": 29.9,
    "conditions": "TS",
    "observationTime": "2026-06-24T23:41:00.000Z"
  },
  "LAS": {
    "raw": "METAR KLAS 242256Z 07014G23KT 10SM FEW085 FEW120 SCT200 36/12 A2991 RMK AO2 SLP096 T03560117",
    "icao": "KLAS",
    "flightCategory": "VFR",
    "windDir": 70,
    "windSpeed": 14,
    "windGust": 23,
    "visibility": 10,
    "ceiling": null,
    "temp": 35.6,
    "dewpoint": 11.7,
    "altimeter": 29.91,
    "conditions": "",
    "observationTime": "2026-06-24T23:00:00.000Z"
  },
  "SYD": {
    "raw": "METAR YSSY 242300Z 04005KT 010V090 9000 4000N -SHRA VCSH SCT006 BKN018 BKN030 14/13 Q1034",
    "icao": "YSSY",
    "flightCategory": "MVFR",
    "windDir": 40,
    "windSpeed": 5,
    "windGust": null,
    "visibility": 5.59,
    "ceiling": 1800,
    "temp": 14,
    "dewpoint": 13,
    "altimeter": 30.53,
    "conditions": "VCSH -SHRA",
    "observationTime": "2026-06-24T23:00:00.000Z"
  },
  "LHR": {
    "raw": "METAR EGLL 242320Z AUTO 07006KT 9999 NCD 24/19 Q1019",
    "icao": "EGLL",
    "flightCategory": "VFR",
    "windDir": 70,
    "windSpeed": 6,
    "windGust": null,
    "visibility": 6,
    "ceiling": null,
    "temp": 24,
    "dewpoint": 19,
    "altimeter": 30.09,
    "conditions": "",
    "observationTime": "2026-06-24T23:20:00.000Z"
  }
}