{
  "LAX": {
    "raw": "METAR KLAX 181353Z 11005KT 10SM SCT014 SCT050 BKN130 21/18 A3001 RMK AO2 SLP158 T02110178 $",
    "icao": "KLAX",
    "flightCategory": "VFR",
    "windDir": 110,
    "windSpeed": 5,
    "windGust": null,
    "visibility": 10,
    "ceiling": 13000,
    "temp": 21.1,
    "dewpoint": 17.8,
    "altimeter": 30.01,
    "conditions": "",
    "observationTime": "2026-07-18T14:00:00.000Z"
  },
  "ORD": {
    "raw": "METAR KORD 181351Z 27011G17KT 10SM FEW080 SCT110 BKN200 BKN250 28/22 A2986 RMK AO2 SLP104 T02780222 $",
    "icao": "KORD",
    "flightCategory": "VFR",
    "windDir": 270,
    "windSpeed": 11,
    "windGust": 17,
    "visibility": 10,
    "ceiling": 20000,
    "temp": 27.8,
    "dewpoint": 22.2,
    "altimeter": 29.86,
    "conditions": "",
    "observationTime": "2026-07-18T14:00:00.000Z"
  },
  "LHR": {
    "raw": "METAR EGLL 181320Z AUTO 36010KT 320V030 9999 NCD 22/09 Q1020",
    "icao": "EGLL",
    "flightCategory": "VFR",
    "windDir": 360,
    "windSpeed": 10,
    "windGust": null,
    "visibility": 6,
    "ceiling": null,
    "temp": 22,
    "dewpoint": 9,
    "altimeter": 30.12,
    "conditions": "",
    "observationTime": "2026-07-18T13:20:00.000Z"
  },
  "SYD": {
    "raw": "METAR YSSY 181300Z AUTO 16008KT 9999 // BKN042 OVC049 16/10 Q1032",
    "icao": "YSSY",
    "flightCategory": "VFR",
    "windDir": 160,
    "windSpeed": 8,
    "windGust": null,
    "visibility": 6,
    "ceiling": 4200,
    "temp": 16,
    "dewpoint": 10,
    "altimeter": 30.47,
    "conditions": "",
    "observationTime": "2026-07-18T13:00:00.000Z"
  }
}