{
  "ORD": {
    "raw": "SPECI KORD 260932Z 06005KT 10SM FEW008 06/04 A3003 RMK AO2 T00610044",
    "icao": "KORD",
    "flightCategory": "VFR",
    "windDir": 60,
    "windSpeed": 5,
    "windGust": null,
    "visibility": 10,
    "ceiling": null,
    "temp": 6.1,
    "dewpoint": 4.4,
    "altimeter": 30.03,
    "conditions": "",
    "observationTime": "2026-04-26T09:32:00.000Z"
  },
  "SYD": {
    "raw": "METAR YSSY 260930Z AUTO 02008KT 9999 // NCD 21/12 Q1022",
    "icao": "YSSY",
    "flightCategory": "VFR",
    "windDir": 20,
    "windSpeed": 8,
    "windGust": null,
    "visibility": 6,
    "ceiling": null,
    "temp": 21,
    "dewpoint": 12,
    "altimeter": 30.18,
    "conditions": "",
    "observationTime": "2026-04-26T09:30:00.000Z"
  },
  "LAS": {
    "raw": "METAR KLAS 260956Z 21020G31KT 10SM SCT060 SCT150 BKN200 13/03 A2967 RMK AO2 PK WND 20031/0954 SLP034 T01280028",
    "icao": "KLAS",
    "flightCategory": "VFR",
    "windDir": 210,
    "windSpeed": 20,
    "windGust": 31,
    "visibility": 10,
    "ceiling": 20000,
    "temp": 12.8,
    "dewpoint": 2.8,
    "altimeter": 29.67,
    "conditions": "",
    "observationTime": "2026-04-26T10:00:00.000Z"
  },
  "LAX": {
    "raw": "METAR KLAX 260953Z 27011KT 10SM FEW012 SCT025 OVC049 14/09 A2987 RMK AO2 SLP114 T01390094 $",
    "icao": "KLAX",
    "flightCategory": "VFR",
    "windDir": 270,
    "windSpeed": 11,
    "windGust": null,
    "visibility": 10,
    "ceiling": 4900,
    "temp": 13.9,
    "dewpoint": 9.4,
    "altimeter": 29.87,
    "conditions": "",
    "observationTime": "2026-04-26T10:00:00.000Z"
  },
  "LHR": {
    "raw": "METAR EGLL 260920Z COR AUTO 09007KT 060V120 9999 NCD 14/06 Q1025 NOSIG",
    "icao": "EGLL",
    "flightCategory": "VFR",
    "windDir": 90,
    "windSpeed": 7,
    "windGust": null,
    "visibility": 6,
    "ceiling": null,
    "temp": 14,
    "dewpoint": 6,
    "altimeter": 30.27,
    "conditions": "",
    "observationTime": "2026-04-26T09:20:00.000Z"
  }
}