{
  "LAS": {
    "raw": "METAR KLAS 170956Z 16008KT 10SM CLR 23/M04 A2964 RMK AO2 SLP012 T02281039",
    "icao": "KLAS",
    "flightCategory": "VFR",
    "windDir": 160,
    "windSpeed": 8,
    "windGust": null,
    "visibility": 10,
    "ceiling": null,
    "temp": 22.8,
    "dewpoint": -3.9,
    "altimeter": 29.64,
    "conditions": "",
    "observationTime": "2026-05-17T10:00:00.000Z"
  },
  "LAX": {
    "raw": "METAR KLAX 170953Z 08005KT 9SM CLR 16/12 A2982 RMK AO2 SLP095 T01560122",
    "icao": "KLAX",
    "flightCategory": "VFR",
    "windDir": 80,
    "windSpeed": 5,
    "windGust": null,
    "visibility": 9,
    "ceiling": null,
    "temp": 15.6,
    "dewpoint": 12.2,
    "altimeter": 29.82,
    "conditions": "",
    "observationTime": "2026-05-17T10:00:00.000Z"
  },
  "ORD": {
    "raw": "METAR KORD 170951Z 19006KT 10SM BKN200 19/17 A2988 RMK AO2 SLP115 T01940167",
    "icao": "KORD",
    "flightCategory": "VFR",
    "windDir": 190,
    "windSpeed": 6,
    "windGust": null,
    "visibility": 10,
    "ceiling": 20000,
    "temp": 19.4,
    "dewpoint": 16.7,
    "altimeter": 29.88,
    "conditions": "",
    "observationTime": "2026-05-17T10:00:00.000Z"
  },
  "LHR": {
    "raw": "METAR EGLL 170920Z AUTO 27009KT 220V300 9999 FEW026 14/07 Q1010",
    "icao": "EGLL",
    "flightCategory": "VFR",
    "windDir": 270,
    "windSpeed": 9,
    "windGust": null,
    "visibility": 6,
    "ceiling": null,
    "temp": 14,
    "dewpoint": 7,
    "altimeter": 29.83,
    "conditions": "",
    "observationTime": "2026-05-17T09:20:00.000Z"
  },
  "SYD": {
    "raw": "METAR YSSY 170930Z AUTO 23005KT 9999 // BKN017 19/16 Q1020",
    "icao": "YSSY",
    "flightCategory": "MVFR",
    "windDir": 230,
    "windSpeed": 5,
    "windGust": null,
    "visibility": 6,
    "ceiling": 1700,
    "temp": 19,
    "dewpoint": 16,
    "altimeter": 30.12,
    "conditions": "",
    "observationTime": "2026-05-17T09:30:00.000Z"
  }
}